"taf	RKSI	2017-12-31 00:00:00	TAF RKSI 312300Z 0100/0206 04007KT CAVOK TX02/0105Z TNM04/0121Z TX01/0205Z \n BECMG 0102/0103 34010KT \n BECMG 0115/0116 04007KT \n BECMG 0200/0201 34010KT"
"taf	RKSI	2017-12-31 06:00:00	TAF RKSI 310500Z 3106/0112 32015G25KT CAVOK TNM05/3122Z TX03/0104Z \n BECMG 3112/3113 33010KT \n BECMG 3117/3118 04006KT 6000 SCT030 \n BECMG 0103/0104 32012KT CAVOK \n BECMG 0110/0111 02005KT"
"taf	RKSI	2017-12-31 12:00:00	TAF RKSI 311100Z 3112/0118 33010KT CAVOK TNM05/3122Z TX03/0104Z \n BECMG 3118/3119 04006KT 6000 SCT030 \n BECMG 0103/0104 24008KT CAVOK \n BECMG 0111/0112 31007KT"
"taf	RKSI	2017-12-31 18:00:00	TAF RKSI 311700Z 3118/0124 04005KT CAVOK TNM04/3121Z TX02/0105Z TNM04/0121Z \n BECMG 3122/3123 34010KT \n BECMG 0105/0106 28006KT \n BECMG 0118/0119 35010KT"
"taf	RKSI	2018-01-01 06:00:00	TAF RKSI 010500Z 0106/0212 27007KT 9999 SCT030 BKN180 TNM04/0121Z TX01/0205Z \n BECMG 0112/0113 33010KT CAVOK \n BECMG 0114/0115 03007KT \n BECMG 0202/0203 32010KT 9999 FEW030"
"taf	RKSI	2018-01-01 12:00:00	TAF RKSI 011100Z 0112/0218 07006KT CAVOK TNM04/0121Z TX01/0205Z \n TEMPO 0121/0202 34006KT \n BECMG 0203/0204 33010KT"
"taf	RKSI	2018-01-01 18:00:00	TAF RKSI 011700Z 0118/0224 07006KT CAVOK TNM05/0121Z TX01/0205Z TNM07/0221Z \n TEMPO 0121/0201 34006KT \n BECMG 0202/0203 33010KT \n BECMG 0204/0205 33015G25KT \n BECMG 0209/0210 34010KT"
"taf	RKSI	2018-01-02 00:00:00	TAF RKSI 022300Z 0300/0406 33010KT 9999 FEW030 BKN180 TXM01/0305Z TNM07/0321Z TXM01/0405Z \n BECMG 0303/0304 33015G25KT \n BECMG 0308/0309 33008KT"
"taf	RKSI	2018-01-02 06:00:00	TAF RKSI 020500Z 0206/0312 33010KT 9999 FEW030 BKN180 TNM07/0221Z TX00/0305Z"
"taf	RKSI	2018-01-02 12:00:00	TAF RKSI 021100Z 0212/0318 33010KT 9999 FEW030 BKN180 TNM07/0221Z TXM01/0305Z"
"taf	RKSI	2018-01-02 18:00:00	TAF RKSI 021700Z 0218/0324 33010KT 9999 FEW030 BKN180 TNM07/0221Z TXM01/0305Z TNM07/0321Z \n TEMPO 0304/0307 33015G25KT"
"taf	RKSI	2018-01-03 00:00:00	TAF RKSI 032300Z 0400/0506 35008KT CAVOK TXM01/0406Z TNM05/0422Z TX01/0505Z \n BECMG 0410/0411 07006KT 9999 FEW030 BKN120 \n BECMG 0412/0413 33006KT \n BECMG 0503/0504 32015G25KT CAVOK"
"taf	RKSI	2018-01-03 06:00:00	TAF RKSI 030500Z 0306/0412 33010KT 9999 FEW030 SCT180 TNM07/0305Z TXM01/0405Z \n BECMG 0323/0324 07006KT \n TEMPO 0401/0410 32006KT"
"taf	RKSI	2018-01-03 12:00:00	TAF RKSI 031100Z 0312/0418 33008KT CAVOK TNM07/0322Z TXM01/0406Z \n BECMG 0323/0324 07006KT 9999 FEW030 BKN180 \n TEMPO 0401/0410 32006KT"
"taf	RKSI	2018-01-03 18:00:00	TAF RKSI 031700Z 0318/0424 34007KT CAVOK TNM07/0322Z TXM01/0406Z TNM05/0422Z \n BECMG 0406/0407 07006KT 9999 FEW030 BKN120 \n BECMG 0412/0413 33005KT"
"taf	RKSI	2018-01-04 00:00:00	TAF RKSI 042300Z 0500/0606 27006KT 9999 FEW030 BKN150 TX00/0505Z TNM04/0522Z TX02/0605Z \n BECMG 0503/0504 33010KT CAVOK"
"taf	RKSI	2018-01-04 06:00:00	TAF RKSI 040500Z 0406/0512 34006KT 9999 FEW030 BKN150 TNM06/0422Z TX01/0505Z \n BECMG 0420/0421 07006KT \n BECMG 0423/0424 33010KT CAVOK"
"taf	RKSI	2018-01-04 12:00:00	TAF RKSI 041100Z 0412/0518 34006KT 9999 FEW030 BKN150 TNM05/0422Z TX01/0505Z \n BECMG 0420/0421 07006KT \n BECMG 0423/0424 33010KT CAVOK"
"taf	RKSI	2018-01-04 12:12:00	TAF RKSI 041100Z 0412/0518 34006KT 9999 FEW030 BKN150 TNM05/0422Z TX01/0505Z \n BECMG 0420/0421 07006KT \n BECMG 0423/0424 33010KT CAVOK"
"taf	RKSI	2018-01-04 18:00:00	TAF RKSI 041700Z 0418/0524 07005KT 9999 FEW030 BKN150 TNM05/0422Z TX00/0505Z TNM04/0522Z \n TEMPO 0421/0503 33006KT \n BECMG 0503/0504 32010KT CAVOK"
"taf	RKSI	2018-01-05 00:00:00	TAF RKSI 052300Z 0600/0706 33008KT CAVOK TX02/0605Z TNM06/0620Z TX02/0705Z \n BECMG 0608/0609 07006KT \n TEMPO 0609/0615 33006KT \n BECMG 0705/0706 30006KT 9999 FEW030 BKN140"
"taf	RKSI	2018-01-05 06:00:00	TAF RKSI 050500Z 0506/0612 32010KT CAVOK TNM05/0521Z TX02/0605Z \n BECMG 0609/0610 07006KT \n BECMG 0611/0612 33006KT"
"taf	RKSI	2018-01-05 12:00:00	TAF RKSI 051100Z 0512/0618 02006KT CAVOK TNM05/0521Z TX02/0605Z \n BECMG 0516/0517 32010KT \n BECMG 0601/0602 32015G25KT \n BECMG 0605/0606 31010KT \n BECMG 0610/0611 01006KT"
"taf	RKSI	2018-01-05 18:00:00	TAF RKSI 051700Z 0518/0624 34008KT CAVOK TNM06/0521Z TX02/0605Z TNM05/0620Z \n BECMG 0608/0609 07006KT \n TEMPO 0609/0615 33006KT"
"taf	RKSI	2018-01-06 00:00:00	TAF RKSI 062300Z 0700/0806 04006KT 7000 FEW010 SCT030 BKN110 TX02/0705Z TNM02/0721Z TX03/0804Z \n BECMG 0720/0721 4200 BR \n BECMG 0723/0724 6000 NSW \n BECMG 0805/0806 28010KT SCT010 BKN025 OVC070"
"taf	RKSI	2018-01-06 06:00:00	TAF RKSI 060500Z 0606/0712 32006KT CAVOK TNM05/0621Z TX02/0705Z \n BECMG 0616/0617 02010KT \n BECMG 0618/0619 08010KT \n BECMG 0621/0622 15006KT \n BECMG 0704/0705 32010KT \n BECMG 0706/0707 02007KT 9999 SCT030 BKN150"
"taf	RKSI	2018-01-06 12:00:00	TAF RKSI 061100Z 0612/0718 35006KT CAVOK TNM05/0621Z TX02/0705Z \n BECMG 0621/0622 15007KT \n BECMG 0704/0705 32010KT \n BECMG 0706/0707 02007KT 9999 SCT030 BKN150 \n BECMG 0709/0710 08006KT \n BECMG 0715/0716 01006KT FEW010 BKN030 BKN110"
"taf	RKSI	2018-01-06 18:00:00	TAF RKSI 061700Z 0618/0724 05006KT 7000 NSC TNM05/0621Z TX02/0705Z TNM02/0722Z \n BECMG 0703/0704 15006KT FEW010 SCT030 BKN110 \n BECMG 0706/0707 04006KT \n BECMG 0720/0721 4200 BR \n BECMG 0723/0724 6000 NSW"
"taf	RKSI	2018-01-07 00:00:00	TAF RKSI 072300Z 0800/0906 05006KT 9999 SCT030 OVC100 TX02/0805Z TNM05/0821Z TXM02/0905Z \n BECMG 0807/0808 23010KT 3500 -SNRA SCT010 BKN025 OVC080 \n BECMG 0810/0811 29015G25KT 2000 -SN \n TEMPO 0812/0814 30020G35KT 0900 SN \n BECMG 0815/0816 3500 BR SCT030 OVC100 \n TEMPO 0817/0819 -SN SCT010 BKN025 OVC100"
"taf	RKSI	2018-01-07 06:00:00	TAF RKSI 070500Z 0706/0812 03006KT 6000 FEW030 OVC100 TNM02/0721Z TX03/0805Z \n BECMG 0713/0714 SCT030 BKN120 \n BECMG 0805/0806 24006KT SCT010 BKN025 OVC070 \n BECMG 0808/0809 3500 -SN \n TEMPO 0811/0812 27012KT 1800 SN"
"taf	RKSI	2018-01-07 12:00:00	TAF RKSI 071100Z 0712/0818 03006KT 6000 FEW030 OVC100 TNM02/0721Z TX03/0805Z \n BECMG 0805/0806 24006KT SCT010 BKN025 OVC080 \n BECMG 0808/0809 3500 -SN \n TEMPO 0811/0813 27012KT 1800 SN \n BECMG 0813/0814 31017G27KT \n BECMG 0815/0816 6000 NSW"
"taf	RKSI	2018-01-07 18:00:00	TAF RKSI 071700Z 0718/0824 05006KT 9999 SCT030 OVC100 TNM02/0721Z TX02/0805Z TNM05/0821Z \n BECMG 0804/0805 17008KT SCT010 BKN025 OVC080 \n BECMG 0807/0808 23010KT 3500 -SNRA \n TEMPO 0810/0812 27015G25KT 1800 SN \n BECMG 0813/0814 31020G30KT 2500 -SN \n BECMG 0815/0816 4200 BR SCT030 OVC100"
"taf	RKSI	2018-01-08 00:00:00	TAF RKSI 082300Z 0900/1006 33016G26KT 7000 BKN030 TXM02/0905Z TNM07/0921Z TXM05/1005Z \n BECMG 0909/0910 29015G25KT 3500 -SN SCT010 BKN025 BKN110 \n TEMPO 0911/0914 1100 SN \n BECMG 0915/0916 35011KT 6000 NSW SCT030 \n BECMG 0922/0923 33015G25KT"
"taf	RKSI	2018-01-08 06:00:00	TAF RKSI 080500Z 0806/0912 30007KT 3500 -RASN SCT010 BKN025 OVC080 TNM05/0821Z TXM02/0905Z \n BECMG 0810/0811 30015G25KT 2000 -SN \n TEMPO 0812/0815 33020G35KT 0900 SN \n BECMG 0816/0817 6000 NSW SCT030 BKN100 \n TEMPO 0818/0820 3500 -SN SCT010 BKN025 OVC080 \n BECMG 0911/0912 34007KT 3500 -SN"
"taf	RKSI	2018-01-08 12:00:00	TAF RKSI 081100Z 0812/0918 30025G35KT 3500 -SN SCT010 BKN025 OVC080 TNM05/0821Z TXM02/0905Z \n TEMPO 0813/0815 0900 SN \n BECMG 0816/0817 33015G25KT 6000 NSW SCT025 BKN120 \n TEMPO 0818/0820 3500 -SN SCT010 BKN025 OVC080 \n BECMG 0911/0912 34007KT 3500 -SN SCT010 BKN020 OVC080"
"taf	RKSI	2018-01-08 14:00:00	TAF \n AMD RKSI 081400Z 0814/0918 30025G35KT 0900 -SN SCT010 BKN025 OVC080 TNM05/0821Z TXM02/0905Z \n TEMPO 0814/0815 0400 SN \n BECMG 0816/0817 33015G25KT 6000 NSW SCT025 BKN120 \n TEMPO 0818/0820 3500 -SN SCT010 BKN025 OVC080 \n BECMG 0911/0912 34007KT 3500 -SN SCT010 BKN020 OVC080"
"taf	RKSI	2018-01-08 14:03:00	TAF \n AMD TAF \n AMD RKSI 081400Z 0814/0918 30025G35KT 0900 -SN SCT010 BKN025 OVC080 TNM05/0821Z TXM02/0905Z \n TEMPO 0814/0815 0400 SN \n BECMG 0816/0817 33015G25KT 6000 NSW SCT025 BKN120 \n TEMPO 0818/0820 3500 -SN SCT010 BKN025 OVC080 \n BECMG 0911/0912 34007KT 3500 -SN SCT010 BKN020 OVC080"
"taf	RKSI	2018-01-08 18:00:00	TAF RKSI 081700Z 0818/0924 33017G27KT 6000 FEW010 BKN025 BKN100 TNM04/0821Z TXM02/0905Z TNM07/0921Z \n TEMPO 0818/0820 32020G37KT 2800 -SN \n BECMG 0907/0908 32012KT \n BECMG 0909/0910 35010KT 3500 -SN \n BECMG 0915/0916 BR SCT030 BKN110 \n BECMG 0922/0923 33015G25KT 6000 NSW"
"taf	RKSI	2018-01-09 00:00:00	TAF RKSI 092300Z 1000/1106 33015G25KT 9999 SCT030 TXM05/1005Z TNM13/1021Z TXM08/1105Z \n TEMPO 1003/1008 33017G35KT BKN030 \n BECMG 1012/1013 34010KT CAVOK \n BECMG 1102/1103 33015G25KT"
"taf	RKSI	2018-01-09 06:00:00	TAF RKSI 090500Z 0906/1012 31015G25KT 9999 SCT030 TNM07/0921Z TXM05/1005Z \n BECMG 0909/0910 29010KT 3500 -SN SCT010 BKN025 OVC100 \n TEMPO 0911/0914 1200 \n BECMG 0915/0916 35010KT 6000 NSW SCT030 \n BECMG 0922/0923 33015G25KT \n TEMPO 1003/1009 33017G35KT"
"taf	RKSI	2018-01-09 06:45:00	TAF \n AMD RKSI 090545Z 0906/1012 31015G25KT 9999 SCT030 TNM07/0921Z TXM05/1005Z \n TEMPO 0906/0907 30010KT -SN FEW010 BKN030 \n BECMG 0909/0910 29010KT 3500 -SN SCT010 BKN025 OVC100 \n BECMG 0915/0916 35010KT 6000 NSW SCT030 \n BECMG 0922/0923 33015G25KT \n TEMPO 1003/1009 33017G35KT"
"taf	RKSI	2018-01-09 06:48:00	TAF \n AMD TAF \n AMD RKSI 090545Z 0906/1012 31015G25KT 9999 SCT030 TNM07/0921Z TXM05/1005Z \n TEMPO 0906/0907 30010KT -SN FEW010 BKN030 \n BECMG 0909/0910 29010KT 3500 -SN SCT010 BKN025 OVC100 \n BECMG 0915/0916 35010KT 6000 NSW SCT030 \n BECMG 0922/0923 33015G25KT \n TEMPO 1003/1009 33017G35KT"
"taf	RKSI	2018-01-09 12:00:00	TAF RKSI 091100Z 0912/1018 05006KT 4200 -SN SCT010 BKN025 OVC100 TNM07/0921Z TXM05/1005Z \n TEMPO 0913/0914 2200 \n BECMG 0915/0916 35010KT 6000 NSW SCT030 \n BECMG 0922/0923 33015G25KT 9999 \n TEMPO 1003/1009 33017G35KT \n BECMG 1012/1013 34012KT CAVOK"
"taf	RKSI	2018-01-09 18:00:00	TAF RKSI 091700Z 0918/1024 35010KT 6000 SCT030 TNM07/0921Z TXM05/1005Z TNM13/1021Z \n BECMG 0923/0924 33015G25KT 9999 \n TEMPO 1003/1007 33017G35KT BKN030 \n BECMG 1012/1013 34010KT CAVOK"
"taf	RKSI	2018-01-10 00:00:00	TAF RKSI 102300Z 1100/1206 33012KT CAVOK TXM08/1105Z TNM15/1121Z TXM07/1205Z \n BECMG 1102/1103 33015G25KT \n BECMG 1111/1112 33008KT"
"taf	RKSI	2018-01-10 06:00:00	TAF RKSI 100500Z 1006/1112 33015G25KT 9999 SCT030 TNM12/1021Z TXM08/1105Z \n TEMPO 1006/1009 33017G35KT \n BECMG 1012/1013 34010KT CAVOK \n BECMG 1102/1103 33015G25KT"
"taf	RKSI	2018-01-10 12:00:00	TAF RKSI 101100Z 1012/1118 33015G25KT CAVOK TNM12/1021Z TXM08/1105Z \n BECMG 1014/1015 34011KT \n BECMG 1101/1102 33015G25KT 9999 SCT030 \n BECMG 1112/1113 33010KT CAVOK"
"taf	RKSI	2018-01-11 00:00:00	TAF RKSI 112300Z 1200/1306 33007KT 9999 SCT030 TXM06/1206Z TNM06/1220Z TX02/1305Z \n BECMG 1211/1212 12006KT FEW010 BKN025 OVC100 \n TEMPO 1213/1217 08006KT 2200 -SN \n BECMG 1221/1222 05006KT 6000 SCT030 \n BECMG 1305/1306 33010KT"
"taf	RKSI	2018-01-11 06:00:00	TAF RKSI 110500Z 1106/1212 33008KT 9999 FEW012 SCT025 TNM14/1122Z TXM06/1206Z \n TEMPO 1106/1114 33015G25KT \n BECMG 1207/1208 07006KT \n TEMPO 1208/1210 27006KT"
"taf	RKSI	2018-01-11 12:00:00	TAF RKSI 111100Z 1112/1218 33008KT 9999 SCT025 TNM14/1122Z TXM06/1206Z \n TEMPO 1112/1116 33015G25KT \n BECMG 1207/1208 07006KT \n BECMG 1212/1213 FEW010 BKN020 OVC100 \n BECMG 1217/1218 12006KT 4200 BR"
"taf	RKSI	2018-01-11 18:00:00	TAF RKSI 111700Z 1118/1224 34008KT 9999 SCT030 TNM14/1122Z TXM06/1206Z TNM06/1221Z \n BECMG 1207/1208 12006KT \n BECMG 1212/1213 FEW010 BKN025 OVC100 \n BECMG 1215/1216 08006KT 4200 BR \n BECMG 1221/1222 05006KT 6000 NSW SCT030"
"taf	RKSI	2018-01-12 00:00:00	TAF RKSI 122300Z 1300/1406 11006KT 6000 SCT030 TX01/1305Z TNM03/1321Z TX04/1405Z \n TEMPO 1300/1301 4200 -SN FEW010 BKN025 \n BECMG 1305/1306 36006KT CAVOK \n BECMG 1315/1316 12006KT 6000 FEW030 \n TEMPO 1319/1321 4200 BR \n BECMG 1400/1401 17015G25KT BKN030"
"taf	RKSI	2018-01-12 06:00:00	TAF RKSI 120500Z 1206/1312 29006KT 9999 SCT030 TNM06/1220Z TX02/1305Z \n BECMG 1211/1212 08006KT FEW010 BKN025 OVC100 \n TEMPO 1214/1218 2500 -SN \n BECMG 1222/1223 14010KT 6000 SCT030 \n BECMG 1300/1301 07006KT"
"taf	RKSI	2018-01-12 12:00:00	TAF RKSI 121100Z 1212/1318 12006KT 9999 FEW010 BKN025 OVC100 TNM07/1220Z TX02/1305Z \n TEMPO 1216/1220 2500 -SN \n BECMG 1221/1222 07006KT 4200 BR \n BECMG 1223/1224 6000 NSW SCT030 \n BECMG 1303/1304 29006KT \n BECMG 1314/1315 12006KT 4200 BR"
"taf	RKSI	2018-01-12 14:10:00	TAF \n AMD RKSI 121410Z 1214/1318 12006KT 9999 FEW010 BKN025 OVC100 TNM07/1220Z TX02/1305Z \n TEMPO 1214/1219 2500 -SN \n BECMG 1221/1222 07006KT 4200 BR \n BECMG 1223/1224 6000 NSW SCT030 \n BECMG 1303/1304 29006KT \n BECMG 1314/1315 12006KT 4200 BR"
"taf	RKSI	2018-01-12 14:12:00	TAF \n AMD TAF \n AMD RKSI 121410Z 1214/1318 12006KT 9999 FEW010 BKN025 OVC100 TNM07/1220Z TX02/1305Z \n TEMPO 1214/1219 2500 -SN \n BECMG 1221/1222 07006KT 4200 BR \n BECMG 1223/1224 6000 NSW SCT030 \n BECMG 1303/1304 29006KT \n BECMG 1314/1315 12006KT 4200 BR"
"taf	RKSI	2018-01-12 18:00:00	TAF RKSI 121700Z 1218/1324 12006KT 6000 -SN FEW010 BKN025 TNM07/1220Z TX02/1305Z TNM03/1321Z \n BECMG 1221/1222 09006KT 9999 NSW \n BECMG 1223/1224 SCT030 \n BECMG 1315/1316 12006KT 4200 BR"
"taf	RKSI	2018-01-12 22:25:00	TAF \n AMD RKSI 122225Z 1222/1324 12006KT 6000 -SN FEW010 BKN025 TNM07/1220Z TX02/1305Z TNM03/1321Z \n BECMG 1223/1224 09006KT 9999 NSW SCT030 \n BECMG 1315/1316 12006KT 4200 BR"
"taf	RKSI	2018-01-12 22:30:00	TAF \n AMD TAF \n AMD RKSI 122225Z 1222/1324 12006KT 6000 -SN FEW010 BKN025 TNM07/1220Z TX02/1305Z TNM03/1321Z \n BECMG 1223/1224 09006KT 9999 NSW SCT030 \n BECMG 1315/1316 12006KT 4200 BR"
"taf	RKSI	2018-01-13 00:00:00	TAF RKSI 132300Z 1400/1506 17011KT 6000 FEW010 SCT030 TX04/1405Z TN01/1422Z TX05/1505Z \n TEMPO 1400/1403 3200 BR \n BECMG 1414/1415 3200 BR FEW010 BKN030 OVC080 \n TEMPO 1417/1419 20009KT 2500 -RA \n TEMPO 1420/1424 27007KT 2200 FEW010 SCT030 \n BECMG 1501/1502 31008KT 6000 NSW NSC"
"taf	RKSI	2018-01-13 01:31:00	TAF \n AMD RKSI 130031Z 1301/1406 13006KT 2500 BR FEW010 BKN025 TX01/1305Z TNM03/1321Z TX04/1405Z \n TEMPO 1301/1303 1200 -SN \n BECMG 1305/1306 36006KT 4200 SCT030 \n BECMG 1315/1316 12006KT 6000 NSW \n TEMPO 1319/1321 4200 BR \n BECMG 1400/1401 17015G25KT BKN030"
"taf	RKSI	2018-01-13 01:33:00	TAF \n AMD TAF \n AMD RKSI 130031Z 1301/1406 13006KT 2500 BR FEW010 BKN025 TX01/1305Z TNM03/1321Z TX04/1405Z \n TEMPO 1301/1303 1200 -SN \n BECMG 1305/1306 36006KT 4200 SCT030 \n BECMG 1315/1316 12006KT 6000 NSW \n TEMPO 1319/1321 4200 BR \n BECMG 1400/1401 17015G25KT BKN030"
"taf	RKSI	2018-01-13 06:00:00	TAF RKSI 130500Z 1306/1412 11005KT 3500 BR SCT030 TNM03/1321Z TX05/1405Z \n BECMG 1308/1309 6000 NSW \n BECMG 1318/1319 4200 BR \n BECMG 1323/1324 17010KT 6000 NSW \n BECMG 1402/1403 20015G25KT"
"taf	RKSI	2018-01-13 12:00:00	TAF RKSI 131100Z 1312/1418 05005KT 2500 BR FEW010 SCT030 TNM04/1321Z TX05/1405Z \n BECMG 1313/1314 11005KT \n TEMPO 1315/1321 1400 \n BECMG 1322/1323 17010KT 4200 \n BECMG 1402/1403 20015G25KT 7000 NSW BKN030 \n BECMG 1414/1415 26015G25KT"
"taf	RKSI	2018-01-13 18:00:00	TAF RKSI 131700Z 1318/1424 14006KT 3500 BR NSC TNM04/1321Z TX04/1405Z TN00/1423Z \n TEMPO 1318/1323 2300 SCT030 \n BECMG 1400/1401 17011KT 6000 NSW FEW010 SCT030 \n BECMG 1414/1415 4200 BR FEW010 BKN030 \n TEMPO 1416/1419 21009KT 2500 \n TEMPO 1420/1424 28007KT 2800 FEW010 SCT030"
"taf	RKSI	2018-01-14 00:00:00	TAF RKSI 142300Z 1500/1606 30006KT 6000 NSC TX05/1505Z TNM02/1518Z TX03/1605Z \n BECMG 1514/1515 07005KT 4200 BR SCT030 BKN120 \n TEMPO 1517/1523 2800 \n BECMG 1523/1524 6000 NSW FEW010 BKN025 OVC100 \n BECMG 1604/1605 10006KT -RA"
"taf	RKSI	2018-01-14 06:00:00	TAF RKSI 140500Z 1406/1512 17012KT 6000 SCT035 TN02/1421Z TX05/1505Z \n BECMG 1414/1415 20015G25KT 4200 BR \n BECMG 1417/1418 23010KT 2500 -RA FEW010 BKN025 \n BECMG 1419/1420 26007KT 3500 BR \n BECMG 1421/1422 29010KT 6000 NSW SCT035 \n BECMG 1505/1506 35006KT"
"taf	RKSI	2018-01-14 12:00:00	TAF RKSI 141100Z 1412/1518 17010KT 6000 FEW010 BKN030 TN01/1421Z TX05/1506Z \n BECMG 1414/1415 20012KT 4200 BR \n BECMG 1417/1418 23010KT 2500 -RA \n BECMG 1419/1420 26007KT 3500 BR \n BECMG 1421/1422 30008KT 6000 NSW SCT030 \n BECMG 1505/1506 35006KT 3500 BR"
"taf	RKSI	2018-01-14 18:00:00	TAF RKSI 141700Z 1418/1524 18007KT 4200 BR FEW010 BKN025 OVC100 TN01/1421Z TX05/1506Z TNM02/1520Z \n TEMPO 1418/1420 21007KT 2800 -RA \n BECMG 1420/1421 27007KT 2800 FEW010 SCT025 \n BECMG 1500/1501 31006KT 6000 NSW NSC \n BECMG 1515/1516 05005KT 4200 BR SCT030 BKN110 \n BECMG 1522/1523 6000 NSW"
"taf	RKSI	2018-01-14 22:43:00	TAF \n AMD RKSI 142143Z 1422/1524 31007KT 7000 NSC TN03/1422Z TX05/1506Z TNM02/1520Z \n BECMG 1515/1516 05005KT 4200 BR SCT030 BKN110 \n BECMG 1522/1523 6000 NSW"
"taf	RKSI	2018-01-14 22:45:00	TAF \n AMD TAF \n AMD RKSI 142143Z 1422/1524 31007KT 7000 NSC TN03/1422Z TX05/1506Z TNM02/1520Z \n BECMG 1515/1516 05005KT 4200 BR SCT030 BKN110 \n BECMG 1522/1523 6000 NSW"
"taf	RKSI	2018-01-15 00:00:00	TAF \n AMD RKSI 152323Z 1600/1706 04005KT 1400 BR FEW010 BKN030 BKN110 TX04/1606Z TN00/1621Z TX06/1706Z \n TEMPO 1603/1609 11006KT -RA \n BECMG 1612/1613 35007KT 2500 SCT030 \n TEMPO 1615/1623 04006KT 1400 \n BECMG 1700/1701 15006KT 3500 \n BECMG 1702/1703 22006KT 6000 NSW"
"taf	RKSI	2018-01-15 00:23:00	TAF \n AMD RKSI 152323Z 1600/1706 04005KT 1400 BR FEW010 BKN030 BKN110 TX04/1606Z TN00/1621Z TX06/1706Z \n TEMPO 1603/1609 11006KT -RA \n BECMG 1612/1613 35007KT 2500 SCT030 \n TEMPO 1615/1623 04006KT 1400 \n BECMG 1700/1701 15006KT 3500 \n BECMG 1702/1703 22006KT 6000 NSW"
"taf	RKSI	2018-01-15 00:27:00	TAF \n AMD TAF \n AMD RKSI 152323Z 1600/1706 04005KT 1400 BR FEW010 BKN030 BKN110 TX04/1606Z TN00/1621Z TX06/1706Z \n TEMPO 1603/1609 11006KT -RA \n BECMG 1612/1613 35007KT 2500 SCT030 \n TEMPO 1615/1623 04006KT 1400 \n BECMG 1700/1701 15006KT 3500 \n BECMG 1702/1703 22006KT 6000 NSW"
"taf	RKSI	2018-01-15 06:00:00	TAF RKSI 150500Z 1506/1612 31006KT 6000 NSC TNM02/1518Z TX03/1605Z \n BECMG 1514/1515 07005KT 4200 BR SCT030 BKN120 \n TEMPO 1517/1522 13006KT 2800 \n BECMG 1523/1524 6000 NSW FEW010 BKN025 OVC100 \n BECMG 1604/1605 10006KT -RA \n BECMG 1611/1612 05006KT 2800 BR"
"taf	RKSI	2018-01-15 12:00:00	TAF RKSI 151100Z 1512/1618 05006KT 2500 BR SCT030 BKN120 TNM02/1518Z TX03/1605Z \n TEMPO 1517/1522 13006KT \n BECMG 1523/1524 6000 NSW \n BECMG 1604/1605 10006KT -RA FEW010 BKN025 OVC100 \n BECMG 1611/1612 05006KT 2800 BR FEW010 SCT025 BKN150 \n TEMPO 1616/1618 1400 NSC"
"taf	RKSI	2018-01-15 18:00:00	TAF RKSI 151700Z 1518/1624 15005KT 1400 BR SCT030 BKN180 TNM01/1521Z TX05/1606Z TN00/1621Z \n BECMG 1522/1523 20005KT 2500 \n BECMG 1601/1602 15006KT 3500 \n TEMPO 1605/1611 11006KT 2500 -RA FEW010 BKN025 BKN110 \n BECMG 1612/1613 35007KT 6000 NSW \n BECMG 1615/1616 4200 BR"
"taf	RKSI	2018-01-16 00:00:00	TAF RKSI 162300Z 1700/1806 04007KT 3500 BR SCT030 TX06/1706Z TN00/1721Z TX03/1806Z \n BECMG 1703/1704 15005KT \n BECMG 1712/1713 21010KT \n BECMG 1715/1716 33008KT 2500 \n TEMPO 1719/1723 0900 FG BKN008"
"taf	RKSI	2018-01-16 04:40:00	TAF \n AMD RKSI 160340Z 1604/1706 04005KT 1400 BR FEW010 BKN030 BKN110 TX04/1606Z TN00/1621Z TX06/1706Z \n TEMPO 1606/1609 11006KT -RA \n BECMG 1612/1613 35007KT 2500 SCT030 \n TEMPO 1615/1623 04006KT 1400 \n BECMG 1700/1701 15006KT 3500 \n BECMG 1702/1703 22006KT 6000 NSW"
"taf	RKSI	2018-01-16 04:42:00	TAF \n AMD TAF \n AMD RKSI 160340Z 1604/1706 04005KT 1400 BR FEW010 BKN030 BKN110 TX04/1606Z TN00/1621Z TX06/1706Z \n TEMPO 1606/1609 11006KT -RA \n BECMG 1612/1613 35007KT 2500 SCT030 \n TEMPO 1615/1623 04006KT 1400 \n BECMG 1700/1701 15006KT 3500 \n BECMG 1702/1703 22006KT 6000 NSW"
"taf	RKSI	2018-01-16 06:00:00	TAF RKSI 160500Z 1606/1712 05006KT 1800 -RA FEW010 BKN025 OVC100 TN00/1621Z TX06/1706Z \n BECMG 1608/1609 BR \n BECMG 1612/1613 FEW010 SCT030 \n BECMG 1618/1619 1400 \n BECMG 1701/1702 18006KT 6000 NSW \n BECMG 1710/1711 2000 BR"
"taf	RKSI	2018-01-16 12:00:00	TAF RKSI 161100Z 1612/1718 05006KT 3500 BR FEW010 SCT030 BKN110 TN00/1621Z TX06/1706Z \n BECMG 1620/1621 7000 NSW \n BECMG 1703/1704 24007KT \n BECMG 1710/1711 21006KT 2500 BR \n BECMG 1716/1717 1300 SCT010 BKN020"
"taf	RKSI	2018-01-16 18:00:00	TAF RKSI 161700Z 1618/1724 05008KT 3500 BR SCT030 BKN110 TN00/1621Z TX06/1706Z TN00/1721Z \n TEMPO 1620/1623 02007KT 2500 \n TEMPO 1702/1706 15006KT BKN025 BKN110 \n BECMG 1707/1708 29007KT 6000 NSW \n BECMG 1715/1716 33008KT 3500 BR BKN030"
"taf	RKSI	2018-01-17 06:00:00	TAF RKSI 170500Z 1706/1812 29006KT 3500 HZ NSC TN00/1721Z TX03/1806Z \n BECMG 1712/1713 22006KT \n BECMG 1716/1717 32006KT 2000 BR FEW010 BKN030 \n TEMPO 1719/1724 0800 FG BKN005 \n BECMG 1801/1802 06005KT 3500 \n BECMG 1803/1804 31007KT 6000 NSW SCT030"
"taf	RKSI	2018-01-17 12:00:00	TAF RKSI 171100Z 1712/1818 25006KT 3500 BR FEW030 SCT180 TN00/1721Z TX03/1806Z \n BECMG 1715/1716 32006KT 2500 FEW010 BKN030 \n TEMPO 1719/1723 0800 FG FEW002 BKN006 \n BECMG 1800/1801 35005KT 3500 SCT030 \n BECMG 1803/1804 31007KT 6000 NSW"
"taf	RKSI	2018-01-17 18:00:00	TAF RKSI 171700Z 1718/1824 23006KT 2500 BR FEW010 SCT025 TN00/1721Z TX03/1806Z TNM04/1821Z \n TEMPO 1719/1721 30006KT 0800 FG FEW002 BKN006 \n BECMG 1722/1723 33007KT 8000 NSW NSC \n BECMG 1816/1817 11006KT"
"taf	RKSI	2018-01-18 00:00:00	TAF RKSI 182300Z 1900/2006 34006KT 7000 NSC TX03/1905Z TN00/1921Z TX05/2005Z \n BECMG 1902/1903 24007KT \n BECMG 1913/1914 21007KT 4200 BR FEW010 SCT030 \n BECMG 1922/1923 24008KT 8000 NSW \n TEMPO 2001/2003 33010KT"
"taf	RKSI	2018-01-18 06:00:00	TAF RKSI 180500Z 1806/1912 33007KT 6000 SCT030 BKN150 TNM03/1822Z TX03/1905Z \n BECMG 1816/1817 07006KT \n BECMG 1903/1904 25007KT NSC"
"taf	RKSI	2018-01-18 12:00:00	TAF RKSI 181100Z 1812/1918 34006KT 7000 NSC TNM03/1822Z TX03/1905Z \n BECMG 1817/1818 07006KT \n BECMG 1903/1904 25007KT \n BECMG 1915/1916 21007KT 4200 BR FEW012 SCT030"
"taf	RKSI	2018-01-18 18:00:00	TAF RKSI 181700Z 1818/1924 34006KT 7000 NSC TNM03/1822Z TX03/1905Z TN00/1921Z \n BECMG 1902/1903 24007KT \n BECMG 1913/1914 21007KT 4200 BR FEW010 SCT030 \n BECMG 1922/1923 24008KT 8000 NSW"
"taf	RKSI	2018-01-19 00:00:00	TAF RKSI 192300Z 2000/2106 14006KT 6000 BKN030 TX05/2005Z TNM04/2021Z TX03/2105Z \n BECMG 2002/2003 29006KT NSC \n BECMG 2011/2012 35010KT \n BECMG 2014/2015 05006KT \n BECMG 2104/2105 24005KT"
"taf	RKSI	2018-01-19 06:00:00	TAF RKSI 190500Z 1906/2012 25005KT 7000 NSC TN00/1921Z TX05/2005Z \n BECMG 1911/1912 15006KT \n BECMG 1916/1917 2500 BR FEW010 SCT030 \n BECMG 2004/2005 30006KT 3200 NSC \n BECMG 2009/2010 33006KT 2800"
"taf	RKSI	2018-01-19 12:00:00	TAF RKSI 191100Z 1912/2018 17006KT 6000 NSC TN00/1921Z TX05/2005Z \n BECMG 1918/1919 3200 BR FEW010 SCT030 \n BECMG 2000/2001 30006KT 2500 \n BECMG 2011/2012 34006KT 3200 NSC \n BECMG 2016/2017 01006KT 6000 NSW"
"taf	RKSI	2018-01-19 18:00:00	TAF RKSI 191700Z 1918/2024 15006KT 6000 SCT030 TN00/1921Z TX05/2005Z TNM03/2021Z \n TEMPO 1920/1923 3200 BR BKN030 \n BECMG 1923/1924 29006KT 4200 HZ \n BECMG 2003/2004 6000 NSW NSC \n BECMG 2011/2012 35010KT \n BECMG 2013/2014 05006KT"
"taf	RKSI	2018-01-20 00:00:00	TAF RKSI 202300Z 2100/2206 07006KT CAVOK TX04/2105Z TNM02/2121Z TX02/2205Z \n BECMG 2105/2106 35006KT 9999 FEW030 BKN180 \n TEMPO 2115/2122 07006KT \n BECMG 2122/2123 12006KT 6000 FEW010 BKN030 OVC100 \n BECMG 2203/2204 16008KT 4200 -SN"
"taf	RKSI	2018-01-20 04:29:00	TAF \n AMD RKSI 200429Z 2004/2106 29010KT 6000 NSC TX06/2005Z TNM04/2021Z TX03/2105Z \n TEMPO 2004/2009 2500 BR \n BECMG 2011/2012 35010KT \n BECMG 2014/2015 05006KT \n BECMG 2104/2105 24005KT"
"taf	RKSI	2018-01-20 04:33:00	TAF \n AMD TAF \n AMD RKSI 200429Z 2004/2106 29010KT 6000 NSC TX06/2005Z TNM04/2021Z TX03/2105Z \n TEMPO 2004/2009 2500 BR \n BECMG 2011/2012 35010KT \n BECMG 2014/2015 05006KT \n BECMG 2104/2105 24005KT"
"taf	RKSI	2018-01-20 06:00:00	TAF RKSI 200500Z 2006/2112 31007KT 2800 HZ SCT030 TNM04/2021Z TX03/2105Z \n TEMPO 2011/2017 35007KT 4200 \n BECMG 2018/2019 05006KT 7000 NSW NSC \n BECMG 2103/2104 11006KT \n BECMG 2106/2107 32006KT"
"taf	RKSI	2018-01-20 07:27:00	TAF \n AMD TAF \n AMD RKSI 200727Z 2007/2112 31007KT 1400 HZ SCT030 TNM04/2021Z TX03/2105Z \n TEMPO 2012/2017 35007KT 4200 \n BECMG 2018/2019 05006KT 6000 NSW NSC \n BECMG 2103/2104 11006KT \n BECMG 2106/2107 32006KT"
"taf	RKSI	2018-01-20 12:00:00	TAF RKSI 201100Z 2012/2118 35006KT 4200 BR SCT030 TNM04/2021Z TX04/2105Z \n TEMPO 2012/2017 2800 \n BECMG 2020/2021 07006KT 6000 NSW \n TEMPO 2106/2112 32006KT"
"taf	RKSI	2018-01-20 18:00:00	TAF RKSI 201700Z 2018/2124 01006KT CAVOK TNM04/2021Z TX04/2105Z TNM01/2121Z \n BECMG 2021/2022 07006KT \n BECMG 2105/2106 35006KT 9999 FEW030 BKN180 \n TEMPO 2114/2120 07006KT \n BECMG 2121/2122 15006KT 6000 FEW010 BKN030 OVC100"
"taf	RKSI	2018-01-21 00:00:00	TAF RKSI 212300Z 2200/2306 04005KT 7000 FEW010 BKN025 OVC080 TX03/2204Z TNM11/2222Z TXM08/2306Z \n BECMG 2205/2206 36007KT 4200 -SN \n TEMPO 2207/2209 1200 \n BECMG 2210/2211 33012G22KT 7000 NSW SCT030 \n BECMG 2213/2214 33018G33KT \n BECMG 2303/2304 32012KT"
"taf	RKSI	2018-01-21 06:00:00	TAF RKSI 210500Z 2106/2212 34006KT CAVOK TNM02/2121Z TX02/2206Z \n TEMPO 2118/2121 11005KT \n BECMG 2122/2123 15008KT 6000 FEW010 BKN030 OVC100 \n BECMG 2203/2204 18008KT 4200 -SN \n TEMPO 2206/2210 23010KT 2800 \n BECMG 2211/2212 33015G25KT"
"taf	RKSI	2018-01-21 12:00:00	TAF RKSI 211100Z 2112/2218 04005KT 7000 FEW030 BKN180 TNM02/2121Z TX02/2206Z \n BECMG 2203/2204 09008KT 4200 -SN FEW010 BKN025 OVC100 \n TEMPO 2205/2208 35010KT 2500 \n BECMG 2209/2210 34010KT \n BECMG 2211/2212 33015G25KT 6000 NSW SCT030 \n BECMG 2214/2215 33020G35KT"
"taf	RKSI	2018-01-21 18:00:00	TAF RKSI 211700Z 2118/2224 04005KT 7000 SCT030 BKN180 TNM02/2121Z TX02/2204Z TNM11/2222Z \n BECMG 2200/2201 FEW010 BKN025 OVC080 \n BECMG 2204/2205 01006KT 4200 -SN \n TEMPO 2206/2209 1800 \n BECMG 2209/2210 33011G22KT 7000 NSW SCT030 \n BECMG 2213/2214 33018G33KT"
"taf	RKSI	2018-01-22 00:00:00	TAF RKSI 222300Z 2300/2406 33013KT 9999 SCT030 TXM09/2306Z TNM15/2322Z TXM11/2405Z \n TEMPO 2300/2304 33018G35KT \n BECMG 2306/2307 BKN030 \n BECMG 2309/2310 33015G25KT SCT030 \n BECMG 2318/2319 33013KT \n BECMG 2323/2324 33016G30KT"
"taf	RKSI	2018-01-22 06:00:00	TAF RKSI 220500Z 2206/2312 15010KT 3500 -SN FEW010 BKN025 OVC080 TNM12/2221Z TXM09/2306Z \n TEMPO 2207/2209 18010KT 1100 \n BECMG 2210/2211 33015G25KT 6000 NSW SCT030 \n BECMG 2212/2213 33020G35KT \n BECMG 2300/2301 33015G25KT"
"taf	RKSI	2018-01-22 09:00:00	TAF \n AMD RKSI 220900Z 2209/2312 33015G25KT 6000 FEW010 BKN025 OVC080 TNM12/2221Z TXM09/2306Z \n BECMG 2212/2213 33020G35KT SCT030 \n BECMG 2300/2301 33015G25KT"
"taf	RKSI	2018-01-22 09:03:00	TAF \n AMD RKSI 220900Z 2209/2312 33015G25KT 6000 FEW010 BKN025 OVC080 TNM12/2221Z TXM09/2306Z \n BECMG 2212/2213 33020G35KT \n BECMG 2300/2301 33015G25KT"
"taf	RKSI	2018-01-22 12:00:00	TAF RKSI 221100Z 2212/2318 33020G35KT 9999 SCT030 TNM12/2221Z TXM09/2306Z \n BECMG 2300/2301 33015G25KT \n TEMPO 2302/2309 33020G35KT BKN030"
"taf	RKSI	2018-01-22 18:00:00	TAF RKSI 221700Z 2218/2324 33018G35KT 9999 SCT030 TNM12/2221Z TXM09/2306Z TNM14/2322Z \n BECMG 2303/2304 32013KT \n TEMPO 2306/2309 BKN030 \n BECMG 2309/2310 33015G25KT"
"taf	RKSI	2018-01-23 00:00:00	TAF \n AMD RKSI 232330Z 2400/2506 34020G35KT CAVOK TXM11/2406Z TNM15/2421Z TXM09/2506Z \n BECMG 2407/2408 34013KT \n BECMG 2503/2504 34015G25KT"
"taf	RKSI	2018-01-23 00:30:00	TAF \n AMD RKSI 232330Z 2400/2506 34020G35KT CAVOK TXM11/2406Z TNM15/2421Z TXM09/2506Z \n BECMG 2407/2408 34013KT \n BECMG 2503/2504 34015G25KT"
"taf	RKSI	2018-01-23 00:33:00	TAF \n AMD TAF \n AMD RKSI 232330Z 2400/2506 34020G35KT CAVOK TXM11/2406Z TNM15/2421Z TXM09/2506Z \n BECMG 2407/2408 34013KT \n BECMG 2503/2504 34015G25KT"
"taf	RKSI	2018-01-23 06:00:00	TAF RKSI 230500Z 2306/2412 33013KT CAVOK TNM15/2322Z TXM11/2405Z \n TEMPO 2307/2310 9999 BKN025 \n TEMPO 2401/2410 33017G30KT"
"taf	RKSI	2018-01-23 12:00:00	TAF RKSI 231100Z 2312/2418 33013KT CAVOK TNM15/2322Z TXM11/2405Z \n TEMPO 2401/2410 33017G30KT"
"taf	RKSI	2018-01-23 18:00:00	TAF RKSI 231700Z 2318/2424 33013KT CAVOK TNM15/2321Z TXM11/2406Z TNM15/2421Z \n TEMPO 2402/2409 33019G30KT"
"taf	RKSI	2018-01-24 00:00:00	TAF RKSI 242300Z 2500/2606 34013KT CAVOK TXM09/2506Z TNM16/2521Z TXM10/2606Z \n TEMPO 2501/2503 34016G26KT \n BECMG 2505/2506 34018G33KT"
"taf	RKSI	2018-01-24 06:00:00	TAF RKSI 240500Z 2406/2512 34017G35KT CAVOK TNM15/2421Z TXM09/2506Z \n BECMG 2411/2412 35013KT \n BECMG 2500/2501 34017G33KT"
"taf	RKSI	2018-01-24 12:00:00	TAF RKSI 241100Z 2412/2518 35013KT CAVOK TNM15/2421Z TXM09/2506Z \n BECMG 2500/2501 34017G33KT"
"taf	RKSI	2018-01-24 18:00:00	TAF RKSI 241700Z 2418/2524 34013KT CAVOK TNM15/2421Z TXM09/2506Z TNM16/2521Z \n BECMG 2503/2504 34016G30KT \n BECMG 2511/2512 34013KT \n BECMG 2517/2518 34017G33KT"
"taf	RKSI	2018-01-25 00:00:00	TAF RKSI 252300Z 2600/2706 34017G30KT CAVOK TXM10/2606Z TNM14/2621Z TXM04/2706Z \n TEMPO 2606/2612 34014KT \n BECMG 2613/2614 34008KT"
"taf	RKSI	2018-01-25 06:00:00	TAF RKSI 250500Z 2506/2612 33014KT CAVOK TNM16/2521Z TXM10/2606Z \n BECMG 2507/2508 33017G33KT \n BECMG 2606/2607 34013KT"
"taf	RKSI	2018-01-25 12:00:00	TAF RKSI 251100Z 2512/2618 34017G35KT CAVOK TNM17/2521Z TXM10/2606Z \n BECMG 2606/2607 34015G25KT \n BECMG 2611/2612 34010KT"
"taf	RKSI	2018-01-25 14:00:00	TAF \n AMD RKSI 251400Z 2514/2618 34022G35KT CAVOK TNM17/2521Z TXM10/2606Z \n BECMG 2606/2607 34015G25KT \n BECMG 2611/2612 34010KT"
"taf	RKSI	2018-01-25 14:03:00	TAF \n AMD TAF \n AMD RKSI 251400Z 2514/2618 34022G35KT CAVOK TNM17/2521Z TXM10/2606Z \n BECMG 2606/2607 34015G25KT \n BECMG 2611/2612 34010KT"
"taf	RKSI	2018-01-25 18:00:00	TAF RKSI 251700Z 2518/2624 34017G35KT CAVOK TNM17/2521Z TXM10/2606Z TNM14/2621Z \n BECMG 2606/2607 34015G25KT \n BECMG 2612/2613 34008KT"
"taf	RKSI	2018-01-26 00:00:00	TAF RKSI 262300Z 2700/2806 07007KT CAVOK TXM04/2706Z TNM08/2721Z TXM02/2805Z \n BECMG 2703/2704 33008KT 9999 FEW030 BKN120"
"taf	RKSI	2018-01-26 06:00:00	TAF RKSI 260500Z 2606/2712 34015G25KT CAVOK TNM13/2621Z TXM04/2706Z \n TEMPO 2609/2614 34012KT \n BECMG 2614/2615 35007KT \n BECMG 2703/2704 24006KT \n BECMG 2705/2706 32007KT 9999 FEW030 BKN150"
"taf	RKSI	2018-01-26 12:00:00	TAF RKSI 261100Z 2612/2718 35007KT CAVOK TNM15/2621Z TXM04/2706Z \n BECMG 2703/2704 07006KT \n BECMG 2705/2706 33008KT 9999 FEW030 BKN120"
"taf	RKSI	2018-01-26 18:00:00	TAF RKSI 261700Z 2618/2724 07007KT CAVOK TNM15/2621Z TXM04/2706Z TNM08/2721Z \n BECMG 2703/2704 33008KT 9999 FEW030 BKN120 \n TEMPO 2719/2721 BKN030 BKN120"
"taf	RKSI	2018-01-27 00:00:00	TAF RKSI 272300Z 2800/2906 35006KT 9999 SCT030 BKN120 TXM03/2805Z TNM10/2822Z TXM05/2905Z \n BECMG 2803/2804 31015G25KT CAVOK \n BECMG 2813/2814 32010KT \n BECMG 2818/2819 02006KT 9999 SCT030 \n TEMPO 2823/2902 4200 -SN FEW010 BKN025 \n BECMG 2902/2903 32015G25KT"
"taf	RKSI	2018-01-27 06:00:00	TAF RKSI 270500Z 2706/2812 33005KT CAVOK TNM09/2721Z TXM02/2805Z \n BECMG 2719/2720 07005KT 9999 FEW030 BKN120 \n BECMG 2722/2723 33007KT \n TEMPO 2804/2812 32015G25KT"
"taf	RKSI	2018-01-27 12:00:00	TAF RKSI 271100Z 2712/2818 34006KT 9999 FEW030 BKN110 TNM09/2721Z TXM02/2805Z \n BECMG 2803/2804 32015G25KT CAVOK \n BECMG 2813/2814 32010KT \n BECMG 2816/2817 02006KT 9999 SCT030"
"taf	RKSI	2018-01-27 18:00:00	TAF RKSI 271700Z 2718/2824 34006KT 9999 SCT030 BKN120 TNM07/2721Z TXM03/2805Z TNM10/2821Z \n TEMPO 2718/2723 FEW030 BKN080 \n BECMG 2803/2804 31015G25KT CAVOK \n BECMG 2813/2814 32010KT \n BECMG 2818/2819 02006KT 9999 SCT030 \n BECMG 2821/2822 FEW010 BKN025"
"taf	RKSI	2018-01-28 00:00:00	TAF RKSI 282300Z 2900/3006 34008KT 9999 SCT030 TXM06/2905Z TNM10/2922Z TX01/3005Z \n TEMPO 2900/2901 FEW010 BKN025 \n TEMPO 2903/2910 32015G25KT \n BECMG 2918/2919 11006KT \n BECMG 3000/3001 21010KT \n BECMG 3003/3004 27012KT BKN030"
"taf	RKSI	2018-01-28 06:00:00	TAF RKSI 280500Z 2806/2912 32008KT CAVOK TNM11/2821Z TXM06/2905Z \n TEMPO 2806/2811 31015G25KT \n BECMG 2818/2819 07006KT 9999 SCT030 \n TEMPO 2822/2824 03007KT 4200 -SN FEW010 BKN025 \n BECMG 2900/2901 32007KT \n TEMPO 2902/2909 31015G25KT"
"taf	RKSI	2018-01-28 12:00:00	TAF RKSI 281100Z 2812/2918 32007KT CAVOK TNM11/2821Z TXM06/2905Z \n BECMG 2818/2819 07006KT 9999 SCT030 \n TEMPO 2822/2824 02007KT 4200 -SN FEW010 BKN025 \n BECMG 2900/2901 31010KT \n TEMPO 2902/2910 30015G25KT \n BECMG 2914/2915 25006KT"
"taf	RKSI	2018-01-28 18:00:00	TAF RKSI 281700Z 2818/2924 07006KT 9999 SCT030 TNM11/2821Z TXM06/2905Z TNM10/2922Z \n TEMPO 2823/2901 02007KT 4200 -SN FEW010 BKN025 \n BECMG 2901/2902 33010KT \n TEMPO 2903/2911 32015G25KT \n BECMG 2917/2918 09005KT"
"taf	RKSI	2018-01-29 00:00:00	TAF RKSI 292300Z 3000/3106 19006KT 9999 FEW010 SCT030 TX01/3006Z TNM06/3020Z TX01/3105Z \n TEMPO 3006/3012 26010KT \n BECMG 3012/3013 29011KT CAVOK \n BECMG 3015/3016 35006KT 9999 SCT030 \n TEMPO 3102/3106 29010KT"
"taf	RKSI	2018-01-29 06:00:00	TAF RKSI 290500Z 2906/3012 32012KT 9999 SCT030 TNM10/2921Z TX01/3006Z \n BECMG 2914/2915 02008KT \n BECMG 3000/3001 31010KT \n BECMG 3008/3009 30015G25KT"
"taf	RKSI	2018-01-29 12:00:00	TAF RKSI 291100Z 2912/3018 33010KT 9999 SCT030 TNM10/2921Z TX01/3006Z \n BECMG 2918/2919 08007KT \n BECMG 3000/3001 18010KT \n TEMPO 3002/3004 25010KT BKN030 \n BECMG 3005/3006 29010KT \n BECMG 3009/3010 31015G25KT"
"taf	RKSI	2018-01-29 18:00:00	TAF RKSI 291700Z 2918/3024 18005KT 9999 SCT030 TNM11/2921Z TX01/3006Z TNM06/3022Z \n TEMPO 3005/3010 28008KT \n BECMG 3011/3012 32011KT \n BECMG 3014/3015 07006KT \n TEMPO 3015/3021 35005KT"
"taf	RKSI	2018-01-30 00:00:00	TAF RKSI 302300Z 3100/0106 33006KT 9999 FEW030 BKN200 TX01/3105Z TNM09/3122Z TX00/0105Z \n TEMPO 3105/3107 31015G25KT"
"taf	RKSI	2018-01-30 02:00:00	TAF \n AMD RKSI 300200Z 3002/3106 19006KT 9999 FEW010 BKN030 TX01/3006Z TNM06/3020Z TX01/3105Z \n TEMPO 3002/3005 -SN \n TEMPO 3006/3011 26010KT \n BECMG 3012/3013 29011KT CAVOK \n BECMG 3015/3016 35006KT 9999 SCT030 \n TEMPO 3102/3106 29010KT"
"taf	RKSI	2018-01-30 02:15:00	TAF \n AMD TAF \n AMD RKSI 300200Z 3002/3106 19006KT 9999 FEW010 BKN030 TX01/3006Z TNM06/3020Z TX01/3105Z \n TEMPO 3002/3005 -SN \n TEMPO 3006/3011 26010KT \n BECMG 3012/3013 29011KT CAVOK \n BECMG 3015/3016 35006KT 9999 SCT030 \n TEMPO 3102/3106 29010KT"
"taf	RKSI	2018-01-30 02:54:00	TAF \n AMD TAF \n AMD RKSI 292300Z 3002/3106 19006KT 9999 FEW010 BKN030 TX01/3006Z TNM06/3020Z TX01/3105Z \n TEMPO 3002/3005 -SN \n TEMPO 3006/3011 26010KT \n BECMG 3012/3013 29011KT CAVOK \n BECMG 3015/3016 35006KT 9999 SCT030 \n TEMPO 3102/3106 29010KT"
"taf	RKSI	2018-01-30 03:15:00	TAF \n AMD RKSI 300315Z 3003/3106 19006KT 9999 FEW010 BKN030 TX01/3006Z TNM06/3020Z TX01/3105Z \n TEMPO 3003/3006 2800 -SN \n TEMPO 3007/3011 26010KT \n BECMG 3012/3013 29011KT CAVOK \n BECMG 3015/3016 35006KT 9999 SCT030 \n TEMPO 3102/3106 29010KT"
"taf	RKSI	2018-01-30 03:18:00	TAF \n AMD TAF \n AMD RKSI 300315Z 3003/3106 19006KT 9999 FEW010 BKN030 TX01/3006Z TNM06/3020Z TX01/3105Z \n TEMPO 3003/3006 2800 -SN \n TEMPO 3007/3011 26010KT \n BECMG 3012/3013 29011KT CAVOK \n BECMG 3015/3016 35006KT 9999 SCT030 \n TEMPO 3102/3106 29010KT"
"taf	RKSI	2018-01-30 12:00:00	TAF RKSI 301100Z 3012/3118 29006KT 9999 SCT030 TNM06/3021Z TX01/3105Z \n BECMG 3021/3022 35010KT CAVOK \n BECMG 3100/3101 07006KT 9999 SCT030 \n BECMG 3104/3105 33008KT"
"taf	RKSI	2018-01-30 18:00:00	TAF RKSI 301700Z 3018/3124 33006KT 9999 SCT030 TNM05/3021Z TX01/3105Z TNM09/3121Z \n TEMPO 3018/3020 27010KT"
"taf	RKSI	2018-01-31 00:00:00	TAF RKSI 312300Z 0100/0206 07006KT CAVOK TX01/0106Z TNM08/0121Z TX01/0206Z \n BECMG 0104/0105 34008KT \n BECMG 0203/0204 9999 BKN030"
"taf	RKSI	2018-01-31 06:00:00	TAF RKSI 310500Z 3106/0112 33006KT 9999 FEW030 BKN200 TNM09/3122Z TX00/0105Z"
"taf	RKSI	2018-01-31 12:00:00	TAF RKSI 311100Z 3112/0118 33006KT 9999 FEW030 BKN200 TNM09/3122Z TX00/0105Z"
"taf	RKSI	2018-01-31 18:00:00	TAF RKSI 311700Z 3118/0124 33008KT CAVOK TNM09/3122Z TX00/0105Z TNM08/0121Z"
"taf	RKSI	2018-02-01 00:00:00	TAF RKSI 012300Z 0200/0306 33006KT CAVOK TX01/0206Z TNM09/0221Z TXM04/0306Z \n BECMG 0205/0206 24008KT \n BECMG 0210/0211 9999 FEW010 BKN030 OVC080 \n TEMPO 0214/0217 4200 -SN \n BECMG 0220/0221 34015G25KT SCT030"
"taf	RKSI	2018-02-01 06:00:00	TAF RKSI 010500Z 0106/0212 33006KT CAVOK TNM07/0121Z TX01/0206Z \n BECMG 0206/0207 24007KT"
"taf	RKSI	2018-02-01 12:00:00	TAF RKSI 011100Z 0112/0218 33006KT CAVOK TNM07/0121Z TX01/0206Z \n BECMG 0206/0207 24007KT \n BECMG 0213/0214 34015G25KT 9999 FEW010 BKN030 \n TEMPO 0215/0216 4200 -SN \n TEMPO 0217/0218 CAVOK"
"taf	RKSI	2018-02-01 18:00:00	TAF RKSI 011700Z 0118/0224 33006KT CAVOK TNM07/0121Z TX01/0206Z TNM09/0221Z \n BECMG 0205/0206 24008KT \n BECMG 0214/0215 34015G25KT 9999 FEW010 BKN030 \n TEMPO 0216/0220 4200 -SN"
"taf	RKSI	2018-02-02 00:00:00	TAF RKSI 022300Z 0300/0406 33017G27KT CAVOK TXM05/0306Z TNM12/0321Z TXM05/0406Z \n BECMG 0304/0305 33018G37KT \n BECMG 0311/0312 34015G25KT \n BECMG 0404/0405 33018G35KT"
"taf	RKSI	2018-02-02 06:00:00	TAF RKSI 020500Z 0206/0312 31006KT CAVOK TNM08/0221Z TXM05/0306Z \n BECMG 0207/0208 24007KT \n BECMG 0212/0213 9999 FEW010 BKN025 OVC080 \n TEMPO 0215/0219 31012KT 2800 -SN \n BECMG 0219/0220 33017G27KT SCT030 \n BECMG 0305/0306 33018G37KT"
"taf	RKSI	2018-02-02 12:00:00	TAF RKSI 021100Z 0212/0318 29006KT 9999 SCT030 TNM08/0221Z TXM05/0306Z \n TEMPO 0213/0216 32011KT 2800 -SN FEW010 BKN025 OVC080 \n BECMG 0217/0218 33016G27KT \n BECMG 0304/0305 32018G37KT CAVOK \n BECMG 0312/0313 32015G27KT"
"taf	RKSI	2018-02-02 18:00:00	TAF RKSI 021700Z 0218/0324 34017G27KT 7000 SCT030 TNM09/0221Z TXM05/0306Z TNM12/0321Z \n BECMG 0304/0305 33018G37KT \n TEMPO 0306/0308 BKN025 \n BECMG 0311/0312 34015G27KT"
"taf	RKSI	2018-02-03 00:00:00	TAF RKSI 032300Z 0400/0506 33015G25KT 9999 FEW030 TXM05/0406Z TNM12/0421Z TXM06/0506Z \n TEMPO 0404/0409 32018G35KT \n TEMPO 0504/0506 32018G35KT"
"taf	RKSI	2018-02-03 06:00:00	TAF RKSI 030500Z 0306/0412 32017G35KT CAVOK TNM12/0321Z TXM05/0406Z \n BECMG 0312/0313 32015G25KT \n TEMPO 0317/0323 33013KT \n TEMPO 0404/0409 32017G35KT \n BECMG 0410/0411 33012KT"
"taf	RKSI	2018-02-03 12:00:00	TAF RKSI 031100Z 0312/0418 32015G25KT 9999 FEW030 TNM12/0321Z TXM05/0406Z \n TEMPO 0317/0324 33013KT \n TEMPO 0404/0409 32017G35KT \n BECMG 0412/0413 33012KT"
"taf	RKSI	2018-02-03 18:00:00	TAF RKSI 031700Z 0318/0424 33015G25KT 9999 FEW030 TNM12/0321Z TXM05/0406Z TNM12/0421Z \n TEMPO 0404/0409 32018G35KT"
"taf	RKSI	2018-02-04 00:00:00	TAF RKSI 042300Z 0500/0606 33015G30KT CAVOK TXM06/0506Z TNM13/0522Z TXM06/0605Z \n BECMG 0511/0512 33012KT \n BECMG 0522/0523 32015G25KT"
"taf	RKSI	2018-02-04 06:00:00	TAF RKSI 040500Z 0406/0512 33011KT CAVOK TNM11/0421Z TXM06/0506Z \n TEMPO 0406/0412 32015G25KT \n BECMG 0500/0501 32015G25KT \n BECMG 0510/0511 33012KT"
"taf	RKSI	2018-02-04 12:00:00	TAF RKSI 041100Z 0412/0518 33011KT CAVOK TNM11/0421Z TXM06/0506Z \n BECMG 0500/0501 32015G25KT \n BECMG 0510/0511 33012KT"
"taf	RKSI	2018-02-04 18:00:00	TAF RKSI 041700Z 0418/0524 34012KT CAVOK TNM11/0421Z TXM06/0506Z TNM13/0522Z \n BECMG 0501/0502 32015G25KT \n BECMG 0511/0512 33012KT \n BECMG 0522/0523 32015G25KT"
"taf	RKSI	2018-02-05 00:00:00	TAF RKSI 052300Z 0600/0706 33012KT CAVOK TXM06/0605Z TNM12/0622Z TXM04/0705Z \n BECMG 0601/0602 31015G25KT \n BECMG 0612/0613 33009KT \n BECMG 0619/0620 07006KT \n BECMG 0702/0703 29006KT"
"taf	RKSI	2018-02-05 06:00:00	TAF RKSI 050500Z 0506/0612 33015G30KT CAVOK TNM12/0522Z TXM06/0605Z \n BECMG 0511/0512 33012KT \n BECMG 0522/0523 32015G25KT \n BECMG 0610/0611 32010KT"
"taf	RKSI	2018-02-05 12:00:00	TAF RKSI 051100Z 0512/0618 33012KT CAVOK TNM13/0522Z TXM06/0605Z \n BECMG 0523/0524 31015G25KT \n BECMG 0611/0612 32008KT"
"taf	RKSI	2018-02-05 18:00:00	TAF RKSI 051700Z 0518/0624 33013KT CAVOK TNM12/0522Z TXM06/0605Z TNM12/0622Z \n BECMG 0523/0524 31015G25KT \n BECMG 0612/0613 33010KT \n BECMG 0620/0621 06006KT"
"taf	RKSI	2018-02-06 00:00:00	TAF RKSI 062300Z 0700/0806 07005KT 7000 FEW030 BKN160 TXM04/0706Z TNM09/0721Z TXM01/0805Z \n TEMPO 0705/0712 27006KT \n TEMPO 0715/0721 35005KT \n BECMG 0804/0805 28006KT"
"taf	RKSI	2018-02-06 06:00:00	TAF RKSI 060500Z 0606/0712 31015G25KT 9999 FEW030 TNM12/0621Z TXM04/0706Z \n BECMG 0611/0612 33009KT \n BECMG 0619/0620 07006KT \n BECMG 0702/0703 29006KT \n BECMG 0707/0708 23006KT"
"taf	RKSI	2018-02-06 12:00:00	TAF RKSI 061100Z 0612/0718 33015G25KT 9999 FEW030 TNM12/0621Z TXM04/0706Z \n BECMG 0614/0615 35010KT \n BECMG 0702/0703 29006KT \n BECMG 0708/0709 23006KT \n BECMG 0715/0716 35006KT"
"taf	RKSI	2018-02-06 18:00:00	TAF RKSI 061700Z 0618/0724 07005KT CAVOK TNM13/0622Z TXM04/0706Z TNM09/0721Z \n TEMPO 0618/0622 35005KT \n BECMG 0704/0705 27006KT 7000 SCT030 BKN160 \n BECMG 0712/0713 07005KT"
"taf	RKSI	2018-02-07 00:00:00	TAF RKSI 072300Z 0800/0906 07005KT 6000 NSC TX00/0805Z TNM06/0821Z TX03/0905Z \n BECMG 0803/0804 27006KT CAVOK \n BECMG 0812/0813 12005KT \n BECMG 0815/0816 06006KT 6000 NSC \n TEMPO 0820/0823 4200 BR \n BECMG 0900/0901 15008KT"
"taf	RKSI	2018-02-07 06:00:00	TAF RKSI 070500Z 0706/0812 30006KT 9999 FEW030 SCT180 TNM08/0721Z TX00/0806Z \n BECMG 0711/0712 07006KT \n TEMPO 0715/0721 35006KT \n BECMG 0804/0805 30006KT \n BECMG 0810/0811 07006KT"
"taf	RKSI	2018-02-07 12:00:00	TAF RKSI 071100Z 0712/0818 07006KT CAVOK TNM08/0721Z TX00/0806Z \n TEMPO 0715/0801 29006KT \n BECMG 0803/0804 31006KT \n BECMG 0814/0815 07006KT"
"taf	RKSI	2018-02-07 18:00:00	TAF RKSI 071700Z 0718/0824 07005KT CAVOK TNM10/0722Z TX00/0805Z TNM06/0821Z \n BECMG 0804/0805 27006KT \n BECMG 0812/0813 13005KT 9999 SCT030 \n TEMPO 0814/0820 06005KT"
"taf	RKSI	2018-02-08 00:00:00	TAF RKSI 082300Z 0900/1006 06006KT 9999 BKN030 TX04/0906Z TN01/0921Z TX02/1006Z \n BECMG 0902/0903 12010KT SCT030 \n BECMG 0905/0906 18010KT BKN030 \n BECMG 0922/0923 24008KT 4200 BR SCT030 \n BECMG 1002/1003 31012KT 6000 NSW"
"taf	RKSI	2018-02-08 06:00:00	TAF RKSI 080500Z 0806/0912 31006KT CAVOK TNM06/0821Z TX03/0905Z \n BECMG 0812/0813 12005KT \n BECMG 0815/0816 06005KT 6000 NSC \n TEMPO 0820/0823 4200 BR \n TEMPO 0900/0905 15008KT \n BECMG 0906/0907 20007KT"
"taf	RKSI	2018-02-08 12:00:00	TAF RKSI 081100Z 0812/0918 06005KT CAVOK TNM06/0821Z TX03/0905Z \n TEMPO 0820/0823 4200 BR NSC \n TEMPO 0900/0905 15008KT \n BECMG 0913/0914 20007KT 9999 SCT030 \n BECMG 0916/0917 3500 BR"
"taf	RKSI	2018-02-08 18:00:00	TAF RKSI 081700Z 0818/0924 05006KT 7000 BKN030 TNM07/0821Z TX04/0906Z TN01/0921Z \n BECMG 0823/0824 15006KT SCT030 \n BECMG 0902/0903 21010KT \n BECMG 0915/0916 BKN030 BKN110 \n BECMG 0917/0918 29010KT \n BECMG 0919/0920 SCT030 BKN150"
"taf	RKSI	2018-02-09 00:00:00	TAF RKSI 092300Z 1000/1106 32010KT 2800 BR SCT030 BKN110 TX03/1006Z TNM07/1021Z TXM03/1106Z \n BECMG 1002/1003 32015G25KT 4200 \n BECMG 1010/1011 32010KT 6000 NSW \n BECMG 1021/1022 32015G25KT \n BECMG 1100/1101 32020G35KT"
"taf	RKSI	2018-02-09 06:00:00	TAF RKSI 090500Z 0906/1012 18008KT 8000 SCT030 TNM01/0921Z TX02/1006Z \n BECMG 0919/0920 24008KT 4200 BR \n BECMG 0922/0923 31010KT 8000 NSW \n BECMG 1002/1003 33015G25KT"
"taf	RKSI	2018-02-09 12:00:00	TAF RKSI 091100Z 0912/1018 25008KT 7000 SCT030 TN01/0921Z TX02/1006Z \n TEMPO 0919/0921 29006KT 3500 BR \n BECMG 0922/0923 32010KT \n BECMG 1002/1003 33015G25KT \n BECMG 1010/1011 34010KT"
"taf	RKSI	2018-02-09 18:00:00	TAF RKSI 091700Z 0918/1024 22006KT 4200 BR BKN030 BKN180 TN01/0921Z TX03/1006Z TNM07/1021Z \n BECMG 0923/0924 32010KT 7000 NSW \n BECMG 1002/1003 33015G25KT SCT030 BKN150 \n BECMG 1015/1016 33010KT \n BECMG 1020/1021 33016G27KT"
"taf	RKSI	2018-02-10 00:00:00	TAF RKSI 102300Z 1100/1206 33010KT CAVOK TXM03/1106Z TNM09/1122Z TXM02/1205Z \n BECMG 1102/1103 31017G35KT 9999 FEW030 BKN120 \n TEMPO 1105/1107 3200 -SHSN FEW010 BKN025 BKN120 \n BECMG 1110/1111 33015G25KT \n BECMG 1117/1118 33010KT \n BECMG 1202/1203 32015G25KT"
"taf	RKSI	2018-02-10 06:00:00	TAF RKSI 100500Z 1006/1112 32015G25KT CAVOK TNM07/1021Z TXM03/1106Z \n TEMPO 1012/1020 32010KT 6000 FEW030 BKN180 \n BECMG 1100/1101 30018G35KT 9999 FEW030 BKN120 \n BECMG 1103/1104 FEW010 BKN025 \n TEMPO 1105/1109 3200 -SN \n BECMG 1109/1110 32015G25KT FEW010 SCT030"
"taf	RKSI	2018-02-10 12:00:00	TAF RKSI 101100Z 1012/1118 32015G25KT CAVOK TNM07/1021Z TXM03/1106Z \n BECMG 1015/1016 31010KT \n BECMG 1101/1102 30017G35KT 9999 FEW030 BKN120 \n TEMPO 1105/1109 3200 -SN FEW010 BKN025 \n BECMG 1109/1110 31015G25KT \n BECMG 1115/1116 32010KT"
"taf	RKSI	2018-02-10 18:00:00	TAF RKSI 101700Z 1018/1124 33013KT CAVOK TNM08/1021Z TXM03/1106Z TNM09/1122Z \n BECMG 1101/1102 31017G35KT 9999 FEW030 BKN120 \n TEMPO 1105/1109 3200 -SN FEW010 BKN025 BKN120 \n BECMG 1110/1111 33015G25KT \n BECMG 1117/1118 33010KT"
"taf	RKSI	2018-02-10 18:54:00	TAF RKSI 101700Z 1018/1124 33013KT CAVOK TNM08/1021Z TXM03/1106Z TNM09/1122Z \n BECMG 1101/1102 31017G35KT 9999 FEW030 BKN120 \n TEMPO 1105/1109 3200 -SN FEW010 BKN025 BKN120 \n BECMG 1110/1111 33015G25KT \n BECMG 1117/1118 33010KT"
"taf	RKSI	2018-02-11 00:00:00	TAF RKSI 112300Z 1200/1306 07008KT 9999 SCT030 BKN120 TXM02/1205Z TNM07/1222Z TX03/1305Z \n BECMG 1202/1203 31008KT \n TEMPO 1210/1213 FEW010 BKN025 \n BECMG 1301/1302 24006KT"
"taf	RKSI	2018-02-11 06:00:00	TAF RKSI 110500Z 1106/1212 30010KT 9999 SCT030 BKN120 TNM08/1122Z TXM02/1205Z \n TEMPO 1106/1109 3200 -SHSN FEW010 BKN025 \n BECMG 1109/1110 32015G25KT \n BECMG 1116/1117 31010KT \n BECMG 1202/1203 31015G25KT \n BECMG 1209/1210 32010KT"
"taf	RKSI	2018-02-11 06:50:00	TAF \n AMD RKSI 110550Z 1106/1212 30010KT 9999 SCT030 BKN120 TNM08/1122Z TXM02/1205Z \n TEMPO 1106/1109 25008KT 3200 -SHSN FEW010 BKN025 \n BECMG 1109/1110 32015G25KT \n BECMG 1116/1117 31010KT \n BECMG 1202/1203 31015G25KT \n BECMG 1209/1210 32010KT"
"taf	RKSI	2018-02-11 06:54:00	TAF \n AMD TAF \n AMD RKSI 110550Z 1106/1212 30010KT 9999 SCT030 BKN120 TNM08/1122Z TXM02/1205Z \n TEMPO 1106/1109 25008KT 3200 -SHSN FEW010 BKN025 \n BECMG 1109/1110 32015G25KT \n BECMG 1116/1117 31010KT \n BECMG 1202/1203 31015G25KT \n BECMG 1209/1210 32010KT"
"taf	RKSI	2018-02-11 10:50:00	TAF \n AMD RKSI 110950Z 1110/1212 30010KT 9999 SCT030 BKN120 TNM08/1122Z TXM02/1205Z \n TEMPO 1111/1113 27008KT 3200 -SHSN FEW010 BKN025 \n TEMPO 1114/1116 32015G25KT \n BECMG 1202/1203 31015G25KT \n BECMG 1209/1210 32010KT"
"taf	RKSI	2018-02-11 10:57:00	TAF \n AMD TAF \n AMD RKSI 110950Z 1110/1212 30010KT 9999 SCT030 BKN120 TNM08/1122Z TXM02/1205Z \n TEMPO 1111/1113 27008KT 3200 -SHSN FEW010 BKN025 \n TEMPO 1114/1116 32015G25KT \n BECMG 1202/1203 31015G25KT \n BECMG 1209/1210 32010KT"
"taf	RKSI	2018-02-11 12:00:00	TAF RKSI 111100Z 1112/1218 32015G25KT 9999 SCT030 BKN120 TNM08/1122Z TXM02/1205Z \n TEMPO 1112/1113 4200 -SHSN FEW010 BKN025 \n BECMG 1115/1116 31010KT \n BECMG 1203/1204 30015G25KT \n BECMG 1210/1211 31010KT"
"taf	RKSI	2018-02-11 18:00:00	TAF RKSI 111700Z 1118/1224 33010KT 9999 SCT030 BKN120 TNM09/1122Z TXM02/1205Z TNM07/1222Z \n BECMG 1203/1204 31015G25KT \n TEMPO 1210/1213 31010KT FEW010 BKN025 \n BECMG 1214/1215 30007KT"
"taf	RKSI	2018-02-12 00:00:00	TAF RKSI 122300Z 1300/1406 20006KT CAVOK TX03/1305Z TN01/1317Z TX06/1405Z \n BECMG 1307/1308 13010KT \n BECMG 1309/1310 19013KT 6000 FEW030 \n BECMG 1317/1318 19015G25KT \n TEMPO 1322/1324 -RASN FEW010 BKN030 \n BECMG 1401/1402 27015G25KT CAVOK"
"taf	RKSI	2018-02-12 06:00:00	TAF RKSI 120500Z 1206/1312 30006KT 9999 SCT030 TNM07/1222Z TX03/1305Z \n TEMPO 1206/1210 30015G25KT \n BECMG 1301/1302 24006KT \n TEMPO 1306/1312 18010KT"
"taf	RKSI	2018-02-12 09:47:00	TAF \n AMD RKSI 120847Z 1209/1312 30010KT 9999 SCT030 TNM07/1222Z TX03/1305Z \n TEMPO 1210/1212 4200 -SN FEW010 BKN030 \n BECMG 1301/1302 24006KT \n TEMPO 1306/1312 18010KT"
"taf	RKSI	2018-02-12 09:48:00	TAF \n AMD TAF \n AMD RKSI 120847Z 1209/1312 30010KT 9999 SCT030 TNM07/1222Z TX03/1305Z \n TEMPO 1210/1212 4200 -SN FEW010 BKN030 \n BECMG 1301/1302 24006KT \n TEMPO 1306/1312 18010KT"
"taf	RKSI	2018-02-12 12:00:00	TAF RKSI 121100Z 1212/1318 28007KT 9999 SCT030 TNM07/1222Z TX03/1305Z \n TEMPO 1212/1213 6000 -SN FEW010 BKN030 \n BECMG 1305/1306 22007KT \n BECMG 1308/1309 13010KT \n BECMG 1310/1311 19013KT 6000"
"taf	RKSI	2018-02-12 18:00:00	TAF RKSI 121700Z 1218/1324 28005KT 9999 SCT030 TNM07/1222Z TX03/1305Z TN01/1317Z \n BECMG 1304/1305 22007KT \n BECMG 1307/1308 13010KT \n BECMG 1309/1310 19013KT 6000 \n BECMG 1317/1318 19015G25KT \n BECMG 1321/1322 FEW010 BKN030"
"taf	RKSI	2018-02-13 00:00:00	TAF RKSI 132300Z 1400/1506 19015G25KT 9999 SCT030 TX06/1405Z TNM05/1422Z TX02/1505Z \n BECMG 1401/1402 25015G25KT \n BECMG 1405/1406 31015G25KT CAVOK \n BECMG 1409/1410 33008KT"
"taf	RKSI	2018-02-13 06:00:00	TAF RKSI 130500Z 1306/1412 22013KT CAVOK TN02/1319Z TX07/1405Z \n TEMPO 1310/1317 19015G25KT \n BECMG 1317/1318 19018G30KT 6000 FEW010 SCT030 \n BECMG 1400/1401 27015KT CAVOK \n TEMPO 1401/1404 24015G25KT \n BECMG 1406/1407 33011KT"
"taf	RKSI	2018-02-13 12:00:00	TAF RKSI 131100Z 1312/1418 18015KT 6000 FEW010 SCT030 TN02/1319Z TX07/1405Z \n BECMG 1318/1319 18017G30KT \n BECMG 1401/1402 25015G25KT \n BECMG 1405/1406 31015G25KT CAVOK \n BECMG 1409/1410 32008KT"
"taf	RKSI	2018-02-13 18:00:00	TAF RKSI 131700Z 1318/1424 18015G25KT 6000 SCT030 TNM01/1318Z TX06/1405Z TNM05/1422Z \n BECMG 1401/1402 25015G25KT \n BECMG 1405/1406 31015G25KT CAVOK \n BECMG 1409/1410 33008KT"
"taf	RKSI	2018-02-14 00:00:00	TAF RKSI 142300Z 1500/1606 33008KT CAVOK TX02/1506Z TNM05/1522Z TX02/1605Z \n BECMG 1511/1512 07005KT \n TEMPO 1512/1518 34006KT \n BECMG 1603/1604 26008KT"
"taf	RKSI	2018-02-14 06:00:00	TAF RKSI 140500Z 1406/1512 30015G25KT 4200 BR NSC TNM05/1421Z TX02/1506Z \n BECMG 1408/1409 33008KT \n BECMG 1421/1422 6000 NSW"
"taf	RKSI	2018-02-14 12:00:00	TAF RKSI 141100Z 1412/1518 32008KT CAVOK TNM05/1421Z TX02/1506Z"
"taf	RKSI	2018-02-14 18:00:00	TAF RKSI 141700Z 1418/1524 33009KT 9999 FEW030 BKN150 TNM04/1422Z TX02/1506Z TNM05/1522Z \n BECMG 1512/1513 07005KT \n TEMPO 1513/1518 34006KT"
"taf	RKSI	2018-02-15 00:00:00	TAF RKSI 152300Z 1600/1706 05005KT CAVOK TX02/1606Z TNM06/1622Z TX01/1706Z \n BECMG 1603/1604 24008KT \n BECMG 1610/1611 33013KT \n BECMG 1623/1624 32015G25KT"
"taf	RKSI	2018-02-15 06:00:00	TAF RKSI 150500Z 1506/1612 31008KT CAVOK TNM05/1521Z TX02/1606Z \n BECMG 1521/1522 07005KT \n BECMG 1600/1601 31006KT \n BECMG 1603/1604 23008KT \n BECMG 1610/1611 31010KT"
"taf	RKSI	2018-02-15 12:00:00	TAF RKSI 151100Z 1512/1618 31008KT CAVOK TNM05/1521Z TX02/1606Z \n BECMG 1602/1603 23008KT \n BECMG 1610/1611 31010KT"
"taf	RKSI	2018-02-15 18:00:00	TAF RKSI 151700Z 1518/1624 05005KT CAVOK TNM06/1521Z TX02/1606Z TNM06/1622Z \n BECMG 1600/1601 24009KT \n TEMPO 1601/1604 29006KT \n TEMPO 1610/1612 31013KT 6000 NSC \n BECMG 1612/1613 33013G25KT"
"taf	RKSI	2018-02-16 00:00:00	TAF RKSI 162300Z 1700/1806 33015G25KT CAVOK TX02/1706Z TNM05/1721Z TX04/1806Z \n BECMG 1708/1709 34010KT \n BECMG 1716/1717 07008KT \n BECMG 1718/1719 01006KT \n BECMG 1800/1801 31010KT"
"taf	RKSI	2018-02-16 06:00:00	TAF RKSI 160500Z 1606/1712 24008KT CAVOK TNM07/1622Z TX01/1706Z \n BECMG 1610/1611 33013KT \n BECMG 1623/1624 32015G25KT \n BECMG 1708/1709 33007KT"
"taf	RKSI	2018-02-16 12:00:00	TAF RKSI 161100Z 1612/1718 33013KT CAVOK TNM07/1622Z TX01/1706Z \n BECMG 1623/1624 32015G25KT \n BECMG 1708/1709 33007KT"
"taf	RKSI	2018-02-16 18:00:00	TAF RKSI 161700Z 1618/1724 33015G25KT CAVOK TNM06/1621Z TX01/1706Z TNM05/1721Z \n BECMG 1621/1622 32010KT \n BECMG 1623/1624 33015G25KT \n BECMG 1708/1709 34010KT \n BECMG 1715/1716 04008KT"
"taf	RKSI	2018-02-17 00:00:00	TAF RKSI 172300Z 1800/1906 07005KT CAVOK TX03/1806Z TNM02/1821Z TX05/1906Z \n BECMG 1804/1805 27010KT \n BECMG 1810/1811 33006KT \n BECMG 1812/1813 04006KT 4200 BR FEW010 BKN120 \n BECMG 1900/1901 35006KT 6000 NSW"
"taf	RKSI	2018-02-17 06:00:00	TAF RKSI 170500Z 1706/1812 33015G25KT CAVOK TNM05/1721Z TX03/1806Z \n BECMG 1708/1709 34008KT \n BECMG 1717/1718 07006KT \n BECMG 1802/1803 28007KT"
"taf	RKSI	2018-02-17 12:00:00	TAF RKSI 171100Z 1712/1818 29006KT CAVOK TNM05/1721Z TX03/1806Z \n BECMG 1717/1718 07006KT \n BECMG 1802/1803 28007KT \n BECMG 1811/1812 07006KT"
"taf	RKSI	2018-02-17 18:00:00	TAF RKSI 171700Z 1718/1824 07005KT CAVOK TNM06/1721Z TX03/1806Z TNM02/1821Z \n BECMG 1802/1803 27006KT \n BECMG 1816/1817 07006KT \n BECMG 1821/1822 9999 BKN030"
"taf	RKSI	2018-02-18 00:00:00	TAF RKSI 182300Z 1900/2006 28006KT 7000 BKN030 BKN150 TX05/1906Z TNM03/1922Z TX04/2006Z \n BECMG 1901/1902 FEW030 BKN150 \n BECMG 1915/1916 4200 BR \n BECMG 1917/1918 07006KT 7000 NSW \n BECMG 2002/2003 28007KT"
"taf	RKSI	2018-02-18 06:00:00	TAF RKSI 180500Z 1806/1912 27010KT CAVOK TNM02/1821Z TX05/1906Z \n BECMG 1810/1811 33006KT \n BECMG 1815/1816 07005KT 6000 FEW030 BKN150 \n BECMG 1901/1902 30007KT 9999"
"taf	RKSI	2018-02-18 12:00:00	TAF RKSI 181100Z 1812/1918 33005KT CAVOK TNM02/1821Z TX05/1906Z \n BECMG 1816/1817 07005KT 6000 FEW030 BKN150 \n BECMG 1901/1902 29007KT \n BECMG 1913/1914 4200 BR \n BECMG 1916/1917 35006KT 6000 NSW"
"taf	RKSI	2018-02-18 18:00:00	TAF RKSI 181700Z 1818/1924 33005KT 7000 FEW025 BKN150 TNM04/1821Z TX05/1906Z TNM03/1922Z \n BECMG 1819/1820 07005KT \n BECMG 1901/1902 28007KT \n BECMG 1915/1916 4200 BR \n BECMG 1917/1918 34008KT 6000 NSW"
"taf	RKSI	2018-02-19 00:00:00	TAF RKSI 192300Z 2000/2106 34006KT 8000 FEW030 BKN180 TX04/2005Z TNM04/2021Z TX03/2106Z \n BECMG 2003/2004 28010KT \n BECMG 2009/2010 34008KT \n BECMG 2103/2104 28010KT"
"taf	RKSI	2018-02-19 06:00:00	TAF RKSI 190500Z 1906/2012 29006KT 9999 FEW030 BKN180 TNM02/1922Z TX04/2005Z \n BECMG 1915/1916 34006KT 4200 BR \n BECMG 1917/1918 07006KT 6000 NSW \n BECMG 2002/2003 28008KT 9999 \n BECMG 2009/2010 34010KT"
"taf	RKSI	2018-02-19 12:00:00	TAF RKSI 191100Z 1912/2018 30006KT 7000 FEW030 BKN180 TNM02/1922Z TX04/2005Z \n BECMG 1914/1915 34006KT 3800 BR \n BECMG 1917/1918 6000 NSW \n BECMG 2003/2004 28010KT 9999 \n BECMG 2009/2010 34008KT"
"taf	RKSI	2018-02-19 18:00:00	TAF RKSI 191700Z 1918/2024 34006KT 4200 BR FEW030 BKN180 TNM02/1922Z TX04/2005Z TNM04/2021Z \n BECMG 1921/1922 8000 NSW \n BECMG 2003/2004 28010KT \n BECMG 2009/2010 34008KT"
"taf	RKSI	2018-02-20 00:00:00	TAF RKSI 202300Z 2100/2206 34008KT CAVOK TX03/2105Z TNM02/2122Z TX05/2205Z \n BECMG 2105/2106 28010KT \n BECMG 2115/2116 18006KT \n BECMG 2200/2201 20015G25KT 9999 SCT030"
"taf	RKSI	2018-02-20 06:00:00	TAF RKSI 200500Z 2006/2112 33007KT CAVOK TNM04/2021Z TX03/2106Z \n TEMPO 2105/2110 27010KT"
"taf	RKSI	2018-02-20 12:00:00	TAF RKSI 201100Z 2012/2118 33007KT 9999 FEW030 BKN180 TNM04/2021Z TX03/2106Z \n TEMPO 2105/2111 27010KT \n BECMG 2112/2113 16005KT"
"taf	RKSI	2018-02-20 18:00:00	TAF RKSI 201700Z 2018/2124 34007KT 9999 FEW030 BKN180 TNM04/2021Z TX03/2105Z TNM02/2122Z \n TEMPO 2106/2112 28010KT \n BECMG 2113/2114 17005KT"
"taf	RKSI	2018-02-21 00:00:00	TAF RKSI 212300Z 2200/2306 19012KT 9999 SCT030 TX05/2205Z TNM01/2222Z TX06/2305Z \n TEMPO 2205/2206 6000 -SNRA FEW010 BKN030 \n BECMG 2212/2213 3200 -SN FEW010 BKN025 OVC080 \n BECMG 2217/2218 BR \n BECMG 2219/2220 SCT030 \n BECMG 2300/2301 25010KT 6000 NSW"
"taf	RKSI	2018-02-21 06:00:00	TAF RKSI 210500Z 2106/2212 27010KT CAVOK TNM03/2121Z TX05/2205Z \n BECMG 2115/2116 17007KT \n BECMG 2200/2201 20015G25KT 9999 SCT030 \n BECMG 2211/2212 19014KT 6000 -SNRA FEW010 BKN025 OVC080"
"taf	RKSI	2018-02-21 12:00:00	TAF RKSI 211100Z 2112/2218 27010KT CAVOK TNM03/2121Z TX05/2205Z \n BECMG 2115/2116 18007KT \n BECMG 2200/2201 20015G25KT 9999 SCT030 \n BECMG 2211/2212 17015G25KT 4200 -SN FEW010 BKN025 OVC080 \n TEMPO 2212/2215 2800 \n BECMG 2215/2216 BR"
"taf	RKSI	2018-02-21 18:00:00	TAF RKSI 211700Z 2118/2224 20007KT CAVOK TNM03/2121Z TX05/2205Z TNM01/2222Z \n BECMG 2200/2201 21015G25KT 9999 SCT030 \n BECMG 2211/2212 18012KT 3500 -SN FEW010 BKN025 OVC080 \n TEMPO 2213/2216 2200 \n BECMG 2217/2218 21008KT BR \n BECMG 2219/2220 SCT030"
"taf	RKSI	2018-02-22 00:00:00	TAF RKSI 222300Z 2300/2406 22008KT 6000 NSC TX07/2306Z TN00/2321Z TX06/2405Z \n TEMPO 2300/2303 16006KT 2800 BR \n BECMG 2312/2313 25007KT 2800 BR FEW005 SCT017 \n TEMPO 2317/2321 33006KT 1400 \n BECMG 2321/2322 34007KT 3500 NSC \n BECMG 2401/2402 31007KT 6000 NSW"
"taf	RKSI	2018-02-22 06:00:00	TAF RKSI 220500Z 2206/2312 21015G25KT 9999 SCT030 BKN180 TN00/2221Z TX09/2306Z \n TEMPO 2212/2213 24012KT 4200 -SNRA FEW010 BKN030 \n BECMG 2214/2215 27010KT 2800 -SN FEW010 BKN030 \n BECMG 2217/2218 6000 NSW SCT030 \n BECMG 2310/2311 35010KT"
"taf	RKSI	2018-02-22 12:00:00	TAF RKSI 221100Z 2212/2318 20010KT 9999 SCT030 BKN180 TN00/2221Z TX09/2306Z \n TEMPO 2212/2213 23010KT 4200 -SNRA FEW010 BKN030 \n TEMPO 2215/2218 25012KT 3500 -SN FEW010 BKN025 \n BECMG 2219/2220 35010KT 4200 BR \n BECMG 2303/2304 22008KT 6000 NSW"
"taf	RKSI	2018-02-22 13:23:00	TAF \n AMD RKSI 221323Z 2213/2318 20010KT 9999 SCT030 BKN180 TN00/2221Z TX09/2306Z \n TEMPO 2213/2216 18015G25KT 2500 -TSSNRA SCT012CB BKN030 OVC080 \n BECMG 2219/2220 35010KT 4200 BR \n BECMG 2303/2304 22008KT 6000 NSW"
"taf	RKSI	2018-02-22 13:24:00	TAF \n AMD TAF \n AMD RKSI 221323Z 2213/2318 20010KT 9999 SCT030 BKN180 TN00/2221Z TX09/2306Z \n TEMPO 2213/2216 18015G25KT 2500 -TSSNRA SCT012CB BKN030 OVC080 \n BECMG 2219/2220 35010KT 4200 BR \n BECMG 2303/2304 22008KT 6000 NSW"
"taf	RKSI	2018-02-22 16:35:00	TAF \n AMD RKSI 221535Z 2216/2318 24010KT 9999 SCT030 BKN180 TN00/2221Z TX09/2306Z \n TEMPO 2216/2220 27010KT 2500 BR SCT012 BKN030 OVC080 \n BECMG 2220/2221 35010KT 4200 BR \n BECMG 2303/2304 22008KT 6000 NSW"
"taf	RKSI	2018-02-22 16:36:00	TAF \n AMD TAF \n AMD RKSI 221535Z 2216/2318 24010KT 9999 SCT030 BKN180 TN00/2221Z TX09/2306Z \n TEMPO 2216/2220 27010KT 2500 BR SCT012 BKN030 OVC080 \n BECMG 2220/2221 35010KT 4200 BR \n BECMG 2303/2304 22008KT 6000 NSW"
"taf	RKSI	2018-02-22 18:00:00	TAF RKSI 221700Z 2218/2324 29006KT 2500 BR BKN030 TN00/2221Z TX07/2306Z TN00/2321Z \n TEMPO 2223/2302 17006KT 4200 SCT030 \n BECMG 2302/2303 22007KT 6000 NSW SCT030 \n BECMG 2313/2314 34006KT 3200 BR \n TEMPO 2318/2322 1800"
"taf	RKSI	2018-02-22 21:15:00	TAF \n AMD TAF \n AMD RKSI 222115Z 2221/2324 16006KT 2500 BR BKN030 TNM01/2222Z TX07/2306Z TN00/2321Z \n TEMPO 2221/2224 1200 \n TEMPO 2300/2302 4200 SCT030 \n BECMG 2302/2303 22007KT 6000 NSW SCT030 \n BECMG 2313/2314 34006KT 3200 BR \n TEMPO 2318/2322 1800"
"taf	RKSI	2018-02-23 00:00:00	TAF RKSI 232300Z 2400/2506 31006KT 6000 NSC TX04/2406Z TNM03/2421Z TX05/2505Z"
"taf	RKSI	2018-02-23 06:00:00	TAF RKSI 230500Z 2306/2412 20010KT 2200 BR FEW010 SCT030 TN00/2321Z TX06/2406Z \n BECMG 2312/2313 23006KT 1400 \n BECMG 2320/2321 29006KT 2500 \n BECMG 2400/2401 34010KT 4200 \n BECMG 2403/2404 6000 NSW"
"taf	RKSI	2018-02-23 12:00:00	TAF RKSI 231100Z 2312/2418 23010KT 2500 BR FEW010 SCT030 TN00/2321Z TX06/2406Z \n BECMG 2315/2316 26010KT 3500 \n BECMG 2318/2319 33015G25KT 6000 NSW \n BECMG 2402/2403 29010KT \n BECMG 2411/2412 35010KT"
"taf	RKSI	2018-02-23 15:51:00	TAF \n AMD TAF \n AMD RKSI 231452Z 2315/2418 34010KT 2200 BR FEW010 SCT030 TN00/2321Z TX06/2406Z \n TEMPO 2315/2320 1200 BKN005 \n BECMG 2320/2321 6000 NSW \n BECMG 2402/2403 28010KT \n BECMG 2411/2412 35010KT"
"taf	RKSI	2018-02-23 15:52:00	TAF \n AMD RKSI 231452Z 2315/2418 34010KT 2200 BR FEW010 SCT030 TN00/2321Z TX06/2406Z \n TEMPO 2315/2320 1200 BKN005 \n BECMG 2320/2321 6000 NSW \n BECMG 2402/2403 28010KT \n BECMG 2411/2412 35010KT"
"taf	RKSI	2018-02-23 18:00:00	TAF RKSI 231700Z 2318/2424 33007KT 3200 BR SCT030 TNM01/2321Z TX06/2406Z TNM02/2421Z \n TEMPO 2318/2320 0400 FG BKN003 \n BECMG 2321/2322 6000 NSW"
"taf	RKSI	2018-02-23 18:20:00	TAF \n AMD RKSI 231820Z 2318/2424 33007KT 2800 BR SCT020 TNM02/2321Z TX06/2406Z TNM02/2421Z \n TEMPO 2318/2320 1400 \n BECMG 2321/2322 6000 NSW"
"taf	RKSI	2018-02-23 18:21:00	TAF \n AMD TAF \n AMD RKSI 231820Z 2318/2424 33007KT 2800 BR SCT020 TNM02/2321Z TX06/2406Z TNM02/2421Z \n TEMPO 2318/2320 1400 \n BECMG 2321/2322 6000 NSW"
"taf	RKSI	2018-02-24 00:00:00	TAF RKSI 242300Z 2500/2606 35006KT CAVOK TX05/2506Z TNM03/2521Z TX06/2606Z \n BECMG 2505/2506 29010KT \n BECMG 2512/2513 35007KT \n BECMG 2601/2602 14006KT"
"taf	RKSI	2018-02-24 06:00:00	TAF RKSI 240500Z 2406/2512 33007KT 7000 NSC TNM03/2421Z TX05/2505Z \n TEMPO 2504/2508 27010KT"
"taf	RKSI	2018-02-24 12:00:00	TAF RKSI 241100Z 2412/2518 31007KT 7000 NSC TNM03/2421Z TX05/2505Z"
"taf	RKSI	2018-02-24 18:00:00	TAF RKSI 241700Z 2418/2524 33007KT 7000 FEW010 SCT030 BKN180 TNM03/2421Z TX05/2506Z TNM03/2521Z \n TEMPO 2506/2511 27010KT"
"taf	RKSI	2018-02-25 00:00:00	TAF RKSI 252300Z 2600/2706 07006KT CAVOK TX05/2606Z TN00/2621Z TX07/2706Z \n BECMG 2601/2602 30006KT \n BECMG 2603/2604 23006KT \n BECMG 2615/2616 05006KT \n BECMG 2617/2618 15007KT \n BECMG 2622/2623 19006KT 4200 BR FEW010 BKN030 BKN120"
"taf	RKSI	2018-02-25 06:00:00	TAF RKSI 250500Z 2506/2612 31007KT CAVOK TNM04/2521Z TX06/2606Z \n TEMPO 2603/2612 24006KT"
"taf	RKSI	2018-02-25 12:00:00	TAF RKSI 251100Z 2512/2618 31007KT CAVOK TNM04/2521Z TX06/2606Z \n TEMPO 2603/2613 24007KT \n BECMG 2614/2615 14006KT 6000 FEW010 BKN150 \n BECMG 2616/2617 3500 BR"
"taf	RKSI	2018-02-25 18:00:00	TAF RKSI 251700Z 2518/2624 33006KT CAVOK TNM03/2521Z TX06/2606Z TN00/2621Z \n TEMPO 2522/2601 07006KT \n BECMG 2602/2603 23006KT \n BECMG 2615/2616 04006KT \n BECMG 2617/2618 15006KT \n BECMG 2622/2623 19006KT 4200 BR FEW010 BKN030 BKN120"
"taf	RKSI	2018-02-26 00:00:00	TAF RKSI 262300Z 2700/2806 17006KT 6000 FEW010 BKN030 OVC150 TX07/2705Z TN03/2721Z TX08/2803Z \n BECMG 2704/2705 21006KT 3500 HZ \n BECMG 2708/2709 12006KT 2000 BR \n BECMG 2716/2717 09008KT 3200 \n BECMG 2722/2723 6000 NSW FEW010 SCT030 BKN130 \n BECMG 2803/2804 3500 -RA FEW010 BKN025 OVC080"
"taf	RKSI	2018-02-26 06:00:00	TAF RKSI 260500Z 2606/2712 23006KT CAVOK TNM01/2621Z TX07/2705Z \n BECMG 2615/2616 05006KT 6000 FEW030 BKN120 \n BECMG 2617/2618 15007KT \n BECMG 2623/2624 FEW010 BKN030 BKN120 \n BECMG 2703/2704 19006KT 4200 HZ \n BECMG 2710/2711 09006KT 2800 BR"
"taf	RKSI	2018-02-26 12:00:00	TAF RKSI 261100Z 2612/2718 05005KT CAVOK TNM01/2621Z TX06/2705Z \n BECMG 2619/2620 18006KT 6000 FEW030 BKN120 \n BECMG 2623/2624 FEW010 BKN030 OVC120 \n BECMG 2705/2706 21006KT 4200 HZ \n BECMG 2710/2711 09007KT 2800 BR \n BECMG 2712/2713 SCT030 BKN150"
"taf	RKSI	2018-02-26 18:00:00	TAF RKSI 261700Z 2618/2724 18006KT 6000 FEW010 BKN120 TNM02/2621Z TX07/2705Z TN03/2721Z \n BECMG 2623/2624 FEW010 BKN030 BKN150 \n BECMG 2704/2705 21006KT 3500 HZ \n BECMG 2708/2709 12006KT 2000 BR \n BECMG 2716/2717 3200 \n BECMG 2722/2723 09008KT 6000 NSW"
"taf	RKSI	2018-02-27 00:00:00	TAF RKSI 272300Z 2800/0106 08007KT 4200 BR FEW010 BKN020 OVC080 TX07/2803Z TN00/2823Z TX01/0105Z \n BECMG 2802/2803 -RA \n BECMG 2807/2808 07015G25KT 2800 RA \n BECMG 2812/2813 33013KT 4200 -RA \n BECMG 2816/2817 28010KT 7000 NSW \n BECMG 2823/2824 34020G35KT FEW030"
"taf	RKSI	2018-02-27 06:00:00	TAF RKSI 270500Z 2706/2812 15006KT 6000 FEW010 BKN025 OVC100 TN01/2721Z TX07/2803Z \n BECMG 2710/2711 09007KT 4200 BR \n BECMG 2721/2722 6000 NSW SCT030 BKN120 \n BECMG 2803/2804 -RA FEW010 BKN025 OVC080 \n BECMG 2805/2806 06010KT 4200 \n BECMG 2811/2812 03008KT 2800"
"taf	RKSI	2018-02-27 12:00:00	TAF RKSI 271100Z 2712/2818 06006KT 3200 BR FEW010 BKN025 OVC080 TN03/2721Z TX07/2803Z \n BECMG 2721/2722 09008KT 6000 NSW \n BECMG 2802/2803 4200 -RA \n TEMPO 2806/2811 07015G25KT 2800 RA \n BECMG 2812/2813 32010KT \n BECMG 2815/2816 29010KT BR"
"taf	RKSI	2018-02-27 18:00:00	TAF RKSI 271700Z 2718/2824 09007KT 4200 BR FEW010 BKN025 OVC080 TN03/2721Z TX07/2803Z TN00/2823Z \n BECMG 2721/2722 6000 NSW \n BECMG 2803/2804 4200 -RA \n BECMG 2807/2808 07015G25KT 2800 RA \n BECMG 2813/2814 33013KT 4200 -RA \n BECMG 2819/2820 7000 NSW FEW030"
"taf	RKSI	2018-02-28 00:00:00	TAF RKSI 282300Z 0100/0206 31022G38KT 9999 FEW030 TX02/0105Z TNM05/0122Z TX02/0205Z \n BECMG 0110/0111 32015G25KT \n BECMG 0115/0116 33007KT \n BECMG 0201/0202 24006KT"
"taf	RKSI	2018-02-28 06:00:00	TAF RKSI 280500Z 2806/0112 06011KT 3200 -RA FEW010 BKN020 OVC080 TN00/2823Z TX01/0105Z \n BECMG 2813/2814 35010KT BR \n BECMG 2816/2817 29010KT \n TEMPO 2819/2821 26011KT 2800 -RA \n BECMG 2821/2822 33019G35KT 7000 NSW FEW030 \n BECMG 0108/0109 33015G25KT"
"taf	RKSI	2018-02-28 08:20:00	TAF \n AMD RKSI 280820Z 2808/0112 05013KT 2000 -RASN FEW010 BKN020 OVC080 TN00/2823Z TX01/0105Z \n BECMG 2813/2814 35010KT BR \n BECMG 2816/2817 29010KT \n TEMPO 2819/2821 26011KT -RA \n BECMG 2821/2822 33019G35KT 7000 NSW FEW030 \n BECMG 0108/0109 33015G25KT"
"taf	RKSI	2018-02-28 08:21:00	TAF \n AMD TAF \n AMD RKSI 280820Z 2808/0112 05013KT 2000 -RASN FEW010 BKN020 OVC080 TN00/2823Z TX01/0105Z \n BECMG 2813/2814 35010KT BR \n BECMG 2816/2817 29010KT \n TEMPO 2819/2821 26011KT -RA \n BECMG 2821/2822 33019G35KT 7000 NSW FEW030 \n BECMG 0108/0109 33015G25KT"
"taf	RKSI	2018-02-28 12:00:00	TAF RKSI 281100Z 2812/0118 35008KT 6000 FEW010 BKN020 OVC080 TN00/2823Z TX01/0105Z \n TEMPO 2812/2814 02010KT 4200 -RA \n BECMG 2817/2818 29010KT \n TEMPO 2819/2821 3200 -RASN \n BECMG 2821/2822 32020G33KT FEW030 \n BECMG 0111/0112 33012KT"
"taf	RKSI	2018-02-28 18:00:00	TAF RKSI 281700Z 2818/0124 31010KT 6000 BKN030 OVC080 TN00/2823Z TX01/0105Z TNM04/0122Z \n TEMPO 2819/2821 30015G25KT 2800 -RASN \n BECMG 2821/2822 32018G37KT CAVOK \n BECMG 0111/0112 32015G25KT \n BECMG 0117/0118 33008KT"
"taf	RKSI	2018-03-01 00:00:00	TAF RKSI 012300Z 0200/0306 23006KT CAVOK TX02/0205Z TNM01/0220Z TX11/0305Z \n BECMG 0209/0210 06006KT \n TEMPO 0210/0214 16006KT \n BECMG 0220/0221 16007KT 9999 SCT030"
"taf	RKSI	2018-03-01 06:00:00	TAF RKSI 010500Z 0106/0212 31020G35KT CAVOK TNM05/0122Z TX02/0205Z \n BECMG 0110/0111 32015G25KT \n BECMG 0115/0116 33007KT \n BECMG 0201/0202 23006KT"
"taf	RKSI	2018-03-01 12:00:00	TAF RKSI 011100Z 0112/0218 32015G25KT CAVOK TNM05/0122Z TX02/0205Z \n BECMG 0115/0116 33007KT \n BECMG 0201/0202 23006KT \n BECMG 0209/0210 05006KT \n TEMPO 0210/0214 16006KT"
"taf	RKSI	2018-03-01 18:00:00	TAF RKSI 011700Z 0118/0224 34008KT CAVOK TNM05/0122Z TX02/0205Z TNM01/0222Z \n BECMG 0200/0201 23006KT \n BECMG 0209/0210 06006KT \n TEMPO 0210/0214 16006KT \n BECMG 0221/0222 15006KT 9999 SCT030"
"taf	RKSI	2018-03-02 00:00:00	TAF RKSI 022300Z 0300/0406 15007KT 9999 SCT030 TX10/0306Z TN05/0322Z TX11/0405Z \n BECMG 0308/0309 BKN030 OVC120 \n BECMG 0317/0318 19008KT 2500 -RA SCT005 BKN025 OVC080 \n TEMPO 0320/0324 1000 \n BECMG 0400/0401 08005KT 1400 BR \n BECMG 0402/0403 05006KT 2500"
"taf	RKSI	2018-03-02 06:00:00	TAF RKSI 020500Z 0206/0312 29007KT CAVOK TN01/0221Z TX11/0306Z \n BECMG 0208/0209 23006KT \n BECMG 0216/0217 04006KT \n BECMG 0218/0219 17006KT \n BECMG 0309/0310 23010KT"
"taf	RKSI	2018-03-02 12:00:00	TAF RKSI 021100Z 0212/0318 31006KT 9999 SCT030 TNM02/0221Z TX11/0306Z \n BECMG 0218/0219 15006KT \n BECMG 0309/0310 23010KT \n BECMG 0312/0313 20008KT 4200 BR FEW010 BKN030 BKN120 \n BECMG 0315/0316 -RA"
"taf	RKSI	2018-03-02 18:00:00	TAF RKSI 021700Z 0218/0324 06005KT 9999 FEW012 BKN060 TNM01/0221Z TX10/0306Z TN05/0322Z \n BECMG 0220/0221 16007KT \n BECMG 0317/0318 20006KT 2200 -RA SCT005 BKN025 OVC080 \n TEMPO 0320/0323 1200 \n BECMG 0323/0324 08005KT 1400"
"taf	RKSI	2018-03-02 18:06:00	TAF RKSI 021700Z 0218/0324 06005KT 9999 FEW012 BKN060 TNM01/0221Z TX10/0306Z TN05/0322Z \n BECMG 0220/0221 16007KT \n BECMG 0317/0318 20006KT 2200 -RA SCT005 BKN025 OVC080 \n TEMPO 0320/0323 1200 \n BECMG 0323/0324 08005KT 1400"
"taf	RKSI	2018-03-03 00:00:00	TAF RKSI 032300Z 0400/0506 05006KT 2800 BR FEW010 BKN020 OVC080 TX12/0406Z TN05/0422Z TX09/0505Z \n BECMG 0402/0403 4200 \n BECMG 0407/0408 2200 -RA \n BECMG 0410/0411 04015G25KT \n BECMG 0419/0420 4200 \n BECMG 0422/0423 6000 NSW SCT030"
"taf	RKSI	2018-03-03 06:00:00	TAF RKSI 030500Z 0306/0412 17010KT 7000 SCT030 TN06/0321Z TX14/0406Z \n BECMG 0311/0312 20007KT 3500 BR BKN030 BKN120 \n BECMG 0318/0319 0900 -RA \n BECMG 0401/0402 03006KT 1600 BR \n BECMG 0408/0409 06010KT 3500 -RA SCT008 BKN025 OVC080 \n BECMG 0410/0411 07015G25KT"
"taf	RKSI	2018-03-03 12:00:00	TAF RKSI 031100Z 0312/0418 26007KT 7000 BKN030 BKN120 TN06/0321Z TX13/0406Z \n BECMG 0316/0317 20007KT 3500 -RA \n TEMPO 0318/0321 23007KT 0900 SCT008 BKN025 BKN110 \n BECMG 0322/0323 1600 BR \n BECMG 0402/0403 15007KT 3500 \n BECMG 0408/0409 35015G25KT 1600 -RA SCT010 BKN025 OVC080"
"taf	RKSI	2018-03-03 18:00:00	TAF RKSI 031700Z 0318/0424 16007KT 1800 BR SCT005 BKN020 OVC080 TN05/0321Z TX12/0406Z TN05/0422Z \n TEMPO 0320/0324 0900 -RA \n BECMG 0402/0403 05008KT 3200 BKN030 BKN120 \n BECMG 0408/0409 04015G25KT 2200 -RA SCT008 BKN020 OVC080 \n BECMG 0422/0423 6000 NSW BKN030 OVC100"
"taf	RKSI	2018-03-03 21:50:00	TAF \n AMD RKSI 032050Z 0321/0424 16007KT 1800 BR BKN005 BKN020 OVC080 TN05/0322Z TX12/0406Z TN05/0422Z \n TEMPO 0321/0401 0400 DZ FG \n BECMG 0402/0403 05008KT 3200 BKN030 BKN120 \n BECMG 0408/0409 04015G25KT 2200 -RA SCT008 BKN020 OVC080 \n BECMG 0422/0423 6000 NSW BKN030 OVC100"
"taf	RKSI	2018-03-03 21:51:00	TAF \n AMD TAF \n AMD RKSI 032050Z 0321/0424 16007KT 1800 BR BKN005 BKN020 OVC080 TN05/0322Z TX12/0406Z TN05/0422Z \n TEMPO 0321/0401 0400 DZ FG \n BECMG 0402/0403 05008KT 3200 BKN030 BKN120 \n BECMG 0408/0409 04015G25KT 2200 -RA SCT008 BKN020 OVC080 \n BECMG 0422/0423 6000 NSW BKN030 OVC100"
"taf	RKSI	2018-03-04 00:00:00	TAF RKSI 042300Z 0500/0606 04015G25KT 9999 SCT030 TX09/0506Z TNM02/0521Z TX07/0606Z \n BECMG 0504/0505 05010KT \n BECMG 0510/0511 11006KT \n BECMG 0522/0523 35008KT"
"taf	RKSI	2018-03-04 06:00:00	TAF RKSI 040500Z 0406/0512 05010KT 2000 BR FEW010 BKN020 OVC080 TN03/0422Z TX08/0505Z \n BECMG 0407/0408 -RA \n BECMG 0410/0411 04016G30KT \n BECMG 0419/0420 3500 \n BECMG 0422/0423 6000 NSW SCT030 \n BECMG 0504/0505 06008KT"
"taf	RKSI	2018-03-04 12:00:00	TAF RKSI 041100Z 0412/0518 05010KT 3500 -RA FEW010 BKN020 OVC080 TN03/0422Z TX08/0505Z \n BECMG 0413/0414 04016G30KT 2500 RA \n BECMG 0417/0418 3500 \n BECMG 0422/0423 6000 NSW SCT030 \n BECMG 0504/0505 06010KT \n BECMG 0512/0513 12006KT 3500 BR"
"taf	RKSI	2018-03-04 13:33:00	TAF \n AMD RKSI 041133Z 0413/0518 02025G35KT 2800 -RA FEW010 BKN020 OVC080 TN03/0422Z TX08/0505Z \n BECMG 0417/0418 3500 \n BECMG 0422/0423 04015G25KT 6000 NSW SCT030 \n BECMG 0504/0505 06010KT \n BECMG 0512/0513 12006KT 3500 BR"
"taf	RKSI	2018-03-04 13:36:00	TAF \n AMD TAF \n AMD RKSI 041133Z 0413/0518 02025G35KT 2800 -RA FEW010 BKN020 OVC080 TN03/0422Z TX08/0505Z \n BECMG 0417/0418 3500 \n BECMG 0422/0423 04015G25KT 6000 NSW SCT030 \n BECMG 0504/0505 06010KT \n BECMG 0512/0513 12006KT 3500 BR"
"taf	RKSI	2018-03-04 18:00:00	TAF \n AMD RKSI 041732Z 0418/0524 04025G35KT 2500 -RA FEW010 BKN020 OVC080 TN04/0421Z TX09/0506Z TNM02/0521Z \n BECMG 0420/0421 3500 BR \n BECMG 0422/0423 04015G25KT 6000 NSW SCT030 \n BECMG 0505/0506 07010KT \n BECMG 0515/0516 01006KT"
"taf	RKSI	2018-03-04 18:32:00	TAF \n AMD RKSI 041732Z 0418/0524 04025G35KT 2500 -RA FEW010 BKN020 OVC080 TN04/0421Z TX09/0506Z TNM02/0521Z \n BECMG 0420/0421 3500 BR \n BECMG 0422/0423 04015G25KT 6000 NSW SCT030 \n BECMG 0505/0506 07010KT \n BECMG 0515/0516 01006KT"
"taf	RKSI	2018-03-04 18:39:00	TAF \n AMD TAF \n AMD RKSI 041732Z 0418/0524 04025G35KT 2500 -RA FEW010 BKN020 OVC080 TN04/0421Z TX09/0506Z TNM02/0521Z \n BECMG 0420/0421 3500 BR \n BECMG 0422/0423 04015G25KT 6000 NSW SCT030 \n BECMG 0505/0506 07010KT \n BECMG 0515/0516 01006KT"
"taf	RKSI	2018-03-05 00:00:00	TAF RKSI 052300Z 0600/0706 01006KT CAVOK TX07/0606Z TN01/0621Z TX08/0706Z \n BECMG 0603/0604 31010KT \n BECMG 0608/0609 01006KT \n BECMG 0617/0618 07007KT \n BECMG 0700/0701 13010KT 7000 BKN030 BKN150"
"taf	RKSI	2018-03-05 12:00:00	TAF RKSI 051100Z 0512/0618 04007KT 9999 SCT030 TNM02/0521Z TX08/0606Z \n BECMG 0514/0515 11006KT \n TEMPO 0517/0519 4200 BR \n TEMPO 0602/0609 29007KT \n BECMG 0610/0611 33006KT \n BECMG 0615/0616 11006KT"
"taf	RKSI	2018-03-05 18:00:00	TAF RKSI 051700Z 0518/0624 33008KT CAVOK TNM02/0521Z TX07/0606Z TN01/0621Z \n BECMG 0615/0616 07006KT \n BECMG 0617/0618 01006KT \n BECMG 0621/0622 13008KT"
"taf	RKSI	2018-03-06 00:00:00	TAF RKSI 062300Z 0700/0806 14008KT CAVOK TX09/0705Z TN01/0721Z TX06/0806Z \n BECMG 0711/0712 9999 FEW010 BKN030 OVC080 \n BECMG 0714/0715 11006KT 4200 -RA \n TEMPO 0720/0724 03006KT 2800 \n BECMG 0804/0805 33010KT 7000 NSW SCT030"
"taf	RKSI	2018-03-06 06:00:00	TAF RKSI 060500Z 0606/0712 31010KT CAVOK TN01/0621Z TX08/0705Z \n BECMG 0609/0610 01006KT \n TEMPO 0618/0624 09007KT \n BECMG 0700/0701 15007KT \n BECMG 0711/0712 09010KT 7000 FEW010 BKN030 BKN120"
"taf	RKSI	2018-03-06 12:00:00	TAF RKSI 061100Z 0612/0718 01006KT CAVOK TN01/0621Z TX09/0705Z \n TEMPO 0618/0624 10006KT \n BECMG 0702/0703 14007KT \n BECMG 0711/0712 9999 FEW010 BKN030 OVC100 \n BECMG 0714/0715 11006KT 4200 -RA \n BECMG 0716/0717 05006KT"
"taf	RKSI	2018-03-06 18:00:00	TAF RKSI 061700Z 0618/0724 04008KT CAVOK TN01/0621Z TX09/0705Z TN01/0721Z \n TEMPO 0620/0701 10006KT \n BECMG 0702/0703 14008KT \n BECMG 0711/0712 9999 FEW010 BKN030 OVC100 \n BECMG 0714/0715 11006KT 4200 -RA \n TEMPO 0720/0724 01006KT 2800"
"taf	RKSI	2018-03-07 00:00:00	TAF RKSI 072300Z 0800/0906 33010KT 3500 -RA FEW010 BKN025 OVC080 TX08/0806Z TNM01/0821Z TX06/0905Z \n BECMG 0802/0803 7000 NSW SCT030 \n BECMG 0806/0807 33015G25KT \n BECMG 0810/0811 34010KT \n BECMG 0904/0905 28007KT"
"taf	RKSI	2018-03-07 06:00:00	TAF RKSI 070500Z 0706/0812 16008KT CAVOK TN01/0721Z TX06/0806Z \n BECMG 0707/0708 9999 FEW010 BKN030 OVC080 \n BECMG 0713/0714 10006KT 4200 -RA \n TEMPO 0718/0724 02006KT 2800 -RASN \n BECMG 0803/0804 34010KT 7000 NSW SCT030"
"taf	RKSI	2018-03-07 08:00:00	TAF \n AMD RKSI 070800Z 0708/0812 32008KT 9999 FEW010 BKN030 OVC100 TN01/0721Z TX06/0806Z \n BECMG 0713/0714 10006KT 4200 -RA \n TEMPO 0718/0724 02006KT 2800 -RASN \n BECMG 0803/0804 34010KT 7000 NSW SCT030"
"taf	RKSI	2018-03-07 08:06:00	TAF \n AMD TAF \n AMD RKSI 070800Z 0708/0812 32008KT 9999 FEW010 BKN030 OVC100 TN01/0721Z TX06/0806Z \n BECMG 0713/0714 10006KT 4200 -RA \n TEMPO 0718/0724 02006KT 2800 -RASN \n BECMG 0803/0804 34010KT 7000 NSW SCT030"
"taf	RKSI	2018-03-07 12:00:00	TAF RKSI 071100Z 0712/0818 31006KT 6000 -RA FEW010 BKN030 OVC080 TN01/0721Z TX07/0806Z \n BECMG 0714/0715 35006KT 4200 \n BECMG 0717/0718 02006KT 2800 -RASN \n BECMG 0803/0804 34010KT 7000 NSW SCT030 \n BECMG 0806/0807 33015G25KT \n BECMG 0809/0810 35009KT"
"taf	RKSI	2018-03-07 18:00:00	TAF RKSI 071700Z 0718/0824 02006KT 2800 -RA FEW010 BKN025 OVC080 TN03/0721Z TX08/0806Z TNM01/0821Z \n BECMG 0722/0723 33010KT 4200 \n BECMG 0802/0803 7000 NSW SCT030 \n BECMG 0806/0807 33015G25KT \n BECMG 0810/0811 34010KT"
"taf	RKSI	2018-03-08 06:00:00	TAF RKSI 080500Z 0806/0912 31015G25KT 9999 SCT030 TNM01/0821Z TX06/0905Z \n BECMG 0810/0811 35010KT \n BECMG 0902/0903 29007KT"
"taf	RKSI	2018-03-08 12:00:00	TAF RKSI 081100Z 0812/0918 35008KT 6000 SCT030 TNM01/0821Z TX06/0905Z \n BECMG 0819/0820 4200 BR \n BECMG 0822/0823 07006KT 6000 NSW \n BECMG 0902/0903 28007KT \n BECMG 0912/0913 14005KT \n BECMG 0916/0917 4200 BR"
"taf	RKSI	2018-03-08 18:00:00	TAF RKSI 081700Z 0818/0924 34007KT 6000 NSC TNM01/0821Z TX06/0905Z TNM01/0922Z \n BECMG 0821/0822 07006KT \n BECMG 0902/0903 27007KT SCT030 \n BECMG 0913/0914 18005KT \n TEMPO 0918/0921 21005KT 4200 BR"
"taf	RKSI	2018-03-09 00:00:00	TAF RKSI 092300Z 1000/1106 22008KT 7000 SCT030 TX07/1005Z TNM01/1022Z TX09/1105Z \n BECMG 1014/1015 18005KT 4200 BR \n BECMG 1017/1018 2800 \n BECMG 1100/1101 4200 \n BECMG 1103/1104 22007KT 6000 NSW"
"taf	RKSI	2018-03-09 06:00:00	TAF RKSI 090500Z 0906/1012 27006KT 7000 SCT030 TNM01/0922Z TX07/1005Z \n BECMG 0912/0913 18006KT \n BECMG 0917/0918 4200 BR \n BECMG 0921/0922 22008KT 6000 NSW \n TEMPO 0922/1001 16010KT \n BECMG 1011/1012 4200 BR BKN030"
"taf	RKSI	2018-03-09 12:00:00	TAF RKSI 091100Z 0912/1018 32005KT 7000 SCT030 TNM01/0922Z TX07/1005Z \n TEMPO 0919/0924 17006KT \n BECMG 1000/1001 22008KT \n BECMG 1014/1015 18006KT 4200 BR \n BECMG 1017/1018 2800"
"taf	RKSI	2018-03-09 18:00:00	TAF RKSI 091700Z 0918/1024 32005KT 7000 SCT030 TNM01/0922Z TX07/1005Z TNM01/1022Z \n TEMPO 0919/0923 17005KT \n BECMG 1000/1001 22008KT \n BECMG 1014/1015 18005KT 4200 BR \n BECMG 1017/1018 2800"
"taf	RKSI	2018-03-10 00:00:00	TAF RKSI 102300Z 1100/1206 30006KT 6000 SCT030 TX09/1106Z TN02/1122Z TX12/1205Z \n TEMPO 1100/1102 2800 BR SCT010 SCT020 \n BECMG 1104/1105 24007KT \n BECMG 1112/1113 16006KT 4200 BR \n BECMG 1115/1116 6000 NSW \n BECMG 1202/1203 22010KT"
"taf	RKSI	2018-03-10 06:00:00	TAF RKSI 100500Z 1006/1112 26008KT 9999 FEW010 SCT030 TN00/1021Z TX09/1106Z \n BECMG 1014/1015 29006KT 2800 BR \n TEMPO 1018/1022 33006KT 1400 \n BECMG 1023/1024 26006KT 3500 \n BECMG 1101/1102 23006KT 6000 NSW \n BECMG 1110/1111 26006KT 3500 BR"
"taf	RKSI	2018-03-10 12:00:00	TAF RKSI 101100Z 1012/1118 22007KT 3500 BR FEW010 SCT030 TN00/1021Z TX09/1106Z \n BECMG 1014/1015 25006KT 1400 \n TEMPO 1020/1022 28006KT 0600 FG BKN008 \n BECMG 1100/1101 22006KT 3500 \n BECMG 1103/1104 26006KT 6000 NSW \n BECMG 1115/1116 23006KT 3500 BR"
"taf	RKSI	2018-03-10 18:00:00	TAF RKSI 101700Z 1018/1124 30006KT 2500 BR FEW010 SCT020 TN01/1021Z TX09/1106Z TN01/1122Z \n TEMPO 1020/1022 1200 \n BECMG 1100/1101 6000 NSW NSC \n TEMPO 1104/1111 24007KT \n BECMG 1112/1113 16006KT \n TEMPO 1119/1122 4200 BR"
"taf	RKSI	2018-03-10 18:48:00	TAF \n AMD TAF \n AMD RKSI 101750Z 1018/1124 30006KT 1500 BR BKN002 TN01/1021Z TX09/1106Z TN01/1122Z \n TEMPO 1019/1022 0800 FG \n BECMG 1100/1101 6000 NSW NSC \n TEMPO 1104/1111 24007KT \n BECMG 1112/1113 16006KT \n TEMPO 1119/1122 4200 BR"
"taf	RKSI	2018-03-10 18:50:00	TAF \n AMD RKSI 101750Z 1018/1124 30006KT 1500 BR BKN002 TN01/1021Z TX09/1106Z TN01/1122Z \n TEMPO 1019/1022 0800 FG \n BECMG 1100/1101 6000 NSW NSC \n TEMPO 1104/1111 24007KT \n BECMG 1112/1113 16006KT \n TEMPO 1119/1122 4200 BR"
"taf	RKSI	2018-03-10 19:53:00	TAF \n AMD RKSI 101853Z 1019/1124 30006KT 1200 BR BKN002 TN01/1021Z TX09/1106Z TN01/1122Z \n TEMPO 1019/1023 0400 FG \n BECMG 1100/1101 6000 NSW NSC \n TEMPO 1104/1111 24007KT \n BECMG 1112/1113 16006KT \n TEMPO 1119/1122 4200 BR"
"taf	RKSI	2018-03-10 19:54:00	TAF \n AMD TAF \n AMD RKSI 101853Z 1019/1124 30006KT 1200 BR BKN002 TN01/1021Z TX09/1106Z TN01/1122Z \n TEMPO 1019/1023 0400 FG \n BECMG 1100/1101 6000 NSW NSC \n TEMPO 1104/1111 24007KT \n BECMG 1112/1113 16006KT \n TEMPO 1119/1122 4200 BR"
"taf	RKSI	2018-03-11 00:00:00	TAF RKSI 112300Z 1200/1306 22007KT 6000 SCT025 TX11/1206Z TN03/1222Z TX12/1305Z \n TEMPO 1200/1204 17007KT 1800 BR \n BECMG 1212/1213 16007KT 3500 BR \n BECMG 1216/1217 2800 \n TEMPO 1220/1223 FEW010 BKN030 \n BECMG 1302/1303 22010KT 6000 NSW"
"taf	RKSI	2018-03-11 06:00:00	TAF RKSI 110500Z 1106/1212 29007KT 4200 BR NSC TN02/1121Z TX11/1206Z \n BECMG 1111/1112 22006KT 2500 \n TEMPO 1117/1121 0800 FG \n BECMG 1200/1201 3500 \n BECMG 1202/1203 6000 NSW"
"taf	RKSI	2018-03-11 12:00:00	TAF RKSI 111100Z 1112/1218 29006KT 1800 BR FEW010 TN02/1121Z TX11/1206Z \n BECMG 1114/1115 25006KT 1400 \n TEMPO 1116/1119 22006KT 0600 FG BKN008 \n BECMG 1121/1122 19006KT 2500 \n BECMG 1200/1201 22006KT 4200 \n BECMG 1212/1213 19006KT 2800"
"taf	RKSI	2018-03-11 12:50:00	TAF \n AMD RKSI 111150Z 1112/1218 16005KT 1200 BR FEW005 SCT020 TN02/1121Z TX11/1206Z \n TEMPO 1112/1121 0400 FG BKN001 \n BECMG 1121/1122 19006KT 2500 \n BECMG 1200/1201 22006KT 4200 NSC \n BECMG 1212/1213 19006KT 2800 FEW010"
"taf	RKSI	2018-03-11 12:51:00	TAF \n AMD TAF \n AMD RKSI 111150Z 1112/1218 16005KT 1200 BR FEW005 SCT020 TN02/1121Z TX11/1206Z \n TEMPO 1112/1121 0400 FG BKN001 \n BECMG 1121/1122 19006KT 2500 \n BECMG 1200/1201 22006KT 4200 NSC \n BECMG 1212/1213 19006KT 2800 FEW010"
"taf	RKSI	2018-03-11 18:00:00	TAF RKSI 111700Z 1118/1224 16006KT 2500 BR FEW005 SCT020 TNM01/1121Z TX11/1206Z TN03/1222Z \n TEMPO 1118/1121 0400 FG OVC001 \n BECMG 1202/1203 22007KT 6000 NSW \n BECMG 1212/1213 16007KT 3200 BR \n BECMG 1216/1217 2500 \n TEMPO 1220/1222 FEW010 BKN030"
"taf	RKSI	2018-03-11 21:55:00	TAF \n AMD RKSI 112055Z 1121/1224 16006KT 2500 BR FEW005 SCT020 TNM01/1122Z TX11/1206Z TN03/1222Z \n TEMPO 1121/1124 0400 FG OVC002 \n BECMG 1202/1203 22007KT 6000 NSW \n BECMG 1212/1213 16007KT 3200 BR \n BECMG 1216/1217 2500 \n TEMPO 1220/1222 FEW010 BKN030"
"taf	RKSI	2018-03-11 21:57:00	TAF \n AMD TAF \n AMD RKSI 112055Z 1121/1224 16006KT 2500 BR FEW005 SCT020 TNM01/1122Z TX11/1206Z TN03/1222Z \n TEMPO 1121/1124 0400 FG OVC002 \n BECMG 1202/1203 22007KT 6000 NSW \n BECMG 1212/1213 16007KT 3200 BR \n BECMG 1216/1217 2500 \n TEMPO 1220/1222 FEW010 BKN030"
"taf	RKSI	2018-03-12 00:00:00	TAF RKSI 122300Z 1300/1406 14008KT 6000 BKN030 TX15/1306Z TN08/1321Z TX16/1406Z \n BECMG 1303/1304 20010KT SCT030 \n BECMG 1318/1319 14008KT BKN030"
"taf	RKSI	2018-03-12 06:00:00	TAF RKSI 120500Z 1206/1312 22007KT 4200 BR SCT025 TN03/1222Z TX12/1305Z \n BECMG 1212/1213 16007KT 2500 \n BECMG 1216/1217 1400 \n TEMPO 1220/1223 0600 FG BKN005 BKN020 \n BECMG 1300/1301 22010KT 4200 \n TEMPO 1310/1312 18008KT 2800"
"taf	RKSI	2018-03-12 12:00:00	TAF RKSI 121100Z 1212/1318 21007KT 2800 BR FEW010 SCT025 TN03/1222Z TX12/1305Z \n BECMG 1214/1215 16007KT 1400 \n TEMPO 1220/1223 0600 FG BKN005 BKN020 \n BECMG 1300/1301 22010KT 4200 \n BECMG 1310/1311 18008KT 2800 \n TEMPO 1316/1318 1400"
"taf	RKSI	2018-03-12 18:00:00	TAF RKSI 121700Z 1218/1324 14006KT 2500 BR FEW010 BKN030 TN04/1221Z TX13/1306Z TN08/1321Z \n TEMPO 1221/1223 20006KT 0600 FG \n BECMG 1300/1301 23010KT 4200 SCT030 \n BECMG 1311/1312 19008KT 2500"
"taf	RKSI	2018-03-12 21:24:00	TAF \n AMD RKSI 122124Z 1221/1324 14006KT 2500 BR FEW010 BKN030 TN04/1221Z TX13/1306Z TN08/1321Z \n BECMG 1300/1301 23010KT 4200 SCT030 \n BECMG 1311/1312 19008KT 2500"
"taf	RKSI	2018-03-12 21:27:00	TAF \n AMD TAF \n AMD RKSI 122124Z 1221/1324 14006KT 2500 BR FEW010 BKN030 TN04/1221Z TX13/1306Z TN08/1321Z \n BECMG 1300/1301 23010KT 4200 SCT030 \n BECMG 1311/1312 19008KT 2500"
"taf	RKSI	2018-03-13 00:00:00	TAF RKSI 132300Z 1400/1506 14006KT 6000 BKN030 TX15/1406Z TN09/1421Z TX11/1506Z \n BECMG 1409/1410 19010KT 4200 BR SCT010 BKN020 OVC080 \n BECMG 1414/1415 21015G25KT 2500 -RA \n BECMG 1423/1424 23010KT 4200 \n BECMG 1501/1502 27008KT 6000 NSW"
"taf	RKSI	2018-03-13 06:00:00	TAF RKSI 130500Z 1306/1412 20010KT 7000 BKN030 TN08/1321Z TX16/1406Z \n BECMG 1313/1314 14008KT 4200 BR \n TEMPO 1319/1321 2500 \n BECMG 1322/1323 20010KT 6000 NSW \n TEMPO 1411/1412 17008KT 4200 BR"
"taf	RKSI	2018-03-13 12:00:00	TAF RKSI 131100Z 1312/1418 18010KT 7000 SCT010 BKN025 TN08/1321Z TX16/1406Z \n BECMG 1314/1315 14008KT 4200 BR \n TEMPO 1319/1321 2500 \n BECMG 1322/1323 20010KT 6000 NSW \n BECMG 1411/1412 17008KT 4200 BR \n BECMG 1416/1417 20015G25KT -RA"
"taf	RKSI	2018-03-13 18:00:00	TAF RKSI 131700Z 1318/1424 17010KT 6000 FEW010 BKN025 TN10/1321Z TX15/1406Z TN09/1421Z \n BECMG 1401/1402 SCT030 \n BECMG 1411/1412 20015G25KT FEW010 BKN025 OVC100 \n BECMG 1415/1416 3500 -RA"
"taf	RKSI	2018-03-14 00:00:00	TAF RKSI 142300Z 1500/1606 23010KT 4200 -RA FEW010 BKN025 OVC080 TX12/1503Z TN03/1522Z TX11/1605Z \n BECMG 1504/1505 26008KT 2800 BR \n BECMG 1506/1507 7000 NSW \n BECMG 1511/1512 33013KT SCT030 \n BECMG 1514/1515 05012KT"
"taf	RKSI	2018-03-14 06:00:00	TAF RKSI 140500Z 1406/1512 20010KT 9999 SCT030 TN09/1413Z TX11/1501Z \n BECMG 1411/1412 4200 BR FEW010 BKN025 OVC080 \n BECMG 1414/1415 2800 -RA \n TEMPO 1417/1419 19015G25KT 1200 -TSRA SCT008 FEW012CB BKN020 OVC070 \n BECMG 1502/1503 25008KT 3200 BR \n BECMG 1508/1509 32010KT 6000 NSW"
"taf	RKSI	2018-03-14 12:00:00	TAF RKSI 141100Z 1412/1518 19010KT 6000 FEW010 BKN025 OVC080 TN09/1422Z TX11/1503Z \n BECMG 1414/1415 4200 -RA \n TEMPO 1417/1420 2500 RA \n BECMG 1503/1504 25008KT BR \n BECMG 1508/1509 33008KT 6000 NSW \n BECMG 1514/1515 03010KT SCT030"
"taf	RKSI	2018-03-14 18:00:00	TAF RKSI 141700Z 1418/1524 22012KT 4200 -RA FEW010 BKN025 OVC080 TN10/1422Z TX11/1503Z TN03/1522Z \n TEMPO 1419/1421 2500 \n BECMG 1504/1505 26008KT 2800 BR \n BECMG 1506/1507 7000 NSW \n BECMG 1510/1511 33013KT SCT030 \n BECMG 1514/1515 05012KT"
"taf	RKSI	2018-03-15 00:00:00	TAF RKSI 152300Z 1600/1706 05010KT 7000 SCT030 TX10/1605Z TN00/1621Z TX10/1706Z \n TEMPO 1607/1609 33008KT \n BECMG 1612/1613 12007KT NSC \n BECMG 1703/1704 30008KT"
"taf	RKSI	2018-03-15 00:20:00	TAF \n AMD RKSI 150220Z 1500/1606 26008KT 2800 BR FEW010 BKN025 OVC080 TX12/1503Z TN03/1522Z TX11/1605Z \n TEMPO 1502/1509 0400 FG OVC001 \n BECMG 1511/1512 33013KT 3500 FEW010 SCT030 BKN120 \n BECMG 1514/1515 05012KT 7000 NSW"
"taf	RKSI	2018-03-15 00:24:00	TAF \n AMD RKSI 142300Z 1500/1606 26008KT 2800 BR FEW010 BKN025 OVC080 TX12/1503Z TN03/1522Z TX11/1605Z \n TEMPO 1502/1509 0400 FG OVC001 \n BECMG 1511/1512 33013KT 3500 FEW010 SCT030 BKN120 \n BECMG 1514/1515 05012KT 7000 NSW"
"taf	RKSI	2018-03-15 02:20:00	TAF COR RKSI 150220Z 1502/1606 26008KT 2800 BR FEW010 BKN025 OVC080 TX12/1503Z TN03/1522Z TX11/1605Z \n TEMPO 1502/1509 0400 FG OVC001 \n BECMG 1511/1512 33013KT 3500 FEW010 SCT030 BKN120 \n BECMG 1514/1515 05012KT 7000 NSW"
"taf	RKSI	2018-03-15 02:24:00	TAF COR TAF COR RKSI 150220Z 1502/1606 26008KT 2800 BR FEW010 BKN025 OVC080 TX12/1503Z TN03/1522Z TX11/1605Z \n TEMPO 1502/1509 0400 FG OVC001 \n BECMG 1511/1512 33013KT 3500 FEW010 SCT030 BKN120 \n BECMG 1514/1515 05012KT 7000 NSW"
"taf	RKSI	2018-03-15 06:00:00	TAF RKSI 150500Z 1506/1612 28008KT 2500 BR FEW010 BKN025 OVC080 TN03/1523Z TX10/1605Z \n TEMPO 1506/1508 0600 FG BKN002 \n BECMG 1509/1510 33010KT 6000 NSW \n BECMG 1511/1512 SCT030 \n BECMG 1515/1516 06010KT \n TEMPO 1606/1609 31006KT"
"taf	RKSI	2018-03-15 12:00:00	TAF RKSI 151100Z 1512/1618 33010KT 7000 FEW012 BKN180 TN03/1523Z TX10/1605Z \n BECMG 1514/1515 05010KT NSC \n TEMPO 1607/1610 30007KT \n BECMG 1612/1613 11007KT"
"taf	RKSI	2018-03-15 18:00:00	TAF RKSI 151700Z 1518/1624 05010KT 7000 SCT025 BKN180 TN04/1523Z TX10/1605Z TN00/1621Z \n TEMPO 1607/1609 33008KT \n BECMG 1612/1613 12007KT NSC"
"taf	RKSI	2018-03-16 00:00:00	TAF RKSI 162300Z 1700/1806 15007KT CAVOK TX09/1706Z TN03/1720Z TX09/1805Z \n BECMG 1704/1705 31006KT \n BECMG 1716/1717 16005KT 4200 BR NSC \n BECMG 1720/1721 29006KT 6000 NSW"
"taf	RKSI	2018-03-16 06:00:00	TAF RKSI 160500Z 1606/1712 04006KT CAVOK TN00/1621Z TX10/1706Z \n BECMG 1612/1613 15007KT \n BECMG 1703/1704 31006KT"
"taf	RKSI	2018-03-16 12:00:00	TAF RKSI 161100Z 1612/1718 05006KT CAVOK TN00/1621Z TX10/1706Z \n BECMG 1614/1615 15007KT \n BECMG 1704/1705 31006KT"
"taf	RKSI	2018-03-16 18:00:00	TAF RKSI 161700Z 1618/1724 15007KT CAVOK TN01/1621Z TX09/1706Z TN03/1720Z \n BECMG 1705/1706 31006KT"
"taf	RKSI	2018-03-17 06:00:00	TAF RKSI 170500Z 1706/1812 29006KT 7000 NSC TN03/1720Z TX08/1805Z \n BECMG 1717/1718 16005KT 4200 BR SCT030 BKN120 \n BECMG 1721/1722 6000 NSW \n BECMG 1804/1805 31006KT \n BECMG 1811/1812 4200 -RA FEW010 BKN030 OVC100"
"taf	RKSI	2018-03-17 12:00:00	TAF RKSI 171100Z 1712/1818 33006KT 7000 NSC TN03/1720Z TX08/1805Z \n BECMG 1718/1719 16005KT 4200 BR SCT030 BKN120 \n BECMG 1721/1722 6000 NSW \n BECMG 1806/1807 33005KT \n BECMG 1812/1813 01005KT 4200 -RA FEW010 BKN030 OVC100 \n BECMG 1817/1818 2800"
"taf	RKSI	2018-03-17 18:00:00	TAF RKSI 171700Z 1718/1824 21005KT 6000 SCT030 BKN120 TN03/1720Z TX08/1805Z TN05/1822Z \n BECMG 1806/1807 33005KT \n BECMG 1812/1813 01005KT 4200 -RA FEW010 BKN030 OVC100 \n TEMPO 1817/1819 2800 \n BECMG 1821/1822 6000 NSW"
"taf	RKSI	2018-03-18 00:00:00	TAF RKSI 182300Z 1900/2006 05010KT 6000 SCT030 BKN080 TX12/1905Z TN05/1922Z TX10/2005Z \n BECMG 1902/1903 05015G25KT NSC \n BECMG 1908/1909 05010KT \n TEMPO 2000/2006 06015G30KT"
"taf	RKSI	2018-03-18 06:00:00	TAF \n AMD RKSI 180507Z 1806/1912 07006KT 7000 FEW010 BKN030 OVC080 TN05/1821Z TX12/1906Z \n TEMPO 1807/1811 4200 -RA \n BECMG 1812/1813 01006KT 3500 BR \n TEMPO 1814/1818 2800 -RA \n BECMG 1901/1902 07010KT 6000 NSW SCT030 BKN120"
"taf	RKSI	2018-03-18 12:00:00	TAF RKSI 181100Z 1812/1918 35006KT 3500 -RA FEW010 BKN030 OVC080 TN05/1821Z TX12/1906Z \n BECMG 1814/1815 2500 \n BECMG 1817/1818 4200 BR \n BECMG 1901/1902 05010KT 6000 NSW SCT030 BKN120 \n BECMG 1911/1912 07016G28KT"
"taf	RKSI	2018-03-18 18:00:00	TAF RKSI 181700Z 1818/1924 05010KT 4200 BR BKN030 OVC100 TN05/1821Z TX12/1905Z TN02/1922Z \n TEMPO 1818/1820 2500 -RA \n BECMG 1900/1901 05015G25KT 6000 NSW \n BECMG 1903/1904 SCT030 \n BECMG 1908/1909 05010KT"
"taf	RKSI	2018-03-19 00:00:00	TAF RKSI 192300Z 2000/2106 06015G25KT 9999 FEW030 BKN150 TX10/2006Z TN02/2021Z TX08/2106Z \n BECMG 2013/2014 05011KT \n TEMPO 2103/2106 SCT040 BKN080"
"taf	RKSI	2018-03-19 06:00:00	TAF RKSI 190500Z 1906/2012 07015G25KT 7000 BKN035 OVC080 TN03/1921Z TX09/2006Z \n TEMPO 1906/1908 -RA \n BECMG 1909/1910 SCT030 BKN120 \n BECMG 1918/1919 07010KT \n BECMG 1922/1923 08015G25KT"
"taf	RKSI	2018-03-19 09:32:00	TAF \n AMD RKSI 190832Z 1909/2012 07015G25KT 7000 -RA BKN035 OVC080 TN03/1921Z TX09/2006Z \n BECMG 1910/1911 NSW SCT030 BKN120 \n BECMG 1918/1919 07010KT \n BECMG 1922/1923 08015G25KT"
"taf	RKSI	2018-03-19 09:36:00	TAF \n AMD TAF \n AMD RKSI 190832Z 1909/2012 07015G25KT 7000 -RA BKN035 OVC080 TN03/1921Z TX09/2006Z \n BECMG 1910/1911 NSW SCT030 BKN120 \n BECMG 1918/1919 07010KT \n BECMG 1922/1923 08015G25KT"
"taf	RKSI	2018-03-19 12:00:00	TAF RKSI 191100Z 1912/2018 08010KT 9999 BKN030 TN03/1921Z TX09/2006Z \n BECMG 1913/1914 SCT030 \n BECMG 1922/1923 08016G26KT \n BECMG 2015/2016 07012KT"
"taf	RKSI	2018-03-19 18:00:00	TAF RKSI 191700Z 1918/2024 07011KT CAVOK TN03/1921Z TX09/2006Z TN02/2021Z \n BECMG 2000/2001 06015G25KT \n BECMG 2013/2014 06010KT"
"taf	RKSI	2018-03-20 00:00:00	TAF RKSI 202300Z 2100/2206 06015G25KT 9999 FEW030 BKN110 TX06/2106Z TN02/2121Z TX10/2206Z \n BECMG 2102/2103 3500 -RASN FEW010 BKN020 OVC080 \n BECMG 2113/2114 05010KT 6000 NSW \n BECMG 2115/2116 35008KT SCT030 BKN120 \n BECMG 2201/2202 29010KT"
"taf	RKSI	2018-03-20 06:00:00	TAF RKSI 200500Z 2006/2112 06015G25KT 9999 FEW030 BKN150 TN02/2021Z TX08/2106Z \n BECMG 2013/2014 05011KT \n TEMPO 2104/2112 FEW010 BKN025 OVC100"
"taf	RKSI	2018-03-20 12:00:00	TAF RKSI 201100Z 2012/2118 05011KT 9999 FEW030 BKN150 TN00/2021Z TX07/2106Z \n BECMG 2104/2105 FEW010 BKN025 OVC100 \n TEMPO 2109/2111 4200 -RASN \n BECMG 2112/2113 35007KT SCT030 BKN150"
"taf	RKSI	2018-03-20 18:00:00	TAF RKSI 201700Z 2018/2124 05010KT CAVOK TN01/2021Z TX06/2106Z TN02/2121Z \n BECMG 2103/2104 06015G25KT 3500 -RASN FEW010 BKN020 OVC080 \n BECMG 2113/2114 05010KT 6000 NSW \n BECMG 2115/2116 35008KT SCT030 BKN120"
"taf	RKSI	2018-03-21 00:00:00	TAF RKSI 212300Z 2200/2306 29008KT CAVOK TX09/2206Z TN02/2221Z TX10/2306Z \n BECMG 2215/2216 23006KT"
"taf	RKSI	2018-03-21 06:00:00	TAF RKSI 210500Z 2106/2212 04010KT 9999 FEW010 BKN025 OVC080 TN02/2124Z TX10/2206Z \n TEMPO 2106/2108 -RA \n BECMG 2109/2110 3500 -RASN \n BECMG 2113/2114 6000 NSW \n BECMG 2115/2116 34008KT SCT030 BKN120 \n BECMG 2202/2203 28010KT"
"taf	RKSI	2018-03-21 12:00:00	TAF RKSI 211100Z 2112/2218 34007KT 6000 FEW010 BKN025 OVC080 TN02/2121Z TX10/2206Z \n TEMPO 2112/2114 4200 -RASN \n BECMG 2115/2116 SCT030 BKN120 \n BECMG 2202/2203 28010KT"
"taf	RKSI	2018-03-21 18:00:00	TAF RKSI 211700Z 2118/2224 29008KT CAVOK TN01/2121Z TX09/2206Z TN02/2221Z"
"taf	RKSI	2018-03-22 00:00:00	TAF RKSI 222300Z 2300/2406 23006KT 6000 NSC TX09/2305Z TN03/2321Z TX10/2406Z \n BECMG 2315/2316 17006KT 3500 BR SCT010 \n BECMG 2322/2323 6000 NSW NSC \n BECMG 2402/2403 25008KT \n TEMPO 2404/2406 4200 BR"
"taf	RKSI	2018-03-22 06:00:00	TAF RKSI 220500Z 2206/2312 28009KT CAVOK TN01/2221Z TX09/2305Z \n BECMG 2218/2219 22006KT 6000 NSC"
"taf	RKSI	2018-03-22 12:00:00	TAF RKSI 221100Z 2212/2318 27008KT CAVOK TN01/2221Z TX09/2305Z \n BECMG 2218/2219 21006KT 6000 NSC \n BECMG 2315/2316 17006KT 4200 BR"
"taf	RKSI	2018-03-22 18:00:00	TAF RKSI 221700Z 2218/2324 21006KT 6000 NSC TN01/2221Z TX09/2305Z TN03/2321Z \n BECMG 2315/2316 17006KT 4200 BR SCT010 \n BECMG 2322/2323 6000 NSW NSC"
"taf	RKSI	2018-03-23 00:00:00	TAF RKSI 232300Z 2400/2506 20006KT 3500 BR FEW010 SCT025 TX10/2406Z TN04/2421Z TX11/2506Z \n BECMG 2402/2403 27007KT 6000 NSW \n BECMG 2410/2411 22006KT 2500 BR \n TEMPO 2418/2422 17005KT 1200 FEW010 BKN025 \n BECMG 2423/2424 19006KT 4200 \n BECMG 2503/2504 27007KT 6000 NSW"
"taf	RKSI	2018-03-23 06:00:00	TAF RKSI 230500Z 2306/2412 29006KT 7000 NSC TN03/2321Z TX10/2406Z \n BECMG 2315/2316 18006KT 2500 BR FEW010 BKN030 \n TEMPO 2320/2323 1200 \n BECMG 2323/2324 3500 \n BECMG 2403/2404 25007KT 6000 NSW SCT030 \n BECMG 2409/2410 22006KT 3500 BR FEW010 BKN025"
"taf	RKSI	2018-03-23 12:00:00	TAF RKSI 231100Z 2312/2418 29005KT 6000 NSC TN04/2321Z TX10/2406Z \n BECMG 2315/2316 18006KT 3500 BR FEW010 BKN025 \n TEMPO 2319/2323 1200 \n BECMG 2403/2404 25007KT 6000 NSW SCT030 \n BECMG 2409/2410 22006KT 4200 BR \n BECMG 2415/2416 19005KT 2500 FEW010 BKN025"
"taf	RKSI	2018-03-23 18:00:00	TAF RKSI 231700Z 2318/2424 20006KT 3500 BR FEW010 SCT025 TN02/2321Z TX10/2406Z TN04/2421Z \n BECMG 2403/2404 27007KT 6000 NSW \n BECMG 2409/2410 22006KT 4200 BR \n BECMG 2415/2416 17005KT 2500 FEW010 BKN025 \n TEMPO 2419/2422 1200 \n BECMG 2423/2424 20006KT 4200"
"taf	RKSI	2018-03-24 06:00:00	TAF RKSI 240500Z 2406/2512 25006KT 2800 BR SCT007 BKN020 TN04/2421Z TX11/2506Z \n BECMG 2413/2414 16006KT 1400 \n TEMPO 2417/2421 0700 FG FEW001 BKN004 \n BECMG 2423/2424 19006KT 2200 FEW010 SCT030 \n BECMG 2503/2504 25007KT 3500 \n TEMPO 2506/2509 6000 NSW"
"taf	RKSI	2018-03-24 08:39:00	TAF \n AMD TAF \n AMD RKSI 240740Z 2408/2512 20006KT 1400 BR SCT003 BKN020 TN04/2421Z TX11/2506Z \n TEMPO 2415/2421 0700 FG FEW001 BKN004 \n BECMG 2423/2424 19006KT 2200 FEW010 SCT030 \n BECMG 2503/2504 25007KT 3500 \n TEMPO 2506/2509 6000 NSW"
"taf	RKSI	2018-03-24 08:40:00	TAF COR RKSI 240740Z 2408/2512 20006KT 1400 BR SCT003 BKN020 TN04/2421Z TX11/2506Z \n TEMPO 2415/2421 0700 FG FEW001 BKN004 \n BECMG 2423/2424 17006KT 2200 FEW010 SCT030 \n BECMG 2503/2504 25007KT 3500 \n TEMPO 2506/2509 6000 NSW"
"taf	RKSI	2018-03-24 08:42:00	TAF COR TAF COR RKSI 240740Z 2408/2512 20006KT 1400 BR SCT003 BKN020 TN04/2421Z TX11/2506Z \n TEMPO 2415/2421 0700 FG FEW001 BKN004 \n BECMG 2423/2424 17006KT 2200 FEW010 SCT030 \n BECMG 2503/2504 25007KT 3500 \n TEMPO 2506/2509 6000 NSW"
"taf	RKSI	2018-03-24 12:00:00	TAF RKSI 241100Z 2412/2518 25006KT 1000 BR SCT003 BKN020 TN04/2421Z TX10/2506Z \n TEMPO 2413/2422 16006KT 0400 FG OVC003 \n BECMG 2500/2501 19006KT 2200 FEW010 SCT030 \n BECMG 2503/2504 23007KT 3200 \n BECMG 2510/2511 16006KT 1600 \n TEMPO 2515/2518 0800 FG OVC003"
"taf	RKSI	2018-03-24 18:00:00	TAF RKSI 241700Z 2418/2524 16006KT 0600 FG BKN002 TN03/2421Z TX11/2506Z TN06/2521Z \n BECMG 2423/2424 19006KT 1200 BR FEW010 SCT030 \n BECMG 2503/2504 23007KT 3500 HZ \n BECMG 2509/2510 1600 BR \n BECMG 2513/2514 16006KT 0600 FG BKN002 \n BECMG 2523/2524 1200 BR FEW010 SCT030"
"taf	RKSI	2018-03-25 00:00:00	TAF RKSI 252300Z 2600/2706 19006KT 1200 BR SCT008 BKN025 TX12/2605Z TN05/2621Z TX13/2705Z \n TEMPO 2600/2602 0400 FG BKN001 \n TEMPO 2603/2608 23007KT 3200 HZ FEW010 SCT025 \n BECMG 2612/2613 0600 FG BKN002 \n BECMG 2622/2623 16006KT 1800 BR SCT008 BKN025 \n BECMG 2702/2703 21007KT 3500 HZ FEW010 SCT025"
"taf	RKSI	2018-03-25 06:00:00	TAF RKSI 250500Z 2506/2612 23007KT 1500 BR FEW010 SCT030 TN04/2521Z TX12/2605Z \n BECMG 2509/2510 SCT010 BKN025 \n BECMG 2513/2514 15006KT 0600 FG BKN002 \n BECMG 2523/2524 1800 SCT008 BKN025 \n BECMG 2603/2604 22007KT 3200 HZ FEW010 SCT030 \n BECMG 2609/2610 1800 BR"
"taf	RKSI	2018-03-25 09:00:00	TAF \n AMD RKSI 250900Z 2509/2612 28006KT 1000 BR SCT010 BKN025 TN04/2521Z TX12/2605Z \n TEMPO 2510/2512 0600 FG BKN002 \n BECMG 2512/2513 15006KT 0400 FG BKN002 \n BECMG 2523/2524 1800 SCT008 BKN025 \n BECMG 2603/2604 22007KT 3200 HZ FEW010 SCT030 \n BECMG 2609/2610 1800 BR"
"taf	RKSI	2018-03-25 09:03:00	TAF \n AMD TAF \n AMD RKSI 250900Z 2509/2612 28006KT 1000 BR SCT010 BKN025 TN04/2521Z TX12/2605Z \n TEMPO 2510/2512 0600 FG BKN002 \n BECMG 2512/2513 15006KT 0400 FG BKN002 \n BECMG 2523/2524 1800 SCT008 BKN025 \n BECMG 2603/2604 22007KT 3200 HZ FEW010 SCT030 \n BECMG 2609/2610 1800 BR"
"taf	RKSI	2018-03-25 12:00:00	TAF RKSI 251100Z 2512/2618 16006KT 0400 FG BKN002 TN03/2520Z TX12/2605Z \n BECMG 2523/2524 1800 BR SCT008 BKN025 \n BECMG 2603/2604 22007KT 3200 FEW010 SCT030 \n BECMG 2610/2611 16006KT 1800 \n TEMPO 2615/2618 0900 FG BKN005"
"taf	RKSI	2018-03-25 18:00:00	TAF RKSI 251700Z 2518/2624 17006KT 0600 FG BKN002 TN03/2520Z TX12/2605Z TN05/2621Z \n TEMPO 2518/2521 0300 \n BECMG 2523/2524 1600 BR SCT008 BKN025 \n TEMPO 2603/2608 23007KT 3200 HZ FEW010 SCT025 \n BECMG 2612/2613 0600 FG BKN002 \n BECMG 2622/2623 1200 BR SCT008 BKN025"
"taf	RKSI	2018-03-26 00:00:00	TAF RKSI 262300Z 2700/2806 16007KT 2800 BR FEW010 SCT030 TX13/2706Z TN05/2721Z TX14/2805Z \n BECMG 2703/2704 27007KT 6000 NSW \n BECMG 2710/2711 16007KT 1700 BR \n BECMG 2713/2714 0600 FG BKN002 \n BECMG 2722/2723 2800 BR FEW005 SCT025 \n BECMG 2802/2803 25008KT 6000 NSW"
"taf	RKSI	2018-03-26 06:00:00	TAF RKSI 260500Z 2606/2712 29006KT 3500 HZ FEW010 SCT025 TN06/2621Z TX14/2706Z \n BECMG 2609/2610 2200 BR \n BECMG 2614/2615 16006KT 1400 SCT008 BKN025 \n TEMPO 2617/2623 0600 FG BKN002 \n BECMG 2702/2703 29006KT 3500 HZ FEW010 SCT025 \n BECMG 2710/2711 20006KT 1400 BR SCT008 BKN025"
"taf	RKSI	2018-03-26 10:34:00	TAF \n AMD RKSI 260934Z 2610/2712 31006KT 1400 BR BKN002 TN06/2621Z TX14/2706Z \n BECMG 2610/2611 16006KT 0600 FG \n BECMG 2622/2623 1400 BR SCT010 BKN020 \n BECMG 2702/2703 29006KT 3500 HZ FEW010 SCT025 \n BECMG 2710/2711 20006KT 1400 BR SCT008 BKN025"
"taf	RKSI	2018-03-26 10:36:00	TAF \n AMD TAF \n AMD RKSI 260934Z 2610/2712 31006KT 1400 BR BKN002 TN06/2621Z TX14/2706Z \n BECMG 2610/2611 16006KT 0600 FG \n BECMG 2622/2623 1400 BR SCT010 BKN020 \n BECMG 2702/2703 29006KT 3500 HZ FEW010 SCT025 \n BECMG 2710/2711 20006KT 1400 BR SCT008 BKN025"
"taf	RKSI	2018-03-26 12:00:00	TAF RKSI 261100Z 2612/2718 31006KT 0300 FG BKN002 TN03/2621Z TX14/2706Z \n BECMG 2617/2618 15006KT 0600 \n BECMG 2622/2623 18006KT 0900 \n BECMG 2701/2702 31006KT 1600 BR FEW010 BKN020 \n BECMG 2703/2704 3500 HZ SCT030 \n BECMG 2709/2710 20006KT 1400 BR FEW010 BKN020"
"taf	RKSI	2018-03-26 18:00:00	TAF RKSI 261700Z 2618/2724 16007KT 0400 FG BKN002 TN02/2621Z TX13/2706Z TN04/2721Z \n BECMG 2623/2624 1600 BR FEW005 SCT030 \n TEMPO 2704/2710 29007KT 6000 NSW \n BECMG 2713/2714 0600 FG BKN002 \n BECMG 2722/2723 1200 BR FEW005 SCT020"
"taf	RKSI	2018-03-26 20:40:00	TAF \n AMD RKSI 261940Z 2620/2724 16007KT 1600 BR FEW005 SCT020 TN02/2621Z TX13/2706Z TN04/2721Z \n TEMPO 2620/2623 0600 FG BKN004 \n TEMPO 2704/2710 29007KT 6000 NSW \n BECMG 2713/2714 0600 FG BKN002 \n BECMG 2722/2723 1200 BR FEW005 SCT020"
"taf	RKSI	2018-03-26 20:42:00	TAF \n AMD TAF \n AMD RKSI 261940Z 2620/2724 16007KT 1600 BR FEW005 SCT020 TN02/2621Z TX13/2706Z TN04/2721Z \n TEMPO 2620/2623 0600 FG BKN004 \n TEMPO 2704/2710 29007KT 6000 NSW \n BECMG 2713/2714 0600 FG BKN002 \n BECMG 2722/2723 1200 BR FEW005 SCT020"
"taf	RKSI	2018-03-27 00:00:00	TAF RKSI 272300Z 2800/2906 17006KT 2800 BR NSC TX15/2806Z TN07/2820Z TX15/2906Z \n BECMG 2802/2803 21008KT 6000 NSW \n BECMG 2810/2811 3200 BR FEW010 SCT030 \n BECMG 2814/2815 18006KT 1600 SCT010 BKN025 OVC080 \n BECMG 2822/2823 06006KT 1200 \n BECMG 2901/2902 29006KT 3200 FEW010 SCT030"
"taf	RKSI	2018-03-27 06:00:00	TAF RKSI 270500Z 2706/2812 29008KT 6000 SCT030 TN09/2721Z TX16/2806Z \n BECMG 2711/2712 26006KT 3500 BR \n BECMG 2715/2716 22006KT 1800 \n TEMPO 2717/2722 19006KT 1000 SCT008 BKN020 \n BECMG 2723/2724 25007KT 6000 NSW \n BECMG 2810/2811 22006KT 3500 BR"
"taf	RKSI	2018-03-27 12:00:00	TAF RKSI 271100Z 2712/2818 17008KT 3100 BR FEW008 SCT030 TN08/2721Z TX15/2806Z \n BECMG 2715/2716 2100 BKN025 \n TEMPO 2720/2721 1400 \n BECMG 2722/2723 23008KT 4200 HZ FEW030 \n BECMG 2809/2810 20006KT 2800 BR \n BECMG 2815/2816 1400 BKN025"
"taf	RKSI	2018-03-27 18:00:00	TAF RKSI 271700Z 2718/2824 17006KT 4200 BR SCT030 TN07/2721Z TX15/2806Z TN07/2821Z \n TEMPO 2718/2723 2800 \n BECMG 2801/2802 21008KT 6000 NSW \n BECMG 2812/2813 2800 BR SCT010 BKN025 OVC080 \n BECMG 2816/2817 18006KT 1400 \n TEMPO 2820/2822 0600 FG BKN002"
"taf	RKSI	2018-03-28 00:00:00	TAF RKSI 282300Z 2900/3006 35006KT 3500 BR FEW008 SCT020 TX15/2906Z TN08/2921Z TX16/3006Z \n BECMG 2902/2903 31006KT 6000 NSW \n BECMG 2909/2910 22006KT 4200 BR \n BECMG 2916/2917 15006KT 2800 \n BECMG 2922/2923 20008KT 4200 \n BECMG 3000/3001 6000 NSW"
"taf	RKSI	2018-03-28 06:00:00	TAF RKSI 280500Z 2806/2912 21008KT 6000 NSC TN08/2820Z TX15/2906Z \n BECMG 2810/2811 3200 BR FEW010 SCT030 \n BECMG 2813/2814 17006KT 1600 SCT010 BKN025 OVC080 \n BECMG 2822/2823 06006KT 1200 \n BECMG 2901/2902 29006KT 3200 FEW010 SCT030 \n BECMG 2910/2911 07006KT"
"taf	RKSI	2018-03-28 12:00:00	TAF RKSI 281100Z 2812/2918 21008KT 3200 BR FEW010 SCT030 TN08/2820Z TX15/2906Z \n BECMG 2813/2814 17006KT 1600 SCT030 BKN025 OVC080 \n BECMG 2822/2823 06006KT 1200 \n BECMG 2901/2902 29006KT 3200 FEW010 SCT030 \n BECMG 2914/2915 07006KT 1600"
"taf	RKSI	2018-03-28 18:00:00	TAF RKSI 281700Z 2818/2924 20006KT 2500 BR BKN006 TN09/2821Z TX15/2906Z TN08/2921Z \n BECMG 2900/2901 33006KT 3500 \n BECMG 2902/2903 30006KT 6000 NSW SCT030 \n BECMG 2915/2916 33006KT 3500 BR BKN010 \n BECMG 2917/2918 15006KT 1400 \n BECMG 2922/2923 3500 SCT030"
"taf	RKSI	2018-03-29 00:00:00	TAF RKSI 292300Z 3000/3106 11008KT 4200 HZ FEW010 SCT030 TX17/3006Z TN08/3021Z TX14/3106Z \n BECMG 3010/3011 31006KT 2100 BR \n TEMPO 3016/3020 18006KT 0600 FG BKN001 \n BECMG 3021/3022 06006KT 1400 \n BECMG 3023/3024 22006KT 3500 \n BECMG 3102/3103 6000 NSW"
"taf	RKSI	2018-03-29 06:00:00	TAF RKSI 290500Z 2906/3012 30008KT 6000 FEW008 SCT025 TN07/2920Z TX17/3006Z \n BECMG 2910/2911 34006KT 4200 BR \n BECMG 2916/2917 05006KT 2800 \n BECMG 2920/2921 12008KT 6000 NSW \n BECMG 3000/3001 18010KT \n BECMG 3004/3005 24007KT"
"taf	RKSI	2018-03-29 12:00:00	TAF RKSI 291100Z 2912/3018 34006KT 4200 BR FEW008 SCT025 TN10/2920Z TX16/3006Z \n BECMG 2916/2917 05006KT 2800 \n BECMG 2920/2921 12008KT 6000 NSW \n BECMG 3000/3001 18010KT \n BECMG 3004/3005 24007KT \n BECMG 3011/3012 05006KT 3200 BR"
"taf	RKSI	2018-03-29 18:00:00	TAF RKSI 291700Z 2918/3024 35006KT 7000 SCT030 TN05/2921Z TX17/3006Z TN08/3021Z \n BECMG 2920/2921 07008KT \n BECMG 3000/3001 15010KT \n BECMG 3005/3006 22008KT \n BECMG 3009/3010 31006KT \n BECMG 3015/3016 07006KT 3500 BR BKN030"
"taf	RKSI	2018-03-30 00:00:00	TAF RKSI 302300Z 3100/0106 16006KT 7000 FEW010 SCT030 TX14/3106Z TN10/3120Z TX14/0103Z \n BECMG 3101/3102 23010KT \n BECMG 3111/3112 15006KT \n BECMG 3119/3120 3200 BR \n BECMG 3122/3123 23006KT 6000 NSW \n TEMPO 0103/0106 3200 -RA FEW010 BKN025 OVC100"
"taf	RKSI	2018-03-30 06:00:00	TAF RKSI 300500Z 3006/3112 19006KT 4200 BR FEW030 SCT120 TN07/3021Z TX14/3106Z \n BECMG 3010/3011 2100 \n TEMPO 3016/3021 31005KT 0600 FG BKN001 \n BECMG 3021/3022 07006KT 1400 \n BECMG 3023/3024 22006KT 3500 \n BECMG 3102/3103 6000 NSW"
"taf	RKSI	2018-03-30 12:00:00	TAF RKSI 301100Z 3012/3118 31006KT 4200 BR FEW030 SCT180 TN07/3021Z TX14/3106Z \n BECMG 3014/3015 2100 \n TEMPO 3017/3021 0600 FG \n BECMG 3021/3022 07006KT 1400 \n BECMG 3023/3024 22006KT 3500 \n BECMG 3102/3103 6000 NSW"
"taf	RKSI	2018-03-30 18:00:00	TAF RKSI 301700Z 3018/3124 16006KT 7000 FEW010 SCT180 TN06/3021Z TX14/3106Z TN10/3120Z \n TEMPO 3019/3021 4200 BR \n BECMG 3101/3102 23010KT \n BECMG 3111/3112 15006KT \n BECMG 3119/3120 4200 BR \n BECMG 3122/3123 6000 NSW"
"taf	RKSI	2018-03-31 00:00:00	TAF RKSI 312300Z 0100/0206 23008KT 6000 FEW010 SCT030 TX15/0106Z TN10/0116Z TX16/0206Z \n BECMG 0109/0110 15006KT 3200 BR \n BECMG 0116/0117 1600 \n TEMPO 0119/0123 0800 FG SCT005 BKN020 \n BECMG 0200/0201 3500 \n BECMG 0203/0204 23006KT 6000 NSW"
"taf	RKSI	2018-03-31 06:00:00	TAF RKSI 310500Z 3106/0112 23010KT 9999 SCT030 BKN150 TN09/3121Z TX15/0106Z \n BECMG 3111/3112 15006KT \n BECMG 3119/3120 20006KT 4200 BR \n BECMG 3122/3123 23006KT 6000 NSW \n TEMPO 0102/0108 4200 -RA FEW008 BKN025 OVC080 \n BECMG 0110/0111 15008KT 3500 BR"
"taf	RKSI	2018-03-31 12:00:00	TAF RKSI 311100Z 3112/0118 23006KT CAVOK TN09/3121Z TX15/0106Z \n BECMG 3119/3120 20006KT 4200 BR SCT030 \n BECMG 3122/3123 23006KT 6000 NSW \n TEMPO 0103/0107 15007KT 4200 -RA FEW008 BKN025 \n BECMG 0115/0116 15006KT -RA FEW006 BKN025 BKN080"
"taf	RKSI	2018-03-31 18:00:00	TAF RKSI 311700Z 3118/0124 15006KT 6000 FEW010 SCT030 TN09/3121Z TX15/0106Z TN10/0116Z \n BECMG 0100/0101 23010KT \n BECMG 0109/0110 15006KT 3200 BR \n TEMPO 0119/0122 1600"
"taf	RKSI	2018-04-01 00:00:00	TAF RKSI 012300Z 0200/0306 17006KT 4200 BR FEW010 BKN030 TX17/0205Z TN10/0221Z TX16/0305Z \n BECMG 0202/0203 21008KT 6000 NSW FEW010 SCT030 \n BECMG 0210/0211 18007KT 4200 BR \n BECMG 0216/0217 2500 FEW008 BKN025 \n BECMG 0223/0224 4200 \n BECMG 0302/0303 21007KT 6000 NSW FEW010 SCT030"
"taf	RKSI	2018-04-01 06:00:00	TAF RKSI 010500Z 0106/0212 19007KT 3500 BR SCT005 BKN020 TN10/0118Z TX16/0205Z \n BECMG 0110/0111 16007KT 2500 \n TEMPO 0115/0118 0900 FG BKN002 \n BECMG 0200/0201 19008KT 3500 FEW010 SCT030 \n BECMG 0203/0204 22007KT 6000 NSW \n BECMG 0210/0211 19006KT 4200 BR"
"taf	RKSI	2018-04-01 09:15:00	TAF COR RKSI 010915Z 0109/0212 19007KT 1400 BR SCT005 BKN020 TN10/0118Z TX16/0205Z \n TEMPO 0112/0118 0700 FG BKN002 \n BECMG 0200/0201 3500 FEW010 SCT030 \n BECMG 0203/0204 22007KT 6000 NSW \n BECMG 0210/0211 19006KT 4200 BR"
"taf	RKSI	2018-04-01 09:18:00	TAF \n AMD TAF \n AMD RKSI 010915Z 0109/0212 19007KT 1400 BR SCT005 BKN020 TN10/0118Z TX16/0205Z \n TEMPO 0112/0118 0700 FG BKN002 \n BECMG 0200/0201 19008KT 3500 FEW010 SCT030 \n BECMG 0203/0204 22007KT 6000 NSW \n BECMG 0210/0211 19006KT 4200 BR"
"taf	RKSI	2018-04-01 12:00:00	TAF RKSI 011100Z 0112/0218 17007KT 1200 BR SCT005 BKN020 TN10/0118Z TX16/0205Z \n TEMPO 0114/0120 0600 FG BKN002 \n BECMG 0123/0124 3200 FEW010 SCT030 \n BECMG 0203/0204 21007KT 6000 NSW \n BECMG 0210/0211 17007KT 3500 BR \n BECMG 0214/0215 2500"
"taf	RKSI	2018-04-01 18:00:00	TAF RKSI 011700Z 0118/0224 17006KT 3200 BR FEW010 SCT030 TN11/0121Z TX16/0205Z TN10/0221Z \n TEMPO 0118/0122 1200 SCT006 BKN025 \n BECMG 0203/0204 21007KT 6000 NSW \n BECMG 0210/0211 17007KT 3500 BR \n BECMG 0217/0218 2500 \n BECMG 0223/0224 6000 NSW"
"taf	RKSI	2018-04-02 00:00:00	TAF RKSI 022300Z 0300/0406 21007KT 6000 FEW010 BKN025 TX16/0305Z TN08/0321Z TX14/0405Z \n BECMG 0302/0303 SCT030 \n BECMG 0309/0310 18006KT 3500 BR FEW010 BKN025 OVC080 \n BECMG 0313/0314 2200 -RA \n BECMG 0323/0324 02008KT 4200 BR \n BECMG 0401/0402 06008KT 6000 NSW FEW010 SCT030"
"taf	RKSI	2018-04-02 06:00:00	TAF RKSI 020500Z 0206/0312 23010KT 9999 FEW010 SCT030 TN12/0221Z TX16/0305Z \n BECMG 0210/0211 16006KT \n BECMG 0215/0216 4200 BR \n BECMG 0220/0221 19007KT 2800 FEW008 BKN025 \n BECMG 0301/0302 22007KT 6000 NSW FEW010 SCT030 \n BECMG 0309/0310 17006KT 3500 BR FEW010 BKN030 OVC100"
"taf	RKSI	2018-04-02 12:00:00	TAF RKSI 021100Z 0212/0318 15006KT 9999 FEW010 SCT030 TN12/0221Z TX17/0305Z \n TEMPO 0212/0213 21010KT \n BECMG 0220/0221 18006KT 4200 BR FEW008 BKN025 \n BECMG 0300/0301 21007KT 6000 NSW FEW010 SCT030 \n BECMG 0309/0310 18006KT 3500 BR FEW010 BKN030 OVC080 \n BECMG 0313/0314 2200 -RA"
"taf	RKSI	2018-04-02 18:00:00	TAF RKSI 021700Z 0218/0324 15006KT 9999 SCT030 TN11/0221Z TX16/0305Z TN08/0321Z \n BECMG 0220/0221 18006KT 4200 BR FEW008 BKN025 \n BECMG 0300/0301 21007KT 6000 NSW FEW010 SCT030 \n BECMG 0309/0310 18006KT 3500 BR FEW010 BKN025 OVC080 \n BECMG 0313/0314 2200 -RA \n BECMG 0323/0324 02008KT 4200 BR"
"taf	RKSI	2018-04-03 00:00:00	TAF RKSI 032300Z 0400/0506 01010KT 9999 FEW010 SCT030 TX15/0405Z TN08/0421Z TX11/0505Z \n TEMPO 0400/0401 6000 -RA FEW010 BKN030 OVC100 \n BECMG 0406/0407 07008KT \n BECMG 0415/0416 FEW010 BKN030 OVC100 \n BECMG 0419/0420 10008KT 4200 -RA \n BECMG 0502/0503 13008KT 2800"
"taf	RKSI	2018-04-03 06:00:00	TAF RKSI 030500Z 0306/0412 22008KT 9999 BKN030 TN08/0321Z TX15/0405Z \n BECMG 0312/0313 19007KT 3500 -RA SCT008 BKN025 OVC080 \n BECMG 0320/0321 35010KT 2500 RA \n BECMG 0323/0324 02010KT 4200 -RA \n BECMG 0401/0402 09010KT 6000 NSW FEW010 SCT030"
"taf	RKSI	2018-04-03 12:00:00	TAF RKSI 031100Z 0312/0418 35007KT 0600 DZ FG BKN001 BKN025 BKN080 TN08/0321Z TX15/0405Z \n BECMG 0313/0314 24006KT 3500 -RA FEW008 BKN020 BKN080 \n BECMG 0320/0321 35010KT 2500 RA \n BECMG 0323/0324 02010KT 4200 -RA \n BECMG 0401/0402 09010KT 6000 NSW FEW010 SCT030"
"taf	RKSI	2018-04-03 13:20:00	TAF \n AMD RKSI 031320Z 0313/0418 03010KT 1100 -RA SCT005 BKN025 OVC080 TN08/0321Z TX15/0405Z \n TEMPO 0314/0322 31006KT 0400 BKN002 BKN020 \n BECMG 0322/0323 2500 \n BECMG 0401/0402 09010KT 6000 NSW FEW010 SCT030"
"taf	RKSI	2018-04-03 13:24:00	TAF \n AMD TAF \n AMD RKSI 031320Z 0313/0418 03010KT 1100 -RA SCT005 BKN025 OVC080 TN08/0321Z TX15/0405Z \n TEMPO 0314/0322 31006KT 0400 BKN002 BKN020 \n BECMG 0322/0323 2500 \n BECMG 0401/0402 09010KT 6000 NSW FEW010 SCT030"
"taf	RKSI	2018-04-03 14:05:00	TAF \n AMD RKSI 031405Z 0314/0418 32005KT 1200 -RA BKN003 BKN025 OVC080 TN08/0321Z TX15/0405Z \n BECMG 0315/0316 03010KT RA \n BECMG 0320/0321 2500 -RA \n BECMG 0401/0402 09010KT 6000 NSW FEW010 SCT030"
"taf	RKSI	2018-04-03 14:06:00	TAF \n AMD TAF \n AMD RKSI 031405Z 0314/0418 32005KT 1200 -RA BKN003 BKN025 OVC080 TN08/0321Z TX15/0405Z \n BECMG 0315/0316 03010KT RA \n BECMG 0320/0321 2500 -RA \n BECMG 0401/0402 09010KT 6000 NSW FEW010 SCT030"
"taf	RKSI	2018-04-03 18:00:00	TAF RKSI 031700Z 0318/0424 32005KT 4200 BR SCT005 BKN020 OVC080 TN10/0321Z TX15/0405Z TN08/0421Z \n TEMPO 0318/0321 03008KT 2200 -RA \n BECMG 0323/0324 03010KT 6000 NSW FEW010 SCT030 \n BECMG 0412/0413 09010KT \n BECMG 0414/0415 FEW010 BKN030 OVC100 \n BECMG 0419/0420 4200 -RA"
"taf	RKSI	2018-04-04 00:00:00	TAF RKSI 042300Z 0500/0606 10007KT 4200 -RA FEW010 BKN025 OVC080 TX11/0505Z TN07/0521Z TX10/0604Z \n BECMG 0509/0510 05007KT 2800 \n TEMPO 0516/0518 01007KT 1400 RA \n BECMG 0518/0519 31007KT BR \n BECMG 0600/0601 27015G25KT 6000 NSW FEW010 SCT030"
"taf	RKSI	2018-04-04 06:00:00	TAF RKSI 040500Z 0406/0512 05010KT 9999 SCT025 TN08/0421Z TX11/0505Z \n BECMG 0415/0416 FEW010 BKN030 OVC100 \n BECMG 0419/0420 10008KT 4200 -RA \n BECMG 0501/0502 13008KT 2500"
"taf	RKSI	2018-04-04 12:00:00	TAF RKSI 041100Z 0412/0518 10008KT 9999 FEW030 TN08/0421Z TX11/0505Z \n BECMG 0416/0417 FEW010 BKN025 OVC100 \n BECMG 0419/0420 13010KT 4200 -RA \n BECMG 0512/0513 05008KT 2500 RA \n BECMG 0514/0515 01008KT 1400 \n BECMG 0516/0517 2800"
"taf	RKSI	2018-04-04 18:00:00	TAF RKSI 041700Z 0418/0524 11007KT 6000 SCT030 BKN120 TN08/0421Z TX11/0505Z TN07/0521Z \n BECMG 0420/0421 4200 -RA FEW010 BKN025 OVC080 \n BECMG 0502/0503 2800 \n BECMG 0509/0510 05007KT \n TEMPO 0516/0518 02007KT 1400 BR \n BECMG 0519/0520 31007KT 3500 BR"
"taf	RKSI	2018-04-05 00:00:00	TAF RKSI 052300Z 0600/0706 31012KT 9999 SCT030 TX08/0605Z TN03/0621Z TX08/0705Z \n BECMG 0602/0603 31015G25KT \n BECMG 0611/0612 31012KT FEW010 BKN030 \n BECMG 0615/0616 32017G30KT SCT030"
"taf	RKSI	2018-04-05 06:00:00	TAF RKSI 050500Z 0506/0612 10007KT 4200 -RA FEW010 BKN025 OVC080 TN07/0519Z TX09/0604Z \n BECMG 0509/0510 05007KT 2500 \n TEMPO 0516/0518 01007KT 1400 RA \n BECMG 0519/0520 31007KT BR \n BECMG 0600/0601 27015G25KT 6000 NSW FEW010 SCT030"
"taf	RKSI	2018-04-05 12:00:00	TAF RKSI 051100Z 0512/0618 05007KT 2500 -RA FEW010 BKN025 OVC080 TN07/0519Z TX09/0604Z \n TEMPO 0516/0518 01007KT 1400 RA \n BECMG 0520/0521 31007KT BR \n BECMG 0600/0601 27015G25KT 6000 NSW FEW010 SCT030 \n BECMG 0612/0613 33012KT CAVOK"
"taf	RKSI	2018-04-05 18:00:00	TAF RKSI 051700Z 0518/0624 35007KT 6000 FEW010 BKN025 OVC080 TN07/0521Z TX08/0605Z TN04/0621Z \n TEMPO 0518/0519 4200 -RA \n BECMG 0520/0521 29010KT SCT030 \n BECMG 0602/0603 29015G25KT \n BECMG 0611/0612 31012KT \n BECMG 0615/0616 32017G30KT"
"taf	RKSI	2018-04-06 00:35:00	TAF \n AMD RKSI 062335Z 0700/0806 31018G28KT 9999 FEW030 TX09/0705Z TN03/0721Z TX11/0805Z \n BECMG 0701/0702 32025G38KT \n BECMG 0711/0712 32015G25KT \n BECMG 0714/0715 32010KT \n BECMG 0720/0721 26008KT \n BECMG 0723/0724 20012KT"
"taf	RKSI	2018-04-06 00:39:00	TAF \n AMD TAF \n AMD RKSI 062335Z 0700/0806 31018G28KT 9999 FEW030 TX09/0705Z TN03/0721Z TX11/0805Z \n BECMG 0701/0702 32025G38KT \n BECMG 0711/0712 32015G25KT \n BECMG 0714/0715 32010KT \n BECMG 0720/0721 26008KT \n BECMG 0723/0724 20012KT"
"taf	RKSI	2018-04-06 02:30:00	TAF \n AMD RKSI 060130Z 0602/0706 31012KT 9999 SCT030 TX08/0605Z TN03/0621Z TX08/0705Z \n TEMPO 0602/0608 31015G25KT 4200 HZ \n BECMG 0615/0616 32017G30KT"
"taf	RKSI	2018-04-06 02:33:00	TAF \n AMD TAF \n AMD RKSI 060130Z 0602/0706 31012KT 9999 SCT030 TX08/0605Z TN03/0621Z TX08/0705Z \n TEMPO 0602/0608 31015G25KT 4200 HZ \n BECMG 0615/0616 32017G30KT"
"taf	RKSI	2018-04-06 06:00:00	TAF \n AMD RKSI 060520Z 0606/0712 29020G35KT 9999 SCT030 TN03/0621Z TX08/0705Z \n TEMPO 0606/0608 4200 DU \n BECMG 0611/0612 33014KT \n BECMG 0704/0705 27018G30KT \n BECMG 0710/0711 30014KT"
"taf	RKSI	2018-04-06 06:20:00	TAF \n AMD RKSI 060520Z 0606/0712 29020G35KT 9999 SCT030 TN03/0621Z TX08/0705Z \n TEMPO 0606/0608 4200 DU \n BECMG 0611/0612 33014KT \n BECMG 0704/0705 27018G30KT \n BECMG 0710/0711 30014KT"
"taf	RKSI	2018-04-06 06:24:00	TAF \n AMD TAF \n AMD RKSI 060520Z 0606/0712 29020G35KT 9999 SCT030 TN03/0621Z TX08/0705Z \n TEMPO 0606/0608 4200 DU \n BECMG 0611/0612 33014KT \n BECMG 0704/0705 27018G30KT \n BECMG 0710/0711 30014KT"
"taf	RKSI	2018-04-06 12:00:00	TAF RKSI 061100Z 0612/0718 29018G30KT 9999 SCT030 TN03/0621Z TX08/0705Z \n BECMG 0614/0615 33014KT \n BECMG 0702/0703 28018G30KT \n BECMG 0710/0711 32013KT"
"taf	RKSI	2018-04-06 12:27:00	TAF \n AMD RKSI 061127Z 0612/0718 31018G35KT 9999 SCT030 TN03/0621Z TX08/0705Z \n BECMG 0622/0623 31012KT \n BECMG 0702/0703 28018G30KT \n BECMG 0710/0711 32013KT"
"taf	RKSI	2018-04-06 12:29:00	TAF \n AMD RKSI 061129Z 0612/0718 31018G35KT 9999 BKN030 TN03/0621Z TX08/0705Z \n BECMG 0622/0623 31012KT SCT030 \n BECMG 0702/0703 28018G30KT \n BECMG 0710/0711 32013KT"
"taf	RKSI	2018-04-06 12:30:00	TAF \n AMD RKSI 061130Z 0612/0718 31018G35KT 9999 BKN030 TN03/0621Z TX08/0705Z \n BECMG 0622/0623 31012KT SCT030 \n BECMG 0702/0703 28018G30KT \n BECMG 0710/0711 32013KT"
"taf	RKSI	2018-04-06 12:32:00	TAF \n AMD RKSI 061232Z 0612/0718 31018G35KT 9999 BKN030 TN03/0621Z TX08/0705Z \n BECMG 0622/0623 31012KT SCT030 \n BECMG 0702/0703 28018G30KT \n BECMG 0710/0711 32013KT"
"taf	RKSI	2018-04-06 12:33:00	TAF \n AMD RKSI 061129Z 0612/0718 31018G35KT 9999 BKN030 TN03/0621Z TX08/0705Z \n BECMG 0622/0623 31012KT SCT030 \n BECMG 0702/0703 28018G30KT \n BECMG 0710/0711 32013KT"
"taf	RKSI	2018-04-06 12:36:00	TAF \n AMD TAF \n AMD RKSI 061232Z 0612/0718 31018G35KT 9999 BKN030 TN03/0621Z TX08/0705Z \n BECMG 0622/0623 31012KT SCT030 \n BECMG 0702/0703 28018G30KT \n BECMG 0710/0711 32013KT"
"taf	RKSI	2018-04-06 13:34:00	TAF COR RKSI 061234Z 0613/0718 31018G35KT 9999 BKN030 TN03/0621Z TX08/0705Z \n BECMG 0622/0623 31012KT SCT030 \n BECMG 0702/0703 28018G30KT \n BECMG 0710/0711 32013KT"
"taf	RKSI	2018-04-06 13:36:00	TAF COR TAF COR RKSI 061234Z 0613/0718 31018G35KT 9999 BKN030 TN03/0621Z TX08/0705Z \n BECMG 0622/0623 31012KT SCT030 \n BECMG 0702/0703 28018G30KT \n BECMG 0710/0711 32013KT"
"taf	RKSI	2018-04-06 18:00:00	TAF RKSI 061700Z 0618/0724 31020G35KT 9999 BKN030 TN03/0621Z TX09/0705Z TN03/0721Z \n BECMG 0622/0623 31012KT \n BECMG 0703/0704 31020G35KT \n BECMG 0710/0711 32010KT \n BECMG 0715/0716 26008KT \n BECMG 0717/0718 20008KT"
"taf	RKSI	2018-04-06 20:32:00	TAF \n AMD RKSI 061932Z 0620/0724 31018G30KT 9999 BKN030 TN03/0621Z TX09/0705Z TN03/0721Z \n BECMG 0622/0623 31012KT \n BECMG 0703/0704 31020G35KT \n BECMG 0710/0711 32010KT \n BECMG 0715/0716 26008KT \n BECMG 0717/0718 20008KT"
"taf	RKSI	2018-04-06 20:33:00	TAF \n AMD TAF \n AMD RKSI 061932Z 0620/0724 31018G30KT 9999 BKN030 TN03/0621Z TX09/0705Z TN03/0721Z \n BECMG 0622/0623 31012KT \n BECMG 0703/0704 31020G35KT \n BECMG 0710/0711 32010KT \n BECMG 0715/0716 26008KT \n BECMG 0717/0718 20008KT"
"taf	RKSI	2018-04-07 00:00:00	TAF RKSI 072300Z 0800/0906 20010KT 9999 FEW030 TX09/0805Z TN02/0821Z TX12/0906Z \n BECMG 0807/0808 06008KT 6000 FEW010 BKN030 OVC100 \n BECMG 0812/0813 4200 BR FEW010 SCT030 \n TEMPO 0820/0822 14005KT 2800 \n BECMG 0823/0824 8000 NSW \n BECMG 0903/0904 22008KT"
"taf	RKSI	2018-04-07 00:45:00	TAF TAF RKSI 072300Z 0800/0906 20010KT 9999 FEW030 TX09/0805Z TN02/0821Z TX12/0906Z \n BECMG 0807/0808 06008KT 6000 FEW010 BKN030 OVC100 \n BECMG 0812/0813 4200 BR FEW010 SCT030 \n TEMPO 0820/0822 14005KT 2800 \n BECMG 0823/0824 8000 NSW \n BECMG 0903/0904 22008KT"
"taf	RKSI	2018-04-07 06:00:00	TAF RKSI 070500Z 0706/0812 29025G35KT 9999 FEW030 TN02/0721Z TX11/0805Z \n BECMG 0711/0712 30015G25KT \n BECMG 0714/0715 28010KT \n BECMG 0721/0722 20011KT \n TEMPO 0806/0808 6000 -RA FEW010 BKN030 OVC100 \n BECMG 0809/0810 26008KT 6000"
"taf	RKSI	2018-04-07 12:00:00	TAF RKSI 071100Z 0712/0818 29017G27KT 9999 FEW030 TN02/0721Z TX09/0805Z \n BECMG 0714/0715 29012KT \n BECMG 0721/0722 20011KT \n BECMG 0806/0807 15007KT 6000 -RA FEW010 BKN030 OVC100 \n BECMG 0809/0810 26008KT FEW010 SCT030 \n BECMG 0812/0813 03006KT 4200 BR"
"taf	RKSI	2018-04-07 18:00:00	TAF RKSI 071700Z 0718/0824 27010KT 9999 FEW030 TN02/0721Z TX09/0805Z TN02/0821Z \n BECMG 0721/0722 20010KT \n BECMG 0806/0807 14008KT 6000 FEW010 BKN030 OVC100 \n TEMPO 0808/0810 23008KT -RA \n BECMG 0811/0812 05006KT 4200 BR FEW010 SCT030 \n TEMPO 0820/0822 14005KT 1800"
"taf	RKSI	2018-04-08 00:00:00	TAF RKSI 082300Z 0900/1006 05006KT 6000 FEW010 SCT030 TX12/0906Z TN08/0921Z TX19/1005Z \n TEMPO 0900/0902 4200 BR \n BECMG 0903/0904 20007KT CAVOK \n BECMG 0907/0908 13010KT \n BECMG 0922/0923 20015G25KT \n BECMG 1003/1004 20025G35KT"
"taf	RKSI	2018-04-08 06:00:00	TAF RKSI 080500Z 0806/0912 12007KT 6000 FEW010 BKN030 OVC100 TN02/0821Z TX12/0906Z \n BECMG 0807/0808 21008KT -RA \n BECMG 0809/0810 05007KT NSW FEW010 SCT030 \n BECMG 0815/0816 4200 BR \n BECMG 0821/0822 13006KT 6000 NSW \n TEMPO 0903/0909 21010KT"
"taf	RKSI	2018-04-08 12:00:00	TAF RKSI 081100Z 0812/0918 04015G25KT 6000 FEW010 BKN030 OVC100 TN01/0821Z TX12/0906Z \n BECMG 0813/0814 05007KT FEW010 SCT030 \n BECMG 0818/0819 34006KT 2800 BR \n BECMG 0823/0824 06006KT 6000 NSW \n BECMG 0902/0903 20008KT CAVOK \n BECMG 0909/0910 13010KT"
"taf	RKSI	2018-04-08 18:00:00	TAF RKSI 081700Z 0818/0924 05006KT 6000 FEW010 SCT030 TN01/0821Z TX12/0906Z TN08/0921Z \n TEMPO 0820/0822 36006KT 2800 BR \n BECMG 0902/0903 20007KT CAVOK \n BECMG 0907/0908 13010KT \n BECMG 0922/0923 20015G25KT"
"taf	RKSI	2018-04-08 19:35:00	TAF \n AMD RKSI 081935Z 0819/0924 05006KT 3500 BR FEW010 SCT030 TN01/0821Z TX12/0906Z TN08/0921Z \n TEMPO 0820/0823 36006KT 0400 FG BKN001 \n BECMG 0900/0901 6000 NSW \n BECMG 0902/0903 20007KT CAVOK \n BECMG 0907/0908 13010KT \n BECMG 0922/0923 20015G25KT"
"taf	RKSI	2018-04-08 19:42:00	TAF \n AMD TAF \n AMD RKSI 081935Z 0819/0924 05006KT 3500 BR FEW010 SCT030 TN01/0821Z TX12/0906Z TN08/0921Z \n TEMPO 0820/0823 36006KT 0400 FG BKN001 \n BECMG 0900/0901 6000 NSW \n BECMG 0902/0903 20007KT CAVOK \n BECMG 0907/0908 13010KT \n BECMG 0922/0923 20015G25KT"
"taf	RKSI	2018-04-09 00:00:00	TAF RKSI 092300Z 1000/1106 15013G25KT 9999 SCT030 BKN120 TX18/1005Z TN07/1021Z TX13/1105Z \n BECMG 1002/1003 19023G37KT 6000 \n BECMG 1010/1011 21017G27KT 3500 -RA FEW010 BKN025 OVC080 \n BECMG 1014/1015 23013KT 1200 BR \n BECMG 1017/1018 29006KT 3500 FEW010 SCT030 \n BECMG 1023/1024 26010KT 6000 NSW"
"taf	RKSI	2018-04-09 06:00:00	TAF RKSI 090500Z 0906/1012 29006KT 7000 NSC TN08/0921Z TX18/1005Z \n TEMPO 0911/0915 12006KT \n BECMG 0915/0916 15010KT \n BECMG 0921/0922 16015G25KT \n BECMG 1002/1003 20023G35KT SCT030 \n BECMG 1010/1011 23020G30KT 4200 -RA FEW005 BKN025 OVC080"
"taf	RKSI	2018-04-09 08:42:00	TAF \n AMD RKSI 090742Z 0908/1012 15007KT 7000 NSC TN08/0921Z TX18/1005Z \n TEMPO 0911/0913 06006KT \n BECMG 0921/0922 16015G25KT \n BECMG 1002/1003 20023G35KT SCT030 \n BECMG 1010/1011 23020G30KT 4200 -RA FEW005 BKN025 OVC080"
"taf	RKSI	2018-04-09 08:45:00	TAF \n AMD TAF \n AMD RKSI 090742Z 0908/1012 15007KT 7000 NSC TN08/0921Z TX18/1005Z \n TEMPO 0911/0913 06006KT \n BECMG 0921/0922 16015G25KT \n BECMG 1002/1003 20023G35KT SCT030 \n BECMG 1010/1011 23020G30KT 4200 -RA FEW005 BKN025 OVC080"
"taf	RKSI	2018-04-09 12:00:00	TAF RKSI 091100Z 0912/1018 15010KT CAVOK TN08/0921Z TX18/1005Z \n BECMG 0920/0921 16015G25KT \n BECMG 1001/1002 20023G35KT 6000 SCT030 \n BECMG 1010/1011 23018G30KT 4200 -RA FEW005 BKN025 OVC080 \n BECMG 1013/1014 24015KT BR \n BECMG 1016/1017 27006KT 2500 FEW010 SCT030"
"taf	RKSI	2018-04-09 18:00:00	TAF RKSI 091700Z 0918/1024 16012KT CAVOK TN09/0921Z TX18/1005Z TN07/1021Z \n BECMG 1001/1002 19023G40KT 6000 FEW030 BKN180 \n BECMG 1010/1011 21017G30KT 3500 -RA FEW010 BKN025 OVC080 \n BECMG 1015/1016 23015KT BR \n BECMG 1017/1018 27006KT 2500 FEW010 SCT030 \n TEMPO 1018/1021 1200 FEW010 BKN025"
"taf	RKSI	2018-04-10 00:00:00	TAF RKSI 102300Z 1100/1206 29010KT 6000 NSC TX13/1105Z TN07/1121Z TX15/1205Z \n BECMG 1104/1105 27015G25KT CAVOK \n BECMG 1109/1110 27008KT \n BECMG 1114/1115 20006KT \n BECMG 1201/1202 27008KT"
"taf	RKSI	2018-04-10 06:00:00	TAF RKSI 100500Z 1006/1112 19023G40KT 9999 SCT030 BKN120 TN07/1021Z TX15/1105Z \n BECMG 1010/1011 3500 -RA FEW005 BKN025 OVC080 \n BECMG 1013/1014 22013G25KT 1200 BR \n BECMG 1017/1018 30007KT 3500 FEW010 SCT030 \n TEMPO 1021/1024 6000 NSW \n BECMG 1100/1101 27011KT 7000 NSW"
"taf	RKSI	2018-04-10 10:35:00	TAF \n AMD RKSI 100935Z 1010/1112 22013G25KT 1200 BR FEW005 BKN025 OVC080 TN07/1021Z TX15/1105Z \n TEMPO 1010/1014 21033G45KT -RA SCT005CB BKN025 OVC080 \n BECMG 1017/1018 30007KT 3500 FEW010 SCT030 \n TEMPO 1021/1024 6000 NSW \n BECMG 1100/1101 27011KT 7000 NSW"
"taf	RKSI	2018-04-10 10:36:00	TAF \n AMD TAF \n AMD RKSI 100935Z 1010/1112 22013G25KT 1200 BR FEW005 BKN025 OVC080 TN07/1021Z TX15/1105Z \n TEMPO 1010/1014 21033G45KT -RA SCT005CB BKN025 OVC080 \n BECMG 1017/1018 30007KT 3500 FEW010 SCT030 \n TEMPO 1021/1024 6000 NSW \n BECMG 1100/1101 27011KT 7000 NSW"
"taf	RKSI	2018-04-10 12:00:00	TAF COR RKSI 101100Z 1012/1118 22025G40KT 2800 BR FEW005 BKN025 OVC080 TN07/1021Z TX15/1105Z \n TEMPO 1012/1014 1400 -TSRA SCT005CB BKN020 OVC080 \n BECMG 1014/1015 21013G25KT \n BECMG 1017/1018 31007KT 3500 FEW010 SCT030 \n BECMG 1023/1024 28011KT 7000 NSW \n BECMG 1113/1114 22006KT"
"taf	RKSI	2018-04-10 12:57:00	TAF COR TAF COR RKSI 101100Z 1012/1118 22025G40KT 2800 BR FEW005 BKN025 OVC080 TN07/1021Z TX15/1105Z \n TEMPO 1012/1014 1400 -TSRA SCT005CB BKN020 OVC080 \n BECMG 1014/1015 21013G25KT \n BECMG 1017/1018 31007KT 3500 FEW010 SCT030 \n BECMG 1023/1024 28011KT 7000 NSW \n BECMG 1113/1114 22006KT"
"taf	RKSI	2018-04-10 18:00:00	TAF RKSI 101700Z 1018/1124 23012KT 4200 BR FEW005 SCT030 TN07/1021Z TX13/1105Z TN06/1121Z \n TEMPO 1019/1021 27006KT 2500 FEW008 BKN025 \n BECMG 1022/1023 27011KT 6000 NSW \n BECMG 1114/1115 21006KT CAVOK"
"taf	RKSI	2018-04-11 00:00:00	TAF RKSI 112300Z 1200/1306 17006KT CAVOK TX17/1205Z TN06/1221Z TX17/1304Z \n BECMG 1202/1203 31010KT \n BECMG 1212/1213 07006KT \n TEMPO 1214/1219 32006KT \n BECMG 1304/1305 13010KT 9999 FEW030 SCT200"
"taf	RKSI	2018-04-11 06:00:00	TAF RKSI 110500Z 1106/1212 27010KT CAVOK TN07/1121Z TX15/1205Z \n BECMG 1114/1115 21006KT \n BECMG 1201/1202 29008KT"
"taf	RKSI	2018-04-11 12:00:00	TAF RKSI 111100Z 1112/1218 27010KT CAVOK TN07/1121Z TX15/1205Z \n BECMG 1114/1115 21006KT \n BECMG 1201/1202 29010KT \n BECMG 1212/1213 35006KT"
"taf	RKSI	2018-04-11 18:00:00	TAF RKSI 111700Z 1118/1224 17006KT CAVOK TN06/1121Z TX17/1205Z TN06/1221Z \n BECMG 1202/1203 31010KT \n BECMG 1212/1213 07006KT \n TEMPO 1214/1218 32006KT"
"taf	RKSI	2018-04-12 00:00:00	TAF RKSI 122300Z 1300/1406 06006KT 9999 SCT030 BKN150 TX17/1305Z TN09/1321Z TX11/1406Z \n BECMG 1313/1314 13009KT \n BECMG 1318/1319 6000 -RA FEW010 BKN025 OVC080 \n BECMG 1322/1323 08008KT 4200 \n BECMG 1401/1402 05009KT 2800 \n BECMG 1404/1405 02011KT 4200 BR"
"taf	RKSI	2018-04-12 06:00:00	TAF RKSI 120500Z 1206/1312 29012KT CAVOK TN06/1221Z TX17/1305Z \n BECMG 1214/1215 35006KT \n BECMG 1301/1302 05010KT \n BECMG 1303/1304 11008KT"
"taf	RKSI	2018-04-12 12:00:00	TAF RKSI 121100Z 1212/1318 35008KT CAVOK TN07/1221Z TX16/1305Z \n BECMG 1301/1302 05010KT \n BECMG 1303/1304 11008KT \n BECMG 1312/1313 13015G25KT \n BECMG 1316/1317 15010KT 6000 -RA FEW010 BKN025 BKN110"
"taf	RKSI	2018-04-12 18:00:00	TAF RKSI 121700Z 1218/1324 06007KT 9999 SCT030 BKN180 TN06/1221Z TX16/1305Z TN09/1321Z \n TEMPO 1305/1308 14006KT \n BECMG 1312/1313 13009KT \n BECMG 1318/1319 6000 -RA FEW010 BKN025 OVC110 \n BECMG 1321/1322 06010KT 4200"
"taf	RKSI	2018-04-13 00:00:00	TAF RKSI 132300Z 1400/1506 04008KT 3500 -RA FEW010 BKN025 OVC080 TX10/1405Z TN06/1421Z TX12/1505Z \n BECMG 1402/1403 01008KT 2500 \n BECMG 1405/1406 34010KT 4200 BR \n BECMG 1407/1408 31010KT 7000 NSW FEW010 SCT030 \n BECMG 1503/1504 31015G25KT"
"taf	RKSI	2018-04-13 06:00:00	TAF RKSI 130500Z 1306/1412 12010KT 9999 SCT030 BKN150 TN09/1321Z TX11/1406Z \n BECMG 1318/1319 6000 -RA FEW010 BKN025 OVC080 \n BECMG 1322/1323 08008KT 4200 \n BECMG 1401/1402 05009KT 2800 \n BECMG 1407/1408 35011KT 4200 BR"
"taf	RKSI	2018-04-13 12:00:00	TAF RKSI 131100Z 1312/1418 08006KT 9999 SCT030 BKN150 TN09/1321Z TX11/1406Z \n BECMG 1318/1319 6000 -RA FEW010 BKN025 OVC080 \n BECMG 1322/1323 4200 \n BECMG 1401/1402 05010KT 2800 \n BECMG 1407/1408 33010KT 4200 BR FEW010 SCT030"
"taf	RKSI	2018-04-13 18:00:00	TAF RKSI 131700Z 1318/1424 13012KT 6000 -RA FEW010 BKN025 OVC080 TN09/1321Z TX10/1405Z TN05/1421Z \n BECMG 1322/1323 07010KT 4200 \n BECMG 1401/1402 01010KT 2800 \n BECMG 1406/1407 34008KT 4200 BR FEW010 SCT030 \n BECMG 1408/1409 31008KT 7000 NSW"
"taf	RKSI	2018-04-14 00:00:00	TAF RKSI 142300Z 1500/1606 30010KT CAVOK TX12/1505Z TN06/1521Z TX14/1605Z \n BECMG 1501/1502 31015G25KT \n BECMG 1510/1511 32012KT \n BECMG 1517/1518 35006KT 4200 BR NSC \n BECMG 1522/1523 31006KT 6000 NSW"
"taf	RKSI	2018-04-14 06:00:00	TAF RKSI 140500Z 1406/1512 33010KT 4200 -RA FEW010 BKN025 OVC080 TX06/1421Z TX12/1505Z \n BECMG 1407/1408 7000 NSW FEW010 SCT030 \n TEMPO 1415/1420 3500 BR \n TEMPO 1503/1507 30015G25KT"
"taf	RKSI	2018-04-14 12:00:00	TAF RKSI 141100Z 1412/1518 33010KT 7000 FEW010 SCT030 TN06/1421Z TX12/1505Z \n TEMPO 1415/1420 3500 BR \n TEMPO 1503/1507 30015G25KT"
"taf	RKSI	2018-04-14 18:00:00	TAF RKSI 141700Z 1418/1524 31010KT CAVOK TN06/1421Z TX12/1505Z TN06/1521Z \n BECMG 1501/1502 30015G25KT \n BECMG 1510/1511 32012KT \n BECMG 1514/1515 33015G25KT \n BECMG 1518/1519 33010KT"
"taf	RKSI	2018-04-15 00:00:00	TAF RKSI 152300Z 1600/1706 34006KT CAVOK TX15/1605Z TN05/1621Z TX15/1705Z \n BECMG 1603/1604 28010KT \n BECMG 1610/1611 02006KT \n BECMG 1616/1617 15005KT \n TEMPO 1620/1622 4200 BR \n BECMG 1703/1704 27007KT"
"taf	RKSI	2018-04-15 06:00:00	TAF RKSI 150500Z 1506/1612 29015G25KT 9999 SCT030 BKN180 TN05/1521Z TX15/1605Z \n BECMG 1510/1511 31010KT CAVOK \n BECMG 1520/1521 01006KT \n BECMG 1601/1602 28010KT"
"taf	RKSI	2018-04-15 18:00:00	TAF RKSI 151700Z 1518/1624 02006KT CAVOK TN04/1521Z TX15/1605Z TN06/1621Z \n BECMG 1604/1605 28010KT \n BECMG 1611/1612 02006KT \n BECMG 1616/1617 15005KT"
"taf	RKSI	2018-04-16 00:00:00	TAF RKSI 162300Z 1700/1806 22006KT CAVOK TX17/1705Z TN06/1721Z TX17/1805Z \n BECMG 1703/1704 28006KT \n BECMG 1715/1716 20005KT \n TEMPO 1804/1806 26006KT"
"taf	RKSI	2018-04-16 06:00:00	TAF RKSI 160500Z 1606/1712 29010KT CAVOK TN06/1621Z TX16/1705Z \n BECMG 1613/1614 02006KT \n BECMG 1616/1617 15005KT \n BECMG 1703/1704 28007KT"
"taf	RKSI	2018-04-16 12:00:00	TAF RKSI 161100Z 1612/1718 32010KT CAVOK TN07/1621Z TX17/1705Z \n BECMG 1613/1614 02006KT \n BECMG 1616/1617 14005KT \n BECMG 1703/1704 28006KT \n BECMG 1715/1716 22005KT"
"taf	RKSI	2018-04-16 18:00:00	TAF RKSI 161700Z 1618/1724 22005KT CAVOK TN07/1621Z TX17/1705Z TN06/1721Z \n BECMG 1703/1704 28006KT \n BECMG 1715/1716 22005KT"
"taf	RKSI	2018-04-17 06:00:00	TAF RKSI 170500Z 1706/1812 27006KT CAVOK TN05/1721Z TX16/1805Z \n BECMG 1715/1716 19005KT \n BECMG 1802/1803 25007KT \n BECMG 1810/1811 17005KT"
"taf	RKSI	2018-04-17 12:00:00	TAF RKSI 171100Z 1712/1818 31006KT CAVOK TN05/1721Z TX16/1805Z \n BECMG 1715/1716 20005KT \n BECMG 1802/1803 26007KT \n BECMG 1810/1811 17005KT"
"taf	RKSI	2018-04-17 18:00:00	TAF RKSI 171700Z 1718/1824 29005KT CAVOK TN07/1721Z TX15/1805Z TN07/1821Z \n BECMG 1802/1803 23010KT \n BECMG 1810/1811 17006KT"
"taf	RKSI	2018-04-18 00:00:00	TAF RKSI 182300Z 1900/2006 17006KT CAVOK TX15/1905Z TN09/1921Z TX20/2005Z \n BECMG 1902/1903 24010KT \n BECMG 1910/1911 18006KT 6000 NSC \n BECMG 1915/1916 13005KT 3500 BR FEW010 SCT025 \n TEMPO 1918/1921 1800 \n BECMG 1923/1924 22005KT 6000 NSW NSC"
"taf	RKSI	2018-04-18 06:00:00	TAF RKSI 180500Z 1806/1912 16006KT CAVOK TN07/1821Z TX15/1905Z \n TEMPO 1806/1810 26008KT \n BECMG 1901/1902 24010KT \n BECMG 1910/1911 17006KT 6000 NSC"
"taf	RKSI	2018-04-18 12:00:00	TAF RKSI 181100Z 1812/1918 16006KT CAVOK TN06/1821Z TX15/1905Z \n BECMG 1901/1902 24010KT \n BECMG 1910/1911 17006KT 6000 NSC \n BECMG 1914/1915 13005KT 4200 BR FEW010 SCT025 \n BECMG 1917/1918 2800"
"taf	RKSI	2018-04-18 18:00:00	TAF RKSI 181700Z 1818/1924 17006KT CAVOK TN05/1820Z TX15/1905Z TN09/1921Z \n BECMG 1902/1903 24010KT \n BECMG 1910/1911 17006KT 6000 NSC \n BECMG 1915/1916 12005KT 3500 BR FEW010 SCT025 \n TEMPO 1918/1921 1800 \n BECMG 1923/1924 07005KT 6000 NSW NSC"
"taf	RKSI	2018-04-19 00:00:00	TAF RKSI 192300Z 2000/2106 16005KT 7000 NSC TX21/2005Z TN09/2021Z TX20/2105Z \n TEMPO 2004/2009 26006KT \n BECMG 2015/2016 4200 BR FEW010 SCT020 \n TEMPO 2020/2023 2500 \n BECMG 2023/2024 6000 NSW \n BECMG 2102/2103 23010KT NSC"
"taf	RKSI	2018-04-19 06:00:00	TAF RKSI 190500Z 1906/2012 24010KT CAVOK TN09/1921Z TX20/2005Z \n BECMG 1909/1910 18006KT 6000 NSC \n BECMG 1915/1916 13005KT 3500 BR FEW010 SCT025 \n BECMG 1918/1919 05005KT 2000 \n BECMG 1921/1922 16006KT 3500 \n BECMG 2001/2002 22010KT 6000 NSW"
"taf	RKSI	2018-04-19 12:00:00	TAF RKSI 191100Z 1912/2018 21006KT CAVOK TN09/1921Z TX20/2005Z \n BECMG 1915/1916 18005KT 3500 BR FEW009 SCT025 \n BECMG 1918/1919 15005KT 2000 \n BECMG 1921/1922 18007KT 3500 \n BECMG 2001/2002 22010KT 6000 NSW \n BECMG 2011/2012 18005KT 3500 BR"
"taf	RKSI	2018-04-19 18:00:00	TAF RKSI 191700Z 1918/2024 16005KT 6000 FEW010 SCT020 TN08/1921Z TX21/2005Z TN09/2021Z \n TEMPO 1920/1922 4200 BR \n TEMPO 2004/2010 26006KT \n BECMG 2015/2016 4200 BR \n TEMPO 2020/2022 1800 \n BECMG 2023/2024 6000 NSW"
"taf	RKSI	2018-04-20 00:00:00	TAF RKSI 202300Z 2100/2206 16006KT 6000 NSC TX20/2105Z TN13/2121Z TX17/2205Z \n BECMG 2101/2102 06006KT FEW010 SCT030 \n TEMPO 2102/2109 24007KT NSC \n BECMG 2123/2124 4200 BR FEW010 BKN025 OVC080 \n TEMPO 2201/2203 6000 -RA \n BECMG 2204/2205 09007KT 6000 -RA"
"taf	RKSI	2018-04-20 06:00:00	TAF RKSI 200500Z 2006/2112 31007KT 7000 NSC TN09/2021Z TX20/2106Z \n BECMG 2014/2015 21005KT 3500 BR \n BECMG 2020/2021 05005KT 2000 \n BECMG 2023/2024 18005KT 4200 HZ \n BECMG 2101/2102 31007KT 6000 NSW \n BECMG 2109/2110 28006KT 3500 BR FEW009"
"taf	RKSI	2018-04-20 12:00:00	TAF RKSI 201100Z 2012/2118 28005KT 7000 NSC TN12/2021Z TX19/2106Z \n BECMG 2017/2018 18005KT 3500 BR FEW009 \n BECMG 2020/2021 05005KT 2000 \n BECMG 2023/2024 18006KT 4200 HZ \n BECMG 2101/2102 31007KT 6000 NSW NSC \n BECMG 2109/2110 28006KT 3500 BR FEW009"
"taf	RKSI	2018-04-20 18:00:00	TAF RKSI 201700Z 2018/2124 16006KT 6000 NSC TN08/2021Z TX19/2105Z TN12/2121Z \n TEMPO 2019/2024 4200 BR \n BECMG 2101/2102 06006KT FEW010 SCT030 \n TEMPO 2102/2109 24007KT NSC \n BECMG 2120/2121 4200 BR \n BECMG 2123/2124 6000 -RA FEW010 BKN025 OVC080"
"taf	RKSI	2018-04-21 00:00:00	TAF RKSI 212300Z 2200/2306 05008KT 6000 -RA FEW009 BKN030 BKN080 TX18/2205Z TN12/2221Z TX12/2306Z \n BECMG 2205/2206 3500 \n BECMG 2208/2209 07016G30KT \n BECMG 2212/2213 2000 RA \n BECMG 2300/2301 -RA"
"taf	RKSI	2018-04-21 06:00:00	TAF RKSI 210500Z 2106/2212 25010KT 8000 NSC TN13/2121Z TX17/2205Z \n BECMG 2108/2109 16006KT \n BECMG 2115/2116 05006KT \n BECMG 2123/2124 09008KT 4200 BR FEW010 BKN025 OVC080 \n BECMG 2201/2202 6000 -RA \n BECMG 2208/2209 05015G25KT"
"taf	RKSI	2018-04-21 12:00:00	TAF RKSI 211100Z 2112/2218 02006KT 6000 NSC TN13/2121Z TX17/2205Z \n BECMG 2123/2124 08010KT FEW010 BKN025 OVC080 \n BECMG 2206/2207 3500 -RA \n BECMG 2209/2210 07015G25KT \n BECMG 2213/2214 2200 RA"
"taf	RKSI	2018-04-21 18:00:00	TAF RKSI 211700Z 2118/2224 08007KT 7000 SCT030 TN13/2121Z TX18/2205Z TN11/2221Z \n BECMG 2205/2206 05008KT 3500 -RA FEW008 BKN025 OVC080 \n BECMG 2208/2209 07016G30KT \n BECMG 2212/2213 2000 RA"
"taf	RKSI	2018-04-22 00:00:00	TAF RKSI 222300Z 2300/2406 07016G30KT 4200 -RA FEW008 BKN025 OVC080 TX12/2305Z TN11/2321Z TX15/2405Z \n BECMG 2306/2307 07012KT -DZ \n BECMG 2312/2313 -RA \n BECMG 2320/2321 06015G25KT 6000 NSW SCT030 BKN120"
"taf	RKSI	2018-04-22 06:00:00	TAF RKSI 220500Z 2206/2312 06008KT 6000 -RA FEW010 BKN025 OVC080 TN12/2221Z TX12/2306Z \n BECMG 2211/2212 06015G30KT 3500 \n TEMPO 2217/2223 09015G30KT 2000 RA"
"taf	RKSI	2018-04-22 12:00:00	TAF RKSI 221100Z 2212/2318 06015G30KT 3500 -RA FEW010 BKN025 OVC080 TN09/2221Z TX12/2306Z \n TEMPO 2216/2223 09015G30KT 2000 RA \n BECMG 2313/2314 03012KT"
"taf	RKSI	2018-04-22 18:00:00	TAF RKSI 221700Z 2218/2324 07016G30KT 7000 -RA FEW008 BKN030 OVC080 TN11/2221Z TX12/2305Z TN11/2321Z \n BECMG 2221/2222 4200 \n BECMG 2305/2306 BR SCT030 BKN120 \n BECMG 2311/2312 06012KT \n TEMPO 2313/2321 -RA BKN025 BKN100 \n BECMG 2322/2323 03010KT 7000 NSW"
"taf	RKSI	2018-04-23 00:00:00	TAF RKSI 232300Z 2400/2506 04018G30KT 6000 FEW008 BKN025 OVC080 TX15/2405Z TN07/2421Z TX19/2505Z \n BECMG 2403/2404 SCT030 BKN120 \n TEMPO 2410/2417 03012KT NSC \n TEMPO 2418/2419 01007KT NSC \n BECMG 2502/2503 30010KT"
"taf	RKSI	2018-04-23 06:00:00	TAF RKSI 230500Z 2306/2412 08013KT 4200 -DZ FEW008 BKN025 OVC080 TN11/2321Z TX15/2405Z \n BECMG 2312/2313 05010KT -RA \n BECMG 2321/2322 05015G25KT 6000 NSW SCT030 BKN120"
"taf	RKSI	2018-04-23 12:00:00	TAF RKSI 231100Z 2312/2418 08010KT 6000 -RA FEW008 BKN025 OVC080 TN11/2321Z TX15/2405Z \n TEMPO 2316/2319 04009KT 4200 \n BECMG 2321/2322 05012KT NSW \n BECMG 2403/2404 05015G25KT SCT030 BKN120 \n BECMG 2409/2410 03010KT"
"taf	RKSI	2018-04-23 18:00:00	TAF RKSI 231700Z 2318/2424 05010KT 6000 -RA FEW010 BKN025 OVC080 TN09/2321Z TX15/2405Z TN07/2421Z \n BECMG 2321/2322 NSW \n BECMG 2403/2404 04015G25KT SCT030 BKN120 \n TEMPO 2411/2418 03012KT NSC \n BECMG 2419/2420 01006KT NSC"
"taf	RKSI	2018-04-24 00:00:00	TAF RKSI 242300Z 2500/2606 03006KT CAVOK TX19/2505Z TN09/2521Z TX18/2605Z \n BECMG 2503/2504 29010KT \n BECMG 2515/2516 13005KT 6000 NSC \n BECMG 2603/2604 25008KT"
"taf	RKSI	2018-04-24 06:00:00	TAF RKSI 240500Z 2406/2512 03015G25KT 9999 SCT030 BKN120 TN07/2421Z TX19/2505Z \n TEMPO 2411/2417 03010KT CAVOK \n BECMG 2417/2418 02007KT CAVOK \n BECMG 2502/2503 29010KT"
"taf	RKSI	2018-04-24 06:51:00	TAF RKSI 240500Z 2406/2512 03015G25KT 9999 SCT030 BKN120 TN07/2421Z TX19/2505Z \n TEMPO 2411/2417 03010KT CAVOK \n BECMG 2417/2418 02007KT CAVOK \n BECMG 2502/2503 29010KT"
"taf	RKSI	2018-04-24 12:00:00	TAF RKSI 241100Z 2412/2518 03007KT 9999 SCT030 BKN180 TN07/2421Z TX19/2505Z \n BECMG 2503/2504 29010KT CAVOK \n BECMG 2516/2517 19005KT 6000 NSC"
"taf	RKSI	2018-04-24 18:00:00	TAF RKSI 241700Z 2418/2524 03006KT 9999 SCT030 TN07/2421Z TX19/2505Z TN09/2521Z \n BECMG 2503/2504 29010KT CAVOK \n BECMG 2515/2516 13005KT 6000 NSC"
"taf	RKSI	2018-04-25 00:00:00	TAF RKSI 252300Z 2600/2706 19005KT CAVOK TX18/2605Z TN09/2621Z TX18/2705Z \n BECMG 2603/2604 25008KT \n BECMG 2612/2613 19006KT 6000 NSC \n BECMG 2616/2617 4200 BR \n BECMG 2620/2621 6000 NSW \n BECMG 2702/2703 25007KT"
"taf	RKSI	2018-04-25 06:00:00	TAF RKSI 250500Z 2506/2612 30007KT CAVOK TN08/2521Z TX18/2605Z \n BECMG 2514/2515 16005KT 6000 NSC \n BECMG 2603/2604 26008KT \n BECMG 2610/2611 19006KT"
"taf	RKSI	2018-04-25 12:00:00	TAF RKSI 251100Z 2512/2618 31006KT CAVOK TN08/2521Z TX18/2605Z \n BECMG 2514/2515 18005KT 6000 NSC \n BECMG 2603/2604 25008KT CAVOK \n BECMG 2611/2612 17006KT 6000 FEW030 \n BECMG 2615/2616 14005KT 4200 BR"
"taf	RKSI	2018-04-25 18:00:00	TAF RKSI 251700Z 2518/2624 19005KT 6000 NSC TN09/2521Z TX17/2605Z TN09/2621Z \n BECMG 2603/2604 25007KT CAVOK \n BECMG 2611/2612 18005KT 6000 NSC \n BECMG 2616/2617 4200 BR \n BECMG 2620/2621 6000 NSW"
"taf	RKSI	2018-04-26 00:00:00	TAF RKSI 262300Z 2700/2806 18005KT CAVOK TX20/2705Z TN08/2721Z TX19/2805Z \n TEMPO 2704/2706 25006KT \n BECMG 2706/2707 27007KT \n BECMG 2713/2714 18005KT 6000 NSC \n TEMPO 2718/2721 3500 BR \n BECMG 2803/2804 25007KT"
"taf	RKSI	2018-04-26 06:00:00	TAF RKSI 260500Z 2606/2712 25007KT 9999 FEW030 BKN200 TN09/2621Z TX20/2705Z \n BECMG 2612/2613 17006KT 6000 NSC \n BECMG 2616/2617 4200 BR \n BECMG 2621/2622 6000 NSW \n BECMG 2703/2704 28006KT"
"taf	RKSI	2018-04-26 12:00:00	TAF RKSI 261100Z 2612/2718 24006KT 6000 SCT030 BKN200 TN09/2621Z TX20/2705Z \n BECMG 2618/2619 17006KT 4200 BR \n BECMG 2621/2622 6000 NSW \n BECMG 2704/2705 27006KT NSC \n BECMG 2713/2714 17005KT 4200 BR SCT020 \n BECMG 2716/2717 2800"
"taf	RKSI	2018-04-26 18:00:00	TAF RKSI 261700Z 2618/2724 17006KT 6000 NSC TN09/2621Z TX20/2705Z TN08/2721Z \n TEMPO 2704/2706 25006KT \n BECMG 2706/2707 27007KT CAVOK \n BECMG 2713/2714 17005KT 6000 NSC \n BECMG 2717/2718 4200 BR \n TEMPO 2719/2721 2800"
"taf	RKSI	2018-04-27 00:00:00	TAF RKSI 272300Z 2800/2906 16005KT CAVOK TX18/2806Z TN08/2821Z TX19/2906Z \n BECMG 2803/2804 25010KT \n BECMG 2810/2811 16006KT 6000 NSC \n BECMG 2902/2903 24010KT"
"taf	RKSI	2018-04-27 06:00:00	TAF RKSI 270500Z 2706/2812 31006KT CAVOK TN08/2721Z TX19/2806Z \n BECMG 2711/2712 18005KT 6000 NSC \n BECMG 2801/2802 25006KT \n BECMG 2804/2805 31010KT \n BECMG 2809/2810 25006KT"
"taf	RKSI	2018-04-27 12:00:00	TAF RKSI 271100Z 2712/2818 25006KT CAVOK TN08/2721Z TX19/2806Z \n BECMG 2716/2717 18005KT 6000 NSC \n BECMG 2801/2802 25006KT \n BECMG 2804/2805 31010KT \n BECMG 2809/2810 25006KT \n BECMG 2811/2812 18006KT"
"taf	RKSI	2018-04-27 18:00:00	TAF RKSI 271700Z 2718/2824 16005KT 6000 NSC TN08/2721Z TX18/2806Z TN08/2821Z \n TEMPO 2720/2722 4200 BR \n BECMG 2803/2804 25009KT \n BECMG 2810/2811 16006KT"
"taf	RKSI	2018-04-28 00:00:00	TAF RKSI 282300Z 2900/3006 16006KT 6000 NSC TX20/2906Z TN10/2921Z TX21/3006Z \n BECMG 2902/2903 24010KT \n BECMG 2913/2914 15006KT 3200 BR FEW005 SCT020 \n TEMPO 2916/2921 0600 FG BKN002 \n BECMG 3000/3001 6000 NSW \n BECMG 3004/3005 30006KT"
"taf	RKSI	2018-04-28 06:00:00	TAF RKSI 280500Z 2806/2912 29010KT CAVOK TN08/2821Z TX19/2906Z \n BECMG 2809/2810 23010KT 6000 NSC \n BECMG 2811/2812 16006KT \n BECMG 2902/2903 24010KT \n BECMG 2910/2911 21008KT 4200 BR"
"taf	RKSI	2018-04-28 12:00:00	TAF RKSI 281100Z 2812/2918 25006KT CAVOK TN10/2821Z TX19/2906Z \n BECMG 2813/2814 16006KT 6000 NSC \n BECMG 2902/2903 24010KT \n BECMG 2910/2911 21008KT 3500 BR \n BECMG 2913/2914 18005KT 2500 FEW008"
"taf	RKSI	2018-04-28 18:00:00	TAF RKSI 281700Z 2818/2924 16006KT 6000 NSC TN08/2821Z TX19/2906Z TN10/2921Z \n BECMG 2902/2903 24010KT \n BECMG 2913/2914 15006KT 3200 BR FEW005 SCT020 \n TEMPO 2916/2922 1200 BKN002 \n BECMG 2923/2924 6000 NSW"
"taf	RKSI	2018-04-29 00:00:00	TAF RKSI 292300Z 3000/0106 15005KT 3500 BR SCT010 TX21/3006Z TN14/3021Z TX22/0106Z \n BECMG 3002/3003 27006KT 6000 NSW SCT030 \n BECMG 3010/3011 22006KT 3500 BR \n BECMG 3015/3016 19005KT 2500 SCT004 \n TEMPO 3019/3022 14005KT 0600 FG \n BECMG 3023/3024 17006KT 6000 NSW SCT030 BKN150"
"taf	RKSI	2018-04-29 06:00:00	TAF RKSI 290500Z 2906/3012 24010KT 6000 NSC TN10/2921Z TX21/3006Z \n BECMG 2913/2914 15006KT 3200 BR FEW005 SCT020 \n TEMPO 2916/2921 0600 FG BKN002 \n BECMG 3000/3001 6000 NSW \n BECMG 3004/3005 30006KT \n BECMG 3010/3011 15006KT 3200 BR"
"taf	RKSI	2018-04-29 12:00:00	TAF RKSI 291100Z 2912/3018 15006KT 3200 BR FEW005 SCT020 TN08/2921Z TX21/3006Z \n TEMPO 2916/2921 0600 FG BKN002 \n BECMG 3000/3001 6000 NSW \n BECMG 3004/3005 30006KT \n BECMG 3010/3011 15006KT 3200 BR \n TEMPO 3013/3018 0600 FG BKN002"
"taf	RKSI	2018-04-29 18:00:00	TAF RKSI 291700Z 2918/3024 35005KT 4200 BR FEW004 SCT012 BKN180 TN09/2921Z TX21/3006Z TN14/3021Z \n BECMG 2921/2922 18006KT 6000 NSW NSC \n BECMG 3004/3005 29008KT \n BECMG 3010/3011 20006KT 3500 BR FEW004 SCT012 BKN150 \n BECMG 3015/3016 05005KT 2000 \n BECMG 3022/3023 15006KT 4200"
"taf	RKSI	2018-04-30 00:00:00	TAF RKSI 302300Z 0100/0206 31006KT 4200 BR BKN030 TX22/0106Z TN15/0121Z TX18/0206Z \n BECMG 0103/0104 6000 NSW SCT030 BKN180 \n BECMG 0110/0111 24005KT 3500 BR \n BECMG 0117/0118 05007KT 2200 -RA FEW010 BKN025 OVC100 \n BECMG 0202/0203 32012KT 1400 RA"
"taf	RKSI	2018-04-30 06:00:00	TAF RKSI 300500Z 3006/0112 30006KT 6000 FEW010 SCT030 BKN150 TN14/3021Z TX22/0106Z \n BECMG 3010/3011 22006KT 3200 BR \n TEMPO 3019/3022 14005KT 0800 FG BKN005 \n BECMG 3023/3024 17006KT 6000 NSW \n BECMG 0104/0105 30007KT \n BECMG 0110/0111 07006KT 4200 BR FEW010 BKN025 OVC100"
"taf	RKSI	2018-04-30 12:00:00	TAF RKSI 301100Z 3012/0118 22006KT 3200 BR FEW010 SCT030 BKN150 TN14/3021Z TX22/0106Z \n TEMPO 3019/3021 14005KT 0800 FG BKN005 \n BECMG 3023/3024 17006KT 6000 NSW \n BECMG 0104/0105 31007KT \n BECMG 0111/0112 07006KT 3200 BR FEW010 BKN025 OVC100 \n TEMPO 0115/0118 10006KT 2500 -RA"
"taf	RKSI	2018-04-30 18:00:00	TAF RKSI 301700Z 3018/0124 14005KT 1200 BR BKN002 TN15/3021Z TX22/0106Z TN15/0121Z \n BECMG 3020/3021 18005KT 3500 FEW008 BKN025 \n BECMG 0101/0102 24007KT 6000 NSW SCT030 BKN180 \n BECMG 0111/0112 29005KT 3500 BR \n BECMG 0116/0117 05006KT 2200 -RA FEW008 BKN025 OVC100 \n BECMG 0122/0123 08006KT 1400 RA"
"taf	RKSI	2018-05-01 00:00:00	TAF RKSI 012300Z 0200/0306 35006KT 3500 -RA FEW010 BKN025 OVC100 TX17/0205Z TN08/0221Z TX15/0305Z \n TEMPO 0201/0205 23008KT 6000 NSW \n BECMG 0207/0208 32010KT 6000 \n BECMG 0209/0210 34015G25KT NSW FEW010 SCT030 BKN150 \n BECMG 0216/0217 33013KT \n BECMG 0222/0223 32017G30KT"
"taf	RKSI	2018-05-01 06:00:00	TAF RKSI 010500Z 0106/0212 33007KT 6000 SCT030 BKN120 TN15/0121Z TX18/0205Z \n BECMG 0111/0112 30005KT 4200 BR \n BECMG 0119/0120 05007KT 2500 -RA FEW010 BKN025 OVC100 \n BECMG 0200/0201 25007KT 3500 \n BECMG 0205/0206 32010KT \n BECMG 0209/0210 35012KT 6000 NSW FEW010 SCT030"
"taf	RKSI	2018-05-01 12:00:00	TAF RKSI 011100Z 0112/0218 31006KT 6000 SCT030 BKN120 TN15/0121Z TX18/0205Z \n BECMG 0118/0119 25006KT 3500 -RA FEW010 BKN025 OVC100 \n TEMPO 0204/0207 29008KT 6000 NSW \n BECMG 0207/0208 32010KT 6000 \n BECMG 0209/0210 34015G25KT NSW FEW010 SCT030 \n BECMG 0212/0213 34011KT"
"taf	RKSI	2018-05-01 18:00:00	TAF RKSI 011700Z 0118/0224 35006KT 4200 -RA FEW010 BKN025 OVC100 TN15/0121Z TX17/0205Z TN08/0221Z \n TEMPO 0204/0206 29008KT 6000 NSW \n BECMG 0207/0208 32010KT 6000 \n BECMG 0209/0210 34015G25KT NSW FEW010 SCT030 \n BECMG 0212/0213 32013KT \n BECMG 0222/0223 33017G30KT"
"taf	RKSI	2018-05-02 00:15:00	TAF RKSI 012300Z 0200/0306 35006KT 3500 -RA FEW010 BKN025 OVC100 TX17/0205Z TN08/0221Z TX15/0305Z \n TEMPO 0201/0205 23008KT 6000 NSW \n BECMG 0207/0208 32010KT 6000 \n BECMG 0209/0210 34015G25KT NSW FEW010 SCT030 BKN150 \n BECMG 0216/0217 33013KT \n BECMG 0222/0223 32017G30KT"
"taf	RKSI	2018-05-02 02:45:00	TAF \n AMD TAF \n AMD RKSI 020150Z 0202/0306 27008KT 1200 -RA FEW010 BKN025 OVC100 TX17/0205Z TN08/0221Z TX15/0305Z \n BECMG 0204/0205 2500 \n BECMG 0207/0208 32010KT 6000 \n BECMG 0209/0210 34015G25KT NSW FEW010 SCT030 BKN150 \n BECMG 0216/0217 33013KT \n BECMG 0222/0223 32017G30KT"
"taf	RKSI	2018-05-02 02:50:00	TAF \n AMD RKSI 020150Z 0202/0306 27008KT 1200 -RA FEW010 BKN025 OVC100 TX17/0205Z TN08/0221Z TX15/0305Z \n BECMG 0204/0205 2500 \n BECMG 0207/0208 32010KT 6000 \n BECMG 0209/0210 34015G25KT NSW FEW010 SCT030 BKN150 \n BECMG 0216/0217 33013KT \n BECMG 0222/0223 32017G30KT"
"taf	RKSI	2018-05-02 06:00:00	TAF RKSI 020500Z 0206/0312 27008KT 1200 BR FEW010 BKN025 OVC100 TN09/0221Z TX15/0305Z \n BECMG 0207/0208 31010KT 2500 -RA \n BECMG 0209/0210 32015G25KT 6000 NSW SCT030 BKN120 \n BECMG 0215/0216 30013KT 9999 \n BECMG 0221/0222 31017G30KT \n BECMG 0310/0311 30015KT"
"taf	RKSI	2018-05-02 12:00:00	TAF RKSI 021100Z 0212/0318 31025G35KT 9999 SCT030 BKN120 TN09/0221Z TX15/0305Z \n BECMG 0214/0215 30015KT \n BECMG 0223/0224 29018G37KT \n BECMG 0309/0310 29015G27KT"
"taf	RKSI	2018-05-02 18:00:00	TAF RKSI 021700Z 0218/0324 33013KT 9999 SCT030 BKN120 TN08/0221Z TX14/0305Z TN09/0321Z \n TEMPO 0301/0308 29017G30KT \n BECMG 0309/0310 31015G25KT"
"taf	RKSI	2018-05-03 00:00:00	TAF RKSI 032300Z 0400/0506 28014KT CAVOK TX17/0405Z TN11/0421Z TX19/0505Z \n BECMG 0402/0403 26016G28KT \n BECMG 0409/0410 24010KT \n BECMG 0414/0415 18008KT \n BECMG 0503/0504 20015G25KT"
"taf	RKSI	2018-05-03 06:00:00	TAF \n AMD RKSI 030520Z 0306/0412 29018G30KT CAVOK TN09/0321Z TX18/0405Z \n TEMPO 0306/0308 6000 -RA FEW010 BKN030 \n BECMG 0311/0312 29016KT \n TEMPO 0402/0409 26018G30KT \n BECMG 0409/0410 18007KT \n TEMPO 0410/0411 24010KT"
"taf	RKSI	2018-05-03 06:18:00	TAF \n AMD TAF \n AMD RKSI 030520Z 0306/0412 29018G30KT CAVOK TN09/0321Z TX18/0405Z \n TEMPO 0306/0308 6000 -RA FEW010 BKN030 \n BECMG 0311/0312 29016KT \n TEMPO 0402/0409 26018G30KT \n BECMG 0409/0410 18007KT \n TEMPO 0410/0411 24010KT"
"taf	RKSI	2018-05-03 06:20:00	TAF \n AMD RKSI 030520Z 0306/0412 29018G30KT CAVOK TN09/0321Z TX18/0405Z \n TEMPO 0306/0308 6000 -RA FEW010 BKN030 \n BECMG 0311/0312 29016KT \n TEMPO 0402/0409 26018G30KT \n BECMG 0409/0410 18007KT \n TEMPO 0410/0411 24010KT"
"taf	RKSI	2018-05-03 12:00:00	TAF RKSI 031100Z 0312/0418 29014KT 9999 FEW030 TN09/0321Z TX18/0405Z \n BECMG 0401/0402 26016G28KT CAVOK \n BECMG 0409/0410 24010KT \n TEMPO 0414/0418 18007KT"
"taf	RKSI	2018-05-03 18:00:00	TAF RKSI 031700Z 0318/0424 29014KT CAVOK TN09/0321Z TX17/0405Z TN12/0421Z \n BECMG 0401/0402 26016G28KT \n BECMG 0409/0410 24010KT \n BECMG 0414/0415 18007KT"
"taf	RKSI	2018-05-04 00:00:00	TAF RKSI 042300Z 0500/0606 17008KT CAVOK TX19/0505Z TN13/0519Z TX17/0604Z \n BECMG 0501/0502 20015G25KT \n BECMG 0508/0509 19010KT 9999 SCT030 BKN120 \n BECMG 0516/0517 16008KT 4200 -RA FEW010 BKN030 OVC100 \n TEMPO 0522/0604 09008KT 2800 RA \n BECMG 0605/0606 06010KT 6000 NSW SCT030 BKN120"
"taf	RKSI	2018-05-04 03:08:00	TAF \n AMD RKSI 040308Z 0403/0506 27015G25KT CAVOK TX17/0405Z TN11/0421Z TX19/0505Z \n TEMPO 0403/0410 26025G35KT \n BECMG 0411/0412 24010KT \n BECMG 0414/0415 18008KT \n BECMG 0503/0504 20015G25KT"
"taf	RKSI	2018-05-04 03:09:00	TAF \n AMD TAF \n AMD RKSI 040308Z 0403/0506 27015G25KT CAVOK TX17/0405Z TN11/0421Z TX19/0505Z \n TEMPO 0403/0410 26025G35KT \n BECMG 0411/0412 24010KT \n BECMG 0414/0415 18008KT \n BECMG 0503/0504 20015G25KT"
"taf	RKSI	2018-05-04 06:00:00	TAF RKSI 040500Z 0406/0512 22010KT CAVOK TN11/0421Z TX19/0505Z \n TEMPO 0406/0410 25018G35KT \n TEMPO 0415/0421 16008KT \n BECMG 0421/0422 16012KT \n BECMG 0502/0503 22013KT \n BECMG 0510/0511 16010KT 9999 SCT030 BKN120"
"taf	RKSI	2018-05-04 12:00:00	TAF RKSI 041100Z 0412/0518 22010KT CAVOK TN11/0421Z TX19/0505Z \n BECMG 0415/0416 16009KT \n BECMG 0501/0502 22012KT \n BECMG 0513/0514 16008KT 9999 SCT030 BKN120 \n BECMG 0515/0516 6000 -RA FEW010 BKN030 OVC100 \n TEMPO 0516/0518 4200"
"taf	RKSI	2018-05-04 18:00:00	TAF RKSI 041700Z 0418/0524 17009KT CAVOK TN10/0421Z TX19/0505Z TN13/0519Z \n BECMG 0501/0502 21015G25KT \n BECMG 0508/0509 19008KT 9999 SCT030 BKN120 \n BECMG 0515/0516 16008KT 6000 -RA FEW010 BKN030 OVC100 \n BECMG 0517/0518 4200 \n BECMG 0520/0521 12008KT 2500 RA"
"taf	RKSI	2018-05-05 00:00:00	TAF RKSI 052300Z 0600/0706 07010KT 3500 -RA FEW005 BKN025 OVC100 TX18/0607Z TN12/0621Z TX23/0705Z \n BECMG 0603/0604 04008KT 6000 NSW \n BECMG 0605/0606 SCT030 BKN150 \n BECMG 0702/0703 32010KT"
"taf	RKSI	2018-05-05 06:00:00	TAF RKSI 050500Z 0506/0612 21015G25KT 9999 SCT030 BKN110 TN14/0521Z TX17/0606Z \n BECMG 0509/0510 20010KT \n BECMG 0516/0517 17008KT 4200 -RA FEW010 BKN025 OVC100 \n BECMG 0520/0521 14008KT 2800 RA \n BECMG 0606/0607 07010KT 6000 NSW SCT030 BKN120 \n BECMG 0610/0611 01010KT"
"taf	RKSI	2018-05-05 12:00:00	TAF RKSI 051100Z 0512/0618 20010KT 9999 SCT030 BKN180 TN14/0521Z TX18/0606Z \n BECMG 0516/0517 17008KT 4200 -RA FEW010 BKN025 OVC100 \n BECMG 0521/0522 14008KT 2800 RA \n BECMG 0600/0601 11008KT 3500 -RA \n BECMG 0604/0605 08010KT 6000 NSW SCT030 BKN120 \n BECMG 0611/0612 02008KT"
"taf	RKSI	2018-05-05 18:00:00	TAF RKSI 051700Z 0518/0624 18008KT 4200 -RA FEW010 BKN025 OVC100 TN13/0521Z TX18/0607Z TN12/0621Z \n TEMPO 0520/0524 15008KT 2800 RA \n BECMG 0600/0601 07010KT \n TEMPO 0602/0604 6000 \n BECMG 0604/0605 04008KT 6000 NSW SCT030 BKN150"
"taf	RKSI	2018-05-06 00:00:00	TAF RKSI 062300Z 0700/0806 04006KT 9999 FEW030 BKN180 TX23/0706Z TN12/0721Z TX22/0805Z \n BECMG 0704/0705 21006KT \n TEMPO 0705/0711 27006KT \n BECMG 0712/0713 05010KT \n TEMPO 0713/0716 35006KT"
"taf	RKSI	2018-05-06 06:00:00	TAF RKSI 060500Z 0606/0712 08008KT 7000 SCT030 BKN150 TN14/0621Z TX24/0706Z \n BECMG 0702/0703 31008KT"
"taf	RKSI	2018-05-06 12:00:00	TAF RKSI 061100Z 0612/0718 03006KT 9999 SCT030 BKN180 TN14/0621Z TX23/0706Z \n BECMG 0702/0703 33010KT \n BECMG 0711/0712 05008KT"
"taf	RKSI	2018-05-06 18:00:00	TAF RKSI 061700Z 0618/0724 04006KT 9999 SCT030 BKN180 TN13/0621Z TX24/0706Z TN12/0721Z \n BECMG 0703/0704 23006KT \n BECMG 0705/0706 29007KT \n BECMG 0715/0716 05011KT"
"taf	RKSI	2018-05-07 00:00:00	TAF RKSI 072300Z 0800/0906 06010KT 7000 FEW030 BKN180 TX23/0806Z TN11/0821Z TX19/0906Z \n TEMPO 0804/0808 35010KT \n BECMG 0901/0902 29008KT"
"taf	RKSI	2018-05-07 06:00:00	TAF RKSI 070500Z 0706/0812 28006KT 9999 FEW030 BKN150 TN12/0721Z TX22/0805Z \n BECMG 0713/0714 06010KT \n TEMPO 0715/0717 12006KT"
"taf	RKSI	2018-05-07 12:00:00	TAF RKSI 071100Z 0712/0818 06010KT 9999 FEW030 BKN180 TN12/0721Z TX22/0805Z \n TEMPO 0712/0716 32006KT"
"taf	RKSI	2018-05-07 18:00:00	TAF RKSI 071700Z 0718/0824 06010KT 7000 FEW010 BKN180 TN13/0721Z TX23/0806Z TN11/0821Z \n TEMPO 0804/0808 35010KT"
"taf	RKSI	2018-05-08 06:00:00	TAF RKSI 080500Z 0806/0912 06010KT 7000 SCT030 BKN180 TN09/0821Z TX19/0906Z \n TEMPO 0901/0903 36006KT \n BECMG 0904/0905 32008KT"
"taf	RKSI	2018-05-08 12:00:00	TAF RKSI 081100Z 0812/0918 06010KT 7000 SCT030 TN09/0821Z TX19/0906Z \n TEMPO 0901/0903 36006KT \n BECMG 0904/0905 32008KT \n BECMG 0914/0915 07006KT"
"taf	RKSI	2018-05-08 18:00:00	TAF RKSI 081700Z 0818/0924 06008KT CAVOK TN11/0821Z TX19/0906Z TN11/0921Z \n BECMG 0823/0824 12006KT \n BECMG 0901/0902 31008KT \n BECMG 0910/0911 24006KT \n BECMG 0921/0922 4200 BR FEW010"
"taf	RKSI	2018-05-09 00:00:00	TAF RKSI 092300Z 1000/1106 24007KT 7000 FEW010 TX17/1006Z TN10/1021Z TX17/1105Z \n BECMG 1010/1011 4200 BR \n BECMG 1017/1018 21005KT 2500 \n TEMPO 1019/1021 1200 \n BECMG 1022/1023 4200 \n BECMG 1102/1103 30007KT 6000 NSW"
"taf	RKSI	2018-05-09 06:00:00	TAF RKSI 090500Z 0906/1012 30008KT CAVOK TN10/0921Z TX18/1006Z \n BECMG 0915/0916 17005KT 6000 NSC \n BECMG 1000/1001 25006KT \n BECMG 1011/1012 4200 BR"
"taf	RKSI	2018-05-09 12:00:00	TAF RKSI 091100Z 0912/1018 31007KT CAVOK TN10/0921Z TX17/1006Z \n BECMG 0915/0916 17005KT 6000 NSC \n BECMG 1000/1001 25006KT \n BECMG 1012/1013 4200 BR \n BECMG 1017/1018 21005KT 2500"
"taf	RKSI	2018-05-09 18:00:00	TAF RKSI 091700Z 0918/1024 30006KT CAVOK TN10/0921Z TX17/1006Z TN10/1021Z \n BECMG 1003/1004 24007KT 6000 SCT010 \n BECMG 1010/1011 4200 BR \n BECMG 1017/1018 21005KT 2500 \n TEMPO 1019/1021 1200 \n BECMG 1022/1023 4200"
"taf	RKSI	2018-05-10 00:00:00	TAF RKSI 102300Z 1100/1206 21006KT 4200 BR SCT003 BKN025 TX17/1105Z TN12/1121Z TX16/1205Z \n BECMG 1102/1103 27008KT 7000 NSW SCT030 BKN120 \n BECMG 1114/1115 15006KT 4200 BR \n BECMG 1120/1121 12006KT 2800 -RA FEW010 BKN025 OVC080 \n BECMG 1202/1203 21012KT"
"taf	RKSI	2018-05-10 06:00:00	TAF RKSI 100500Z 1006/1112 26008KT 9999 FEW010 SCT030 TN10/1021Z TX17/1105Z \n BECMG 1012/1013 4200 BR \n BECMG 1017/1018 19005KT 2500 \n BECMG 1020/1021 4200 \n BECMG 1023/1024 6000 NSW \n BECMG 1102/1103 29007KT"
"taf	RKSI	2018-05-10 12:00:00	TAF RKSI 101100Z 1012/1118 28008KT 2500 BR SCT003 BKN025 TN10/1021Z TX17/1105Z \n BECMG 1017/1018 19005KT \n BECMG 1019/1020 16005KT 4200 \n BECMG 1023/1024 19006KT 6000 NSW SCT030 BKN120 \n BECMG 1102/1103 29007KT \n BECMG 1111/1112 15006KT"
"taf	RKSI	2018-05-10 18:00:00	TAF RKSI 101700Z 1018/1124 19005KT 2500 BR SCT003 BKN025 TN10/1021Z TX17/1105Z TN12/1121Z \n BECMG 1019/1020 16005KT 4200 \n BECMG 1023/1024 19006KT 7000 NSW \n BECMG 1102/1103 27007KT SCT030 BKN120 \n BECMG 1114/1115 15006KT 4200 BR \n BECMG 1120/1121 12007KT 2800 -RA FEW010 BKN025 OVC080"
"taf	RKSI	2018-05-11 00:00:00	TAF RKSI 112300Z 1200/1306 08007KT 4200 -RA FEW010 BKN025 OVC080 TX16/1205Z TN13/1220Z TX20/1305Z \n BECMG 1208/1209 21006KT 2500 \n BECMG 1214/1215 33006KT 3500 BR \n BECMG 1222/1223 29007KT 6000 NSW FEW010 SCT030"
"taf	RKSI	2018-05-11 06:00:00	TAF RKSI 110500Z 1106/1212 31006KT 4200 BR FEW010 SCT030 BKN120 TN12/1121Z TX16/1205Z \n TEMPO 1106/1110 6000 NSW \n BECMG 1114/1115 17006KT \n BECMG 1120/1121 14006KT 2800 -RA FEW010 BKN025 OVC080 \n TEMPO 1204/1210 20010KT \n BECMG 1210/1211 20007KT 1400"
"taf	RKSI	2018-05-11 12:00:00	TAF RKSI 111100Z 1112/1218 31006KT 3500 BR FEW010 SCT030 BKN120 TN12/1121Z TX16/1205Z \n BECMG 1114/1115 18006KT \n BECMG 1120/1121 15006KT 2800 -RA FEW010 BKN025 OVC080 \n BECMG 1203/1204 06005KT \n TEMPO 1205/1213 21006KT \n BECMG 1215/1216 1400 BR"
"taf	RKSI	2018-05-11 14:20:00	TAF \n AMD RKSI 111420Z 1114/1218 31006KT 4200 BR FEW010 SCT030 BKN120 TN12/1121Z TX16/1205Z \n BECMG 1116/1117 15006KT 2800 -RA FEW010 BKN025 OVC080 \n BECMG 1203/1204 06005KT \n TEMPO 1205/1213 21006KT \n BECMG 1215/1216 1400 BR"
"taf	RKSI	2018-05-11 14:27:00	TAF \n AMD TAF \n AMD RKSI 111420Z 1114/1218 31006KT 4200 BR FEW010 SCT030 BKN120 TN12/1121Z TX16/1205Z \n BECMG 1116/1117 15006KT 2800 -RA FEW010 BKN025 OVC080 \n BECMG 1203/1204 06005KT \n TEMPO 1205/1213 21006KT \n BECMG 1215/1216 1400 BR"
"taf	RKSI	2018-05-11 18:00:00	TAF RKSI 111700Z 1118/1224 09006KT 4200 BR SCT030 OVC110 TN12/1121Z TX16/1205Z TN13/1220Z \n BECMG 1119/1120 2800 -RA FEW010 BKN025 OVC080 \n BECMG 1202/1203 06005KT 3200 \n TEMPO 1206/1214 21006KT 2500 \n BECMG 1215/1216 BR \n BECMG 1222/1223 33006KT 6000 NSW FEW010 SCT030"
"taf	RKSI	2018-05-12 00:00:00	TAF RKSI 122300Z 1300/1406 27008KT 6000 SCT030 TX19/1305Z TN12/1320Z TX21/1405Z \n BECMG 1314/1315 21006KT 4200 BR \n BECMG 1316/1317 18006KT 2500 \n TEMPO 1318/1320 0600 FG BKN001 \n BECMG 1322/1323 6000 NSW \n BECMG 1404/1405 25007KT"
"taf	RKSI	2018-05-12 02:50:00	TAF \n AMD RKSI 120150Z 1202/1306 08007KT 4200 -RA SCT005 BKN025 OVC080 TX16/1205Z TN13/1220Z TX20/1305Z \n TEMPO 1202/1206 1400 \n BECMG 1208/1209 21006KT 2500 \n BECMG 1214/1215 33006KT 3500 BR \n BECMG 1222/1223 29007KT 6000 NSW FEW010 SCT030"
"taf	RKSI	2018-05-12 02:51:00	TAF \n AMD RKSI 110150Z 1202/1306 08007KT 4200 -RA SCT005 BKN025 OVC080 TX16/1205Z TN13/1220Z TX20/1305Z \n TEMPO 1202/1206 1400 \n BECMG 1208/1209 21006KT 2500 \n BECMG 1214/1215 33006KT 3500 BR \n BECMG 1222/1223 29007KT 6000 NSW FEW010 SCT030"
"taf	RKSI	2018-05-12 06:00:00	TAF RKSI 120500Z 1206/1312 15006KT 1700 -RA FEW005 BKN025 OVC080 TN13/1220Z TX21/1305Z \n BECMG 1213/1214 18005KT BR \n TEMPO 1216/1220 32006KT 1200 \n BECMG 1221/1222 3500 FEW010 SCT030 \n BECMG 1223/1224 29008KT 6000 NSW"
"taf	RKSI	2018-05-12 12:00:00	TAF RKSI 121100Z 1212/1318 22006KT 4200 -RA FEW005 BKN025 OVC080 TN13/1220Z TX21/1305Z \n BECMG 1213/1214 BR \n TEMPO 1215/1219 32006KT 2000 \n TEMPO 1220/1222 32006KT 1200 \n BECMG 1222/1223 29008KT 6000 NSW FEW010 SCT030 \n BECMG 1315/1316 18006KT 4200 BR"
"taf	RKSI	2018-05-12 14:50:00	TAF \n AMD RKSI 121350Z 1214/1318 22006KT 4200 BR FEW005 BKN025 OVC080 TN13/1220Z TX21/1305Z \n BECMG 1215/1216 2500 \n TEMPO 1219/1221 32006KT 1400 \n BECMG 1222/1223 29008KT 6000 NSW FEW010 SCT030 \n BECMG 1315/1316 18006KT 4200 BR"
"taf	RKSI	2018-05-12 14:54:00	TAF \n AMD TAF \n AMD RKSI 121350Z 1214/1318 22006KT 4200 BR FEW005 BKN025 OVC080 TN13/1220Z TX21/1305Z \n BECMG 1215/1216 2500 \n TEMPO 1219/1221 32006KT 1400 \n BECMG 1222/1223 29008KT 6000 NSW FEW010 SCT030 \n BECMG 1315/1316 18006KT 4200 BR"
"taf	RKSI	2018-05-12 18:00:00	TAF RKSI 121700Z 1218/1324 30006KT 2500 BR BKN001 BKN025 OVC080 TN13/1220Z TX20/1305Z TN12/1320Z \n TEMPO 1218/1220 26006KT 1200 \n BECMG 1222/1223 27008KT 6000 NSW FEW010 SCT030 \n BECMG 1315/1316 4200 BR \n BECMG 1317/1318 17006KT 1400 \n BECMG 1321/1322 3500"
"taf	RKSI	2018-05-12 18:50:00	TAF \n AMD RKSI 121750Z 1218/1324 30006KT 2500 BR BKN001 BKN025 OVC080 TN13/1220Z TX20/1305Z TN12/1320Z \n TEMPO 1218/1221 26006KT 0400 FG \n BECMG 1222/1223 27008KT 6000 NSW FEW010 SCT030 \n BECMG 1315/1316 4200 BR \n BECMG 1317/1318 17006KT 1400 \n BECMG 1321/1322 3500"
"taf	RKSI	2018-05-12 18:54:00	TAF \n AMD TAF \n AMD RKSI 121750Z 1218/1324 30006KT 2500 BR BKN001 BKN025 OVC080 TN13/1220Z TX20/1305Z TN12/1320Z \n TEMPO 1218/1220 26006KT 0400 FG \n BECMG 1222/1223 27008KT 6000 NSW FEW010 SCT030 \n BECMG 1315/1316 4200 BR \n BECMG 1317/1318 17006KT 1400 \n BECMG 1321/1322 3500"
"taf	RKSI	2018-05-12 18:57:00	TAF \n AMD TAF \n AMD RKSI 121750Z 1218/1324 30006KT 2500 BR BKN001 BKN025 OVC080 TN13/1220Z TX20/1305Z TN12/1320Z \n TEMPO 1218/1221 26006KT 0400 FG \n BECMG 1222/1223 27008KT 6000 NSW FEW010 SCT030 \n BECMG 1315/1316 4200 BR \n BECMG 1317/1318 17006KT 1400 \n BECMG 1321/1322 3500"
"taf	RKSI	2018-05-13 00:00:00	TAF RKSI 132300Z 1400/1506 23006KT 7000 NSC TX21/1406Z TN13/1421Z TX23/1505Z \n TEMPO 1400/1403 15007KT 2200 BR FEW005 SCT020 \n TEMPO 1405/1408 29007KT \n BECMG 1417/1418 15006KT 4200 BR \n BECMG 1421/1422 6000 NSW \n BECMG 1503/1504 22010KT FEW030 BKN120"
"taf	RKSI	2018-05-13 06:00:00	TAF RKSI 130500Z 1306/1412 29008KT 9999 FEW010 SCT030 TN12/1321Z TX22/1406Z \n BECMG 1314/1315 19006KT 3500 BR \n TEMPO 1318/1322 16006KT 1400 \n BECMG 1323/1324 15008KT 6000 NSW \n BECMG 1401/1402 25008KT"
"taf	RKSI	2018-05-13 12:00:00	TAF RKSI 131100Z 1312/1418 29006KT 2000 BR BKN003 TN11/1321Z TX22/1406Z \n TEMPO 1317/1322 17006KT 1400 \n BECMG 1323/1324 14006KT 3500 FEW010 \n BECMG 1402/1403 23006KT 6000 NSW NSC \n TEMPO 1404/1408 29008KT"
"taf	RKSI	2018-05-13 13:15:00	TAF \n AMD RKSI 131315Z 1313/1418 21006KT 1400 BR BKN002 TN09/1321Z TX22/1406Z \n TEMPO 1315/1320 16006KT 0600 FG \n BECMG 1323/1324 14006KT 3500 FEW010 \n BECMG 1402/1403 23006KT 6000 NSW NSC \n TEMPO 1404/1408 29008KT"
"taf	RKSI	2018-05-13 13:18:00	TAF \n AMD TAF \n AMD RKSI 131315Z 1313/1418 21006KT 1400 BR BKN002 TN09/1321Z TX22/1406Z \n TEMPO 1315/1320 16006KT 0600 FG \n BECMG 1323/1324 14006KT 3500 FEW010 \n BECMG 1402/1403 23006KT 6000 NSW NSC \n TEMPO 1404/1408 29008KT"
"taf	RKSI	2018-05-13 18:00:00	TAF RKSI 131700Z 1318/1424 14006KT 1400 BR BKN001 TN09/1321Z TX22/1406Z TN13/1421Z \n BECMG 1322/1323 2800 FEW005 SCT030 \n BECMG 1401/1402 17010KT 6000 NSW NSC \n BECMG 1403/1404 23007KT \n BECMG 1417/1418 14006KT 4200 BR \n BECMG 1421/1422 6000 NSW"
"taf	RKSI	2018-05-14 00:00:00	TAF RKSI 142300Z 1500/1606 16007KT 6000 FEW010 SCT030 BKN150 TX24/1506Z TN16/1521Z TX21/1605Z \n TEMPO 1506/1509 22010KT \n BECMG 1515/1516 19009KT 4200 -RA FEW010 BKN025 OVC080 \n BECMG 1517/1518 2800 \n BECMG 1523/1524 17015G25KT 3500 \n BECMG 1603/1604 20015G25KT 2800 RA"
"taf	RKSI	2018-05-14 06:00:00	TAF RKSI 140500Z 1406/1512 16006KT 4200 HZ FEW015 SCT030 TN14/1421Z TX24/1506Z \n BECMG 1417/1418 6000 NSW \n TEMPO 1504/1507 22010KT"
"taf	RKSI	2018-05-14 12:00:00	TAF RKSI 141100Z 1412/1518 25006KT 4200 BR FEW010 BKN180 TN14/1421Z TX24/1506Z \n BECMG 1417/1418 19006KT 6000 NSW \n BECMG 1505/1506 25008KT \n BECMG 1508/1509 19008KT \n BECMG 1515/1516 15010KT 3500 -RA FEW010 BKN025 OVC080"
"taf	RKSI	2018-05-14 18:00:00	TAF RKSI 141700Z 1418/1524 15007KT 2500 BR NSC TN14/1421Z TX24/1506Z TN16/1521Z \n BECMG 1423/1424 3500 \n BECMG 1502/1503 6000 NSW FEW010 SCT030 BKN150 \n BECMG 1515/1516 18009KT -RA FEW010 BKN025 OVC080 \n BECMG 1517/1518 3500"
"taf	RKSI	2018-05-15 00:00:00	TAF \n AMD RKSI 152315Z 1600/1706 23020G35KT 2500 -RA SCT010 BKN025 OVC080 TX21/1605Z TN18/1621Z TX22/1706Z \n TEMPO 1600/1601 1400 -TSRA SCT008 BKN020CB OVC080 \n BECMG 1602/1603 17010KT 3500 \n BECMG 1605/1606 BR \n BECMG 1614/1615 20008KT 2800 -RA \n BECMG 1700/1701 16007KT 3500"
"taf	RKSI	2018-05-15 00:15:00	TAF \n AMD RKSI 152315Z 1600/1706 23020G35KT 2500 -RA SCT010 BKN025 OVC080 TX21/1605Z TN18/1621Z TX22/1706Z \n TEMPO 1600/1601 1400 -TSRA SCT008 BKN020CB OVC080 \n BECMG 1602/1603 17010KT 3500 \n BECMG 1605/1606 BR \n BECMG 1614/1615 20008KT 2800 -RA \n BECMG 1700/1701 16007KT 3500"
"taf	RKSI	2018-05-15 00:18:00	TAF \n AMD RKSI 152315Z 1600/1706 23020G35KT 2500 -RA SCT010 BKN025 OVC080 TX21/1605Z TN18/1621Z TX22/1706Z \n TEMPO 1600/1601 1400 -TSRA SCT008 BKN020CB OVC080 \n BECMG 1602/1603 17010KT 3500 BR \n BECMG 1614/1615 20008KT 2800 -RA \n BECMG 1700/1701 16007KT 3500"
"taf	RKSI	2018-05-15 06:00:00	TAF RKSI 150500Z 1506/1612 20007KT 6000 FEW010 SCT030 BKN150 TN16/1521Z TX21/1605Z \n BECMG 1515/1516 17009KT 4200 -RA FEW010 BKN025 OVC080 \n BECMG 1517/1518 13010KT 2800 \n BECMG 1523/1524 18015G25KT 3500 \n BECMG 1603/1604 21015G25KT 2800 RA \n TEMPO 1609/1611 21012KT"
"taf	RKSI	2018-05-15 12:00:00	TAF RKSI 151100Z 1512/1618 20007KT 7000 FEW010 SCT030 BKN130 TN16/1521Z TX21/1605Z \n BECMG 1515/1516 17009KT 4200 -RA FEW010 BKN025 OVC080 \n BECMG 1517/1518 14010KT 2800 \n BECMG 1523/1524 19015G25KT 3500 \n BECMG 1603/1604 22015G25KT 2800 RA \n TEMPO 1609/1614 22012KT 3500 -RA"
"taf	RKSI	2018-05-15 16:01:00	TAF \n AMD RKSI 151601Z 1516/1618 16008KT 4200 TSRA FEW010 BKN020CB BKN130 TN16/1521Z TX21/1605Z \n BECMG 1517/1518 13010KT 2800 FEW008 BKN025 OVC080 \n BECMG 1523/1524 19015G25KT 3500 \n BECMG 1603/1604 22015G25KT 2800 RA \n TEMPO 1609/1614 22012KT 3500 -RA"
"taf	RKSI	2018-05-15 16:06:00	TAF \n AMD TAF \n AMD RKSI 151601Z 1516/1618 16008KT 4200 TSRA FEW010 BKN020CB BKN130 TN16/1521Z TX21/1605Z \n BECMG 1517/1518 13010KT 2800 FEW008 BKN025 OVC080 \n BECMG 1523/1524 19015G25KT 3500 \n BECMG 1603/1604 22015G25KT 2800 RA \n TEMPO 1609/1614 22012KT 3500 -RA"
"taf	RKSI	2018-05-15 18:00:00	TAF RKSI 151700Z 1518/1624 14008KT 3500 -RA FEW010 BKN025 OVC100 TN19/1521Z TX20/1605Z TN18/1621Z \n BECMG 1519/1520 17008KT 2500 RA \n BECMG 1521/1522 -RA \n BECMG 1605/1606 22010KT 3500 BR \n BECMG 1614/1615 19008KT 2800 -RA \n BECMG 1620/1621 23010KT 3500"
"taf	RKSI	2018-05-16 00:00:00	TAF RKSI 162300Z 1700/1806 18010KT 3500 -RA SCT004 BKN020 OVC080 TX22/1706Z TN16/1721Z TX21/1806Z \n TEMPO 1700/1701 1400 TSRA SCT004 BKN020CB OVC080 \n TEMPO 1702/1705 21010KT 2800 -DZ \n BECMG 1715/1716 25006KT 2500 \n BECMG 1800/1801 4200 BR \n BECMG 1802/1803 35010KT 6000 NSW SCT030"
"taf	RKSI	2018-05-16 06:00:00	TAF RKSI 160500Z 1606/1712 21010KT 2500 -RA SCT010 BKN025 OVC080 TN18/1621Z TX20/1706Z \n TEMPO 1606/1612 24006KT 3500 BR \n TEMPO 1700/1703 18008KT 3500 BR"
"taf	RKSI	2018-05-16 06:21:00	TAF RKSI 160500Z 1606/1712 21010KT 2500 -RA SCT010 BKN025 OVC080 TN18/1621Z TX20/1706Z \n TEMPO 1606/1612 24006KT 3500 BR \n TEMPO 1700/1703 18008KT 3500 BR"
"taf	RKSI	2018-05-16 12:00:00	TAF RKSI 161100Z 1612/1718 21010KT 2000 -RA FEW010 BKN025 OVC080 TN18/1621Z TX20/1706Z \n TEMPO 1615/1617 1400 RA \n TEMPO 1621/1703 18010KT 3500 BR \n BECMG 1704/1705 3500 \n BECMG 1710/1711 2500 \n TEMPO 1714/1716 1400 RA"
"taf	RKSI	2018-05-16 18:00:00	TAF RKSI 161700Z 1618/1724 18010KT 2000 -RA SCT003 BKN020 OVC080 TN19/1621Z TX21/1706Z TN16/1721Z \n TEMPO 1619/1621 1000 TSRA SCT004 BKN020CB OVC080 \n BECMG 1706/1707 21010KT 1400 RA \n BECMG 1710/1711 18010KT 1800 -RA \n TEMPO 1718/1721 BR \n BECMG 1722/1723 21008KT 3500 BR"
"taf	RKSI	2018-05-16 18:40:00	TAF \n AMD RKSI 161740Z 1618/1724 18010KT 1000 TSRA SCT003 BKN020CB OVC080 TN19/1621Z TX21/1706Z TN16/1721Z \n BECMG 1620/1621 2000 -RA SCT003 BKN020 OVC080 \n BECMG 1706/1707 21010KT 1400 RA \n BECMG 1710/1711 18010KT 1800 -RA \n TEMPO 1718/1721 BR \n BECMG 1722/1723 21008KT 3500 BR"
"taf	RKSI	2018-05-16 18:42:00	TAF \n AMD TAF \n AMD RKSI 161740Z 1618/1724 18010KT 1000 TSRA SCT003 BKN020CB OVC080 TN19/1621Z TX21/1706Z TN16/1721Z \n BECMG 1620/1621 2000 -RA SCT003 BKN020 OVC080 \n BECMG 1706/1707 21010KT 1400 RA \n BECMG 1710/1711 18010KT 1800 -RA \n TEMPO 1718/1721 BR \n BECMG 1722/1723 21008KT 3500 BR"
"taf	RKSI	2018-05-16 18:44:00	TAF \n AMD RKSI 161744Z 1618/1724 25025G35KT 1000 TSRA SCT003 BKN020CB OVC080 TN19/1621Z TX21/1706Z TN16/1721Z \n BECMG 1620/1621 24012KT 2000 -RA SCT003 BKN020 OVC080 \n BECMG 1706/1707 21010KT 1400 RA \n BECMG 1710/1711 18010KT 1800 -RA \n TEMPO 1718/1721 BR \n BECMG 1722/1723 21008KT 3500 BR"
"taf	RKSI	2018-05-16 18:48:00	TAF \n AMD TAF \n AMD RKSI 161744Z 1618/1724 25025G35KT 1000 TSRA SCT003 BKN020CB OVC080 TN19/1621Z TX21/1706Z TN16/1721Z \n BECMG 1620/1621 24012KT 2000 -RA SCT003 BKN020 OVC080 \n BECMG 1706/1707 21010KT 1400 RA \n BECMG 1710/1711 18010KT 1800 -RA \n TEMPO 1718/1721 BR \n BECMG 1722/1723 21008KT 3500 BR"
"taf	RKSI	2018-05-16 21:11:00	TAF \n AMD RKSI 162111Z 1621/1724 25025G35KT 1000 TSRA SCT003 BKN020CB OVC080 TN19/1621Z TX21/1706Z TN16/1721Z \n BECMG 1700/1701 24012KT 2000 -RA SCT003 BKN020 OVC080 \n BECMG 1706/1707 21010KT 1400 RA \n BECMG 1710/1711 18010KT 1800 -RA \n TEMPO 1718/1721 BR \n BECMG 1722/1723 21008KT 3500 BR"
"taf	RKSI	2018-05-16 21:12:00	TAF \n AMD TAF \n AMD RKSI 162111Z 1621/1724 25025G35KT 1000 TSRA SCT003 BKN020CB OVC080 TN19/1621Z TX21/1706Z TN16/1721Z \n BECMG 1700/1701 24012KT 2000 -RA SCT003 BKN020 OVC080 \n BECMG 1706/1707 21010KT 1400 RA \n BECMG 1710/1711 18010KT 1800 -RA \n TEMPO 1718/1721 BR \n BECMG 1722/1723 21008KT 3500 BR"
"taf	RKSI	2018-05-17 00:00:00	TAF RKSI 172300Z 1800/1906 05008KT 4200 BR SCT005 BKN025 OVC080 TX20/1806Z TN12/1821Z TX23/1905Z \n TEMPO 1800/1802 2500 -DZ \n BECMG 1803/1804 32006KT 7000 NSW FEW010 SCT030 \n BECMG 1806/1807 03010KT \n BECMG 1812/1813 04015G25KT NSC \n BECMG 1818/1819 06010KT"
"taf	RKSI	2018-05-17 06:00:00	TAF RKSI 170500Z 1706/1812 22008KT 2500 -RA SCT004 BKN020 OVC080 TN15/1721Z TX20/1806Z \n TEMPO 1706/1707 3200 BR \n BECMG 1709/1710 3200 \n BECMG 1715/1716 25006KT 2200 \n BECMG 1800/1801 4200 BR \n BECMG 1802/1803 01010KT 6000 NSW SCT030"
"taf	RKSI	2018-05-17 15:45:00	TAF \n AMD TAF \n AMD RKSI 171445Z 1715/1818 25006KT 2500 -RA SCT002 BKN025 OVC080 TN15/1721Z TX20/1806Z \n TEMPO 1715/1717 20006KT 0800 \n BECMG 1800/1801 30005KT 4200 BR \n BECMG 1802/1803 03008KT 6000 NSW FEW010 SCT030"
"taf	RKSI	2018-05-17 18:00:00	TAF RKSI 171700Z 1718/1824 25006KT 2800 -RA SCT004 BKN025 OVC080 TN15/1721Z TX20/1806Z TN12/1821Z \n TEMPO 1718/1720 20005KT 1200 \n BECMG 1722/1723 30005KT 4200 BR \n BECMG 1801/1802 03008KT 7000 NSW FEW010 SCT030 \n BECMG 1811/1812 04015G25KT NSC \n BECMG 1816/1817 05010KT"
"taf	RKSI	2018-05-18 00:00:00	TAF RKSI 182300Z 1900/2006 07010KT CAVOK TX23/1905Z TN13/1921Z TX22/2005Z \n TEMPO 1905/1908 32007KT \n BECMG 1912/1913 13007KT \n TEMPO 1918/1923 03007KT \n BECMG 2000/2001 07010KT"
"taf	RKSI	2018-05-18 06:00:00	TAF RKSI 180500Z 1806/1912 04010KT 9999 FEW010 BKN030 OVC100 TN12/1821Z TX23/1905Z \n BECMG 1807/1808 FEW010 SCT030 \n BECMG 1812/1813 04015G25KT CAVOK \n TEMPO 1817/1823 05008KT \n BECMG 1823/1824 07010KT"
"taf	RKSI	2018-05-18 12:00:00	TAF RKSI 181100Z 1812/1918 04015G25KT 9999 FEW030 TN12/1821Z TX23/1905Z \n TEMPO 1815/1823 04010KT \n BECMG 1823/1824 07010KT \n TEMPO 1905/1908 32007KT \n BECMG 1912/1913 13007KT"
"taf	RKSI	2018-05-18 18:00:00	TAF RKSI 181700Z 1818/1924 05015G25KT CAVOK TN11/1821Z TX23/1905Z TN13/1921Z \n TEMPO 1818/1823 05010KT \n BECMG 1900/1901 07010KT \n TEMPO 1905/1909 32007KT \n BECMG 1912/1913 13007KT \n BECMG 1920/1921 03007KT"
"taf	RKSI	2018-05-19 00:00:00	TAF RKSI 192300Z 2000/2106 06008KT 9999 FEW030 BKN180 TX22/2005Z TN13/2021Z TX23/2105Z \n BECMG 2101/2102 12010KT \n BECMG 2104/2105 19006KT"
"taf	RKSI	2018-05-19 06:00:00	TAF RKSI 190500Z 1906/2012 02006KT 9999 FEW030 TN11/1921Z TX23/2005Z \n TEMPO 1906/1911 08007KT \n BECMG 1912/1913 13006KT \n BECMG 1918/1919 06008KT"
"taf	RKSI	2018-05-19 12:00:00	TAF RKSI 191100Z 1912/2018 15005KT 9999 FEW030 BKN200 TN11/1921Z TX23/2005Z \n TEMPO 1917/1920 06006KT \n BECMG 1921/1922 06008KT \n BECMG 2007/2008 12007KT \n BECMG 2010/2011 05007KT"
"taf	RKSI	2018-05-19 18:00:00	TAF RKSI 191700Z 1918/2024 12007KT 9999 FEW030 BKN180 TN12/1921Z TX22/2005Z TN13/2021Z \n BECMG 1921/1922 06008KT \n BECMG 2023/2024 12008KT"
"taf	RKSI	2018-05-20 00:00:00	TAF RKSI 202300Z 2100/2206 15007KT CAVOK TX23/2105Z TN16/2120Z TX21/2205Z \n BECMG 2105/2106 30006KT 9999 SCT030 BKN180 \n BECMG 2113/2114 15005KT 6000 \n BECMG 2205/2206 25006KT FEW010 BKN030 OVC100"
"taf	RKSI	2018-05-20 06:00:00	TAF RKSI 200500Z 2006/2112 06007KT 9999 FEW030 BKN180 TN11/2021Z TX23/2105Z \n BECMG 2023/2024 15008KT \n BECMG 2105/2106 30006KT"
"taf	RKSI	2018-05-20 12:00:00	TAF RKSI 201100Z 2012/2118 06006KT CAVOK TN11/2021Z TX23/2105Z \n BECMG 2023/2024 15008KT \n BECMG 2105/2106 30006KT 9999 SCT030 BKN180 \n BECMG 2111/2112 15005KT"
"taf	RKSI	2018-05-20 18:00:00	TAF RKSI 201700Z 2018/2124 06006KT CAVOK TN12/2021Z TX23/2105Z TN16/2120Z \n BECMG 2100/2101 15008KT \n BECMG 2105/2106 30006KT 9999 SCT030 BKN180 \n BECMG 2115/2116 14005KT 6000"
"taf	RKSI	2018-05-21 00:00:00	TAF RKSI 212300Z 2200/2306 16006KT 7000 SCT030 BKN180 TX21/2205Z TN13/2221Z TX22/2305Z \n BECMG 2205/2206 4200 -RA FEW010 BKN025 OVC080 \n BECMG 2210/2211 19010KT 2800 RA \n BECMG 2217/2218 32009KT BR \n BECMG 2219/2220 4200 FEW010 SCT030 \n TEMPO 2302/2306 30015G25KT 6000 NSW NSC"
"taf	RKSI	2018-05-21 06:00:00	TAF RKSI 210500Z 2106/2212 31010KT CAVOK TN16/2121Z TX21/2206Z \n BECMG 2109/2110 01007KT \n BECMG 2115/2116 15005KT 6000 SCT030 BKN150 \n BECMG 2205/2206 28008KT 4200 -RA FEW010 BKN025 OVC080 \n BECMG 2211/2212 16010KT 2800"
"taf	RKSI	2018-05-21 12:00:00	TAF RKSI 211100Z 2112/2218 01005KT CAVOK TN16/2121Z TX21/2206Z \n BECMG 2115/2116 15005KT 6000 SCT030 BKN150 \n BECMG 2205/2206 31006KT 4200 -RA FEW010 BKN025 OVC080 \n BECMG 2211/2212 16010KT 2800 RA \n BECMG 2216/2217 29008KT 3500 -RA"
"taf	RKSI	2018-05-21 18:00:00	TAF RKSI 211700Z 2118/2224 16006KT 7000 SCT030 BKN180 TN14/2121Z TX20/2206Z TN13/2221Z \n BECMG 2205/2206 4200 -RA FEW010 BKN025 OVC080 \n BECMG 2210/2211 19010KT 2500 RA \n BECMG 2217/2218 32009KT BR \n BECMG 2219/2220 3500 FEW010 SCT030 \n BECMG 2221/2222 6000 NSW NSC"
"taf	RKSI	2018-05-22 00:00:00	TAF RKSI 222300Z 2300/2406 35009KT 9999 FEW030 TX21/2306Z TN12/2321Z TX21/2405Z \n BECMG 2303/2304 29012KT \n BECMG 2310/2311 16006KT 6000 NSC \n TEMPO 2311/2314 28006KT \n TEMPO 2316/2321 4200 BR \n BECMG 2323/2324 23011KT"
"taf	RKSI	2018-05-22 06:00:00	TAF RKSI 220500Z 2206/2312 30006KT 4200 -RA FEW010 BKN030 OVC100 TN14/2221Z TX20/2306Z \n BECMG 2210/2211 15006KT 2800 \n BECMG 2218/2219 33010KT 3500 BR SCT030 \n BECMG 2301/2302 30012KT 6000 NSW"
"taf	RKSI	2018-05-22 12:00:00	TAF RKSI 221100Z 2212/2318 15006KT 3500 -RA FEW004 BKN025 OVC080 TN14/2221Z TX20/2306Z \n BECMG 2213/2214 33008KT 2500 \n BECMG 2218/2219 3500 BR SCT030 \n BECMG 2222/2223 30012KT 6000 NSW \n BECMG 2310/2311 16006KT 4200 BR"
"taf	RKSI	2018-05-22 14:20:00	TAF \n AMD RKSI 221420Z 2214/2318 33010KT 1200 -RA SCT002 BKN025 OVC080 TN14/2221Z TX20/2306Z \n BECMG 2218/2219 2800 BR \n BECMG 2222/2223 30012KT 6000 NSW SCT030 \n BECMG 2310/2311 16006KT 4200 BR"
"taf	RKSI	2018-05-22 14:21:00	TAF \n AMD TAF \n AMD RKSI 221420Z 2214/2318 33010KT 1200 -RA SCT002 BKN025 OVC080 TN14/2221Z TX20/2306Z \n BECMG 2218/2219 2800 BR \n BECMG 2222/2223 30012KT 6000 NSW SCT030 \n BECMG 2310/2311 16006KT 4200 BR"
"taf	RKSI	2018-05-22 18:00:00	TAF RKSI 221700Z 2218/2324 34009KT 6000 -RA FEW005 BKN030 BKN120 TN13/2221Z TX21/2306Z TN12/2321Z \n BECMG 2219/2220 NSW \n BECMG 2221/2222 FEW010 SCT030 \n BECMG 2302/2303 28012KT NSC \n BECMG 2312/2313 16007KT \n TEMPO 2317/2322 4200 BR"
"taf	RKSI	2018-05-23 00:00:00	TAF RKSI 232300Z 2400/2506 17010KT CAVOK TX21/2406Z TN12/2422Z TX22/2505Z \n BECMG 2401/2402 23010KT \n BECMG 2413/2414 17007KT \n BECMG 2501/2502 23010KT"
"taf	RKSI	2018-05-23 06:00:00	TAF RKSI 230500Z 2306/2412 27012KT 9999 FEW030 TN12/2321Z TX21/2405Z \n BECMG 2314/2315 21006KT \n BECMG 2316/2317 4200 BR \n BECMG 2321/2322 24012KT 7000 NSW \n BECMG 2410/2411 18006KT 4200 BR"
"taf	RKSI	2018-05-23 12:00:00	TAF RKSI 231100Z 2312/2418 27012KT 9999 FEW030 TN12/2321Z TX21/2405Z \n BECMG 2314/2315 21006KT \n BECMG 2317/2318 4200 BR \n BECMG 2321/2322 24012KT 7000 NSW \n BECMG 2416/2417 18006KT 4200 BR"
"taf	RKSI	2018-05-23 18:00:00	TAF RKSI 231700Z 2318/2424 17006KT CAVOK TN11/2321Z TX21/2405Z TN12/2421Z \n BECMG 2323/2324 23010KT \n BECMG 2414/2415 17006KT \n BECMG 2422/2423 23010KT"
"taf	RKSI	2018-05-24 00:00:00	TAF RKSI 242300Z 2500/2606 18010KT 7000 NSC TX22/2505Z TN13/2521Z TX26/2605Z \n BECMG 2503/2504 24008KT \n TEMPO 2507/2510 30008KT \n BECMG 2511/2512 05005KT \n TEMPO 2518/2521 4200 BR \n BECMG 2603/2604 29010KT"
"taf	RKSI	2018-05-24 06:00:00	TAF RKSI 240500Z 2406/2512 23012KT CAVOK TN12/2422Z TX22/2505Z \n BECMG 2413/2414 17007KT \n BECMG 2501/2502 25010KT \n BECMG 2510/2511 33006KT"
"taf	RKSI	2018-05-24 12:00:00	TAF RKSI 241100Z 2412/2518 17007KT CAVOK TN12/2422Z TX22/2505Z \n BECMG 2501/2502 24010KT \n BECMG 2510/2511 33006KT \n BECMG 2516/2517 07006KT \n TEMPO 2517/2518 4200 BR NSC"
"taf	RKSI	2018-05-24 18:00:00	TAF RKSI 241700Z 2418/2524 15007KT 4200 BR NSC TN12/2422Z TX22/2505Z TN13/2521Z \n TEMPO 2423/2503 21008KT 6000 NSW \n BECMG 2503/2504 24008KT CAVOK \n TEMPO 2509/2511 30006KT \n BECMG 2511/2512 05005KT \n TEMPO 2518/2522 4200 BR NSC"
"taf	RKSI	2018-05-25 06:00:00	TAF RKSI 250500Z 2506/2612 24008KT CAVOK TN14/2521Z TX25/2605Z \n BECMG 2511/2512 31005KT \n BECMG 2513/2514 15006KT \n BECMG 2516/2517 05005KT 6000 NSC \n BECMG 2603/2604 29010KT CAVOK \n BECMG 2611/2612 35006KT"
"taf	RKSI	2018-05-25 12:00:00	TAF RKSI 251100Z 2512/2618 05005KT CAVOK TN14/2521Z TX25/2605Z \n BECMG 2602/2603 29010KT \n BECMG 2612/2613 19006KT"
"taf	RKSI	2018-05-25 18:00:00	TAF RKSI 251700Z 2518/2624 05005KT CAVOK TN13/2521Z TX25/2605Z TN15/2621Z \n BECMG 2602/2603 29010KT \n BECMG 2612/2613 19006KT"
"taf	RKSI	2018-05-26 00:00:00	TAF RKSI 262300Z 2700/2806 25006KT 7000 FEW030 BKN120 TX22/2705Z TN14/2721Z TX24/2805Z \n BECMG 2713/2714 14006KT \n TEMPO 2720/2722 4200 BR \n BECMG 2803/2804 30006KT"
"taf	RKSI	2018-05-26 06:00:00	TAF RKSI 260500Z 2606/2712 28010KT CAVOK TN15/2621Z TX22/2705Z \n BECMG 2612/2613 19006KT 6000 NSC \n TEMPO 2704/2709 25007KT 9999 FEW030 BKN150 \n BECMG 2709/2710 29006KT 9999 SCT030 BKN120"
"taf	RKSI	2018-05-26 12:00:00	TAF RKSI 261100Z 2612/2718 30006KT CAVOK TN15/2621Z TX22/2705Z \n BECMG 2614/2615 19006KT 6000 NSC \n TEMPO 2618/2620 25006KT \n BECMG 2703/2704 26007KT 9999 FEW030 BKN120 \n BECMG 2710/2711 20006KT \n BECMG 2715/2716 31005KT 4200 BR FEW010 BKN030"
"taf	RKSI	2018-05-26 18:00:00	TAF RKSI 261700Z 2618/2724 25006KT 7000 FEW030 BKN120 TN15/2621Z TX22/2705Z TN14/2721Z \n BECMG 2715/2716 14006KT \n TEMPO 2720/2722 4200 BR"
"taf	RKSI	2018-05-27 00:00:00	TAF RKSI 272300Z 2800/2906 14006KT CAVOK TX24/2805Z TN15/2820Z TX22/2905Z \n BECMG 2802/2803 29007KT \n BECMG 2811/2812 17005KT 7000 SCT030 BKN180 \n BECMG 2818/2819 13005KT 4200 BR \n BECMG 2820/2821 18006KT 6000 NSW \n TEMPO 2905/2906 25007KT -RA FEW010 BKN030"
"taf	RKSI	2018-05-27 06:00:00	TAF RKSI 270500Z 2706/2812 30007KT 7000 SCT030 BKN140 TN14/2721Z TX25/2805Z \n BECMG 2712/2713 15006KT \n TEMPO 2719/2721 4200 BR \n BECMG 2802/2803 30007KT"
"taf	RKSI	2018-05-27 12:00:00	TAF RKSI 271100Z 2712/2818 15006KT 7000 SCT030 BKN140 TN14/2721Z TX25/2805Z \n TEMPO 2720/2721 4200 BR \n BECMG 2802/2803 29007KT \n BECMG 2811/2812 16005KT \n TEMPO 2815/2818 4200 BR"
"taf	RKSI	2018-05-27 18:00:00	TAF RKSI 271700Z 2718/2824 15006KT 9999 SCT030 BKN180 TN14/2721Z TX24/2805Z TN15/2820Z \n TEMPO 2719/2722 32005KT 6000 \n BECMG 2801/2802 29007KT \n BECMG 2811/2812 17005KT 6000 \n BECMG 2818/2819 06005KT 3200 BR \n BECMG 2821/2822 18006KT 6000 NSW"
"taf	RKSI	2018-05-28 00:00:00	TAF RKSI 282300Z 2900/3006 18006KT 6000 FEW010 BKN030 BKN120 TX22/2905Z TN14/2920Z TX21/3005Z \n BECMG 2902/2903 25006KT FEW010 SCT030 BKN120 \n BECMG 2911/2912 19006KT 3500 BR FEW005 BKN020 \n BECMG 2916/2917 2800 \n BECMG 2921/2922 4200 \n BECMG 3000/3001 25007KT 6000 NSW FEW010 SCT030"
"taf	RKSI	2018-05-28 00:57:00	TAF \n AMD RKSI 282357Z 2900/3006 18006KT 3200 BR FEW010 BKN030 BKN120 TX22/2905Z TN14/2920Z TX21/3005Z \n BECMG 2902/2903 25006KT 6000 NSW FEW010 SCT030 BKN120 \n BECMG 2911/2912 19006KT 3500 BR FEW005 BKN020 \n BECMG 2916/2917 2800 \n BECMG 2921/2922 4200 \n BECMG 3000/3001 25007KT 6000 NSW FEW010 SCT030"
"taf	RKSI	2018-05-28 06:00:00	TAF RKSI 280500Z 2806/2912 29007KT CAVOK TN15/2820Z TX23/2905Z \n BECMG 2811/2812 16005KT 7000 SCT030 BKN180 \n BECMG 2818/2819 4200 BR \n BECMG 2821/2822 6000 NSW \n BECMG 2903/2904 25007KT NSC \n BECMG 2910/2911 22005KT 4200 BR FEW010 SCT030"
"taf	RKSI	2018-05-28 12:00:00	TAF RKSI 281100Z 2812/2918 16006KT 6000 NSC TN15/2820Z TX23/2905Z \n BECMG 2902/2903 29006KT FEW010 SCT030 BKN180 \n TEMPO 2903/2907 23007KT \n BECMG 2910/2911 19006KT 4200 BR FEW005 BKN020 \n TEMPO 2915/2918 2800"
"taf	RKSI	2018-05-28 18:00:00	TAF RKSI 281700Z 2818/2924 19006KT 6000 FEW010 SCT030 BKN150 TN15/2820Z TX22/2905Z TN14/2920Z \n BECMG 2902/2903 29006KT \n TEMPO 2903/2908 23007KT \n BECMG 2910/2911 19006KT 4200 BR FEW005 BKN020 \n BECMG 2916/2917 2800 \n BECMG 2921/2922 3800"
"taf	RKSI	2018-05-29 00:00:00	TAF RKSI 292300Z 3000/3106 28007KT 7000 FEW008 SCT025 TX22/3005Z TN14/3021Z TX24/3105Z \n TEMPO 3000/3001 SCT005 BKN020 \n BECMG 3015/3016 31006KT 4200 BR \n TEMPO 3018/3021 2800 \n BECMG 3022/3023 6000 NSW"
"taf	RKSI	2018-05-29 06:00:00	TAF RKSI 290500Z 2906/3012 25007KT 6000 FEW010 BKN025 OVC120 TN14/2920Z TX21/3005Z \n BECMG 2911/2912 19006KT 3500 BR \n BECMG 2916/2917 2500 \n BECMG 2922/2923 4200 \n BECMG 3001/3002 25007KT 6000 NSW FEW010 SCT030"
"taf	RKSI	2018-05-29 08:15:00	TAF \n AMD RKSI 290815Z 2908/3012 26007KT 3500 -RA FEW010 BKN025 OVC100 TN14/2920Z TX21/3005Z \n BECMG 2909/2910 19006KT BR \n BECMG 2916/2917 2500 \n BECMG 2922/2923 4200 \n BECMG 3001/3002 25007KT 6000 NSW FEW010 SCT030"
"taf	RKSI	2018-05-29 08:18:00	TAF \n AMD TAF \n AMD RKSI 290815Z 2908/3012 26007KT 3500 -RA FEW010 BKN025 OVC100 TN14/2920Z TX21/3005Z \n BECMG 2909/2910 19006KT BR \n BECMG 2916/2917 2500 \n BECMG 2922/2923 4200 \n BECMG 3001/3002 25007KT 6000 NSW FEW010 SCT030"
"taf	RKSI	2018-05-29 10:00:00	TAF \n AMD TAF \n AMD RKSI 291000Z 2910/3012 25007KT 2000 -TSRA FEW003 SCT010CB BKN025 OVC080 TN14/2920Z TX21/3005Z \n BECMG 2911/2912 19006KT BR FEW010 BKN025 OVC100 \n BECMG 2922/2923 4200 \n BECMG 3001/3002 25007KT 6000 NSW FEW010 SCT030"
"taf	RKSI	2018-05-29 12:00:00	TAF RKSI 291100Z 2912/3018 19006KT 3500 BR FEW010 BKN025 OVC100 TN14/2920Z TX21/3005Z \n BECMG 2914/2915 2500 \n TEMPO 2918/2921 1400 \n BECMG 2922/2923 4200 \n BECMG 3001/3002 25007KT 6000 NSW FEW010 SCT030 \n BECMG 3011/3012 19006KT"
"taf	RKSI	2018-05-29 12:22:00	TAF \n AMD RKSI 291222Z 2912/3018 19006KT 3500 BR SCT004 BKN025 OVC100 TN14/2920Z TX21/3005Z \n TEMPO 2912/2918 2000 -RA \n TEMPO 2919/2921 1400 \n BECMG 2922/2923 4200 \n BECMG 3001/3002 25007KT 6000 NSW FEW010 SCT030 \n BECMG 3011/3012 19006KT"
"taf	RKSI	2018-05-29 12:24:00	TAF \n AMD TAF \n AMD RKSI 291222Z 2912/3018 19006KT 3500 BR SCT004 BKN025 OVC100 TN14/2920Z TX21/3005Z \n TEMPO 2912/2918 2000 -RA \n TEMPO 2919/2921 1400 \n BECMG 2922/2923 4200 \n BECMG 3001/3002 25007KT 6000 NSW FEW010 SCT030 \n BECMG 3011/3012 19006KT"
"taf	RKSI	2018-05-29 18:00:00	TAF RKSI 291700Z 2918/3024 18005KT 4200 BR FEW008 SCT025 TN16/2920Z TX22/3005Z TN14/3021Z \n TEMPO 2918/2923 2800 SCT006 BKN020 \n BECMG 3000/3001 28007KT 6000 NSW \n BECMG 3012/3013 22006KT \n BECMG 3014/3015 31006KT 4200 BR \n TEMPO 3018/3021 2800"
"taf	RKSI	2018-05-30 00:00:00	TAF RKSI 302300Z 3100/0106 29007KT 7000 FEW030 TX25/3105Z TN16/3121Z TX27/0105Z \n BECMG 3112/3113 15005KT \n BECMG 3123/3124 29008KT"
"taf	RKSI	2018-05-30 06:00:00	TAF RKSI 300500Z 3006/3112 30007KT 9999 FEW010 BKN030 TN14/3021Z TX24/3105Z \n BECMG 3007/3008 SCT030 \n BECMG 3015/3016 4200 BR \n BECMG 3022/3023 27006KT 6000 NSW"
"taf	RKSI	2018-05-30 12:00:00	TAF RKSI 301100Z 3012/3118 28007KT CAVOK TN14/3021Z TX24/3105Z \n BECMG 3015/3016 4200 BR NSC \n BECMG 3022/3023 6000 NSW"
"taf	RKSI	2018-05-30 18:00:00	TAF RKSI 301700Z 3018/3124 29006KT 7000 NSC TN14/3021Z TX25/3105Z TN16/3121Z"
"taf	RKSI	2018-05-31 00:00:00	TAF RKSI 312300Z 0100/0206 18005KT CAVOK TX26/0105Z TN15/0121Z TX25/0205Z \n BECMG 0101/0102 29007KT \n BECMG 0113/0114 15005KT \n BECMG 0201/0202 28007KT"
"taf	RKSI	2018-05-31 06:00:00	TAF RKSI 310500Z 3106/0112 29007KT 7000 FEW030 TN16/3121Z TX25/0105Z \n BECMG 3112/3113 15005KT \n BECMG 3123/3124 29008KT"
"taf	RKSI	2018-05-31 12:00:00	TAF RKSI 311100Z 3112/0118 15005KT 7000 FEW030 TN15/3121Z TX25/0105Z \n BECMG 3123/3124 29008KT \n BECMG 0111/0112 15005KT"
"taf	RKSI	2018-05-31 18:00:00	TAF RKSI 311700Z 3118/0124 18005KT CAVOK TN15/3121Z TX25/0105Z TN15/0121Z \n BECMG 3123/3124 29007KT \n BECMG 0112/0113 15005KT \n BECMG 0123/0124 28007KT"
"taf	RKSI	2018-06-01 00:00:00	TAF RKSI 012300Z 0200/0306 15005KT CAVOK TX25/0205Z TN15/0221Z TX25/0306Z \n BECMG 0202/0203 30007KT \n BECMG 0211/0212 17005KT \n BECMG 0305/0306 28006KT"
"taf	RKSI	2018-06-01 06:00:00	TAF RKSI 010500Z 0106/0212 29007KT CAVOK TN15/0121Z TX25/0205Z \n BECMG 0113/0114 15005KT \n BECMG 0202/0203 30007KT \n BECMG 0210/0211 07005KT"
"taf	RKSI	2018-06-01 12:00:00	TAF RKSI 011100Z 0112/0218 29007KT CAVOK TN15/0121Z TX25/0205Z \n BECMG 0114/0115 15005KT \n BECMG 0202/0203 30007KT \n BECMG 0211/0212 07005KT"
"taf	RKSI	2018-06-01 18:00:00	TAF RKSI 011700Z 0118/0224 15005KT CAVOK TN15/0121Z TX25/0205Z TN16/0221Z \n BECMG 0202/0203 30007KT \n BECMG 0211/0212 17005KT"
"taf	RKSI	2018-06-02 00:00:00	TAF RKSI 022300Z 0300/0406 15006KT CAVOK TX27/0305Z TN16/0321Z TX24/0405Z \n BECMG 0303/0304 29007KT \n BECMG 0313/0314 23007KT"
"taf	RKSI	2018-06-02 06:00:00	TAF RKSI 020500Z 0206/0312 30007KT CAVOK TN15/0221Z TX25/0306Z \n BECMG 0213/0214 17005KT \n BECMG 0304/0305 29006KT"
"taf	RKSI	2018-06-02 12:00:00	TAF RKSI 021100Z 0212/0318 29007KT CAVOK TN16/0221Z TX26/0305Z \n BECMG 0214/0215 17005KT \n BECMG 0303/0304 29008KT \n BECMG 0312/0313 23005KT"
"taf	RKSI	2018-06-02 18:00:00	TAF RKSI 021700Z 0218/0324 15005KT CAVOK TN16/0221Z TX27/0305Z TN16/0321Z \n BECMG 0303/0304 29008KT \n BECMG 0312/0313 22006KT"
"taf	RKSI	2018-06-03 00:00:00	TAF RKSI 032300Z 0400/0506 20006KT 8000 NSC TX24/0405Z TN17/0421Z TX25/0505Z \n BECMG 0403/0404 26007KT \n BECMG 0411/0412 13006KT FEW010 SCT030 BKN120 \n TEMPO 0419/0422 4200 -RA \n BECMG 0503/0504 30006KT"
"taf	RKSI	2018-06-03 06:00:00	TAF RKSI 030500Z 0306/0412 29008KT CAVOK TN16/0321Z TX23/0405Z \n BECMG 0313/0314 19007KT \n BECMG 0403/0404 28007KT \n BECMG 0409/0410 19006KT"
"taf	RKSI	2018-06-03 12:00:00	TAF RKSI 031100Z 0312/0418 32005KT CAVOK TN17/0320Z TX23/0405Z \n BECMG 0316/0317 18007KT \n BECMG 0403/0404 29007KT \n BECMG 0411/0412 19006KT \n BECMG 0417/0418 32005KT 6000 SCT030 BKN100"
"taf	RKSI	2018-06-03 18:00:00	TAF RKSI 031700Z 0318/0424 18006KT CAVOK TN17/0320Z TX24/0405Z TN17/0421Z \n BECMG 0403/0404 26007KT 7000 FEW010 SCT030 BKN120 \n BECMG 0411/0412 13006KT \n TEMPO 0417/0422 4200 BR"
"taf	RKSI	2018-06-04 00:00:00	TAF RKSI 042300Z 0500/0606 17005KT 7000 NSC TX25/0505Z TN17/0520Z TX25/0605Z \n BECMG 0503/0504 30008KT \n BECMG 0513/0514 19005KT \n BECMG 0517/0518 10005KT 3500 BR FEW010 SCT030 \n BECMG 0522/0523 23006KT 6000 NSW \n BECMG 0602/0603 29007KT CAVOK"
"taf	RKSI	2018-06-04 06:00:00	TAF RKSI 040500Z 0406/0512 29006KT 7000 NSC TN17/0421Z TX25/0505Z \n BECMG 0410/0411 15006KT FEW010 SCT030 BKN120 \n BECMG 0419/0420 4200 BR \n BECMG 0422/0423 7000 NSW \n BECMG 0503/0504 29006KT NSC"
"taf	RKSI	2018-06-04 09:45:00	TAF \n AMD TAF \n AMD RKSI 040845Z 0409/0512 20006KT 7000 FEW010 SCT030 BKN120 TN17/0421Z TX25/0505Z \n BECMG 0419/0420 4200 BR \n BECMG 0422/0423 7000 NSW \n BECMG 0503/0504 29006KT NSC"
"taf	RKSI	2018-06-04 12:00:00	TAF RKSI 041100Z 0412/0518 16005KT 7000 FEW010 SCT030 BKN120 TN17/0421Z TX25/0505Z \n BECMG 0419/0420 4200 BR \n BECMG 0422/0423 7000 NSW \n BECMG 0502/0503 30006KT NSC \n BECMG 0517/0518 15005KT 4200 BR FEW010 SCT030"
"taf	RKSI	2018-06-04 18:00:00	TAF RKSI 041700Z 0418/0524 16005KT 6000 FEW030 BKN120 TN17/0421Z TX25/0505Z TN17/0520Z \n BECMG 0502/0503 30007KT NSC \n BECMG 0513/0514 19005KT \n BECMG 0517/0518 08005KT 4200 BR FEW010 SCT030 \n BECMG 0522/0523 16005KT 6000 NSW"
"taf	RKSI	2018-06-05 00:00:00	TAF RKSI 052300Z 0600/0706 28007KT 6000 FEW005 BKN180 TX24/0605Z TN16/0620Z TX24/0705Z \n BECMG 0614/0615 32006KT 3500 BR \n TEMPO 0617/0621 1800 \n BECMG 0623/0624 21006KT 6000 NSW \n BECMG 0702/0703 27007KT NSC"
"taf	RKSI	2018-06-05 06:00:00	TAF RKSI 050500Z 0506/0612 30006KT 7000 FEW010 SCT030 TN17/0520Z TX25/0605Z \n BECMG 0516/0517 20005KT 3500 BR \n TEMPO 0519/0521 1400 \n BECMG 0522/0523 6000 NSW \n BECMG 0602/0603 30007KT \n BECMG 0611/0612 33006KT 3500 BR"
"taf	RKSI	2018-06-05 12:00:00	TAF RKSI 051100Z 0512/0618 30006KT 7000 NSC TN17/0520Z TX25/0605Z \n BECMG 0517/0518 19005KT 3500 BR FEW005 SCT020 \n BECMG 0523/0524 6000 NSW \n BECMG 0602/0603 29007KT \n BECMG 0612/0613 32006KT 3500 BR \n TEMPO 0616/0618 1200"
"taf	RKSI	2018-06-05 18:00:00	TAF RKSI 051700Z 0518/0624 19005KT 4200 BR FEW010 SCT030 TN17/0520Z TX25/0605Z TN16/0620Z \n BECMG 0522/0523 23006KT 6000 NSW NSC \n BECMG 0602/0603 29007KT \n BECMG 0613/0614 32006KT 3500 BR FEW005 SCT020 \n TEMPO 0616/0621 2200 \n BECMG 0623/0624 25005KT 6000 NSW NSC"
"taf	RKSI	2018-06-06 06:00:00	TAF RKSI 060500Z 0606/0712 29007KT 7000 FEW010 BKN025 TN18/0622Z TX22/0706Z \n TEMPO 0606/0611 FEW010 SCT030 \n BECMG 0611/0612 32006KT 3500 BR \n TEMPO 0617/0622 1400 \n BECMG 0623/0624 22006KT 6000 NSW FEW015 SCT030 \n BECMG 0703/0704 28007KT"
"taf	RKSI	2018-06-06 12:00:00	TAF RKSI 061100Z 0612/0718 31006KT 7000 NSC TN18/0621Z TX22/0706Z \n BECMG 0614/0615 3500 BR \n TEMPO 0617/0622 1400 FEW010 BKN025 \n BECMG 0623/0624 22006KT 6000 NSW \n BECMG 0703/0704 28007KT \n BECMG 0715/0716 31006KT 3500 BR"
"taf	RKSI	2018-06-06 13:07:00	TAF \n AMD RKSI 061307Z 0613/0718 31006KT 7000 BKN006 TN17/0621Z TX23/0706Z \n BECMG 0614/0615 3500 BR \n TEMPO 0617/0622 1400 \n BECMG 0623/0624 22006KT 6000 NSW NSC \n BECMG 0703/0704 28007KT \n BECMG 0715/0716 31006KT 3500 BR"
"taf	RKSI	2018-06-06 13:09:00	TAF \n AMD TAF \n AMD RKSI 061307Z 0613/0718 31006KT 7000 BKN006 TN17/0621Z TX23/0706Z \n BECMG 0614/0615 3500 BR \n TEMPO 0617/0622 1400 \n BECMG 0623/0624 22006KT 6000 NSW NSC \n BECMG 0703/0704 28007KT \n BECMG 0715/0716 31006KT 3500 BR"
"taf	RKSI	2018-06-06 18:00:00	TAF RKSI 061700Z 0618/0724 28006KT 6000 BKN006 TN16/0621Z TX24/0706Z TN17/0720Z \n BECMG 0620/0621 2800 BR \n BECMG 0622/0623 6000 NSW FEW007 SCT020 \n BECMG 0715/0716 4200 BR \n BECMG 0719/0720 2000 \n BECMG 0723/0724 6000 NSW"
"taf	RKSI	2018-06-07 00:00:00	TAF RKSI 072300Z 0800/0906 27007KT 9999 FEW010 SCT030 TX23/0806Z TN17/0821Z TX26/0906Z \n TEMPO 0800/0802 BKN025 \n BECMG 0812/0813 15006KT \n BECMG 0819/0820 4200 BR \n BECMG 0822/0823 6000 NSW \n BECMG 0903/0904 30006KT NSC"
"taf	RKSI	2018-06-07 06:00:00	TAF RKSI 070500Z 0706/0812 29006KT 9999 FEW030 SCT200 TN17/0720Z TX23/0806Z \n BECMG 0715/0716 4200 BR \n BECMG 0717/0718 2800 BKN005 \n BECMG 0723/0724 23006KT 7000 NSW SCT010 BKN025 \n BECMG 0801/0802 29007KT FEW030 SCT200"
"taf	RKSI	2018-06-07 12:00:00	TAF RKSI 071100Z 0712/0818 29006KT 7000 FEW030 BKN180 TN17/0720Z TX23/0806Z \n BECMG 0715/0716 4200 BR \n BECMG 0717/0718 2800 BKN005 \n BECMG 0723/0724 23006KT 7000 NSW SCT010 BKN025 \n BECMG 0801/0802 29007KT FEW030 SCT180 \n BECMG 0815/0816 18005KT 4200 BR BKN005"
"taf	RKSI	2018-06-07 18:00:00	TAF RKSI 071700Z 0718/0824 28006KT 6000 BKN010 TN17/0720Z TX23/0806Z TN17/0821Z \n BECMG 0723/0724 22006KT FEW010 SCT020 \n BECMG 0802/0803 28007KT \n BECMG 0812/0813 15005KT \n BECMG 0818/0819 4200 BR \n BECMG 0822/0823 08006KT 6000 NSW"
"taf	RKSI	2018-06-08 00:00:00	TAF RKSI 082300Z 0900/1006 07007KT 6000 SCT030 TX28/0906Z TN18/0920Z TX24/1005Z \n TEMPO 0900/0901 4200 BR \n BECMG 0904/0905 30007KT \n BECMG 0912/0913 06006KT 4200 -RA FEW010 BKN025 OVC100 \n BECMG 0922/0923 6000 NSW \n BECMG 1002/1003 14006KT"
"taf	RKSI	2018-06-08 06:00:00	TAF RKSI 080500Z 0806/0912 29007KT 9999 FEW010 SCT030 TN17/0821Z TX27/0906Z \n BECMG 0812/0813 15006KT \n BECMG 0819/0820 4200 BR \n BECMG 0822/0823 7000 NSW \n BECMG 0903/0904 30006KT \n BECMG 0910/0911 13006KT FEW010 BKN030 OVC120"
"taf	RKSI	2018-06-08 12:00:00	TAF RKSI 081100Z 0812/0918 15006KT 9999 SCT030 TN17/0821Z TX27/0906Z \n BECMG 0819/0820 4200 BR \n BECMG 0822/0823 7000 NSW \n BECMG 0903/0904 30007KT \n BECMG 0910/0911 13006KT FEW010 BKN030 OVC120 \n TEMPO 0914/0918 -RA"
"taf	RKSI	2018-06-08 12:10:00	TAF \n AMD RKSI 081210Z 0812/0918 15006KT 4200 BR SCT030 TN17/0821Z TX27/0906Z \n TEMPO 0812/0818 29006KT 1400 BKN004 \n BECMG 0822/0823 7000 NSW \n BECMG 0903/0904 30007KT \n BECMG 0910/0911 13006KT FEW010 BKN030 OVC120 \n TEMPO 0914/0918 -RA"
"taf	RKSI	2018-06-08 12:12:00	TAF \n AMD TAF \n AMD RKSI 081210Z 0812/0918 15006KT 4200 BR SCT030 TN17/0821Z TX27/0906Z \n TEMPO 0812/0818 29006KT 1400 BKN004 \n BECMG 0822/0823 7000 NSW \n BECMG 0903/0904 30007KT \n BECMG 0910/0911 13006KT FEW010 BKN030 OVC120 \n TEMPO 0914/0918 -RA"
"taf	RKSI	2018-06-08 16:00:00	TAF \n AMD RKSI 081600Z 0816/0918 15006KT 1400 BR SCT030 TN17/0821Z TX27/0906Z \n TEMPO 0816/0821 29006KT 0400 FG BKN002 \n BECMG 0821/0822 4200 \n BECMG 0823/0824 7000 NSW \n BECMG 0903/0904 30007KT \n TEMPO 0914/0918 13006KT -RA FEW010 BKN030 OVC120"
"taf	RKSI	2018-06-08 16:03:00	TAF \n AMD TAF \n AMD RKSI 081600Z 0816/0918 15006KT 1400 BR SCT030 TN17/0821Z TX27/0906Z \n TEMPO 0816/0821 29006KT 0400 FG BKN002 \n BECMG 0821/0822 4200 \n BECMG 0823/0824 7000 NSW \n BECMG 0903/0904 30007KT \n TEMPO 0914/0918 13006KT -RA FEW010 BKN030 OVC120"
"taf	RKSI	2018-06-08 18:00:00	TAF RKSI 081700Z 0818/0924 14006KT 1400 BR SCT030 TN16/0820Z TX28/0906Z TN19/0920Z \n TEMPO 0818/0821 0400 FG BKN001 \n BECMG 0821/0822 4200 \n BECMG 0823/0824 7000 NSW \n BECMG 0904/0905 30007KT \n BECMG 0913/0914 07006KT 4200 -RA FEW010 BKN025 OVC100"
"taf	RKSI	2018-06-08 19:40:00	TAF \n AMD RKSI 081840Z 0819/0924 14006KT 2000 BR SCT030 TN16/0820Z TX28/0906Z TN19/0920Z \n TEMPO 0819/0821 BKN003 \n BECMG 0821/0822 4200 \n BECMG 0823/0824 7000 NSW \n BECMG 0904/0905 30007KT \n BECMG 0913/0914 07006KT 4200 -RA FEW010 BKN025 OVC100"
"taf	RKSI	2018-06-08 19:42:00	TAF \n AMD TAF \n AMD RKSI 081840Z 0819/0924 14006KT 2000 BR SCT030 TN16/0820Z TX28/0906Z TN19/0920Z \n TEMPO 0819/0821 BKN003 \n BECMG 0821/0822 4200 \n BECMG 0823/0824 7000 NSW \n BECMG 0904/0905 30007KT \n BECMG 0913/0914 07006KT 4200 -RA FEW010 BKN025 OVC100"
"taf	RKSI	2018-06-08 20:10:00	TAF \n AMD RKSI 082010Z 0820/0924 14006KT 3500 BR SCT030 TN16/0820Z TX28/0906Z TN19/0920Z \n TEMPO 0820/0823 0400 FG BKN001 \n BECMG 0823/0824 7000 NSW \n BECMG 0904/0905 30007KT \n BECMG 0913/0914 07006KT 4200 -RA FEW010 BKN025 OVC100"
"taf	RKSI	2018-06-08 20:15:00	TAF \n AMD TAF \n AMD RKSI 082010Z 0820/0924 14006KT 3500 BR SCT030 TN16/0820Z TX28/0906Z TN19/0920Z \n TEMPO 0820/0823 0400 FG BKN001 \n BECMG 0823/0824 7000 NSW \n BECMG 0904/0905 30007KT \n BECMG 0913/0914 07006KT 4200 -RA FEW010 BKN025 OVC100"
"taf	RKSI	2018-06-09 00:00:00	TAF RKSI 092300Z 1000/1106 12010KT 7000 FEW015 BKN030 OVC090 TX24/1006Z TN17/1020Z TX25/1105Z \n BECMG 1003/1004 06008KT SCT030 BKN150 \n TEMPO 1006/1009 30010KT \n BECMG 1101/1102 FEW015 BKN030 OVC090"
"taf	RKSI	2018-06-09 06:00:00	TAF RKSI 090500Z 0906/1012 13007KT 6000 SCT030 TN18/0921Z TX26/1005Z \n BECMG 0912/0913 06006KT 4200 -RA FEW010 BKN025 OVC100 \n BECMG 0919/0920 7000 NSW \n BECMG 1002/1003 13007KT \n TEMPO 1004/1010 30007KT \n BECMG 1011/1012 06008KT"
"taf	RKSI	2018-06-09 09:05:00	TAF \n AMD RKSI 090905Z 0909/1012 13007KT 4200 -RA FEW010 SCT025 BKN100 TN18/0921Z TX26/1005Z \n BECMG 0912/0913 06006KT 2800 FEW010 BKN025 OVC100 \n BECMG 0919/0920 7000 NSW \n BECMG 1002/1003 13007KT \n TEMPO 1004/1010 30007KT \n BECMG 1011/1012 06008KT"
"taf	RKSI	2018-06-09 09:09:00	TAF \n AMD TAF \n AMD RKSI 090905Z 0909/1012 13007KT 4200 -RA FEW010 SCT025 BKN100 TN18/0921Z TX26/1005Z \n BECMG 0912/0913 06006KT 2800 FEW010 BKN025 OVC100 \n BECMG 0919/0920 7000 NSW \n BECMG 1002/1003 13007KT \n TEMPO 1004/1010 30007KT \n BECMG 1011/1012 06008KT"
"taf	RKSI	2018-06-09 09:35:00	TAF \n AMD RKSI 090935Z 0909/1012 13007KT 3500 -TSRA FEW020CB BKN025 BKN100 TN18/0921Z TX26/1005Z \n BECMG 0912/0913 06006KT -RA FEW010 BKN025 OVC100 \n BECMG 0919/0920 7000 NSW \n BECMG 1002/1003 13007KT \n TEMPO 1004/1010 30007KT \n BECMG 1011/1012 06008KT"
"taf	RKSI	2018-06-09 09:36:00	TAF \n AMD TAF \n AMD RKSI 090935Z 0909/1012 13007KT 3500 -TSRA FEW020CB BKN025 BKN100 TN18/0921Z TX26/1005Z \n BECMG 0912/0913 06006KT -RA FEW010 BKN025 OVC100 \n BECMG 0919/0920 7000 NSW \n BECMG 1002/1003 13007KT \n TEMPO 1004/1010 30007KT \n BECMG 1011/1012 06008KT"
"taf	RKSI	2018-06-09 12:00:00	TAF RKSI 091100Z 0912/1018 11007KT 3200 -RA FEW010 BKN025 OVC080 TN18/0920Z TX26/1005Z \n BECMG 0919/0920 7000 NSW \n BECMG 1002/1003 05007KT FEW010 SCT030 BKN120 \n TEMPO 1004/1008 30010KT \n BECMG 1011/1012 11006KT"
"taf	RKSI	2018-06-09 18:00:00	TAF RKSI 091700Z 0918/1024 06008KT 7000 -RA FEW010 BKN030 OVC090 TN17/0920Z TX24/1006Z TN17/1020Z \n BECMG 0922/0923 NSW \n BECMG 1005/1006 FEW015 SCT030 BKN150 \n TEMPO 1006/1008 30010KT \n BECMG 1022/1023 FEW015 BKN030 OVC100"
"taf	RKSI	2018-06-10 00:00:00	TAF RKSI 102300Z 1100/1206 04009KT 7000 FEW010 BKN025 BKN100 TX23/1105Z TN14/1121Z TX23/1205Z \n TEMPO 1102/1103 4200 -SHRA \n BECMG 1103/1104 34010KT \n TEMPO 1105/1111 4200 -SHRA \n BECMG 1114/1115 04007KT FEW010 SCT030 BKN150 \n BECMG 1203/1204 30010KT"
"taf	RKSI	2018-06-10 06:00:00	TAF RKSI 100500Z 1006/1112 07008KT 9999 SCT030 BKN110 TN17/1020Z TX24/1105Z \n TEMPO 1008/1010 34008KT \n BECMG 1101/1102 33007KT FEW015 BKN030 BKN100 \n BECMG 1108/1109 07007KT SCT030 BKN120"
"taf	RKSI	2018-06-10 12:00:00	TAF RKSI 101100Z 1012/1118 06009KT 9999 SCT030 BKN080 TN17/1020Z TX23/1105Z \n BECMG 1015/1016 SCT030 BKN120 \n BECMG 1101/1102 34010KT 6000 FEW010 BKN030 BKN100 \n TEMPO 1105/1107 4200 -RA \n BECMG 1111/1112 04007KT SCT030 BKN120"
"taf	RKSI	2018-06-10 18:00:00	TAF RKSI 101700Z 1018/1124 07009KT 8000 SCT030 BKN150 TN18/1020Z TX23/1105Z TN14/1121Z \n BECMG 1101/1102 34010KT \n TEMPO 1107/1110 4200 -SHRA FEW010 BKN030 BKN100 \n BECMG 1111/1112 04007KT"
"taf	RKSI	2018-06-10 22:00:00	TAF \n AMD TAF \n AMD RKSI 102200Z 1022/1124 07009KT 8000 SCT030 BKN150 TN18/1020Z TX23/1105Z TN14/1121Z \n TEMPO 1022/1024 4200 -SHRA FEW010 BKN025 BKN100 \n BECMG 1101/1102 34010KT \n TEMPO 1107/1110 4200 -SHRA FEW010 BKN030 BKN100 \n BECMG 1111/1112 04007KT"
"taf	RKSI	2018-06-11 00:00:00	TAF RKSI 112300Z 1200/1306 03006KT 9999 FEW010 SCT030 TX23/1205Z TN15/1221Z TX26/1305Z \n BECMG 1202/1203 30010KT \n BECMG 1210/1211 22006KT 4200 BR \n BECMG 1217/1218 13006KT 2500 FEW010 BKN030 \n TEMPO 1219/1221 1200 \n BECMG 1223/1224 22007KT 8000 NSW SCT030"
"taf	RKSI	2018-06-11 06:00:00	TAF RKSI 110500Z 1106/1212 35008KT 6000 -RA FEW010 BKN025 OVC080 TN15/1121Z TX23/1205Z \n BECMG 1111/1112 03007KT NSW \n BECMG 1121/1122 FEW010 SCT030 \n BECMG 1201/1202 29010KT \n BECMG 1211/1212 4200 BR FEW010 BKN030"
"taf	RKSI	2018-06-11 12:00:00	TAF RKSI 111100Z 1112/1218 02006KT 9999 FEW010 BKN025 OVC100 TN16/1121Z TX23/1205Z \n BECMG 1117/1118 FEW010 SCT030 \n BECMG 1200/1201 28010KT \n BECMG 1217/1218 22005KT 4200 BR FEW010 BKN030"
"taf	RKSI	2018-06-11 18:00:00	TAF RKSI 111700Z 1118/1224 04006KT 9999 FEW010 SCT030 TN16/1121Z TX23/1205Z TN15/1221Z \n BECMG 1202/1203 29010KT \n BECMG 1213/1214 22006KT \n BECMG 1216/1217 13006KT 4200 BR FEW010 BKN030 \n TEMPO 1219/1221 1200"
"taf	RKSI	2018-06-12 00:00:00	TAF RKSI 122300Z 1300/1406 18006KT CAVOK TX25/1305Z TN18/1318Z TX26/1405Z \n BECMG 1303/1304 28006KT \n BECMG 1311/1312 15006KT 6000 SCT030 BKN120 \n BECMG 1317/1318 06006KT FEW010 BKN030 OVC100 \n TEMPO 1319/1323 -RA \n BECMG 1400/1401 15008KT SCT030"
"taf	RKSI	2018-06-12 06:00:00	TAF RKSI 120500Z 1206/1312 29007KT CAVOK TN16/1221Z TX25/1305Z \n BECMG 1212/1213 17006KT 6000 NSC \n BECMG 1217/1218 4200 BR FEW010 SCT020 \n TEMPO 1220/1222 2800 \n BECMG 1222/1223 6000 NSW NSC \n TEMPO 1306/1310 29006KT CAVOK"
"taf	RKSI	2018-06-12 12:00:00	TAF RKSI 121100Z 1212/1318 16006KT CAVOK TN16/1221Z TX25/1305Z \n TEMPO 1212/1216 29006KT \n BECMG 1218/1219 4200 BR FEW010 SCT020 \n BECMG 1221/1222 6000 NSW \n TEMPO 1305/1310 29006KT CAVOK"
"taf	RKSI	2018-06-12 18:00:00	TAF RKSI 121700Z 1218/1324 18006KT CAVOK TN16/1219Z TX25/1305Z TN19/1316Z \n BECMG 1305/1306 28006KT \n BECMG 1310/1311 15006KT 6000 SCT030 BKN120 \n BECMG 1318/1319 06006KT FEW010 BKN030 OVC100 \n BECMG 1320/1321 4200 -RA"
"taf	RKSI	2018-06-13 06:00:00	TAF RKSI 130500Z 1306/1412 29005KT 6000 SCT030 BKN120 TN18/1319Z TX26/1405Z \n TEMPO 1306/1309 18007KT \n BECMG 1317/1318 15006KT FEW010 BKN030 OVC100 \n TEMPO 1319/1323 -RA \n BECMG 1400/1401 29006KT SCT030 \n TEMPO 1401/1408 16009KT"
"taf	RKSI	2018-06-13 07:40:00	TAF \n AMD RKSI 130640Z 1307/1412 29005KT 6000 SCT030 BKN120 TN18/1319Z TX26/1405Z \n TEMPO 1307/1310 24018G35KT \n BECMG 1317/1318 15006KT FEW010 BKN030 OVC100 \n TEMPO 1319/1323 -RA \n BECMG 1400/1401 29006KT SCT030 \n TEMPO 1401/1408 16009KT"
"taf	RKSI	2018-06-13 07:42:00	TAF \n AMD TAF \n AMD RKSI 130640Z 1307/1412 29005KT 6000 SCT030 BKN120 TN18/1319Z TX26/1405Z \n TEMPO 1307/1310 24018G35KT \n BECMG 1317/1318 15006KT FEW010 BKN030 OVC100 \n TEMPO 1319/1323 -RA \n BECMG 1400/1401 29006KT SCT030 \n TEMPO 1401/1408 16009KT"
"taf	RKSI	2018-06-13 08:25:00	TAF \n AMD RKSI 130825Z 1308/1412 29005KT 6000 SCT030 BKN150 TN18/1319Z TX26/1405Z \n TEMPO 1308/1310 24015G25KT \n BECMG 1317/1318 15006KT FEW010 BKN030 OVC100 \n TEMPO 1319/1323 -RA \n BECMG 1400/1401 29006KT SCT030 \n TEMPO 1401/1408 16009KT"
"taf	RKSI	2018-06-13 08:27:00	TAF \n AMD TAF \n AMD RKSI 130825Z 1308/1412 29005KT 6000 SCT030 BKN150 TN18/1319Z TX26/1405Z \n TEMPO 1308/1310 24015G25KT \n BECMG 1317/1318 15006KT FEW010 BKN030 OVC100 \n TEMPO 1319/1323 -RA \n BECMG 1400/1401 29006KT SCT030 \n TEMPO 1401/1408 16009KT"
"taf	RKSI	2018-06-13 12:00:00	TAF RKSI 131100Z 1312/1418 07005KT 6000 SCT030 BKN120 TN18/1319Z TX26/1405Z \n BECMG 1315/1316 FEW010 BKN025 OVC100 \n TEMPO 1317/1321 14005KT -RA \n BECMG 1322/1323 16011KT FEW010 SCT030 BKN120 \n BECMG 1417/1418 10007KT"
"taf	RKSI	2018-06-13 18:00:00	TAF RKSI 131700Z 1318/1424 09006KT 6000 FEW010 BKN025 OVC100 TN18/1319Z TX26/1405Z TN18/1420Z \n TEMPO 1319/1323 -RA \n BECMG 1400/1401 15011KT SCT030 BKN120 \n BECMG 1409/1410 06006KT \n BECMG 1416/1417 12009KT"
"taf	RKSI	2018-06-13 21:50:00	TAF \n AMD RKSI 132050Z 1321/1424 09006KT 6000 FEW010 BKN025 OVC100 TN18/1319Z TX26/1405Z TN18/1420Z \n TEMPO 1321/1323 2200 -RA \n BECMG 1400/1401 15011KT SCT030 BKN120 \n BECMG 1409/1410 06006KT \n BECMG 1416/1417 12009KT"
"taf	RKSI	2018-06-13 21:54:00	TAF \n AMD TAF \n AMD RKSI 132050Z 1321/1424 09006KT 6000 FEW010 BKN025 OVC100 TN18/1319Z TX26/1405Z TN18/1420Z \n TEMPO 1321/1323 2200 -RA \n BECMG 1400/1401 15011KT SCT030 BKN120 \n BECMG 1409/1410 06006KT \n BECMG 1416/1417 12009KT"
"taf	RKSI	2018-06-14 00:00:00	TAF RKSI 142300Z 1500/1606 13006KT 6000 SCT030 BKN150 TX26/1506Z TN16/1520Z TX26/1605Z \n TEMPO 1505/1510 29006KT \n BECMG 1511/1512 06006KT NSC \n BECMG 1521/1522 15006KT \n BECMG 1603/1604 28006KT"
"taf	RKSI	2018-06-14 06:00:00	TAF RKSI 140500Z 1406/1512 13007KT 6000 BKN030 OVC200 TN17/1421Z TX25/1506Z \n BECMG 1408/1409 06007KT SCT030 BKN200 \n BECMG 1413/1414 13010KT \n BECMG 1418/1419 BKN030 \n BECMG 1501/1502 06010KT SCT030"
"taf	RKSI	2018-06-14 12:00:00	TAF RKSI 141100Z 1412/1518 03007KT 4200 BR SCT030 BKN200 TN17/1412Z TX25/1506Z \n BECMG 1414/1415 13010KT \n BECMG 1418/1419 BKN030 \n BECMG 1422/1423 7000 NSW SCT030 \n BECMG 1505/1506 06010KT"
"taf	RKSI	2018-06-14 14:25:00	TAF \n AMD RKSI 141425Z 1414/1518 13010KT 4200 BR SCT030 BKN200 TN17/1420Z TX25/1506Z \n TEMPO 1415/1418 2800 -SHRA FEW010CB BKN020 OVC080 \n BECMG 1418/1419 BKN030 \n BECMG 1422/1423 7000 NSW SCT030 \n BECMG 1505/1506 06010KT"
"taf	RKSI	2018-06-14 14:27:00	TAF \n AMD TAF \n AMD RKSI 141425Z 1414/1518 13010KT 4200 BR SCT030 BKN200 TN17/1420Z TX25/1506Z \n TEMPO 1415/1418 2800 -SHRA FEW010CB BKN020 OVC080 \n BECMG 1418/1419 BKN030 \n BECMG 1422/1423 7000 NSW SCT030 \n BECMG 1505/1506 06010KT"
"taf	RKSI	2018-06-14 15:05:00	TAF \n AMD RKSI 141505Z 1415/1518 13010KT 4200 BR SCT030 BKN200 TN17/1420Z TX25/1506Z \n TEMPO 1415/1417 2800 -TSRA FEW010CB BKN020 OVC080 \n BECMG 1418/1419 BKN030 \n BECMG 1422/1423 7000 NSW SCT030 \n BECMG 1505/1506 06010KT"
"taf	RKSI	2018-06-14 15:06:00	TAF \n AMD TAF \n AMD RKSI 141505Z 1415/1518 13010KT 4200 BR SCT030 BKN200 TN17/1420Z TX25/1506Z \n TEMPO 1415/1417 2800 -TSRA FEW010CB BKN020 OVC080 \n BECMG 1418/1419 BKN030 \n BECMG 1422/1423 7000 NSW SCT030 \n BECMG 1505/1506 06010KT"
"taf	RKSI	2018-06-14 15:17:00	TAF \n AMD RKSI 141517Z 1415/1518 13010KT 4200 BR SCT030 BKN200 TN17/1420Z TX25/1506Z \n TEMPO 1415/1417 2800 -TSRA FEW010CB BKN020 OVC080 \n BECMG 1418/1419 BKN030 \n BECMG 1422/1423 7000 NSW SCT030 \n BECMG 1505/1506 06010KT"
"taf	RKSI	2018-06-14 15:21:00	TAF \n AMD TAF \n AMD RKSI 141517Z 1415/1518 13010KT 4200 BR SCT030 BKN200 TN17/1420Z TX25/1506Z \n TEMPO 1415/1417 2800 -TSRA FEW010CB BKN020 OVC080 \n BECMG 1418/1419 BKN030 \n BECMG 1422/1423 7000 NSW SCT030 \n BECMG 1505/1506 06010KT"
"taf	RKSI	2018-06-14 18:00:00	TAF RKSI 141700Z 1418/1524 14006KT 6000 FEW010 SCT030 OVC100 TN17/1421Z TX25/1506Z TN16/1521Z \n TEMPO 1418/1420 -SHRA FEW010CB BKN025 OVC080 \n TEMPO 1504/1510 29006KT \n BECMG 1511/1512 06006KT NSC \n BECMG 1521/1522 15006KT"
"taf	RKSI	2018-06-15 00:00:00	TAF RKSI 152300Z 1600/1706 15008KT 7000 NSC TX26/1606Z TN17/1621Z TX25/1705Z \n BECMG 1604/1605 30006KT FEW030 BKN150 \n BECMG 1614/1615 17006KT \n BECMG 1703/1704 30007KT"
"taf	RKSI	2018-06-15 06:00:00	TAF \n AMD RKSI 150600Z 1506/1612 29007KT 7000 FEW030 TN17/1521Z TX25/1606Z \n BECMG 1511/1512 06007KT \n BECMG 1523/1524 16007KT \n BECMG 1606/1607 30007KT"
"taf	RKSI	2018-06-15 06:03:00	TAF \n AMD TAF \n AMD RKSI 150600Z 1506/1612 29007KT 7000 FEW030 TN17/1521Z TX25/1606Z \n BECMG 1511/1512 06007KT \n BECMG 1523/1524 16007KT \n BECMG 1606/1607 30007KT"
"taf	RKSI	2018-06-15 12:00:00	TAF RKSI 151100Z 1512/1618 06007KT 7000 SCT030 TN17/1521Z TX25/1606Z \n BECMG 1515/1516 13007KT \n BECMG 1605/1606 30010KT"
"taf	RKSI	2018-06-15 18:00:00	TAF RKSI 151700Z 1518/1624 06007KT 7000 NSC TN16/1521Z TX26/1606Z TN17/1621Z \n BECMG 1522/1523 15007KT \n BECMG 1604/1605 30006KT FEW030 BKN150 \n BECMG 1614/1615 15006KT"
"taf	RKSI	2018-06-16 00:00:00	TAF RKSI 162300Z 1700/1806 31007KT CAVOK TX25/1706Z TN19/1721Z TX26/1806Z \n BECMG 1712/1713 24005KT \n BECMG 1720/1721 33007KT"
"taf	RKSI	2018-06-16 06:00:00	TAF RKSI 160500Z 1606/1712 30007KT 7000 FEW030 BKN150 TN17/1621Z TX25/1705Z \n BECMG 1615/1616 17006KT \n BECMG 1703/1704 30007KT \n BECMG 1710/1711 07006KT"
"taf	RKSI	2018-06-16 12:00:00	TAF RKSI 161100Z 1612/1718 30007KT 7000 FEW030 BKN150 TN17/1621Z TX25/1705Z \n BECMG 1616/1617 15006KT \n BECMG 1703/1704 30007KT \n BECMG 1710/1711 11006KT"
"taf	RKSI	2018-06-16 18:00:00	TAF RKSI 161700Z 1618/1724 26005KT 7000 NSC TN19/1621Z TX25/1706Z TN19/1721Z \n BECMG 1620/1621 20006KT \n BECMG 1623/1624 31007KT \n BECMG 1712/1713 24005KT \n BECMG 1720/1721 33005KT"
"taf	RKSI	2018-06-17 00:00:00	TAF RKSI 172300Z 1800/1906 30007KT CAVOK TX27/1806Z TN19/1821Z TX25/1906Z \n BECMG 1816/1817 24005KT 3500 BR FEW005 \n BECMG 1901/1902 27007KT 7000 NSW NSC"
"taf	RKSI	2018-06-17 06:00:00	TAF RKSI 170500Z 1706/1812 30007KT 7000 SCT030 BKN150 TN18/1721Z TX26/1806Z \n BECMG 1712/1713 24005KT \n BECMG 1721/1722 30007KT"
"taf	RKSI	2018-06-17 12:00:00	TAF RKSI 171100Z 1712/1818 30006KT 7000 SCT030 BKN150 TN18/1721Z TX26/1806Z \n BECMG 1715/1716 24005KT \n BECMG 1721/1722 30007KT \n BECMG 1815/1816 24005KT"
"taf	RKSI	2018-06-17 18:00:00	TAF RKSI 171700Z 1718/1824 32007KT CAVOK TN19/1721Z TX27/1806Z TN19/1821Z \n BECMG 1816/1817 25005KT 3500 BR FEW005 \n BECMG 1823/1824 31006KT 6000 NSW"
"taf	RKSI	2018-06-18 00:00:00	TAF RKSI 182300Z 1900/2006 19006KT 7000 SCT030 BKN180 TX25/1906Z TN18/1921Z TX25/2005Z \n BECMG 1903/1904 26007KT \n TEMPO 1917/1919 29005KT 4200 BR FEW010 BKN030 OVC100 \n BECMG 1920/1921 20006KT \n BECMG 2000/2001 30008KT"
"taf	RKSI	2018-06-18 06:00:00	TAF RKSI 180500Z 1806/1912 30007KT CAVOK TN18/1821Z TX25/1906Z \n BECMG 1816/1817 19005KT 6000 FEW010 \n BECMG 1901/1902 27007KT NSC \n BECMG 1911/1912 24006KT 4200 BR FEW010 BKN030"
"taf	RKSI	2018-06-18 12:00:00	TAF RKSI 181100Z 1812/1918 30006KT CAVOK TN18/1821Z TX25/1906Z \n BECMG 1816/1817 19005KT 6000 NSC \n BECMG 1903/1904 29007KT \n BECMG 1914/1915 16005KT \n TEMPO 1917/1918 25006KT 4200 -RA FEW010 BKN030 OVC100"
"taf	RKSI	2018-06-18 18:00:00	TAF RKSI 181700Z 1818/1924 19005KT 7000 NSC TN17/1821Z TX25/1906Z TN18/1921Z \n BECMG 1903/1904 28007KT \n TEMPO 1917/1918 25006KT 4200 -RA FEW010 BKN030 OVC100 \n BECMG 1920/1921 16006KT"
"taf	RKSI	2018-06-19 00:00:00	TAF RKSI 192300Z 2000/2106 30006KT 4200 BR FEW010 BKN030 TX24/2005Z TN17/2021Z TX24/2105Z \n BECMG 2002/2003 27010KT 7000 NSW FEW010 SCT030 \n TEMPO 2018/2019 32006KT 0800 FG BKN004 \n BECMG 2020/2021 20006KT 4200 BR \n BECMG 2100/2101 26010KT 7000 NSW"
"taf	RKSI	2018-06-19 06:00:00	TAF RKSI 190500Z 1906/2012 25007KT 6000 SCT030 BKN180 TN18/1921Z TX25/2005Z \n TEMPO 1916/1919 30005KT 4200 BR FEW010 BKN030 OVC100 \n BECMG 1921/1922 19006KT \n BECMG 1923/1924 30008KT CAVOK \n BECMG 2005/2006 29015G25KT \n BECMG 2010/2011 30010KT"
"taf	RKSI	2018-06-19 12:00:00	TAF RKSI 191100Z 1912/2018 27007KT 9999 SCT030 BKN180 TN18/1921Z TX24/2005Z \n BECMG 1918/1919 30006KT 4200 BR FEW010 BKN030 OVC100 \n BECMG 1921/1922 6000 NSW SCT030 \n BECMG 2005/2006 27015G25KT \n BECMG 2011/2012 29010KT \n BECMG 2017/2018 3500 BR"
"taf	RKSI	2018-06-19 18:00:00	TAF \n AMD TAF \n AMD RKSI 191755Z 1918/2024 32006KT 3500 BR FEW010 SCT030 BKN130 TN18/1921Z TX24/2005Z TN17/2021Z \n TEMPO 1918/1922 0400 FG BKN004 \n BECMG 2000/2001 29008KT 7000 NSW FEW010 SCT030 \n BECMG 2017/2018 32006KT 3500 BR \n BECMG 2021/2022 20006KT 7000 NSW"
"taf	RKSI	2018-06-19 18:55:00	TAF \n AMD RKSI 191755Z 1918/2024 32006KT 3500 BR FEW010 SCT030 BKN130 TN18/1921Z TX24/2005Z TN17/2021Z \n TEMPO 1918/1922 0400 FG BKN004 \n BECMG 2000/2001 29008KT 7000 NSW FEW010 SCT030 \n BECMG 2017/2018 32006KT 3500 BR \n BECMG 2021/2022 20006KT 7000 NSW"
"taf	RKSI	2018-06-20 06:00:00	TAF RKSI 200500Z 2006/2112 28010KT 7000 NSC TN17/2021Z TX24/2105Z \n BECMG 2015/2016 4200 BR FEW010 SCT030 \n TEMPO 2018/2020 20006KT 0800 FG VV004 \n BECMG 2020/2021 20006KT \n BECMG 2100/2101 26008KT 7000 NSW"
"taf	RKSI	2018-06-20 12:00:00	TAF RKSI 201100Z 2012/2118 28010KT 7000 NSC TN17/2021Z TX24/2105Z \n BECMG 2015/2016 4200 BR FEW010 SCT030 \n TEMPO 2018/2020 20006KT 0800 FG VV004 \n BECMG 2020/2021 20006KT \n BECMG 2100/2101 26008KT 7000 NSW \n BECMG 2116/2117 19006KT 4200 BR"
"taf	RKSI	2018-06-20 18:00:00	TAF RKSI 201700Z 2018/2124 29007KT 4200 BR FEW006 SCT030 TN17/2021Z TX24/2105Z TN18/2121Z \n TEMPO 2018/2020 32006KT 2500 \n BECMG 2021/2022 22006KT 6000 NSW NSC \n BECMG 2100/2101 28008KT CAVOK \n BECMG 2117/2118 25006KT 4200 BR FEW010 SCT030 \n BECMG 2120/2121 17005KT 6000 NSW"
"taf	RKSI	2018-06-21 00:00:00	TAF RKSI 212300Z 2200/2306 17006KT 6000 FEW030 TX26/2205Z TN19/2221Z TX25/2305Z \n BECMG 2205/2206 27006KT NSC \n BECMG 2213/2214 17005KT 3500 BR FEW010 BKN180 \n TEMPO 2215/2219 2500 \n BECMG 2221/2222 6000 NSW NSC \n BECMG 2302/2303 25006KT"
"taf	RKSI	2018-06-21 06:00:00	TAF RKSI 210500Z 2106/2212 27008KT 7000 SCT030 TN18/2121Z TX26/2205Z \n BECMG 2118/2119 24006KT 4200 BR \n BECMG 2120/2121 17006KT 6000 NSW \n BECMG 2205/2206 27006KT NSC"
"taf	RKSI	2018-06-21 12:00:00	TAF RKSI 211100Z 2112/2218 27006KT 7000 SCT030 TN18/2121Z TX26/2205Z \n BECMG 2118/2119 24006KT 4200 BR \n BECMG 2120/2121 17006KT 6000 NSW \n BECMG 2205/2206 27006KT NSC \n BECMG 2211/2212 18005KT"
"taf	RKSI	2018-06-21 15:25:00	TAF \n AMD RKSI 211525Z 2115/2218 29006KT 4200 BR SCT030 TN18/2121Z TX26/2205Z \n TEMPO 2115/2118 0400 FG BKN001 \n BECMG 2120/2121 17006KT 6000 NSW \n BECMG 2205/2206 27006KT NSC \n BECMG 2211/2212 18005KT"
"taf	RKSI	2018-06-21 15:27:00	TAF \n AMD TAF \n AMD RKSI 211525Z 2115/2218 29006KT 4200 BR SCT030 TN18/2121Z TX26/2205Z \n TEMPO 2115/2118 0400 FG BKN001 \n BECMG 2120/2121 17006KT 6000 NSW \n BECMG 2205/2206 27006KT NSC \n BECMG 2211/2212 18005KT"
"taf	RKSI	2018-06-21 15:40:00	TAF \n AMD RKSI 211440Z 2115/2218 29006KT 4200 BR SCT030 TN18/2121Z TX26/2205Z \n TEMPO 2115/2118 1200 BKN003 \n BECMG 2120/2121 17006KT 6000 NSW \n BECMG 2205/2206 27006KT NSC \n BECMG 2211/2212 18005KT"
"taf	RKSI	2018-06-21 15:42:00	TAF \n AMD TAF \n AMD RKSI 211440Z 2115/2218 29006KT 4200 BR SCT030 TN18/2121Z TX26/2205Z \n TEMPO 2115/2118 1200 BKN003 \n BECMG 2120/2121 17006KT 6000 NSW \n BECMG 2205/2206 27006KT NSC \n BECMG 2211/2212 18005KT"
"taf	RKSI	2018-06-21 18:00:00	TAF RKSI 211700Z 2118/2224 28005KT 3500 BR SCT030 TN18/2121Z TX26/2205Z TN19/2221Z \n TEMPO 2118/2120 1200 BKN004 \n BECMG 2122/2123 17006KT 6000 NSW \n BECMG 2205/2206 27006KT NSC \n BECMG 2214/2215 19005KT 4200 BR FEW010 BKN180 \n TEMPO 2216/2220 2800"
"taf	RKSI	2018-06-22 00:00:00	TAF RKSI 222300Z 2300/2406 23007KT 7000 NSC TX25/2306Z TN19/2321Z TX26/2405Z \n BECMG 2311/2312 16007KT 3500 BR \n BECMG 2322/2323 7000 NSW \n BECMG 2402/2403 23007KT"
"taf	RKSI	2018-06-22 06:00:00	TAF RKSI 220500Z 2206/2312 29007KT 7000 NSC TN20/2221Z TX25/2306Z \n BECMG 2212/2213 17005KT \n BECMG 2215/2216 3500 BR \n BECMG 2220/2221 7000 NSW \n BECMG 2302/2303 31007KT \n BECMG 2308/2309 27006KT 3500 BR SCT030 BKN150"
"taf	RKSI	2018-06-22 12:00:00	TAF RKSI 221100Z 2212/2318 33005KT CAVOK TN20/2221Z TX25/2306Z \n BECMG 2215/2216 17005KT \n BECMG 2302/2303 32007KT \n BECMG 2308/2309 29005KT 3500 BR SCT005 \n BECMG 2315/2316 2000"
"taf	RKSI	2018-06-22 18:00:00	TAF RKSI 221700Z 2218/2324 17005KT 7000 NSC TN19/2221Z TX25/2306Z TN19/2321Z \n BECMG 2301/2302 25007KT \n BECMG 2312/2313 16007KT 3500 BR \n BECMG 2316/2317 2000 \n BECMG 2321/2322 3500"
"taf	RKSI	2018-06-23 00:00:00	TAF RKSI 232300Z 2400/2506 16005KT 3200 BR FEW004 TX27/2406Z TN19/2421Z TX26/2505Z \n BECMG 2401/2402 25007KT 7000 NSW \n BECMG 2412/2413 16005KT 3500 BR \n TEMPO 2416/2419 1600 \n BECMG 2423/2424 7000 NSW"
"taf	RKSI	2018-06-23 06:00:00	TAF RKSI 230500Z 2306/2412 29007KT CAVOK TN19/2321Z TX26/2406Z \n BECMG 2310/2311 16005KT \n BECMG 2315/2316 3500 BR FEW005 \n TEMPO 2317/2322 2000 \n BECMG 2402/2403 29010KT 6000 NSW"
"taf	RKSI	2018-06-23 12:00:00	TAF \n AMD RKSI 231140Z 2312/2418 23005KT 0600 FG BKN002 TN19/2321Z TX26/2406Z \n BECMG 2321/2322 26005KT 2500 BR BKN025 \n BECMG 2402/2403 23007KT 6000 NSW NSC \n TEMPO 2405/2407 29007KT \n BECMG 2415/2416 20005KT 3500 BR FEW005"
"taf	RKSI	2018-06-23 12:22:00	TAF \n AMD RKSI 231122Z 2312/2418 23005KT 3500 BR FEW005 TN19/2321Z TX26/2406Z \n BECMG 2315/2316 29005KT 2000 \n TEMPO 2317/2322 26005KT 0800 FG BKN003 \n BECMG 2402/2403 23007KT 6000 NSW NSC \n TEMPO 2405/2407 29007KT \n BECMG 2415/2416 20005KT 3500 BR FEW005"
"taf	RKSI	2018-06-23 12:24:00	TAF \n AMD TAF \n AMD RKSI 231122Z 2312/2418 23005KT 3500 BR FEW005 TN19/2321Z TX26/2406Z \n BECMG 2315/2316 29005KT 2000 \n TEMPO 2317/2322 26005KT 0800 FG BKN003 \n BECMG 2402/2403 23007KT 6000 NSW NSC \n TEMPO 2405/2407 29007KT \n BECMG 2415/2416 20005KT 3500 BR FEW005"
"taf	RKSI	2018-06-23 12:40:00	TAF \n AMD RKSI 231140Z 2312/2418 23005KT 0600 FG BKN002 TN19/2321Z TX26/2406Z \n BECMG 2321/2322 26005KT 2500 BR BKN025 \n BECMG 2402/2403 23007KT 6000 NSW NSC \n TEMPO 2405/2407 29007KT \n BECMG 2415/2416 20005KT 3500 BR FEW005"
"taf	RKSI	2018-06-23 12:42:00	TAF \n AMD TAF \n AMD RKSI 231140Z 2312/2418 23005KT 0600 FG BKN002 TN19/2321Z TX26/2406Z \n BECMG 2321/2322 26005KT 2500 BR BKN025 \n BECMG 2402/2403 23007KT 6000 NSW NSC \n TEMPO 2405/2407 29007KT \n BECMG 2415/2416 20005KT 3500 BR FEW005"
"taf	RKSI	2018-06-23 13:06:00	TAF \n AMD TAF \n AMD RKSI 231310Z 2313/2418 23005KT 1600 BR FEW004 SCT020 TN19/2321Z TX26/2406Z \n TEMPO 2313/2322 0400 FG BKN002 \n BECMG 2323/2324 6000 NSW NSC \n TEMPO 2405/2407 29007KT \n BECMG 2415/2416 20005KT 3500 BR FEW005"
"taf	RKSI	2018-06-23 13:09:00	TAF COR TAF COR RKSI 231310Z 2313/2418 23005KT 1600 BR FEW004 SCT020 TN19/2321Z TX26/2406Z \n TEMPO 2313/2322 0400 FG BKN002 \n BECMG 2323/2324 6000 NSW NSC \n TEMPO 2405/2407 29007KT \n BECMG 2415/2416 20005KT 3500 BR FEW005"
"taf	RKSI	2018-06-23 13:10:00	TAF COR RKSI 231310Z 2313/2418 23005KT 1600 BR FEW004 SCT020 TN19/2321Z TX26/2406Z \n TEMPO 2313/2322 0400 FG BKN002 \n BECMG 2323/2324 6000 NSW NSC \n TEMPO 2405/2407 29007KT \n BECMG 2415/2416 20005KT 3500 BR FEW005"
"taf	RKSI	2018-06-23 13:40:00	TAF \n AMD RKSI 231240Z 2313/2418 23005KT 1200 BR FEW004 SCT020 TN19/2321Z TX26/2406Z \n TEMPO 2313/2322 0400 FG BKN002 \n BECMG 2323/2324 23007KT 6000 NSW NSC \n TEMPO 2405/2407 29007KT \n BECMG 2415/2416 20005KT 3500 BR FEW005"
"taf	RKSI	2018-06-23 13:42:00	TAF \n AMD TAF \n AMD RKSI 231240Z 2313/2418 23005KT 1200 BR FEW004 SCT020 TN19/2321Z TX26/2406Z \n TEMPO 2313/2322 0400 FG BKN002 \n BECMG 2323/2324 23007KT 6000 NSW NSC \n TEMPO 2405/2407 29007KT \n BECMG 2415/2416 20005KT 3500 BR FEW005"
"taf	RKSI	2018-06-23 18:00:00	TAF \n AMD RKSI 231730Z 2318/2424 27005KT 1600 BR SCT005 TN19/2321Z TX26/2406Z TN19/2421Z \n TEMPO 2318/2322 0400 FG BKN004 \n BECMG 2323/2324 16005KT 7000 NSW \n BECMG 2402/2403 25007KT \n BECMG 2412/2413 16005KT 3500 BR"
"taf	RKSI	2018-06-23 18:30:00	TAF \n AMD RKSI 231730Z 2318/2424 27005KT 1600 BR SCT005 TN19/2321Z TX26/2406Z TN19/2421Z \n TEMPO 2318/2322 0400 FG BKN004 \n BECMG 2323/2324 16005KT 7000 NSW \n BECMG 2402/2403 25007KT \n BECMG 2412/2413 16005KT 3500 BR"
"taf	RKSI	2018-06-23 18:36:00	TAF \n AMD TAF \n AMD RKSI 231730Z 2318/2424 27005KT 1600 BR SCT005 TN19/2321Z TX26/2406Z TN19/2421Z \n TEMPO 2318/2322 0400 FG BKN004 \n BECMG 2323/2324 16005KT 7000 NSW \n BECMG 2402/2403 25007KT \n BECMG 2412/2413 16005KT 3500 BR"
"taf	RKSI	2018-06-24 00:00:00	TAF RKSI 242300Z 2500/2606 15007KT 6000 FEW025 BKN180 TX28/2506Z TN20/2521Z TX24/2606Z \n BECMG 2502/2503 31007KT \n BECMG 2512/2513 17007KT \n BECMG 2518/2519 14010KT 3500 -RA SCT005 BKN020 OVC100 \n TEMPO 2601/2604 17012KT 2000 \n BECMG 2605/2606 23015G25KT"
"taf	RKSI	2018-06-24 06:00:00	TAF RKSI 240500Z 2406/2512 25008KT 7000 FEW010 SCT030 TN18/2421Z TX28/2505Z \n BECMG 2414/2415 16005KT 3500 BR \n TEMPO 2416/2419 1600 \n BECMG 2422/2423 20006KT 7000 NSW \n BECMG 2502/2503 30006KT"
"taf	RKSI	2018-06-24 12:00:00	TAF RKSI 241100Z 2412/2518 25008KT 7000 FEW010 SCT030 TN18/2421Z TX28/2505Z \n BECMG 2414/2415 16005KT 3500 BR \n TEMPO 2416/2419 1600 \n BECMG 2422/2423 20006KT 7000 NSW \n BECMG 2502/2503 30006KT \n BECMG 2515/2516 16006KT 4200 BR"
"taf	RKSI	2018-06-24 18:00:00	TAF RKSI 241700Z 2418/2524 16005KT 6000 FEW005 BKN180 TN19/2421Z TX28/2506Z TN20/2521Z \n BECMG 2502/2503 31007KT \n BECMG 2512/2513 15005KT \n BECMG 2518/2519 18008KT 3500 -RA FEW006 BKN025 OVC100"
"taf	RKSI	2018-06-24 20:36:00	TAF \n AMD RKSI 241936Z 2420/2524 16005KT 1000 BR BKN005 BKN180 TN19/2421Z TX28/2506Z TN20/2521Z \n TEMPO 2421/2423 0700 FG \n BECMG 2500/2501 3500 \n BECMG 2502/2503 31007KT 6000 NSW NSC \n BECMG 2512/2513 15005KT \n BECMG 2518/2519 18008KT 3500 -RA FEW006 BKN025 OVC100"
"taf	RKSI	2018-06-24 20:39:00	TAF \n AMD TAF \n AMD RKSI 241936Z 2420/2524 16005KT 1000 BR BKN005 BKN180 TN19/2421Z TX28/2506Z TN20/2521Z \n TEMPO 2421/2423 0700 FG \n BECMG 2500/2501 3500 \n BECMG 2502/2503 31007KT 6000 NSW NSC \n BECMG 2512/2513 15005KT \n BECMG 2518/2519 18008KT 3500 -RA FEW006 BKN025 OVC100"
"taf	RKSI	2018-06-24 20:50:00	TAF \n AMD RKSI 241950Z 2420/2524 16005KT 0600 FG BKN005 BKN180 TN19/2421Z TX28/2506Z TN20/2521Z \n TEMPO 2420/2423 0400 \n BECMG 2500/2501 3500 BR \n BECMG 2502/2503 31007KT 6000 NSW NSC \n BECMG 2512/2513 15005KT \n BECMG 2518/2519 18008KT 3500 -RA FEW006 BKN025 OVC100"
"taf	RKSI	2018-06-24 20:54:00	TAF \n AMD TAF \n AMD RKSI 241950Z 2420/2524 16005KT 0600 FG BKN005 BKN180 TN19/2421Z TX28/2506Z TN20/2521Z \n TEMPO 2420/2423 0400 \n BECMG 2500/2501 3500 BR \n BECMG 2502/2503 31007KT 6000 NSW NSC \n BECMG 2512/2513 15005KT \n BECMG 2518/2519 18008KT 3500 -RA FEW006 BKN025 OVC100"
"taf	RKSI	2018-06-25 00:00:00	TAF RKSI 252300Z 2600/2706 13012KT 1600 -TSRA SCT005CB BKN020 OVC080 TX23/2604Z TN20/2621Z TX25/2706Z \n BECMG 2602/2603 16012KT 1000 +RA SCT005 BKN025 OVC080 \n BECMG 2604/2605 19025G35KT 2000 RA \n BECMG 2615/2616 22015G25KT 3500 -RA \n BECMG 2618/2619 25012KT 2500 BR \n BECMG 2621/2622 31008KT 3500"
"taf	RKSI	2018-06-25 06:00:00	TAF RKSI 250500Z 2506/2612 31007KT 6000 FEW010 SCT025 BKN180 TN20/2521Z TX22/2604Z \n BECMG 2512/2513 17007KT \n BECMG 2518/2519 14010KT 3500 -RA FEW010 BKN020 OVC080 \n TEMPO 2603/2607 18015G25KT 2000 RA \n BECMG 2608/2609 24017G30KT"
"taf	RKSI	2018-06-25 12:00:00	TAF RKSI 251100Z 2512/2618 17007KT 7000 FEW010 SCT025 BKN180 TN20/2521Z TX22/2604Z \n BECMG 2518/2519 14010KT 3500 -RA FEW010 BKN020 OVC080 \n TEMPO 2601/2604 18015G25KT 2000 RA \n BECMG 2605/2606 24017G30KT 2500 \n BECMG 2615/2616 30013KT BR"
"taf	RKSI	2018-06-25 18:00:00	TAF RKSI 251700Z 2518/2624 21010KT 3500 -RA SCT005 BKN025 OVC080 TN20/2521Z TX23/2604Z TN20/2621Z \n BECMG 2520/2521 15010KT 2000 \n BECMG 2602/2603 17015G25KT \n TEMPO 2605/2610 17025G35KT 1400 RA \n BECMG 2615/2616 23012KT 3500 BR \n BECMG 2617/2618 29010KT"
"taf	RKSI	2018-06-26 00:00:00	TAF RKSI 262300Z 2700/2806 23007KT 7000 FEW010 SCT030 BKN180 TX25/2706Z TN21/2721Z TX26/2805Z \n BECMG 2713/2714 17006KT 3500 BR \n TEMPO 2719/2722 0800 FG SCT005 BKN020 \n BECMG 2722/2723 23006KT 7000 NSW"
"taf	RKSI	2018-06-26 06:00:00	TAF RKSI 260500Z 2606/2712 18022G35KT 3500 -RA SCT010 BKN025 OVC080 TN20/2621Z TX25/2706Z \n TEMPO 2606/2609 2500 \n BECMG 2611/2612 22015G25KT \n BECMG 2614/2615 26009KT 2500 BR \n BECMG 2620/2621 32008KT 3500 \n BECMG 2700/2701 24008KT 6000 NSW FEW015 SCT030 BKN180"
"taf	RKSI	2018-06-26 12:00:00	TAF RKSI 261100Z 2612/2718 23015G25KT 3500 BR SCT005 BKN025 OVC080 TN20/2621Z TX25/2706Z \n TEMPO 2612/2613 2500 -RA \n BECMG 2614/2615 26010KT 2500 \n BECMG 2621/2622 32008KT 3500 \n BECMG 2700/2701 24008KT 6000 NSW FEW015 SCT030 BKN180 \n BECMG 2713/2714 33007KT 4200 BR"
"taf	RKSI	2018-06-26 18:00:00	TAF RKSI 261700Z 2618/2724 26010KT 3500 BR SCT005 BKN025 OVC080 TN18/2621Z TX25/2706Z TN21/2721Z \n TEMPO 2618/2620 0800 FG \n BECMG 2700/2701 23008KT 7000 NSW FEW010 SCT030 BKN180 \n BECMG 2713/2714 17006KT 3500 BR \n TEMPO 2719/2722 1200 \n BECMG 2722/2723 23006KT 7000 NSW"
"taf	RKSI	2018-06-27 00:00:00	TAF RKSI 272300Z 2800/2906 13006KT 7000 FEW010 SCT025 BKN120 TX26/2805Z TN20/2821Z TX26/2905Z \n BECMG 2804/2805 23010KT \n BECMG 2810/2811 18006KT 3500 -RA SCT005 BKN025 BKN120 \n BECMG 2814/2815 15005KT 1800 \n BECMG 2816/2817 3200 BR \n BECMG 2822/2823 26008KT 7000 NSW FEW010 SCT025"
"taf	RKSI	2018-06-27 06:00:00	TAF RKSI 270500Z 2706/2812 23007KT 6000 FEW010 SCT030 BKN180 TN21/2721Z TX25/2805Z \n BECMG 2712/2713 17006KT 3500 BR \n TEMPO 2717/2720 0800 FG SCT005 BKN020 \n BECMG 2721/2722 23006KT 6000 NSW FEW010 BKN030 \n TEMPO 2809/2810 16008KT 3500 -RA"
"taf	RKSI	2018-06-27 10:10:00	TAF \n AMD RKSI 271010Z 2710/2812 23007KT 2500 BR FEW010 BKN030 BKN120 TN21/2721Z TX25/2805Z \n TEMPO 2710/2714 17006KT 1200 \n TEMPO 2717/2720 0800 FG SCT005 BKN020 \n BECMG 2721/2722 23006KT 6000 NSW FEW010 BKN030 \n TEMPO 2809/2810 16008KT 3500 -RA"
"taf	RKSI	2018-06-27 10:15:00	TAF \n AMD TAF \n AMD RKSI 271010Z 2710/2812 23007KT 2500 BR FEW010 BKN030 BKN120 TN21/2721Z TX25/2805Z \n TEMPO 2710/2714 17006KT 1200 \n TEMPO 2717/2720 0800 FG SCT005 BKN020 \n BECMG 2721/2722 23006KT 6000 NSW FEW010 BKN030 \n TEMPO 2809/2810 16008KT 3500 -RA"
"taf	RKSI	2018-06-27 10:29:00	TAF \n AMD RKSI 271029Z 2710/2812 23007KT 1200 BR FEW010 BKN030 BKN120 TN21/2721Z TX25/2805Z \n TEMPO 2710/2715 17006KT 0400 FG SCT002 BKN020 \n BECMG 2717/2718 17006KT 2200 \n BECMG 2721/2722 23006KT 6000 NSW FEW010 BKN030 \n TEMPO 2809/2810 16008KT 3500 -RA"
"taf	RKSI	2018-06-27 10:36:00	TAF \n AMD TAF \n AMD RKSI 271029Z 2710/2812 23007KT 1200 BR FEW010 BKN030 BKN120 TN21/2721Z TX25/2805Z \n TEMPO 2710/2715 17006KT 0400 FG SCT002 BKN020 \n BECMG 2717/2718 17006KT 2200 \n BECMG 2721/2722 23006KT 6000 NSW FEW010 BKN030 \n TEMPO 2809/2810 16008KT 3500 -RA"
"taf	RKSI	2018-06-27 12:00:00	TAF RKSI 271100Z 2712/2818 20006KT 2200 BR SCT005 BKN025 BKN120 TN21/2721Z TX25/2805Z \n TEMPO 2719/2721 17006KT 0800 FG \n BECMG 2723/2724 23006KT 6000 NSW \n BECMG 2810/2811 18008KT 3500 -RA \n BECMG 2814/2815 1800 \n BECMG 2817/2818 15005KT 3200 BR"
"taf	RKSI	2018-06-27 12:15:00	TAF RKSI 271100Z 2712/2818 20006KT 2200 BR SCT005 BKN025 BKN120 TN21/2721Z TX25/2805Z \n TEMPO 2719/2721 17006KT 0800 FG \n BECMG 2723/2724 23006KT 6000 NSW \n BECMG 2810/2811 18008KT 3500 -RA \n BECMG 2814/2815 1800 \n BECMG 2817/2818 15005KT 3200 BR"
"taf	RKSI	2018-06-27 18:00:00	TAF RKSI 271700Z 2718/2824 13006KT 2500 BR SCT005 BKN025 BKN120 TN20/2721Z TX26/2805Z TN20/2821Z \n TEMPO 2719/2721 17006KT 0800 FG \n BECMG 2723/2724 23006KT 6000 NSW FEW010 SCT025 BKN120 \n BECMG 2810/2811 18008KT 3500 -RA SCT005 BKN025 BKN100 \n BECMG 2814/2815 1800 \n BECMG 2816/2817 15005KT 3200 BR"
"taf	RKSI	2018-06-28 00:00:00	TAF RKSI 282300Z 2900/3006 23005KT 6000 FEW010 BKN025 TX26/2905Z TN20/2921Z TX26/3005Z \n BECMG 2901/2902 FEW012 SCT030 \n BECMG 2903/2904 29006KT \n BECMG 2915/2916 16005KT 3500 BR FEW010 BKN030 OVC100 \n BECMG 2923/2924 12006KT 6000 NSW \n BECMG 3003/3004 17006KT 4200 -RA"
"taf	RKSI	2018-06-28 06:00:00	TAF RKSI 280500Z 2806/2912 22006KT 3500 BR FEW007 SCT025 BKN120 TN20/2821Z TX26/2905Z \n BECMG 2812/2813 18006KT -RA FEW006 BKN025 BKN120 \n BECMG 2815/2816 15005KT 1800 BR \n BECMG 2817/2818 3200 \n TEMPO 2819/2821 1800 \n BECMG 2822/2823 26007KT 7000 NSW FEW010 SCT025"
"taf	RKSI	2018-06-28 07:15:00	TAF \n AMD RKSI 280715Z 2807/2912 16006KT 3500 BR FEW003 SCT025 BKN120 TN20/2821Z TX26/2905Z \n TEMPO 2807/2810 20007KT 2200 -RA SCT002 BKN025 BKN120 \n BECMG 2811/2812 1800 -RA SCT005 BKN025 OVC100 \n BECMG 2814/2815 3200 BR \n TEMPO 2819/2821 1800 \n BECMG 2822/2823 26007KT 7000 NSW FEW010 SCT025"
"taf	RKSI	2018-06-28 07:18:00	TAF \n AMD TAF \n AMD RKSI 280715Z 2807/2912 16006KT 3500 BR FEW003 SCT025 BKN120 TN20/2821Z TX26/2905Z \n TEMPO 2807/2810 20007KT 2200 -RA SCT002 BKN025 BKN120 \n BECMG 2811/2812 1800 -RA SCT005 BKN025 OVC100 \n BECMG 2814/2815 3200 BR \n TEMPO 2819/2821 1800 \n BECMG 2822/2823 26007KT 7000 NSW FEW010 SCT025"
"taf	RKSI	2018-06-28 08:12:00	TAF \n AMD RKSI 280815Z 2808/2912 16006KT 3500 BR FEW003 SCT025 BKN120 TN20/2821Z TX26/2905Z \n TEMPO 2808/2810 25007KT 1200 -RA SCT002 BKN025 BKN120 \n BECMG 2811/2812 1800 -RA SCT005 BKN025 OVC100 \n BECMG 2814/2815 3200 BR \n TEMPO 2819/2821 1800 \n BECMG 2822/2823 26007KT 7000 NSW FEW010 SCT025"
"taf	RKSI	2018-06-28 08:15:00	TAF \n AMD RKSI 280815Z 2808/2912 16006KT 3500 BR FEW003 SCT025 BKN120 TN20/2821Z TX26/2905Z \n TEMPO 2808/2810 25007KT 1200 -RA SCT002 BKN025 BKN120 \n BECMG 2811/2812 1800 -RA SCT005 BKN025 OVC100 \n BECMG 2814/2815 3200 BR \n TEMPO 2819/2821 1800 \n BECMG 2822/2823 26007KT 7000 NSW FEW010 SCT025"
"taf	RKSI	2018-06-28 08:16:00	TAF \n AMD RKSI 280816Z 2808/2912 16006KT 3500 BR FEW003 SCT025 BKN120 TN20/2821Z TX26/2905Z \n TEMPO 2808/2810 25007KT 1200 -RA SCT002 BKN025 BKN120 \n BECMG 2811/2812 1800 -RA SCT005 BKN025 OVC100 \n BECMG 2814/2815 3200 BR \n TEMPO 2819/2821 1800 \n BECMG 2822/2823 26007KT 7000 NSW FEW010 SCT025"
"taf	RKSI	2018-06-28 12:00:00	TAF RKSI 281100Z 2812/2918 15006KT 3200 BR FEW007 BKN025 BKN120 TN19/2821Z TX26/2905Z \n TEMPO 2812/2814 2200 -RA \n TEMPO 2815/2821 1800 \n BECMG 2822/2823 18006KT 7000 NSW FEW010 SCT030 \n BECMG 2904/2905 29006KT \n BECMG 2916/2917 4200 BR"
"taf	RKSI	2018-06-28 16:20:00	TAF \n AMD RKSI 281620Z 2816/2918 15006KT 2500 BR FEW007 BKN025 BKN120 TN19/2821Z TX26/2905Z \n TEMPO 2816/2821 0400 FG BKN001 \n BECMG 2822/2823 18006KT 7000 NSW FEW010 SCT030 \n BECMG 2904/2905 29006KT \n BECMG 2916/2917 4200 BR"
"taf	RKSI	2018-06-28 16:24:00	TAF \n AMD TAF \n AMD RKSI 281620Z 2816/2918 15006KT 2500 BR FEW007 BKN025 BKN120 TN19/2821Z TX26/2905Z \n TEMPO 2816/2821 0400 FG BKN001 \n BECMG 2822/2823 18006KT 7000 NSW FEW010 SCT030 \n BECMG 2904/2905 29006KT \n BECMG 2916/2917 4200 BR"
"taf	RKSI	2018-06-28 18:00:00	TAF RKSI 281700Z 2818/2924 15005KT 3500 BR FEW006 BKN025 OVC100 TN20/2821Z TX26/2905Z TN20/2921Z \n TEMPO 2818/2821 1800 \n BECMG 2822/2823 20006KT 6000 NSW FEW010 SCT030 \n BECMG 2904/2905 29006KT \n BECMG 2916/2917 16005KT 3500 BR \n BECMG 2923/2924 12006KT 6000 NSW FEW010 BKN030 BKN150"
"taf	RKSI	2018-06-29 06:00:00	TAF RKSI 290500Z 2906/3012 26006KT 9999 FEW010 SCT025 TN20/2921Z TX26/3005Z \n BECMG 2916/2917 16005KT 3500 BR FEW010 BKN025 OVC100 \n BECMG 2921/2922 13006KT 6000 NSW \n BECMG 3002/3003 16006KT 4200 -RA \n TEMPO 3005/3008 BR \n BECMG 3009/3010 BR"
"taf	RKSI	2018-06-29 10:10:00	TAF \n AMD RKSI 291010Z 2910/3012 16005KT 6000 FEW003 BKN025 OVC100 TN20/2921Z TX26/3005Z \n TEMPO 2910/2913 28006KT 2500 BR SCT002 BKN020 \n BECMG 2921/2922 13006KT 6000 NSW \n BECMG 3002/3003 16006KT 4200 -RA \n TEMPO 3005/3008 BR \n BECMG 3009/3010 BR"
"taf	RKSI	2018-06-29 10:12:00	TAF \n AMD TAF \n AMD RKSI 291010Z 2910/3012 16005KT 6000 FEW003 BKN025 OVC100 TN20/2921Z TX26/3005Z \n TEMPO 2910/2913 28006KT 2500 BR SCT002 BKN020 \n BECMG 2921/2922 13006KT 6000 NSW \n BECMG 3002/3003 16006KT 4200 -RA \n TEMPO 3005/3008 BR \n BECMG 3009/3010 BR"
"taf	RKSI	2018-06-29 12:00:00	TAF RKSI 291100Z 2912/3018 16006KT 6000 SCT025 TN19/2921Z TX26/3005Z \n TEMPO 2912/2916 28006KT 0800 FG BKN002 \n BECMG 2916/2917 4200 BR FEW003 BKN020 OVC080 \n BECMG 2921/2922 6000 NSW \n TEMPO 3006/3009 -RA \n BECMG 3009/3010 3500 -RA"
"taf	RKSI	2018-06-29 14:20:00	TAF \n AMD RKSI 291420Z 2914/3018 16006KT 6000 SCT025 TN19/2921Z TX26/3005Z \n TEMPO 2914/2917 28006KT 0400 FG BKN002 \n BECMG 2917/2918 4200 BR FEW003 BKN020 OVC080 \n BECMG 2921/2922 6000 NSW \n TEMPO 3006/3009 -RA \n BECMG 3009/3010 3500 -RA"
"taf	RKSI	2018-06-29 14:24:00	TAF \n AMD TAF \n AMD RKSI 291420Z 2914/3018 16006KT 6000 SCT025 TN19/2921Z TX26/3005Z \n TEMPO 2914/2917 28006KT 0400 FG BKN002 \n BECMG 2917/2918 4200 BR FEW003 BKN020 OVC080 \n BECMG 2921/2922 6000 NSW \n TEMPO 3006/3009 -RA \n BECMG 3009/3010 3500 -RA"
"taf	RKSI	2018-06-29 18:00:00	TAF RKSI 291700Z 2918/3024 16006KT 2800 BR FEW003 BKN020 OVC080 TN18/2921Z TX26/3005Z TN21/3021Z \n TEMPO 2918/2921 30005KT 0400 FG BKN002 BKN025 \n BECMG 2922/2923 6000 NSW \n TEMPO 3006/3009 -RA \n BECMG 3009/3010 13007KT 3500 -RA \n BECMG 3018/3019 RA"
"taf	RKSI	2018-06-30 00:00:00	TAF RKSI 302300Z 0100/0206 12007KT 6000 -RA FEW005 BKN020 OVC080 TX25/0106Z TN22/0121Z TX26/0205Z \n TEMPO 0103/0108 15007KT 3500 RA \n BECMG 0108/0109 15007KT 4200 \n BECMG 0113/0114 RA \n BECMG 0121/0122 18007KT 6000"
"taf	RKSI	2018-06-30 06:00:00	TAF RKSI 300500Z 3006/0112 29007KT 6000 SCT030 BKN110 BKN180 TN21/3021Z TX25/0106Z \n TEMPO 3009/3012 17007KT 2500 -RA \n BECMG 3013/3014 17007KT 2500 -RA SCT005 BKN020 OVC080 \n BECMG 3019/3020 13008KT 1400 RA \n BECMG 0104/0105 17012KT +RA \n BECMG 0110/0111 20015G25KT 2000 RA"
"taf	RKSI	2018-06-30 12:00:00	TAF RKSI 301100Z 3012/0118 16007KT 6000 BKN025 OVC100 TN21/3021Z TX25/0106Z \n TEMPO 3012/3015 13007KT 4200 -RA \n BECMG 3016/3017 10008KT 3500 -RA SCT005 BKN020 OVC080 \n BECMG 3021/3022 2000 RA \n BECMG 0104/0105 17015G25KT 1400 +RA \n BECMG 0111/0112 2000 RA"
"taf	RKSI	2018-06-30 18:00:00	TAF RKSI 301700Z 3018/0124 10006KT 6000 -RA FEW005 BKN020 OVC080 TN22/3021Z TX25/0106Z TN22/0121Z \n BECMG 3020/3021 15007KT 4200 \n BECMG 0103/0104 2800 RA \n BECMG 0108/0109 6000 -RA \n BECMG 0113/0114 4200 RA \n TEMPO 0120/0124 19008KT 6000"
"taf	RKSI	2018-07-01 00:00:00	TAF RKSI 012300Z 0200/0306 15009KT 6000 -RA FEW004 BKN025 OVC080 TX26/0206Z TN22/0221Z TX30/0306Z \n TEMPO 0209/0211 4200 RA \n BECMG 0214/0215 07007KT NSW \n BECMG 0222/0223 36010KT FEW010 SCT030 BKN120 \n TEMPO 0300/0306 06010KT"
"taf	RKSI	2018-07-01 06:00:00	TAF RKSI 010500Z 0106/0212 13015G25KT 6000 RA SCT005 BKN030 OVC090 TN21/0121Z TX26/0206Z \n BECMG 0108/0109 15012KT 3500 \n BECMG 0111/0112 18015G25KT \n BECMG 0115/0116 21010KT 1200 +RA \n BECMG 0200/0201 18015G25KT 3500 RA \n BECMG 0202/0203 15010KT 6000 -RA"
"taf	RKSI	2018-07-01 12:00:00	TAF RKSI 011100Z 0112/0218 16015G25KT 6000 RA SCT004 BKN025 OVC080 TN21/0121Z TX26/0206Z \n BECMG 0115/0116 13012KT 3500 \n BECMG 0202/0203 10010KT 6000 -RA \n BECMG 0211/0212 07008KT 3500 RA \n BECMG 0215/0216 04007KT 6000 -RA \n BECMG 0217/0218 01006KT 4200 BR"
"taf	RKSI	2018-07-01 18:00:00	TAF RKSI 011700Z 0118/0224 17008KT 4200 -RA FEW004 BKN025 OVC080 TN20/0121Z TX26/0206Z TN22/0221Z \n TEMPO 0118/0201 14010KT 6000 RA \n BECMG 0202/0203 14007KT 6000 \n TEMPO 0209/0211 4200 RA \n BECMG 0214/0215 05007KT NSW \n BECMG 0222/0223 FEW010 SCT030 BKN120"
"taf	RKSI	2018-07-01 22:54:00	TAF \n AMD TAF \n AMD RKSI 012155Z 0122/0224 14010KT 6000 -RA FEW004 BKN025 OVC080 TN21/0123Z TX26/0206Z TN22/0221Z \n TEMPO 0122/0224 2800 RA \n TEMPO 0209/0211 4200 RA \n BECMG 0214/0215 05007KT NSW \n BECMG 0222/0223 FEW010 SCT030 BKN120"
"taf	RKSI	2018-07-01 22:55:00	TAF \n AMD RKSI 012155Z 0122/0224 14010KT 6000 -RA FEW004 BKN025 OVC080 TN21/0123Z TX26/0206Z TN22/0221Z \n TEMPO 0122/0224 2800 RA \n TEMPO 0209/0211 4200 RA \n BECMG 0214/0215 05007KT NSW \n BECMG 0222/0223 FEW010 SCT030 BKN120"
"taf	RKSI	2018-07-02 00:00:00	TAF RKSI 022300Z 0300/0406 05008KT 9999 SCT030 BKN180 TX30/0306Z TN23/0321Z TX28/0406Z \n BECMG 0303/0304 35010KT \n BECMG 0318/0319 29008KT"
"taf	RKSI	2018-07-02 06:00:00	TAF RKSI 020500Z 0206/0312 23010KT 7000 -RA FEW004 BKN025 OVC080 TN22/0221Z TX30/0306Z \n TEMPO 0209/0211 16006KT 4200 \n BECMG 0216/0217 07006KT 4200 BR \n BECMG 0222/0223 7000 NSW FEW010 SCT030 BKN120 \n BECMG 0307/0308 01008KT"
"taf	RKSI	2018-07-02 09:30:00	TAF \n AMD RKSI 020930Z 0209/0312 23010KT 7000 FEW004 SCT025 OVC080 TN22/0221Z TX30/0306Z \n TEMPO 0211/0213 16006KT 4200 -TSRA FEW004 BKN020CB OVC080 \n BECMG 0213/0214 4200 -RA FEW004 BKN025 OVC080 \n BECMG 0216/0217 07006KT BR \n BECMG 0222/0223 7000 NSW FEW010 SCT030 BKN120 \n BECMG 0307/0308 01008KT"
"taf	RKSI	2018-07-02 09:33:00	TAF \n AMD TAF \n AMD RKSI 020930Z 0209/0312 23010KT 7000 FEW004 SCT025 OVC080 TN22/0221Z TX30/0306Z \n TEMPO 0211/0213 16006KT 4200 -TSRA FEW004 BKN020CB OVC080 \n BECMG 0213/0214 4200 -RA FEW004 BKN025 OVC080 \n BECMG 0216/0217 07006KT BR \n BECMG 0222/0223 7000 NSW FEW010 SCT030 BKN120 \n BECMG 0307/0308 01008KT"
"taf	RKSI	2018-07-02 12:00:00	TAF RKSI 021100Z 0212/0318 16006KT 4200 -TSRA FEW004 BKN020CB OVC080 TN22/0221Z TX30/0306Z \n BECMG 0213/0214 -RA FEW004 BKN025 OVC080 \n BECMG 0216/0217 06006KT BR \n BECMG 0222/0223 7000 NSW FEW010 SCT030 BKN120 \n BECMG 0308/0309 36010KT"
"taf	RKSI	2018-07-02 18:00:00	TAF RKSI 021700Z 0218/0324 12005KT 4200 BR FEW004 BKN035 BKN080 TN22/0221Z TX30/0306Z TN23/0321Z \n TEMPO 0218/0219 -RA \n BECMG 0221/0222 07006KT 7000 NSW SCT030 BKN180 \n BECMG 0302/0303 35007KT"
"taf	RKSI	2018-07-03 00:00:00	TAF RKSI 032300Z 0400/0506 29008KT 9999 SCT030 BKN180 TX28/0406Z TN21/0421Z TX27/0506Z \n BECMG 0411/0412 23006KT 3500 BR \n BECMG 0422/0423 16007KT 6000 NSW \n BECMG 0502/0503 33008KT \n TEMPO 0505/0506 -SHRA FEW010 BKN020 BKN120"
"taf	RKSI	2018-07-03 06:00:00	TAF RKSI 030500Z 0306/0412 35010KT 8000 SCT030 BKN180 TN23/0321Z TX28/0406Z \n BECMG 0403/0404 29008KT \n BECMG 0410/0411 23006KT"
"taf	RKSI	2018-07-03 12:00:00	TAF RKSI 031100Z 0312/0418 36007KT 8000 SCT030 BKN180 TN23/0321Z TX28/0406Z \n BECMG 0403/0404 29010KT \n BECMG 0410/0411 23006KT \n BECMG 0416/0417 4200 BR"
"taf	RKSI	2018-07-03 18:00:00	TAF RKSI 031700Z 0318/0424 35005KT 9999 SCT030 BKN180 TN24/0321Z TX28/0406Z TN21/0421Z \n BECMG 0401/0402 29010KT \n BECMG 0411/0412 23006KT 3500 BR \n BECMG 0422/0423 16007KT 6000 NSW"
"taf	RKSI	2018-07-04 00:00:00	TAF RKSI 042300Z 0500/0606 15005KT 7000 SCT030 BKN180 TX28/0506Z TN20/0520Z TX26/0605Z \n BECMG 0503/0504 32007KT \n BECMG 0510/0511 06010KT \n TEMPO 0514/0516 FEW010 BKN030 BKN150"
"taf	RKSI	2018-07-04 06:00:00	TAF RKSI 040500Z 0406/0512 23007KT 9999 FEW030 BKN180 TN21/0421Z TX29/0506Z \n BECMG 0417/0418 16005KT 4200 BR \n BECMG 0421/0422 7000 NSW \n BECMG 0507/0508 06007KT"
"taf	RKSI	2018-07-04 12:00:00	TAF RKSI 041100Z 0412/0518 23007KT 9999 FEW030 BKN180 TN21/0421Z TX29/0506Z \n BECMG 0417/0418 16005KT 4200 BR \n BECMG 0421/0422 7000 NSW \n BECMG 0507/0508 06010KT"
"taf	RKSI	2018-07-04 18:00:00	TAF RKSI 041700Z 0418/0524 15005KT 7000 FEW010 SCT030 BKN150 TN21/0421Z TX28/0506Z TN20/0520Z \n TEMPO 0419/0421 4200 BR \n BECMG 0503/0504 32007KT \n BECMG 0510/0511 07010KT \n TEMPO 0514/0516 FEW010 BKN025 BKN150"
"taf	RKSI	2018-07-05 00:00:00	TAF RKSI 052300Z 0600/0706 06013KT 9999 SCT030 BKN180 TX27/0605Z TN17/0621Z TX27/0705Z \n BECMG 0606/0607 07015G25KT \n BECMG 0613/0614 06010KT"
"taf	RKSI	2018-07-05 06:00:00	TAF RKSI 050500Z 0506/0612 32007KT 9999 SCT030 BKN180 TN20/0520Z TX27/0605Z \n BECMG 0510/0511 06010KT \n TEMPO 0516/0518 FEW010 BKN030 BKN150 \n BECMG 0605/0606 06015G25KT \n BECMG 0611/0612 06010KT"
"taf	RKSI	2018-07-05 12:00:00	TAF RKSI 051100Z 0512/0618 06010KT 9999 SCT030 BKN180 TN21/0520Z TX27/0605Z \n BECMG 0603/0604 07015G25KT \n BECMG 0612/0613 06010KT"
"taf	RKSI	2018-07-05 18:00:00	TAF RKSI 051700Z 0518/0624 06010KT 9999 SCT030 BKN180 TN21/0520Z TX27/0605Z TN17/0621Z \n BECMG 0606/0607 07015G25KT \n BECMG 0613/0614 06010KT"
"taf	RKSI	2018-07-06 00:00:00	TAF RKSI 062300Z 0700/0806 05010KT 9999 SCT030 BKN120 TX27/0705Z TN19/0720Z TX27/0805Z \n BECMG 0704/0705 30007KT \n BECMG 0709/0710 07010KT \n BECMG 0712/0713 07015G25KT \n BECMG 0714/0715 08010KT \n BECMG 0803/0804 16006KT"
"taf	RKSI	2018-07-06 06:00:00	TAF RKSI 060500Z 0606/0712 06010KT 9999 SCT030 BKN180 TN19/0621Z TX26/0705Z \n TEMPO 0606/0612 06015G25KT \n BECMG 0706/0707 30007KT \n BECMG 0709/0710 07010KT"
"taf	RKSI	2018-07-06 12:00:00	TAF RKSI 061100Z 0612/0718 06010KT 9999 SCT030 BKN150 TN19/0621Z TX26/0705Z \n BECMG 0706/0707 30007KT \n BECMG 0709/0710 07007KT"
"taf	RKSI	2018-07-06 18:00:00	TAF RKSI 061700Z 0618/0724 06010KT 9999 SCT030 BKN120 TN19/0621Z TX26/0705Z TN19/0720Z \n BECMG 0704/0705 30008KT \n BECMG 0709/0710 07010KT \n BECMG 0712/0713 07015G25KT \n BECMG 0714/0715 08010KT"
"taf	RKSI	2018-07-07 00:00:00	TAF RKSI 072300Z 0800/0906 10008KT 9999 SCT030 BKN180 TX26/0805Z TN20/0821Z TX24/0904Z \n BECMG 0804/0805 30006KT \n TEMPO 0808/0812 07006KT \n BECMG 0813/0814 09007KT 6000 \n BECMG 0821/0822 FEW010 BKN025 OVC100 \n BECMG 0903/0904 13007KT 4200 -RA"
"taf	RKSI	2018-07-07 06:00:00	TAF RKSI 070500Z 0706/0812 07008KT 9999 SCT030 BKN180 TN19/0720Z TX27/0805Z \n TEMPO 0707/0709 30007KT \n BECMG 0804/0805 30006KT \n BECMG 0811/0812 07006KT"
"taf	RKSI	2018-07-07 12:00:00	TAF RKSI 071100Z 0712/0818 07008KT 9999 SCT030 BKN180 TN19/0720Z TX27/0805Z \n BECMG 0804/0805 30006KT \n BECMG 0811/0812 07006KT"
"taf	RKSI	2018-07-07 18:00:00	TAF RKSI 071700Z 0718/0824 08008KT 9999 SCT030 BKN180 TN19/0720Z TX27/0805Z TN20/0821Z \n BECMG 0805/0806 30006KT \n BECMG 0811/0812 08008KT 6000 \n BECMG 0820/0821 FEW010 BKN025 OVC100 \n BECMG 0823/0824 4200 -RA"
"taf	RKSI	2018-07-08 00:00:00	TAF RKSI 082300Z 0900/1006 12008KT 6000 FEW010 BKN025 OVC080 TX24/0906Z TN22/0921Z TX26/1006Z \n BECMG 0901/0902 -RA \n BECMG 0908/0909 15009KT 4200 \n TEMPO 0912/0915 2800 \n BECMG 0918/0919 6000 NSW \n BECMG 1004/1005 FEW010 SCT030 BKN180"
"taf	RKSI	2018-07-08 06:00:00	TAF RKSI 080500Z 0806/0912 31008KT CAVOK TN21/0821Z TX25/0906Z \n BECMG 0809/0810 16006KT \n BECMG 0813/0814 10010KT \n BECMG 0821/0822 9999 FEW010 BKN025 OVC100 \n BECMG 0903/0904 13007KT 4200 -RA \n BECMG 0909/0910 2800 RA"
"taf	RKSI	2018-07-08 12:00:00	TAF RKSI 081100Z 0812/0918 05006KT CAVOK TN21/0821Z TX25/0906Z \n BECMG 0814/0815 11007KT \n BECMG 0821/0822 9999 FEW010 BKN025 OVC100 \n BECMG 0903/0904 14007KT 4200 -RA \n BECMG 0913/0914 17010KT 2800 RA"
"taf	RKSI	2018-07-09 00:00:00	TAF RKSI 092300Z 1000/1106 16010KT 6000 FEW005 BKN020 OVC080 TX27/1006Z TN23/1020Z TX28/1105Z \n BECMG 1004/1005 23007KT FEW010 SCT030 BKN120 \n BECMG 1010/1011 06006KT \n BECMG 1012/1013 15006KT \n TEMPO 1016/1019 4200 -RA FEW010 BKN030 OVC100 \n TEMPO 1104/1106 21010KT"
"taf	RKSI	2018-07-09 06:00:00	TAF RKSI 090500Z 0906/1012 10010KT 3200 RA SCT005 BKN020 OVC080 TN21/0921Z TX28/1006Z \n BECMG 0908/0909 13007KT 2800 \n BECMG 0914/0915 16012KT 4200 -RA \n BECMG 0921/0922 19010KT 6000 NSW BKN025 BKN150 \n TEMPO 1011/1012 -RA"
"taf	RKSI	2018-07-09 12:00:00	TAF RKSI 091100Z 0912/1018 12010KT 6000 -RA SCT005 BKN020 OVC080 TN21/0921Z TX28/1006Z \n BECMG 0914/0915 15012KT 4200 RA \n BECMG 0919/0920 -RA \n BECMG 0921/0922 18010KT 6000 NSW BKN025 BKN150 \n BECMG 1004/1005 24010KT \n TEMPO 1011/1015 -RA"
"taf	RKSI	2018-07-09 18:00:00	TAF RKSI 091700Z 0918/1024 16010KT 6000 FEW005 BKN020 OVC080 TN21/0921Z TX27/1006Z TN22/1020Z \n BECMG 1004/1005 23007KT FEW010 SCT030 BKN120 \n BECMG 1010/1011 06006KT \n BECMG 1012/1013 15006KT \n TEMPO 1015/1018 -RA FEW010 BKN030 OVC100"
"taf	RKSI	2018-07-10 00:00:00	TAF RKSI 102300Z 1100/1206 17006KT 6000 SCT040 TX29/1106Z TN24/1121Z TX28/1206Z \n TEMPO 1100/1103 4200 -RA FEW010 BKN035 BKN100 \n BECMG 1104/1105 29006KT \n BECMG 1115/1116 16006KT 4200 BR \n TEMPO 1119/1123 29006KT 2500 SCT005 \n BECMG 1200/1201 6000 NSW"
"taf	RKSI	2018-07-10 06:00:00	TAF RKSI 100500Z 1006/1112 21010KT 7000 FEW010 SCT030 BKN120 TN23/1020Z TX28/1105Z \n BECMG 1010/1011 06006KT \n BECMG 1012/1013 15006KT \n TEMPO 1016/1019 4200 -RA FEW010 BKN025 OVC100 \n TEMPO 1104/1110 25007KT"
"taf	RKSI	2018-07-10 08:40:00	TAF COR RKSI 100740Z 1008/1112 15006KT 7000 FEW010 BKN025 BKN120 TN23/1020Z TX28/1105Z \n TEMPO 1008/1015 -RA \n TEMPO 1016/1019 4200 -RA \n BECMG 1020/1021 NSW FEW010 SCT025 OVC120 \n TEMPO 1104/1110 25007KT"
"taf	RKSI	2018-07-10 08:42:00	TAF COR TAF COR RKSI 100740Z 1008/1112 15006KT 7000 FEW010 BKN025 BKN120 TN23/1020Z TX28/1105Z \n TEMPO 1008/1015 -RA \n TEMPO 1016/1019 4200 \n BECMG 1020/1021 NSW FEW010 SCT025 OVC120 \n TEMPO 1104/1110 25007KT"
"taf	RKSI	2018-07-10 08:48:00	TAF COR TAF COR RKSI 100740Z 1008/1112 15006KT 7000 FEW010 BKN025 BKN120 TN23/1020Z TX28/1105Z \n TEMPO 1008/1015 -RA \n TEMPO 1016/1019 4200 -RA \n BECMG 1020/1021 NSW FEW010 SCT025 OVC120 \n TEMPO 1104/1110 25007KT"
"taf	RKSI	2018-07-10 12:00:00	TAF RKSI 101100Z 1012/1118 17008KT 7000 -RA FEW010 BKN025 OVC080 TN23/1020Z TX28/1105Z \n TEMPO 1016/1020 4200 \n BECMG 1021/1022 NSW FEW010 SCT030 BKN120 \n TEMPO 1105/1110 25007KT \n BECMG 1115/1116 4200 BR"
"taf	RKSI	2018-07-10 18:00:00	TAF RKSI 101700Z 1018/1124 16007KT 3500 -RA FEW005 BKN035 OVC100 TN24/1021Z TX29/1106Z TN24/1121Z \n BECMG 1100/1101 19007KT 6000 NSW \n BECMG 1105/1106 25007KT SCT030 \n BECMG 1111/1112 19007KT \n BECMG 1115/1116 16006KT 4200 BR \n TEMPO 1119/1123 2500"
"taf	RKSI	2018-07-11 00:24:00	TAF \n AMD TAF \n AMD RKSI 110130Z 1100/1206 17006KT 6000 SCT040 TX29/1106Z TN24/1121Z TX28/1206Z \n TEMPO 1100/1103 FEW010 BKN035 BKN100 \n BECMG 1104/1105 29006KT \n BECMG 1115/1116 16006KT 4200 BR \n TEMPO 1119/1123 29006KT 2500 SCT005 \n BECMG 1200/1201 6000 NSW"
"taf	RKSI	2018-07-11 00:30:00	TAF \n AMD RKSI 110130Z 1100/1206 17006KT 6000 SCT040 TX29/1106Z TN24/1121Z TX28/1206Z \n TEMPO 1100/1103 FEW010 BKN035 BKN100 \n BECMG 1104/1105 29006KT \n BECMG 1115/1116 16006KT 4200 BR \n TEMPO 1119/1123 29006KT 2500 SCT005 \n BECMG 1200/1201 6000 NSW"
"taf	RKSI	2018-07-11 06:00:00	TAF RKSI 110500Z 1106/1212 23010KT 7000 BKN030 BKN150 TN24/1121Z TX28/1206Z \n BECMG 1110/1111 16006KT FEW005 SCT030 \n BECMG 1113/1114 4200 BR \n TEMPO 1117/1120 21006KT 2000 \n BECMG 1200/1201 23010KT 7000 NSW \n BECMG 1210/1211 4200 BR"
"taf	RKSI	2018-07-11 12:00:00	TAF RKSI 111100Z 1112/1218 16006KT 7000 SCT030 TN24/1121Z TX28/1206Z \n BECMG 1114/1115 4200 BR \n TEMPO 1117/1120 21006KT 2000 SCT005 \n BECMG 1200/1201 23010KT 7000 NSW \n BECMG 1210/1211 4200 BR SCT005 \n BECMG 1216/1217 15006KT 2500"
"taf	RKSI	2018-07-11 18:00:00	TAF RKSI 111700Z 1118/1224 16006KT 7000 BKN030 BKN180 TN24/1121Z TX30/1206Z TN24/1221Z \n BECMG 1203/1204 22010KT \n BECMG 1212/1213 16007KT \n BECMG 1215/1216 19007KT 3500 BR SCT005 \n TEMPO 1218/1221 2000 \n BECMG 1222/1223 6000 NSW SCT030"
"taf	RKSI	2018-07-12 00:00:00	TAF RKSI 122300Z 1300/1406 18006KT 7000 SCT025 TX28/1306Z TN23/1321Z TX28/1405Z \n BECMG 1302/1303 25008KT \n BECMG 1317/1318 15006KT 4200 BR SCT005 BKN025 \n BECMG 1322/1323 7000 NSW SCT025 \n BECMG 1404/1405 25007KT"
"taf	RKSI	2018-07-12 06:00:00	TAF RKSI 120500Z 1206/1312 21010KT 7000 BKN025 BKN120 TN23/1221Z TX28/1306Z \n BECMG 1212/1213 18007KT 4200 BR SCT004 BKN025 \n BECMG 1215/1216 2800 \n TEMPO 1218/1221 1400 \n BECMG 1223/1224 4200 BKN030 \n BECMG 1303/1304 21008KT 6000 NSW"
"taf	RKSI	2018-07-12 12:00:00	TAF RKSI 121100Z 1212/1318 22007KT 6000 FEW020 SCT180 TN23/1221Z TX28/1306Z \n BECMG 1215/1216 18006KT 4200 BR FEW005 BKN025 \n TEMPO 1220/1222 2500 \n BECMG 1302/1303 22008KT 6000 NSW SCT020 \n BECMG 1312/1313 BKN025 \n BECMG 1317/1318 17006KT 4200 BR SCT005 BKN025"
"taf	RKSI	2018-07-12 18:00:00	TAF RKSI 121700Z 1218/1324 18006KT 2500 BR FEW005 BKN025 TN23/1221Z TX28/1306Z TN23/1321Z \n BECMG 1220/1222 1400 \n BECMG 1302/1303 23008KT 7000 NSW SCT020 \n BECMG 1317/1318 15006KT 3500 BR SCT005 BKN025 \n BECMG 1322/1323 7000 NSW SCT020"
"taf	RKSI	2018-07-13 06:00:00	TAF RKSI 130500Z 1306/1412 22008KT 9999 SCT025 BKN120 TN23/1321Z TX28/1405Z \n BECMG 1316/1317 17006KT 4200 BR FEW005 BKN025 \n BECMG 1321/1322 6000 NSW SCT025 \n BECMG 1404/1405 27007KT"
"taf	RKSI	2018-07-13 12:00:00	TAF RKSI 131100Z 1312/1418 30006KT 9999 SCT025 TN23/1321Z TX29/1405Z \n BECMG 1317/1318 18006KT 4200 BR FEW005 BKN025 \n BECMG 1320/1321 6000 NSW SCT025 \n BECMG 1403/1404 27008KT \n BECMG 1414/1415 18006KT \n BECMG 1417/1418 4200 BR FEW010 BKN025"
"taf	RKSI	2018-07-13 18:00:00	TAF RKSI 131700Z 1318/1424 17006KT 7000 SCT025 TN23/1321Z TX29/1405Z TN23/1421Z \n TEMPO 1319/1321 4200 BR \n BECMG 1403/1404 25008KT \n BECMG 1414/1415 17006KT \n BECMG 1417/1418 4200 BR \n BECMG 1421/1422 7000 NSW"
"taf	RKSI	2018-07-14 00:00:00	TAF RKSI 142300Z 1500/1606 17007KT 9999 FEW010 BKN025 TX29/1505Z TN23/1521Z TX29/1605Z \n BECMG 1501/1502 SCT030 \n BECMG 1503/1504 28007KT \n BECMG 1515/1516 17006KT 6000 \n BECMG 1603/1604 25007KT CAVOK"
"taf	RKSI	2018-07-14 06:00:00	TAF RKSI 140500Z 1406/1512 24007KT 9999 FEW010 SCT030 TN23/1421Z TX29/1505Z \n BECMG 1418/1419 16006KT 4200 BR FEW006 BKN020 \n BECMG 1421/1422 7000 NSW FEW010 SCT030 \n TEMPO 1501/1504 22010KT \n BECMG 1504/1505 28008KT NSC \n BECMG 1510/1511 22006KT"
"taf	RKSI	2018-07-14 12:00:00	TAF RKSI 141100Z 1412/1518 21006KT 9999 FEW010 SCT030 TN23/1421Z TX29/1505Z \n BECMG 1418/1419 16006KT 4200 BR FEW006 BKN020 \n BECMG 1421/1422 7000 NSW FEW010 SCT030 \n TEMPO 1504/1512 28007KT"
"taf	RKSI	2018-07-14 18:00:00	TAF RKSI 141700Z 1418/1524 22006KT 9999 FEW030 TN23/1421Z TX29/1505Z TN23/1521Z \n BECMG 1419/1420 4200 BR FEW010 BKN020 \n BECMG 1421/1422 17007KT 6000 NSW FEW010 SCT030 \n BECMG 1503/1504 27007KT CAVOK \n BECMG 1515/1516 16006KT 6000 NSC"
"taf	RKSI	2018-07-15 06:00:00	TAF RKSI 150500Z 1506/1612 28006KT CAVOK TN23/1521Z TX30/1605Z \n BECMG 1512/1513 17006KT 6000 FEW010 SCT030 \n BECMG 1603/1604 28007KT CAVOK \n BECMG 1611/1612 22006KT"
"taf	RKSI	2018-07-15 12:00:00	TAF RKSI 151100Z 1512/1618 29005KT 9999 FEW010 SCT030 TN23/1521Z TX30/1605Z \n BECMG 1518/1519 17005KT 6000 \n BECMG 1603/1604 28007KT CAVOK \n BECMG 1613/1614 22006KT 6000 FEW010 SCT030 \n BECMG 1617/1618 18006KT 4200 BR"
"taf	RKSI	2018-07-15 18:00:00	TAF RKSI 151700Z 1518/1624 17005KT 6000 FEW010 SCT030 TN23/1521Z TX31/1605Z TN23/1621Z \n BECMG 1603/1604 29007KT CAVOK \n BECMG 1614/1615 22006KT 6000 FEW010 SCT030 \n BECMG 1617/1618 18006KT 4200 BR \n BECMG 1621/1622 6000 NSW"
"taf	RKSI	2018-07-15 19:00:00	TAF \n AMD TAF \n AMD RKSI 151855Z 1519/1624 17005KT 4200 BR FEW010 SCT030 TN23/1521Z TX31/1605Z TN23/1621Z \n TEMPO 1519/1522 0400 FG \n BECMG 1603/1604 29007KT 6000 NSW NSC \n BECMG 1614/1615 22006KT FEW010 SCT030 \n BECMG 1617/1618 18006KT 4200 BR \n BECMG 1621/1622 6000 NSW"
"taf	RKSI	2018-07-15 19:45:00	TAF \n AMD RKSI 151845Z 1519/1624 17005KT 4200 BR FEW010 SCT030 TN23/1521Z TX31/1605Z TN23/1621Z \n TEMPO 1519/1521 0800 FG \n BECMG 1603/1604 29007KT 6000 NSW NSC \n BECMG 1614/1615 22006KT FEW010 SCT030 \n BECMG 1617/1618 18006KT 4200 BR \n BECMG 1621/1622 6000 NSW"
"taf	RKSI	2018-07-15 19:48:00	TAF \n AMD TAF \n AMD RKSI 151845Z 1519/1624 17005KT 4200 BR FEW010 SCT030 TN23/1521Z TX31/1605Z TN23/1621Z \n TEMPO 1519/1521 0800 FG \n BECMG 1603/1604 29007KT 6000 NSW NSC \n BECMG 1614/1615 22006KT FEW010 SCT030 \n BECMG 1617/1618 18006KT 4200 BR \n BECMG 1621/1622 6000 NSW"
"taf	RKSI	2018-07-15 19:55:00	TAF \n AMD RKSI 151855Z 1519/1624 17005KT 4200 BR FEW010 SCT030 TN23/1521Z TX31/1605Z TN23/1621Z \n TEMPO 1519/1522 0400 FG \n BECMG 1603/1604 29007KT 6000 NSW NSC \n BECMG 1614/1615 22006KT FEW010 SCT030 \n BECMG 1617/1618 18006KT 4200 BR \n BECMG 1621/1622 6000 NSW"
"taf	RKSI	2018-07-16 00:00:00	TAF RKSI 162300Z 1700/1806 29006KT 7000 FEW010 SCT030 TX30/1706Z TN23/1721Z TX30/1805Z \n BECMG 1718/1719 26005KT 4200 BR \n TEMPO 1720/1722 0600 FG BKN002 \n BECMG 1722/1723 29006KT 7000 NSW"
"taf	RKSI	2018-07-16 06:00:00	TAF RKSI 160500Z 1606/1712 31007KT 9999 FEW030 TN23/1621Z TX30/1706Z \n BECMG 1615/1616 22006KT \n BECMG 1617/1618 3500 BR \n TEMPO 1620/1622 0600 FG BKN001 \n BECMG 1623/1624 6000 NSW \n BECMG 1701/1702 31007KT"
"taf	RKSI	2018-07-16 12:00:00	TAF RKSI 161100Z 1612/1718 31006KT 7000 FEW030 TN23/1621Z TX30/1706Z \n BECMG 1617/1618 22005KT 3500 BR \n TEMPO 1620/1622 31006KT 0600 FG BKN001 \n BECMG 1623/1624 31007KT 6000 NSW \n BECMG 1717/1718 22005KT 3500 BR"
"taf	RKSI	2018-07-16 18:00:00	TAF RKSI 161700Z 1618/1724 24005KT 4200 BR FEW010 SCT030 TN23/1621Z TX30/1706Z TN23/1720Z \n TEMPO 1620/1622 0900 FG BKN002 \n BECMG 1622/1623 29006KT 7000 NSW \n BECMG 1718/1719 26005KT 4200 BR \n TEMPO 1719/1722 1200 \n BECMG 1722/1723 7000 NSW"
"taf	RKSI	2018-07-16 20:25:00	TAF \n AMD RKSI 162025Z 1620/1724 24005KT 1800 BR FEW010 SCT030 TN23/1621Z TX30/1706Z TN23/1720Z \n TEMPO 1620/1623 0600 FG OVC002 \n BECMG 1623/1624 29006KT 6000 NSW \n BECMG 1718/1719 26005KT 4200 BR \n TEMPO 1719/1722 1200 \n BECMG 1722/1723 7000 NSW"
"taf	RKSI	2018-07-16 20:27:00	TAF \n AMD TAF \n AMD RKSI 162025Z 1620/1724 24005KT 1800 BR FEW010 SCT030 TN23/1621Z TX30/1706Z TN23/1720Z \n TEMPO 1620/1623 0600 FG OVC002 \n BECMG 1623/1624 29006KT 6000 NSW \n BECMG 1718/1719 26005KT 4200 BR \n TEMPO 1719/1722 1200 \n BECMG 1722/1723 7000 NSW"
"taf	RKSI	2018-07-17 00:00:00	TAF RKSI 172300Z 1800/1906 30006KT 7000 FEW010 SCT030 TX30/1806Z TN23/1820Z TX30/1906Z \n TEMPO 1800/1801 4200 BR \n BECMG 1815/1816 4200 BR \n TEMPO 1818/1822 0400 FG BKN002 \n BECMG 1900/1901 7000 NSW"
"taf	RKSI	2018-07-17 06:00:00	TAF RKSI 170500Z 1706/1812 31007KT 7000 FEW030 TN23/1721Z TX30/1806Z \n BECMG 1715/1716 28005KT 4200 BR \n BECMG 1717/1718 2800 \n TEMPO 1719/1721 31005KT 0600 FG BKN001 \n BECMG 1722/1723 25007KT 4200 \n BECMG 1800/1801 31007KT 7000 NSW"
"taf	RKSI	2018-07-17 12:00:00	TAF RKSI 171100Z 1712/1818 31005KT 7000 NSC TN23/1721Z TX30/1806Z \n BECMG 1715/1716 28005KT 4200 BR \n BECMG 1717/1718 2800 \n TEMPO 1719/1721 0600 FG BKN001 \n BECMG 1722/1723 31007KT 4200 \n BECMG 1800/1801 7000 NSW"
"taf	RKSI	2018-07-17 18:00:00	TAF RKSI 171700Z 1718/1824 30006KT 2800 BR FEW010 SCT030 TN22/1721Z TX30/1806Z TN23/1820Z \n TEMPO 1718/1723 0400 FG BKN001 \n BECMG 1723/1724 7000 NSW \n BECMG 1815/1816 4200 BR \n TEMPO 1818/1821 0400 FG BKN002 \n BECMG 1822/1823 7000 NSW"
"taf	RKSI	2018-07-18 06:00:00	TAF RKSI 180500Z 1806/1912 30007KT 7000 FEW010 SCT030 TN23/1820Z TX29/1906Z \n BECMG 1815/1816 4200 BR \n TEMPO 1818/1822 0400 FG BKN001 \n BECMG 1900/1901 7000 NSW"
"taf	RKSI	2018-07-18 12:00:00	TAF RKSI 181100Z 1812/1918 30007KT 7000 FEW010 SCT030 TN23/1820Z TX30/1906Z \n BECMG 1815/1816 4200 BR \n TEMPO 1818/1822 0400 FG BKN001 \n BECMG 1900/1901 7000 NSW \n BECMG 1914/1915 4200 BR"
"taf	RKSI	2018-07-18 18:00:00	TAF RKSI 181700Z 1818/1924 33005KT 4200 BR FEW030 TN23/1821Z TX29/1906Z TN23/1921Z \n TEMPO 1820/1822 30005KT 0600 FG BKN001 \n BECMG 1900/1901 30007KT 6000 NSW \n BECMG 1911/1912 33005KT 4200 BR \n TEMPO 1918/1922 2000 \n BECMG 1923/1924 30007KT 6000 NSW"
"taf	RKSI	2018-07-19 00:00:00	TAF \n AMD RKSI 192330Z 2000/2106 30007KT 4200 BR FEW030 TX30/2006Z TN23/2021Z TX30/2106Z \n BECMG 2002/2003 7000 NSW \n BECMG 2018/2019 01005KT 4200 BR \n TEMPO 2020/2022 33005KT 0600 FG BKN001 \n BECMG 2023/2024 31007KT 6000 NSW"
"taf	RKSI	2018-07-19 00:30:00	TAF \n AMD TAF \n AMD RKSI 192330Z 2000/2106 30007KT 4200 BR FEW030 TX30/2006Z TN23/2021Z TX30/2106Z \n BECMG 2002/2003 7000 NSW \n BECMG 2018/2019 01005KT 4200 BR \n TEMPO 2020/2022 33005KT 0600 FG BKN001 \n BECMG 2023/2024 31007KT 6000 NSW"
"taf	RKSI	2018-07-19 06:00:00	TAF RKSI 190500Z 1906/2012 30007KT 7000 FEW030 TN23/1921Z TX30/2006Z \n BECMG 1911/1912 33005KT 4200 BR \n TEMPO 1920/1922 0800 FG BKN001 \n BECMG 1923/1924 30007KT 7000 NSW"
"taf	RKSI	2018-07-19 12:00:00	TAF RKSI 191100Z 1912/2018 33006KT 7000 FEW030 TN23/1921Z TX30/2006Z \n BECMG 1915/1916 4200 BR \n TEMPO 1920/1922 0800 FG BKN001 \n BECMG 1923/1924 30007KT 7000 NSW \n BECMG 2015/2016 05005KT 4200 BR"
"taf	RKSI	2018-07-19 18:00:00	TAF RKSI 191700Z 1918/2024 32005KT 7000 FEW020 TN23/1921Z TX30/2006Z TN24/2021Z \n BECMG 1919/1920 05005KT 4200 BR \n BECMG 1922/1923 30007KT 7000 NSW \n BECMG 2018/2019 05005KT 4200 BR \n TEMPO 2020/2022 2800 \n BECMG 2023/2024 31007KT 7000 NSW"
"taf	RKSI	2018-07-19 20:18:00	TAF \n AMD RKSI 192018Z 1920/2024 30007KT 1000 BR FEW020 TN23/1921Z TX30/2006Z TN24/2021Z \n TEMPO 1920/1923 05005KT 0400 FG BKN001 \n BECMG 2000/2001 6000 NSW \n BECMG 2018/2019 05005KT 4200 BR \n TEMPO 2020/2022 2800 \n BECMG 2023/2024 31007KT 7000 NSW"
"taf	RKSI	2018-07-19 20:21:00	TAF \n AMD TAF \n AMD RKSI 192018Z 1920/2024 30007KT 1000 BR FEW020 TN23/1921Z TX30/2006Z TN24/2021Z \n TEMPO 1920/1923 05005KT 0400 FG BKN001 \n BECMG 2000/2001 6000 NSW \n BECMG 2018/2019 05005KT 4200 BR \n TEMPO 2020/2022 2800 \n BECMG 2023/2024 31007KT 7000 NSW"
"taf	RKSI	2018-07-20 00:00:00	TAF RKSI 202300Z 2100/2206 07005KT CAVOK TX31/2105Z TN24/2121Z TX31/2205Z \n BECMG 2101/2102 31006KT \n BECMG 2116/2117 08005KT \n TEMPO 2118/2121 4200 BR NSC \n BECMG 2201/2202 31006KT"
"taf	RKSI	2018-07-20 06:00:00	TAF RKSI 200500Z 2006/2112 31007KT CAVOK TN23/2021Z TX31/2106Z \n BECMG 2018/2019 01005KT 4200 BR NSC \n TEMPO 2020/2022 0800 FG BKN001 \n BECMG 2023/2024 31006KT 6000 NSW"
"taf	RKSI	2018-07-20 12:00:00	TAF RKSI 201100Z 2012/2118 31007KT CAVOK TN23/2021Z TX31/2106Z \n BECMG 2018/2019 07005KT 4200 BR NSC \n BECMG 2022/2023 6000 NSW \n BECMG 2102/2103 31006KT CAVOK \n BECMG 2117/2118 09005KT 4200 BR NSC"
"taf	RKSI	2018-07-20 18:00:00	TAF RKSI 201700Z 2018/2124 07005KT CAVOK TN23/2021Z TX31/2106Z TN24/2121Z \n TEMPO 2019/2021 4200 BR NSC \n BECMG 2101/2102 31006KT \n BECMG 2118/2119 09005KT 4200 BR NSC \n BECMG 2122/2123 CAVOK"
"taf	RKSI	2018-07-21 00:00:00	TAF RKSI 212300Z 2200/2306 07006KT 7000 NSC TX32/2205Z TN25/2221Z TX31/2305Z \n BECMG 2201/2202 31006KT FEW030 BKN150 \n BECMG 2217/2218 24005KT \n BECMG 2222/2223 31007KT"
"taf	RKSI	2018-07-21 06:00:00	TAF RKSI 210500Z 2106/2212 31006KT CAVOK TN24/2121Z TX32/2205Z \n BECMG 2117/2118 07005KT 6000 NSC \n BECMG 2201/2202 31007KT 9999 FEW030 SCT150"
"taf	RKSI	2018-07-21 12:00:00	TAF RKSI 211100Z 2112/2218 30006KT CAVOK TN24/2121Z TX32/2205Z \n BECMG 2116/2117 07005KT 6000 NSC \n BECMG 2201/2202 31006KT 9999 FEW030 SCT150 \n BECMG 2217/2218 21005KT 4200 BR"
"taf	RKSI	2018-07-21 18:00:00	TAF RKSI 211700Z 2118/2224 07005KT 7000 NSC TN24/2121Z TX32/2205Z TN25/2221Z \n BECMG 2201/2202 31006KT FEW030 BKN150 \n BECMG 2217/2218 21005KT \n BECMG 2222/2223 30008KT"
"taf	RKSI	2018-07-22 00:00:00	TAF RKSI 222300Z 2300/2406 31006KT 9999 FEW030 BKN180 TX33/2305Z TN25/2321Z TX33/2405Z \n BECMG 2316/2317 19005KT 6000 NSC \n BECMG 2402/2403 31006KT 9999 FEW030"
"taf	RKSI	2018-07-22 06:00:00	TAF RKSI 220500Z 2206/2312 31006KT 7000 SCT030 BKN180 TN25/2221Z TX32/2305Z \n BECMG 2213/2214 20005KT \n BECMG 2303/2304 31006KT"
"taf	RKSI	2018-07-22 12:00:00	TAF RKSI 221100Z 2212/2318 19005KT 7000 FEW030 BKN180 TN25/2221Z TX32/2305Z \n BECMG 2302/2303 31006KT \n BECMG 2314/2315 17005KT"
"taf	RKSI	2018-07-22 18:00:00	TAF RKSI 221700Z 2218/2324 19005KT 9999 FEW030 BKN200 TN25/2221Z TX32/2305Z TN25/2321Z \n BECMG 2302/2303 31006KT \n BECMG 2315/2316 19005KT 6000"
"taf	RKSI	2018-07-23 00:00:00	TAF RKSI 232300Z 2400/2506 19005KT CAVOK TX33/2405Z TN26/2421Z TX32/2505Z \n BECMG 2403/2404 30006KT \n BECMG 2412/2413 21005KT 6000 SCT030 \n BECMG 2419/2420 4200 BR \n BECMG 2421/2422 18008KT 6000 NSW FEW010 BKN030 \n BECMG 2503/2504 FEW010 SCT030"
"taf	RKSI	2018-07-23 06:00:00	TAF RKSI 230500Z 2306/2412 30006KT 9999 FEW030 BKN180 TN26/2320Z TX33/2405Z \n BECMG 2316/2317 23005KT 6000 NSC \n BECMG 2403/2404 30006KT 9999 FEW030 \n BECMG 2410/2411 24005KT"
"taf	RKSI	2018-07-23 12:00:00	TAF RKSI 231100Z 2312/2418 31005KT 6000 NSC TN26/2320Z TX33/2405Z \n BECMG 2315/2316 23005KT \n BECMG 2403/2404 30006KT CAVOK \n BECMG 2412/2413 18005KT 9999 SCT030 \n BECMG 2417/2418 4200 BR"
"taf	RKSI	2018-07-23 18:00:00	TAF RKSI 231700Z 2318/2424 24005KT 6000 NSC TN26/2320Z TX33/2405Z TN26/2421Z \n BECMG 2403/2404 30006KT CAVOK \n BECMG 2412/2413 20005KT 6000 SCT030 \n BECMG 2418/2419 17007KT 4200 BR \n BECMG 2421/2422 6000 NSW FEW010 BKN025 OVC100"
"taf	RKSI	2018-07-24 06:00:00	TAF RKSI 240500Z 2406/2512 31007KT 9999 FEW030 TN25/2421Z TX32/2506Z \n BECMG 2411/2412 20006KT \n BECMG 2419/2420 17006KT 4200 BR \n BECMG 2421/2422 25007KT \n BECMG 2423/2424 20008KT 6000 NSW \n TEMPO 2503/2509 31010KT FEW010 BKN025"
"taf	RKSI	2018-07-24 12:00:00	TAF RKSI 241100Z 2412/2518 30006KT CAVOK TN25/2421Z TX31/2506Z \n BECMG 2419/2420 06006KT 4200 BR NSC \n BECMG 2421/2422 19008KT 6000 NSW \n TEMPO 2503/2509 30008KT FEW010 BKN030 \n TEMPO 2515/2518 FEW010 BKN030"
"taf	RKSI	2018-07-24 16:21:00	TAF \n AMD TAF \n AMD RKSI 241625Z 2416/2518 16007KT 9999 SCT030 BKN120 TN25/2421Z TX31/2506Z \n BECMG 2419/2420 4200 BR \n BECMG 2421/2422 19008KT 6000 NSW \n TEMPO 2503/2509 30008KT FEW010 BKN030 \n TEMPO 2515/2518 FEW010 BKN030"
"taf	RKSI	2018-07-24 16:25:00	TAF \n AMD RKSI 241625Z 2416/2518 16007KT 9999 SCT030 BKN120 TN25/2421Z TX31/2506Z \n BECMG 2419/2420 4200 BR \n BECMG 2421/2422 19008KT 6000 NSW \n TEMPO 2503/2509 30008KT FEW010 BKN030 \n TEMPO 2515/2518 FEW010 BKN030"
"taf	RKSI	2018-07-24 18:00:00	TAF RKSI 241700Z 2418/2524 18007KT 6000 FEW010 BKN030 TN26/2421Z TX32/2506Z TN26/2521Z \n BECMG 2422/2423 12010KT \n TEMPO 2500/2509 21012KT \n BECMG 2510/2511 18007KT \n TEMPO 2518/2521 4200 BR"
"taf	RKSI	2018-07-25 00:00:00	TAF RKSI 252300Z 2600/2706 17006KT 9999 FEW008 BKN030 TX31/2605Z TN26/2620Z TX32/2705Z \n TEMPO 2602/2605 23010KT \n BECMG 2606/2607 29006KT FEW010 SCT030 \n BECMG 2617/2618 19005KT 4200 BR \n BECMG 2622/2623 6000 NSW \n BECMG 2702/2703 30007KT"
"taf	RKSI	2018-07-25 06:00:00	TAF RKSI 250500Z 2506/2612 23010KT 6000 FEW010 BKN030 TN26/2521Z TX30/2606Z \n BECMG 2515/2516 17007KT \n TEMPO 2521/2523 -RA \n BECMG 2600/2601 23010KT SCT030 \n TEMPO 2609/2612 19006KT 4200 BR"
"taf	RKSI	2018-07-25 07:35:00	TAF \n AMD RKSI 250635Z 2507/2612 23010KT 9999 FEW030 TN26/2521Z TX30/2606Z \n BECMG 2515/2516 17007KT FEW010 BKN025 \n TEMPO 2521/2523 6000 -RA \n BECMG 2600/2601 23010KT SCT030 \n TEMPO 2609/2612 19006KT 4200 BR"
"taf	RKSI	2018-07-25 07:36:00	TAF \n AMD TAF \n AMD RKSI 250635Z 2507/2612 23010KT 9999 FEW030 TN26/2521Z TX30/2606Z \n BECMG 2515/2516 17007KT FEW010 BKN025 \n TEMPO 2521/2523 6000 -RA \n BECMG 2600/2601 23010KT SCT030 \n TEMPO 2609/2612 19006KT 4200 BR"
"taf	RKSI	2018-07-25 12:00:00	TAF RKSI 251100Z 2512/2618 22008KT 6000 SCT030 TN26/2521Z TX30/2606Z \n BECMG 2515/2516 FEW010 BKN030 \n TEMPO 2521/2523 -RA \n BECMG 2600/2601 16010KT SCT030 \n BECMG 2603/2604 29007KT \n BECMG 2609/2610 07005KT 4200 BR FEW010 BKN030"
"taf	RKSI	2018-07-25 18:00:00	TAF RKSI 251700Z 2518/2624 17006KT 9999 FEW008 BKN030 TN26/2520Z TX31/2605Z TN26/2620Z \n BECMG 2604/2605 28006KT FEW010 SCT030 \n BECMG 2617/2618 19005KT 4200 BR \n TEMPO 2619/2621 2800 \n BECMG 2622/2623 6000 NSW"
"taf	RKSI	2018-07-26 00:00:00	TAF RKSI 262300Z 2700/2806 17007KT 7000 FEW010 SCT030 TX31/2706Z TN26/2721Z TX31/2806Z \n BECMG 2702/2703 31007KT \n BECMG 2711/2712 22005KT \n TEMPO 2717/2720 31005KT 0400 FG BKN001 \n BECMG 2802/2803 31007KT \n TEMPO 2805/2806 20007KT -RA FEW010 BKN025"
"taf	RKSI	2018-07-26 06:00:00	TAF RKSI 260500Z 2606/2712 29010KT 7000 FEW010 SCT030 TN26/2620Z TX32/2705Z \n BECMG 2617/2618 19005KT 4200 BR \n TEMPO 2619/2621 2500 \n BECMG 2622/2623 7000 NSW \n BECMG 2702/2703 30008KT"
"taf	RKSI	2018-07-26 12:00:00	TAF RKSI 261100Z 2612/2718 29007KT 7000 FEW010 SCT030 TN26/2620Z TX32/2705Z \n BECMG 2617/2618 20005KT 4200 BR \n TEMPO 2619/2621 2500 \n BECMG 2622/2623 7000 NSW \n BECMG 2702/2703 30008KT \n BECMG 2714/2715 05006KT 4200 BR"
"taf	RKSI	2018-07-26 15:06:00	TAF \n AMD RKSI 261506Z 2615/2718 29007KT 1000 BR FEW010 SCT030 TN26/2620Z TX32/2705Z \n TEMPO 2617/2621 20005KT 0400 FG BKN001 \n BECMG 2622/2623 20005KT 3500 \n BECMG 2700/2701 7000 NSW \n BECMG 2702/2703 30008KT \n BECMG 2714/2715 05006KT 4200 BR"
"taf	RKSI	2018-07-26 15:09:00	TAF \n AMD TAF \n AMD RKSI 261506Z 2615/2718 29007KT 1000 BR FEW010 SCT030 TN26/2620Z TX32/2705Z \n TEMPO 2617/2621 20005KT 0400 FG BKN001 \n BECMG 2622/2623 20005KT 3500 \n BECMG 2700/2701 7000 NSW \n BECMG 2702/2703 30008KT \n BECMG 2714/2715 05006KT 4200 BR"
"taf	RKSI	2018-07-26 18:00:00	TAF RKSI 261700Z 2618/2724 30005KT 1000 BR FEW010 BKN030 TN25/2621Z TX31/2706Z TN26/2721Z \n TEMPO 2618/2621 0400 FG BKN001 \n BECMG 2622/2623 24007KT 3500 \n BECMG 2700/2701 7000 NSW \n BECMG 2702/2703 30007KT \n BECMG 2715/2716 24005KT 4200 BR"
"taf	RKSI	2018-07-27 00:00:00	TAF RKSI 272300Z 2800/2906 31007KT 6000 SCT030 TX31/2806Z TN26/2821Z TX33/2906Z \n TEMPO 2805/2807 -SHRA FEW010 BKN025 \n BECMG 2815/2816 09005KT \n BECMG 2817/2818 03007KT"
"taf	RKSI	2018-07-27 06:00:00	TAF RKSI 270500Z 2706/2812 31007KT 7000 FEW010 SCT030 TN26/2721Z TX31/2806Z \n TEMPO 2717/2720 0400 FG BKN001 \n BECMG 2810/2811 07005KT"
"taf	RKSI	2018-07-27 12:00:00	TAF RKSI 271100Z 2712/2818 31007KT 7000 FEW010 SCT030 TN26/2721Z TX31/2806Z \n BECMG 2715/2716 3500 BR \n TEMPO 2717/2720 0800 FG BKN001 \n BECMG 2721/2722 7000 NSW \n BECMG 2814/2815 07008KT"
"taf	RKSI	2018-07-27 18:00:00	TAF RKSI 271700Z 2718/2824 30005KT 6000 FEW030 TN26/2721Z TX31/2806Z TN26/2821Z \n BECMG 2723/2724 15005KT \n BECMG 2801/2802 31007KT \n BECMG 2815/2816 09006KT \n BECMG 2817/2818 03007KT"
"taf	RKSI	2018-07-28 00:00:00	TAF RKSI 282300Z 2900/3006 04010KT 9999 SCT030 TX34/2905Z TN25/2921Z TX34/3005Z \n BECMG 2903/2904 34007KT \n BECMG 2908/2909 06010KT"
"taf	RKSI	2018-07-28 06:00:00	TAF RKSI 280500Z 2806/2912 29007KT 6000 SCT030 TN26/2821Z TX33/2905Z \n TEMPO 2808/2810 -SHRA FEW010 BKN025 \n BECMG 2815/2816 09006KT \n BECMG 2817/2818 03008KT"
"taf	RKSI	2018-07-28 12:00:00	TAF RKSI 281100Z 2812/2918 24005KT 9999 SCT030 TN26/2821Z TX34/2905Z \n TEMPO 2815/2822 04006KT 6000 \n BECMG 2822/2823 02008KT"
"taf	RKSI	2018-07-28 18:00:00	TAF RKSI 281700Z 2818/2924 04010KT 9999 SCT030 TN26/2821Z TX34/2905Z TN26/2921Z \n BECMG 2903/2904 34007KT \n BECMG 2908/2909 05010KT"
"taf	RKSI	2018-07-29 00:00:00	TAF RKSI 292300Z 3000/3106 04010KT 9999 FEW030 TX36/3005Z TN26/3021Z TX35/3105Z \n BECMG 3004/3005 33010KT \n BECMG 3008/3009 06006KT \n BECMG 3011/3012 12008KT \n BECMG 3017/3018 06006KT \n BECMG 3103/3104 31010KT"
"taf	RKSI	2018-07-29 06:00:00	TAF RKSI 290500Z 2906/3012 03010KT 9999 SCT030 TN25/2921Z TX35/3005Z \n BECMG 3002/3003 33010KT \n BECMG 3004/3005 07009KT"
"taf	RKSI	2018-07-29 12:00:00	TAF RKSI 291100Z 2912/3018 04010KT 9999 SCT030 TN26/2921Z TX36/3005Z \n BECMG 3004/3005 34010KT \n BECMG 3008/3009 06006KT \n BECMG 3011/3012 12007KT \n BECMG 3016/3017 06006KT"
"taf	RKSI	2018-07-29 18:00:00	TAF RKSI 291700Z 2918/3024 04010KT 9999 SCT030 TN26/2921Z TX36/3005Z TN26/3021Z \n BECMG 3004/3005 34010KT \n BECMG 3008/3009 06006KT \n BECMG 3011/3012 12008KT \n BECMG 3017/3018 06006KT"
"taf	RKSI	2018-07-30 00:00:00	TAF RKSI 302300Z 3100/0106 10007KT 9999 SCT030 TX36/3105Z TN27/3121Z TX36/0105Z \n BECMG 3102/3103 31008KT \n BECMG 3115/3116 07006KT 6000 \n BECMG 0102/0103 30007KT 9999"
"taf	RKSI	2018-07-30 06:00:00	TAF RKSI 300500Z 3006/3112 04006KT 9999 FEW030 TN26/3020Z TX35/3105Z \n BECMG 3009/3010 30010KT \n BECMG 3011/3012 06007KT \n BECMG 3100/3101 12006KT \n BECMG 3102/3103 31007KT"
"taf	RKSI	2018-07-30 12:00:00	TAF RKSI 301100Z 3012/3118 06006KT 9999 FEW030 TN26/3020Z TX35/3105Z \n BECMG 3100/3101 12006KT \n BECMG 3102/3103 31007KT \n BECMG 3112/3113 07006KT"
"taf	RKSI	2018-07-30 18:00:00	TAF RKSI 301700Z 3018/3124 13006KT 9999 FEW030 TN26/3020Z TX35/3105Z TN26/3121Z \n BECMG 3102/3103 31008KT \n BECMG 3115/3116 07006KT \n BECMG 3121/3122 01005KT"
"taf	RKSI	2018-07-31 00:00:00	TAF RKSI 312300Z 0100/0206 05006KT CAVOK TX35/0105Z TN27/0121Z TX36/0205Z \n BECMG 0102/0103 30010KT \n BECMG 0113/0114 15006KT 6000 SCT030 \n BECMG 0203/0204 29007KT 9999"
"taf	RKSI	2018-07-31 06:00:00	TAF RKSI 310500Z 3106/0112 31007KT 9999 SCT030 TN27/3121Z TX35/0105Z \n BECMG 3115/3116 07006KT 6000 \n BECMG 0102/0103 30007KT 9999"
"taf	RKSI	2018-07-31 12:00:00	TAF RKSI 311100Z 3112/0118 31007KT 9999 SCT030 TN27/3121Z TX35/0105Z \n BECMG 3115/3116 07006KT 6000 \n BECMG 0102/0103 30007KT 9999 \n BECMG 0114/0115 15006KT 6000"
"taf	RKSI	2018-07-31 18:00:00	TAF RKSI 311700Z 3118/0124 07005KT 9999 SCT030 TN27/3121Z TX35/0105Z TN27/0121Z \n BECMG 3123/3124 30007KT \n BECMG 0114/0115 15006KT 6000"
"taf	RKSI	2018-08-01 00:00:00	TAF RKSI 012300Z 0200/0306 16006KT CAVOK TX35/0205Z TN27/0220Z TX35/0305Z \n BECMG 0203/0204 30007KT \n BECMG 0212/0213 15007KT \n TEMPO 0214/0217 06005KT \n BECMG 0302/0303 30007KT"
"taf	RKSI	2018-08-01 06:00:00	TAF RKSI 010500Z 0106/0212 30010KT CAVOK TN27/0121Z TX36/0206Z \n BECMG 0113/0114 05006KT \n BECMG 0117/0118 15006KT \n BECMG 0202/0203 30010KT \n BECMG 0211/0212 05006KT"
"taf	RKSI	2018-08-01 12:00:00	TAF RKSI 011100Z 0112/0218 31006KT CAVOK TN27/0121Z TX36/0206Z \n BECMG 0117/0118 15006KT \n BECMG 0202/0203 30010KT \n BECMG 0211/0212 05006KT \n BECMG 0215/0216 15006KT"
"taf	RKSI	2018-08-01 18:00:00	TAF RKSI 011700Z 0118/0224 16006KT CAVOK TN27/0121Z TX36/0206Z TN27/0220Z \n TEMPO 0118/0121 06005KT \n BECMG 0203/0204 30007KT \n BECMG 0212/0213 15007KT \n TEMPO 0214/0217 06005KT"
"taf	RKSI	2018-08-02 00:00:00	TAF RKSI 022300Z 0300/0406 18008KT 7000 SCT030 TX34/0306Z TN27/0319Z TX33/0405Z \n BECMG 0303/0304 31007KT \n BECMG 0318/0319 21005KT 4200 BR \n BECMG 0322/0323 24007KT 7000 NSW \n BECMG 0405/0406 30008KT"
"taf	RKSI	2018-08-02 06:00:00	TAF RKSI 020500Z 0206/0312 23010KT CAVOK TN27/0221Z TX34/0306Z \n BECMG 0210/0211 29007KT \n BECMG 0214/0215 07006KT \n BECMG 0217/0218 01006KT \n BECMG 0219/0220 16007KT \n BECMG 0303/0304 31008KT"
"taf	RKSI	2018-08-02 12:00:00	TAF RKSI 021100Z 0212/0318 31006KT 6000 FEW005 TN27/0221Z TX34/0306Z \n BECMG 0217/0218 16006KT 4200 BR \n BECMG 0222/0223 19007KT CAVOK \n BECMG 0303/0304 31008KT \n BECMG 0314/0315 17006KT"
"taf	RKSI	2018-08-02 18:00:00	TAF RKSI 021700Z 0218/0324 16006KT 7000 FEW030 TN27/0220Z TX34/0306Z TN27/0319Z \n BECMG 0303/0304 31007KT \n TEMPO 0316/0321 24005KT \n BECMG 0322/0323 21005KT"
"taf	RKSI	2018-08-03 00:00:00	TAF RKSI 032300Z 0400/0506 25008KT 9999 SCT040 TX33/0406Z TN27/0421Z TX32/0506Z \n BECMG 0403/0404 31010KT \n BECMG 0410/0411 04006KT \n BECMG 0416/0417 17006KT \n TEMPO 0418/0423 BKN040 \n BECMG 0501/0502 31008KT"
"taf	RKSI	2018-08-03 12:00:00	TAF RKSI 031100Z 0312/0418 31007KT 7000 FEW030 TN27/0319Z TX33/0405Z \n BECMG 0318/0319 15005KT 4200 BR \n BECMG 0322/0323 23007KT 7000 NSW \n BECMG 0405/0406 29008KT \n BECMG 0416/0417 26006KT 3500 BR"
"taf	RKSI	2018-08-03 18:00:00	TAF RKSI 031700Z 0318/0424 16005KT 7000 BKN040 TN27/0321Z TX33/0406Z TN27/0421Z \n BECMG 0322/0323 SCT040 \n BECMG 0400/0401 23010KT \n BECMG 0403/0404 31010KT \n BECMG 0410/0411 04006KT \n BECMG 0417/0418 17006KT 3500 BR"
"taf	RKSI	2018-08-04 00:00:00	TAF RKSI 042300Z 0500/0606 30010KT 7000 SCT030 TX32/0506Z TN26/0521Z TX32/0606Z \n BECMG 0510/0511 24008KT \n TEMPO 0519/0523 4200 BR BKN030 \n BECMG 0600/0601 31008KT"
"taf	RKSI	2018-08-04 06:00:00	TAF RKSI 040500Z 0406/0512 31010KT 7000 SCT040 TN27/0421Z TX32/0506Z \n BECMG 0410/0411 24006KT \n TEMPO 0418/0421 4200 BR BKN030"
"taf	RKSI	2018-08-04 12:00:00	TAF RKSI 041100Z 0412/0518 24006KT 7000 SCT040 TN27/0421Z TX32/0506Z \n TEMPO 0418/0421 4200 BR BKN030 \n BECMG 0513/0514 31007KT"
"taf	RKSI	2018-08-04 18:00:00	TAF RKSI 041700Z 0418/0524 25006KT 6000 FEW004 SCT030 TN26/0421Z TX32/0506Z TN26/0521Z \n TEMPO 0419/0423 28006KT 4200 BR FEW005 BKN030 \n BECMG 0500/0501 31010KT \n BECMG 0510/0511 25006KT \n TEMPO 0516/0521 31006KT 3500 BR \n BECMG 0522/0523 BKN030"
"taf	RKSI	2018-08-05 00:00:00	TAF RKSI 052300Z 0600/0706 28007KT 7000 SCT025 TX32/0605Z TN26/0621Z TX32/0705Z \n BECMG 0617/0618 16006KT 4200 BR BKN025 \n TEMPO 0619/0621 -RA \n BECMG 0622/0623 25007KT 7000 NSW SCT030"
"taf	RKSI	2018-08-05 06:00:00	TAF RKSI 050500Z 0506/0612 25010KT 9999 SCT030 TN26/0521Z TX32/0606Z \n BECMG 0513/0514 31007KT 6000 \n TEMPO 0519/0522 4200 BR BKN025 \n BECMG 0523/0524 25010KT \n BECMG 0611/0612 31006KT"
"taf	RKSI	2018-08-05 12:00:00	TAF RKSI 051100Z 0512/0618 27007KT 9999 SCT030 TN26/0521Z TX33/0606Z \n BECMG 0518/0519 31006KT 4200 BR BKN025 \n BECMG 0522/0523 26008KT 6000 NSW SCT030 \n BECMG 0615/0616 29006KT 4200 BR FEW010 BKN025 \n BECMG 0617/0618 26005KT -RA"
"taf	RKSI	2018-08-05 18:00:00	TAF RKSI 051700Z 0518/0624 30006KT 4200 BR FEW010 SCT025 TN26/0521Z TX32/0605Z TN26/0621Z \n BECMG 0520/0521 7000 NSW \n TEMPO 0602/0610 24007KT \n BECMG 0617/0618 16006KT 4200 BR FEW010 BKN025 \n TEMPO 0619/0621 -RA \n BECMG 0622/0623 24007KT 7000 NSW SCT030"
"taf	RKSI	2018-08-05 18:51:00	TAF RKSI 051700Z 0518/0624 30006KT 4200 BR FEW010 SCT025 TN26/0521Z TX32/0605Z TN26/0621Z \n BECMG 0520/0521 7000 NSW \n TEMPO 0602/0610 24007KT \n BECMG 0617/0618 16006KT 4200 BR FEW010 BKN025 \n TEMPO 0619/0621 -RA \n BECMG 0622/0623 24007KT 7000 NSW SCT030"
"taf	RKSI	2018-08-06 06:00:00	TAF RKSI 060500Z 0606/0712 28007KT 9999 SCT025 TN26/0621Z TX33/0705Z \n BECMG 0615/0616 16006KT 6000 \n BECMG 0617/0618 BKN025 \n TEMPO 0619/0621 -RA \n BECMG 0622/0623 SCT030 \n BECMG 0702/0703 28007KT"
"taf	RKSI	2018-08-06 12:00:00	TAF RKSI 061100Z 0612/0718 29006KT 9999 SCT030 TN26/0621Z TX33/0705Z \n BECMG 0615/0616 12006KT 6000 \n TEMPO 0619/0621 09006KT -RA FEW010 BKN025 \n BECMG 0702/0703 29007KT 9999 \n BECMG 0717/0718 32005KT 4200 BR"
"taf	RKSI	2018-08-06 18:00:00	TAF \n AMD RKSI 061730Z 0618/0724 13006KT 6000 SCT030 TN26/0621Z TX33/0705Z TN26/0721Z \n TEMPO 0619/0621 FEW010 BKN025 \n BECMG 0702/0703 29007KT 9999 \n TEMPO 0703/0706 -SHRA FEW010 BKN025 \n BECMG 0717/0718 32005KT 4200 BR \n BECMG 0721/0722 28007KT 7000 NSW"
"taf	RKSI	2018-08-06 18:25:00	TAF \n AMD RKSI 061725Z 0618/0724 13006KT 6000 SCT030 TN26/0621Z TX33/0705Z TN26/0721Z \n TEMPO 0619/0621 FEW010 BKN025 \n BECMG 0702/0703 29017KT 9999 \n TEMPO 0703/0706 -SHRA FEW010 BKN025 \n BECMG 0717/0718 32005KT 4200 BR \n BECMG 0721/0722 28007KT 7000 NSW"
"taf	RKSI	2018-08-06 18:27:00	TAF \n AMD TAF \n AMD RKSI 061725Z 0618/0724 13006KT 6000 SCT030 TN26/0621Z TX33/0705Z TN26/0721Z \n TEMPO 0619/0621 FEW010 BKN025 \n BECMG 0702/0703 29017KT 9999 \n TEMPO 0703/0706 -SHRA FEW010 BKN025 \n BECMG 0717/0718 32005KT 4200 BR \n BECMG 0721/0722 28007KT 7000 NSW"
"taf	RKSI	2018-08-06 18:30:00	TAF \n AMD TAF \n AMD RKSI 061730Z 0618/0724 13006KT 6000 SCT030 TN26/0621Z TX33/0705Z TN26/0721Z \n TEMPO 0619/0621 FEW010 BKN025 \n BECMG 0702/0703 29007KT 9999 \n TEMPO 0703/0706 -SHRA FEW010 BKN025 \n BECMG 0717/0718 32005KT 4200 BR \n BECMG 0721/0722 28007KT 7000 NSW"
"taf	RKSI	2018-08-07 00:00:00	TAF RKSI 072300Z 0800/0906 29007KT 9999 SCT030 TX33/0805Z TN27/0821Z TX33/0906Z \n BECMG 0820/0821 32006KT 4200 BR BKN030 \n BECMG 0822/0823 29006KT -RA \n BECMG 0900/0901 6000 \n BECMG 0905/0906 25006KT NSW SCT030"
"taf	RKSI	2018-08-07 06:00:00	TAF RKSI 070500Z 0706/0812 29007KT 7000 SCT030 TN26/0721Z TX32/0805Z \n BECMG 0714/0715 23005KT \n BECMG 0718/0719 4200 BR \n BECMG 0721/0722 7000 NSW \n BECMG 0802/0803 29008KT"
"taf	RKSI	2018-08-07 12:00:00	TAF RKSI 071100Z 0712/0818 29006KT 7000 SCT030 TN26/0721Z TX32/0805Z \n BECMG 0714/0715 23005KT \n BECMG 0718/0719 4200 BR \n BECMG 0721/0722 7000 NSW \n BECMG 0801/0802 29007KT \n BECMG 0816/0817 32006KT 4200 BR BKN030"
"taf	RKSI	2018-08-07 18:00:00	TAF RKSI 071700Z 0718/0824 23005KT 6000 SCT030 TN26/0721Z TX33/0805Z TN27/0821Z \n BECMG 0721/0722 29007KT 9999 \n BECMG 0819/0820 32006KT 4200 BR FEW010 BKN030 \n BECMG 0821/0822 29005KT -RA"
"taf	RKSI	2018-08-08 00:00:00	TAF RKSI 082300Z 0900/1006 23007KT 6000 FEW010 BKN025 BKN080 TX31/0906Z TN26/0921Z TX34/1005Z \n BECMG 0901/0902 -RA \n BECMG 0904/0905 26010KT NSW SCT030 BKN120 \n BECMG 0912/0913 03006KT \n BECMG 0918/0919 4200 BR FEW010 BKN025 \n BECMG 0921/0922 36006KT 6000 NSW SCT030"
"taf	RKSI	2018-08-08 06:00:00	TAF RKSI 080500Z 0806/0912 28006KT 9999 SCT030 TN27/0821Z TX33/0906Z \n BECMG 0821/0822 22006KT 4200 -RA FEW010 BKN025 OVC080 \n BECMG 0823/0824 25007KT 6000 \n BECMG 0904/0905 NSW FEW010 SCT030 \n BECMG 0908/0909 16006KT \n BECMG 0910/0911 06006KT"
"taf	RKSI	2018-08-08 12:00:00	TAF RKSI 081100Z 0812/0918 28006KT 9999 FEW010 SCT030 TN27/0821Z TX32/0906Z \n BECMG 0821/0822 22006KT 4200 BR FEW010 BKN025 OVC080 \n BECMG 0823/0824 25007KT RA \n BECMG 0901/0902 6000 -RA \n BECMG 0904/0905 NSW FEW010 SCT030 \n BECMG 0911/0912 07006KT"
"taf	RKSI	2018-08-08 18:00:00	TAF RKSI 081700Z 0818/0924 27006KT 9999 FEW010 SCT030 TN27/0821Z TX32/0906Z TN26/0921Z \n BECMG 0821/0822 21006KT 6000 FEW010 BKN025 OVC080 \n BECMG 0900/0901 24007KT 4200 -RA \n BECMG 0904/0905 6000 NSW FEW010 SCT030 \n BECMG 0912/0913 05007KT \n TEMPO 0918/0921 4200 BR FEW010 BKN025"
"taf	RKSI	2018-08-09 00:00:00	TAF RKSI 092300Z 1000/1106 04010KT 7000 SCT030 TX33/1006Z TN26/1020Z TX33/1105Z \n BECMG 1003/1004 31007KT \n BECMG 1010/1011 13006KT \n TEMPO 1011/1015 06006KT \n BECMG 1102/1103 29007KT"
"taf	RKSI	2018-08-09 06:00:00	TAF RKSI 090500Z 0906/1012 24007KT 9999 FEW010 BKN025 BKN100 TN26/0921Z TX33/1006Z \n TEMPO 0906/0907 SHRA \n BECMG 0908/0909 SCT030 \n BECMG 0911/0912 32007KT FEW010 BKN025 \n BECMG 0915/0916 07007KT \n BECMG 0921/0922 01007KT SCT030"
"taf	RKSI	2018-08-09 12:00:00	TAF RKSI 091100Z 0912/1018 31007KT 9999 SCT030 BKN180 TN26/0921Z TX33/1006Z \n BECMG 0915/0916 07007KT \n BECMG 0921/0922 01007KT \n BECMG 1003/1004 31007KT \n BECMG 1012/1013 14007KT"
"taf	RKSI	2018-08-09 18:00:00	TAF COR RKSI 091700Z 0918/1024 04006KT 7000 FEW005 SCT030 TN26/0921Z TX33/1006Z TN26/1020Z \n TEMPO 0918/0922 4200 BR \n BECMG 1001/1002 10006KT \n BECMG 1003/1004 31007KT NSC \n BECMG 1010/1011 13006KT SCT030 \n TEMPO 1011/1016 06006KT"
"taf	RKSI	2018-08-09 18:15:00	TAF COR TAF COR RKSI 091700Z 0918/1024 04006KT 7000 FEW005 SCT030 TN26/0921Z TX33/1006Z TN26/1020Z \n TEMPO 0918/0922 4200 BR \n BECMG 1001/1002 10006KT \n BECMG 1003/1004 31007KT NSC \n BECMG 1010/1011 13006KT SCT030 \n TEMPO 1011/1016 06006KT"
"taf	RKSI	2018-08-10 00:00:00	TAF RKSI 102300Z 1100/1206 13006KT 9999 SCT030 TX33/1106Z TN26/1120Z TX33/1205Z \n BECMG 1103/1104 30007KT \n BECMG 1112/1113 15008KT \n BECMG 1204/1205 29007KT"
"taf	RKSI	2018-08-10 06:00:00	TAF RKSI 100500Z 1006/1112 31010KT 9999 FEW030 TN26/1021Z TX33/1106Z \n BECMG 1013/1014 14006KT \n BECMG 1017/1018 06007KT \n BECMG 1103/1104 31010KT"
"taf	RKSI	2018-08-10 12:00:00	TAF RKSI 101100Z 1012/1118 32010KT CAVOK TN26/1021Z TX33/1106Z \n BECMG 1014/1015 06007KT \n BECMG 1103/1104 31010KT \n BECMG 1113/1114 14010KT"
"taf	RKSI	2018-08-10 18:00:00	TAF RKSI 101700Z 1018/1124 15006KT 9999 SCT030 TN26/1021Z TX33/1106Z TN26/1120Z \n BECMG 1103/1104 30006KT \n BECMG 1112/1113 15008KT"
"taf	RKSI	2018-08-11 00:00:00	TAF RKSI 112300Z 1200/1306 15010KT 9999 SCT030 BKN120 TX34/1206Z TN27/1221Z TX33/1306Z \n BECMG 1203/1204 31010KT \n BECMG 1213/1214 14008KT \n TEMPO 1215/1218 17008KT 4200 -SHRA FEW010 BKN025 OVC100 \n BECMG 1302/1303 31008KT"
"taf	RKSI	2018-08-11 06:00:00	TAF RKSI 110500Z 1106/1212 30010KT 9999 SCT030 TN26/1120Z TX33/1205Z \n BECMG 1112/1113 15008KT \n BECMG 1204/1205 29007KT"
"taf	RKSI	2018-08-11 12:00:00	TAF RKSI 111100Z 1112/1218 14007KT 9999 SCT030 TN26/1120Z TX33/1205Z \n BECMG 1204/1205 30008KT \n TEMPO 1213/1215 24007KT \n BECMG 1216/1217 13006KT 4200 -SHRA FEW010 BKN025 OVC100"
"taf	RKSI	2018-08-11 18:00:00	TAF RKSI 111700Z 1118/1224 15006KT 9999 SCT030 TN27/1121Z TX34/1206Z TN27/1221Z \n BECMG 1203/1204 31008KT \n BECMG 1213/1214 15008KT \n TEMPO 1215/1218 18007KT 4200 -SHRA FEW010 BKN025 OVC100"
"taf	RKSI	2018-08-12 00:00:00	TAF RKSI 122300Z 1300/1406 15008KT CAVOK TX34/1306Z TN28/1321Z TX33/1406Z \n BECMG 1304/1305 31008KT \n BECMG 1314/1315 14006KT \n BECMG 1319/1320 4200 BR NSC \n BECMG 1322/1323 7000 NSW \n BECMG 1403/1405 31008KT"
"taf	RKSI	2018-08-12 06:00:00	TAF RKSI 120500Z 1206/1312 31008KT 9999 SCT030 BKN120 TN27/1221Z TX33/1306Z \n BECMG 1213/1214 14008KT \n TEMPO 1215/1218 25008KT 4200 -SHRA FEW010 BKN025 OVC100 \n BECMG 1302/1303 31008KT \n BECMG 1310/1311 14006KT"
"taf	RKSI	2018-08-12 12:00:00	TAF RKSI 121100Z 1212/1318 31008KT 7000 SCT030 BKN120 TN27/1221Z TX34/1306Z \n TEMPO 1215/1218 25008KT 4200 -SHRA FEW010 BKN025 OVC100 \n TEMPO 1219/1223 11006KT \n BECMG 1300/1301 14008KT \n BECMG 1304/1305 31008KT \n BECMG 1313/1314 14006KT"
"taf	RKSI	2018-08-12 18:00:00	TAF RKSI 121700Z 1218/1324 14006KT 9999 SCT030 BKN180 TN27/1221Z TX34/1306Z TN28/1321Z \n BECMG 1222/1223 32008KT \n BECMG 1314/1315 14006KT"
"taf	RKSI	2018-08-13 00:00:00	TAF RKSI 132300Z 1400/1506 08006KT 7000 SCT030 TX34/1406Z TN27/1421Z TX34/1505Z \n BECMG 1402/1403 31008KT NSC \n BECMG 1412/1413 07006KT \n BECMG 1502/1503 33008KT"
"taf	RKSI	2018-08-13 06:00:00	TAF RKSI 130500Z 1306/1412 24007KT 9999 SCT030 BKN200 TN27/1321Z TX34/1406Z \n BECMG 1307/1308 30007KT \n BECMG 1314/1315 07006KT 6000 NSC \n BECMG 1320/1321 4200 BR \n BECMG 1322/1323 24006KT 6000 NSW \n BECMG 1403/1404 30007KT"
"taf	RKSI	2018-08-13 12:00:00	TAF RKSI 131100Z 1312/1418 02006KT CAVOK TN28/1321Z TX34/1406Z \n BECMG 1315/1316 08005KT 6000 NSC \n BECMG 1319/1320 4200 BR \n BECMG 1321/1322 30007KT 6000 NSW SCT030 BKN200 \n BECMG 1412/1413 07006KT"
"taf	RKSI	2018-08-13 18:00:00	TAF RKSI 131700Z 1318/1424 08006KT 7000 SCT030 TN28/1321Z TX34/1406Z TN27/1421Z \n BECMG 1402/1403 31008KT NSC \n BECMG 1412/1413 07006KT"
"taf	RKSI	2018-08-14 00:00:00	TAF RKSI 142300Z 1500/1606 07007KT 7000 SCT030 TX34/1505Z TN26/1521Z TX34/1605Z \n BECMG 1503/1504 33008KT \n BECMG 1510/1511 07007KT \n BECMG 1603/1604 07015G25KT"
"taf	RKSI	2018-08-14 06:00:00	TAF RKSI 140500Z 1406/1512 24007KT 7000 FEW030 TN27/1421Z TX34/1505Z \n BECMG 1408/1409 33007KT \n BECMG 1417/1418 07007KT \n BECMG 1500/1501 33007KT"
"taf	RKSI	2018-08-14 12:00:00	TAF RKSI 141100Z 1412/1518 33007KT 7000 FEW030 TN27/1421Z TX34/1505Z \n BECMG 1417/1418 07007KT \n BECMG 1501/1502 33007KT"
"taf	RKSI	2018-08-14 18:00:00	TAF RKSI 141700Z 1418/1524 07007KT 7000 SCT030 TN27/1421Z TX34/1505Z TN26/1521Z \n BECMG 1503/1504 33008KT \n BECMG 1510/1511 08007KT"
"taf	RKSI	2018-08-15 00:00:00	TAF RKSI 152300Z 1600/1706 06008KT 9999 SCT030 BKN200 TX33/1605Z TN22/1621Z TX32/1705Z \n BECMG 1603/1604 07015G25KT \n TEMPO 1612/1615 07012KT \n BECMG 1615/1616 06010KT CAVOK \n BECMG 1700/1701 07015G25KT \n BECMG 1703/1704 08010KT"
"taf	RKSI	2018-08-15 06:00:00	TAF RKSI 150500Z 1506/1612 04007KT 7000 SCT030 TN27/1521Z TX35/1605Z \n TEMPO 1506/1509 31010KT \n BECMG 1602/1603 07015G25KT \n BECMG 1610/1611 06011KT"
"taf	RKSI	2018-08-15 07:00:00	TAF \n AMD RKSI 150535Z 1507/1612 04007KT 7000 SCT030 TN27/1521Z TX35/1605Z \n TEMPO 1507/1509 31010KT -SHRA FEW010 BKN030 \n BECMG 1602/1603 07015G25KT \n BECMG 1610/1611 06011KT"
"taf	RKSI	2018-08-15 07:12:00	TAF \n AMD RKSI 150712Z 1507/1612 04007KT 7000 SCT030 TN27/1521Z TX35/1605Z \n TEMPO 1507/1509 35018G30KT -SHRA FEW010 BKN030 \n BECMG 1602/1603 07015G25KT \n BECMG 1610/1611 06011KT"
"taf	RKSI	2018-08-15 07:15:00	TAF \n AMD TAF \n AMD RKSI 150712Z 1507/1612 04007KT 7000 SCT030 TN27/1521Z TX35/1605Z \n TEMPO 1507/1509 35018G30KT -SHRA FEW010 BKN030 \n BECMG 1602/1603 07015G25KT \n BECMG 1610/1611 06011KT"
"taf	RKSI	2018-08-15 07:35:00	TAF \n AMD RKSI 150535Z 1507/1612 04007KT 7000 SCT030 TN27/1521Z TX35/1605Z \n TEMPO 1507/1509 31010KT -SHRA FEW010 BKN030 \n BECMG 1602/1603 07015G25KT \n BECMG 1610/1611 06011KT"
"taf	RKSI	2018-08-15 07:36:00	TAF \n AMD TAF \n AMD RKSI 150535Z 1507/1612 04007KT 7000 SCT030 TN27/1521Z TX35/1605Z \n TEMPO 1507/1509 31010KT -SHRA FEW010 BKN030 \n BECMG 1602/1603 07015G25KT \n BECMG 1610/1611 06011KT"
"taf	RKSI	2018-08-15 12:00:00	TAF RKSI 151100Z 1512/1618 05008KT 7000 SCT030 TN27/1521Z TX35/1605Z \n BECMG 1602/1603 07015G25KT \n TEMPO 1611/1614 06011KT \n BECMG 1614/1615 05007KT"
"taf	RKSI	2018-08-15 18:00:00	TAF RKSI 151700Z 1518/1624 06010KT 9999 SCT030 TN27/1521Z TX34/1605Z TN22/1621Z \n BECMG 1602/1603 07015G25KT \n TEMPO 1612/1615 07012KT \n BECMG 1615/1616 06010KT"
"taf	RKSI	2018-08-16 00:00:00	TAF RKSI 162300Z 1700/1806 09015G25KT CAVOK TX32/1705Z TN22/1721Z TX32/1805Z \n TEMPO 1702/1708 10010KT \n BECMG 1708/1709 09008KT 9999 SCT030 \n BECMG 1711/1712 12015G25KT \n BECMG 1713/1714 11008KT \n BECMG 1805/1806 27006KT"
"taf	RKSI	2018-08-16 06:00:00	TAF RKSI 160500Z 1606/1712 07008KT 9999 SCT030 TN22/1621Z TX32/1705Z \n TEMPO 1606/1613 08015G25KT \n BECMG 1700/1701 07015G25KT \n TEMPO 1702/1709 10008KT \n BECMG 1709/1710 07008KT"
"taf	RKSI	2018-08-16 12:00:00	TAF RKSI 161100Z 1612/1718 07008KT 9999 SCT030 TN22/1621Z TX32/1705Z \n BECMG 1700/1701 07015G25KT \n TEMPO 1702/1709 10008KT \n BECMG 1709/1710 07008KT"
"taf	RKSI	2018-08-16 18:00:00	TAF RKSI 161700Z 1618/1724 08008KT CAVOK TN23/1621Z TX32/1705Z TN22/1721Z \n BECMG 1700/1701 09015G25KT \n TEMPO 1702/1710 11008KT \n BECMG 1710/1711 08007KT 9999 SCT030"
"taf	RKSI	2018-08-17 00:00:00	TAF RKSI 172300Z 1800/1906 13008KT CAVOK TX31/1806Z TN23/1820Z TX30/1905Z \n BECMG 1805/1806 31006KT \n BECMG 1812/1813 14006KT \n TEMPO 1814/1818 04006KT \n BECMG 1904/1905 31006KT"
"taf	RKSI	2018-08-17 06:00:00	TAF RKSI 170500Z 1706/1812 10010KT CAVOK TN22/1721Z TX30/1806Z \n TEMPO 1706/1709 04008KT \n BECMG 1804/1805 31008KT"
"taf	RKSI	2018-08-17 12:00:00	TAF RKSI 171100Z 1712/1818 08010KT CAVOK TN23/1721Z TX31/1806Z \n BECMG 1713/1714 12015G25KT \n BECMG 1715/1716 10010KT \n TEMPO 1805/1808 35007KT \n BECMG 1809/1810 03008KT \n BECMG 1814/1815 09008KT"
"taf	RKSI	2018-08-17 18:00:00	TAF RKSI 171700Z 1718/1824 13007KT CAVOK TN23/1721Z TX31/1806Z TN24/1820Z \n TEMPO 1805/1812 31006KT \n BECMG 1812/1813 03006KT \n BECMG 1817/1818 14006KT"
"taf	RKSI	2018-08-18 00:00:00	TAF RKSI 182300Z 1900/2006 14006KT 9999 SCT030 BKN140 TX30/1905Z TN24/1921Z TX31/2005Z \n BECMG 1903/1904 31007KT \n BECMG 1913/1914 15006KT \n TEMPO 1915/1918 05006KT \n BECMG 2003/2004 30008KT"
"taf	RKSI	2018-08-18 06:00:00	TAF RKSI 180500Z 1806/1912 32008KT 9999 SCT030 BKN180 TN24/1821Z TX30/1906Z \n BECMG 1812/1813 13007KT \n TEMPO 1823/1902 05007KT \n BECMG 1903/1904 31007KT"
"taf	RKSI	2018-08-18 12:00:00	TAF RKSI 181100Z 1812/1918 06006KT 9999 SCT030 BKN180 TN24/1821Z TX30/1906Z \n BECMG 1813/1814 13006KT \n BECMG 1903/1904 31007KT \n BECMG 1911/1912 07007KT"
"taf	RKSI	2018-08-18 18:00:00	TAF RKSI 181700Z 1818/1924 14006KT 9999 SCT030 BKN140 TN24/1821Z TX30/1905Z TN24/1921Z \n BECMG 1903/1904 31007KT \n BECMG 1913/1914 15006KT \n TEMPO 1915/1918 05006KT"
"taf	RKSI	2018-08-19 00:00:00	TAF RKSI 192300Z 2000/2106 16010KT CAVOK TX33/2006Z TN26/2021Z TX30/2106Z \n BECMG 2011/2012 17015G25KT \n TEMPO 2020/2101 18017G35KT 4200 SHRA FEW010 BKN025 OVC080 \n BECMG 2102/2103 31010KT"
"taf	RKSI	2018-08-19 06:00:00	TAF RKSI 190500Z 1906/2012 31007KT 8000 SCT030 BKN140 TN24/1921Z TX31/2005Z \n BECMG 1913/1914 15006KT \n TEMPO 1915/1918 05006KT \n BECMG 2003/2004 26008KT \n BECMG 2010/2011 17008KT"
"taf	RKSI	2018-08-19 12:00:00	TAF RKSI 191100Z 1912/2018 34008KT 8000 SCT030 BKN140 TN24/1921Z TX31/2005Z \n BECMG 1916/1917 15007KT \n TEMPO 2003/2007 31010KT \n TEMPO 2009/2012 23015G25KT \n BECMG 2013/2014 20018G30KT"
"taf	RKSI	2018-08-19 18:00:00	TAF RKSI 191700Z 1918/2024 06006KT 9999 FEW030 BKN180 TN25/1921Z TX33/2006Z TN26/2021Z \n BECMG 1922/1923 17010KT \n BECMG 2011/2012 19015G25KT"
"taf	RKSI	2018-08-20 00:00:00	TAF RKSI 202300Z 2100/2206 20008KT 9999 SCT030 TX30/2106Z TN24/2121Z TX34/2206Z \n BECMG 2103/2104 31007KT \n BECMG 2121/2122 06010KT"
"taf	RKSI	2018-08-20 06:00:00	TAF RKSI 200500Z 2006/2112 19013KT 8000 FEW010 BKN025 BKN150 TN26/2021Z TX30/2106Z \n BECMG 2011/2012 19015G25KT \n TEMPO 2015/2024 20017G35KT 3500 SHRA \n BECMG 2102/2103 25012KT SCT030 \n BECMG 2110/2111 31010KT 4200 BR"
"taf	RKSI	2018-08-20 12:00:00	TAF RKSI 201100Z 2012/2118 20020G35KT 8000 FEW010 BKN025 BKN120 TN26/2021Z TX30/2106Z \n TEMPO 2013/2024 3500 -SHRA \n BECMG 2101/2102 25014KT SCT030 \n BECMG 2110/2111 31010KT \n BECMG 2113/2114 05007KT 4200 BR \n TEMPO 2116/2118 2500 SCT005 BKN025"
"taf	RKSI	2018-08-20 18:00:00	TAF RKSI 201700Z 2018/2124 19022G35KT 3500 RA FEW010 BKN020 OVC080 TN26/2021Z TX30/2106Z TN24/2121Z \n BECMG 2019/2020 7000 NSW SCT030 \n BECMG 2022/2023 25017G35KT \n BECMG 2100/2101 27015G25KT \n BECMG 2102/2103 31010KT \n BECMG 2105/2106 01006KT"
"taf	RKSI	2018-08-20 19:21:00	TAF \n AMD RKSI 201921Z 2019/2124 19015G25KT 7000 FEW005 BKN025 TN26/2021Z TX30/2106Z TN24/2121Z \n BECMG 2100/2101 27015G25KT \n BECMG 2102/2103 31010KT \n BECMG 2105/2106 01006KT"
"taf	RKSI	2018-08-20 19:27:00	TAF \n AMD TAF \n AMD RKSI 201921Z 2019/2124 19015G25KT 7000 FEW005 BKN025 TN26/2021Z TX30/2106Z TN24/2121Z \n BECMG 2100/2101 27015G25KT \n BECMG 2102/2103 31010KT \n BECMG 2105/2106 01006KT"
"taf	RKSI	2018-08-21 00:00:00	TAF RKSI 212300Z 2200/2306 05008KT 8000 SCT030 BKN120 TX34/2206Z TN27/2221Z TX33/2305Z \n BECMG 2203/2204 35010KT \n BECMG 2209/2210 06010KT \n BECMG 2214/2215 10015G25KT \n BECMG 2222/2223 09013KT 4200 -RA FEW010 BKN025 OVC080 \n BECMG 2301/2302 04015G25KT"
"taf	RKSI	2018-08-21 06:00:00	TAF RKSI 210500Z 2106/2212 29010KT 9999 SCT030 TN24/2121Z TX33/2206Z \n BECMG 2115/2116 05008KT 6000 NSC \n BECMG 2203/2204 35010KT 9999 FEW030 BKN120 \n BECMG 2209/2210 06012KT"
"taf	RKSI	2018-08-21 12:00:00	TAF RKSI 211100Z 2112/2218 31010KT 9999 SCT030 TN24/2121Z TX33/2206Z \n BECMG 2114/2115 05008KT 6000 NSC \n BECMG 2203/2204 35010KT 9999 FEW030 BKN120 \n BECMG 2209/2210 06012KT \n BECMG 2212/2213 10015G25KT \n BECMG 2217/2218 09012KT 4200 -RA FEW010 BKN030 OVC080"
"taf	RKSI	2018-08-21 18:00:00	TAF RKSI 211700Z 2118/2224 05008KT 8000 NSC TN24/2121Z TX34/2206Z TN27/2221Z \n BECMG 2203/2204 35010KT SCT030 BKN120 \n BECMG 2209/2210 06010KT \n BECMG 2212/2213 10015G25KT \n TEMPO 2222/2224 09013KT -RA FEW010 BKN025 OVC080"
"taf	RKSI	2018-08-22 00:00:00	TAF RKSI 222300Z 2300/2406 05017G30KT 7000 -RA FEW010 BKN025 OVC080 TX32/2305Z TN26/2321Z TX29/2406Z \n TEMPO 2313/2318 NSW \n BECMG 2321/2322 02035G45KT 3500 \n BECMG 2400/2401 33025G35KT 7000 \n BECMG 2402/2403 33013KT NSW"
"taf	RKSI	2018-08-22 06:00:00	TAF RKSI 220500Z 2206/2312 35008KT CAVOK TN26/2221Z TX32/2305Z \n BECMG 2210/2211 06010KT \n BECMG 2214/2215 09015G25KT 9999 SCT030 BKN120 \n BECMG 2222/2223 08013KT 4200 -RA FEW010 BKN025 OVC080 \n BECMG 2301/2302 05015G25KT \n BECMG 2307/2308 6000 NSW"
"taf	RKSI	2018-08-22 12:00:00	TAF RKSI 221100Z 2212/2318 05010KT CAVOK TN26/2221Z TX32/2305Z \n BECMG 2214/2215 08015G25KT 9999 SCT030 BKN120 \n BECMG 2222/2223 05015G25KT 6000 -RA FEW010 BKN025 OVC080 \n TEMPO 2307/2310 NSW \n BECMG 2311/2312 05017G35KT"
"taf	RKSI	2018-08-22 18:00:00	TAF RKSI 221700Z 2218/2324 08014KT 9999 SCT030 BKN120 TN29/2221Z TX32/2305Z TN26/2321Z \n BECMG 2222/2223 05015G25KT 6000 -RA FEW010 BKN025 OVC080 \n BECMG 2311/2312 05017G35KT \n BECMG 2321/2322 02035G45KT 2800 RA"
"taf	RKSI	2018-08-23 06:00:00	TAF RKSI 230500Z 2306/2412 04016G30KT 7000 FEW010 BKN025 OVC080 TN26/2321Z TX30/2406Z \n TEMPO 2306/2310 -RA \n BECMG 2318/2319 4200 RA \n BECMG 2400/2401 34011G25KT 7000 NSW \n BECMG 2403/2404 28010KT \n BECMG 2411/2412 22008KT"
"taf	RKSI	2018-08-23 12:00:00	TAF RKSI 231100Z 2312/2418 04015G30KT 6000 -RA FEW010 BKN025 OVC080 TN26/2321Z TX30/2406Z \n BECMG 2321/2322 4200 RA \n BECMG 2400/2401 34011G25KT 6000 \n TEMPO 2403/2405 28011KT NSW \n BECMG 2406/2407 26007KT NSW"
"taf	RKSI	2018-08-23 18:00:00	TAF RKSI 231700Z 2318/2424 03017G35KT 6000 RA FEW010 BKN025 OVC080 TN23/2321Z TX29/2406Z TN23/2416Z \n BECMG 2400/2401 34015G25KT -RA \n TEMPO 2403/2406 30012KT NSW \n BECMG 2406/2407 26008KT NSW \n BECMG 2421/2422 SCT030 BKN120 \n BECMG 2423/2424 32010KT"
"taf	RKSI	2018-08-24 00:00:00	TAF RKSI 242300Z 2500/2606 27010KT 9999 FEW030 BKN120 TX29/2505Z TN21/2521Z TX28/2605Z \n BECMG 2513/2514 34006KT \n BECMG 2519/2520 06006KT 6000 NSC \n BECMG 2602/2603 15006KT FEW010 BKN025 OVC080 \n TEMPO 2605/2606 12007KT -RA"
"taf	RKSI	2018-08-24 06:00:00	TAF RKSI 240500Z 2406/2512 30010KT 7000 FEW010 BKN025 OVC080 TN23/2416Z TX29/2505Z \n TEMPO 2412/2419 24007KT FEW010 SCT030 \n BECMG 2420/2421 22007KT SCT030 \n BECMG 2422/2423 28009KT NSC"
"taf	RKSI	2018-08-24 12:00:00	TAF RKSI 241100Z 2412/2518 26008KT 7000 FEW010 BKN025 TN23/2416Z TX29/2505Z \n BECMG 2420/2421 20007KT SCT030 \n BECMG 2422/2423 28010KT NSC \n BECMG 2513/2514 35006KT \n BECMG 2517/2518 07006KT"
"taf	RKSI	2018-08-24 18:00:00	TAF RKSI 241700Z 2418/2524 26008KT 9999 FEW010 BKN025 TN23/2416Z TX29/2505Z TN21/2521Z \n BECMG 2419/2420 20008KT SCT030 \n BECMG 2422/2423 28010KT CAVOK \n BECMG 2513/2514 35006KT \n BECMG 2518/2519 08006KT 6000 NSC"
"taf	RKSI	2018-08-25 00:00:00	TAF RKSI 252300Z 2600/2706 15006KT 9999 SCT030 BKN120 TX28/2606Z TN22/2620Z TX28/2705Z \n BECMG 2604/2605 18008KT 6000 -RA BKN025 OVC080 \n BECMG 2607/2608 NSW FEW010 SCT030 BKN120 \n BECMG 2610/2611 12006KT -RA FEW010 BKN025 OVC080 \n BECMG 2617/2618 07007KT 4200 \n BECMG 2623/2624 6000 NSW FEW010 SCT030 BKN120"
"taf	RKSI	2018-08-25 06:00:00	TAF RKSI 250500Z 2506/2612 29010KT 9999 SCT030 BKN180 TN21/2521Z TX27/2606Z \n BECMG 2512/2513 35007KT \n BECMG 2514/2515 07007KT \n BECMG 2516/2517 01006KT \n BECMG 2603/2604 14007KT \n BECMG 2611/2612 4200 -RA FEW010 BKN025 OVC080"
"taf	RKSI	2018-08-25 12:00:00	TAF RKSI 251100Z 2512/2618 29007KT 9999 SCT030 BKN180 TN21/2521Z TX28/2606Z \n BECMG 2517/2518 07006KT \n BECMG 2603/2604 14010KT \n BECMG 2611/2612 -RA FEW010 BKN025 OVC080 \n BECMG 2615/2616 4200"
"taf	RKSI	2018-08-25 18:00:00	TAF RKSI 251700Z 2518/2624 06005KT CAVOK TN21/2521Z TX27/2606Z TN21/2620Z \n TEMPO 2522/2604 15006KT \n BECMG 2605/2606 18007KT 6000 FEW010 SCT030 BKN120 \n BECMG 2610/2611 11006KT -RA FEW010 BKN025 OVC080 \n BECMG 2616/2617 08006KT 4200 \n BECMG 2622/2623 05006KT 6000 NSW"
"taf	RKSI	2018-08-26 00:00:00	TAF RKSI 262300Z 2700/2806 08006KT 6000 -RA FEW010 BKN025 OVC080 TX28/2706Z TN23/2721Z TX28/2805Z \n BECMG 2702/2703 NSW FEW010 SCT030 BKN120 \n TEMPO 2714/2716 4200 -RA BKN030 OVC100 \n BECMG 2719/2720 15006KT 4200 -RA FEW010 BKN025 OVC080 \n BECMG 2723/2724 6000 \n BECMG 2804/2805 NSW"
"taf	RKSI	2018-08-26 03:10:00	TAF \n AMD RKSI 260310Z 2603/2706 19010KT 7000 -RA BKN030 OVC080 TX28/2606Z TN22/2620Z TX28/2705Z \n BECMG 2610/2611 12006KT 4200 RA \n BECMG 2617/2618 07007KT 2800 -RA \n BECMG 2623/2624 6000 NSW FEW010 SCT030 BKN120"
"taf	RKSI	2018-08-26 03:15:00	TAF \n AMD TAF \n AMD RKSI 260310Z 2603/2706 19010KT 7000 -RA BKN030 OVC080 TX28/2606Z TN22/2620Z TX28/2705Z \n BECMG 2610/2611 12006KT 4200 RA \n BECMG 2617/2618 07007KT 2800 -RA \n BECMG 2623/2624 6000 NSW FEW010 SCT030 BKN120"
"taf	RKSI	2018-08-26 06:00:00	TAF RKSI 260500Z 2606/2712 17010KT 7000 -RA FEW010 BKN025 OVC080 TN21/2621Z TX26/2706Z \n BECMG 2611/2612 13008KT 4200 RA \n BECMG 2615/2616 05008KT 2800 \n BECMG 2617/2618 3500 -RA \n BECMG 2700/2701 17008KT 6000 NSW SCT030 BKN150"
"taf	RKSI	2018-08-26 09:12:00	TAF \n AMD RKSI 260912Z 2609/2712 13008KT 9999 FEW010 BKN030 OVC120 TN21/2621Z TX26/2706Z \n BECMG 2611/2612 05008KT 4200 -RA \n BECMG 2617/2618 2800 RA \n BECMG 2700/2701 17008KT 6000 NSW SCT030 BKN150"
"taf	RKSI	2018-08-26 09:18:00	TAF \n AMD TAF \n AMD RKSI 260912Z 2609/2712 13008KT 9999 FEW010 BKN030 OVC120 TN21/2621Z TX26/2706Z \n BECMG 2611/2612 05008KT 4200 -RA \n BECMG 2617/2618 2800 RA \n BECMG 2700/2701 17008KT 6000 NSW SCT030 BKN150"
"taf	RKSI	2018-08-26 12:00:00	TAF RKSI 261100Z 2612/2718 14008KT 7000 -RA FEW010 BKN025 OVC080 TN21/2621Z TX28/2706Z \n BECMG 2617/2618 3500 SHRA FEW010CB BKN020 OVC080 \n BECMG 2622/2623 -RA \n BECMG 2701/2702 18007KT 6000 NSW SCT030 BKN150 \n BECMG 2715/2716 14007KT 3500 -RA FEW010 BKN025 OVC080"
"taf	RKSI	2018-08-26 18:00:00	TAF RKSI 261700Z 2618/2724 08006KT 6000 -RA FEW010 BKN025 OVC080 TN21/2621Z TX28/2706Z TN23/2721Z \n TEMPO 2620/2622 3200 RA \n BECMG 2700/2701 NSW FEW010 SCT030 BKN120 \n BECMG 2714/2715 20006KT -RA FEW010 BKN025 OVC080 \n BECMG 2717/2718 15006KT 4200 \n BECMG 2723/2724 05006KT 6000 NSW"
"taf	RKSI	2018-08-27 00:00:00	TAF RKSI 272300Z 2800/2906 12008KT 7000 BKN020 BKN150 TX28/2806Z TN24/2821Z TX29/2906Z \n TEMPO 2801/2804 15010KT 4200 -RA \n BECMG 2806/2807 18012KT 4200 -RA \n TEMPO 2809/2814 2500 RA SCT008 BKN020 OVC080 \n BECMG 2815/2816 20015G25KT 6000 NSW SCT030 BKN150"
"taf	RKSI	2018-08-27 06:00:00	TAF RKSI 270500Z 2706/2812 11008KT 7000 FEW010 SCT030 BKN120 TN23/2721Z TX28/2805Z \n BECMG 2717/2718 4200 -RA FEW010 BKN025 OVC080 \n TEMPO 2723/2803 15006KT 7000 \n BECMG 2804/2805 21008KT \n BECMG 2810/2811 2800"
"taf	RKSI	2018-08-27 12:00:00	TAF RKSI 271100Z 2712/2818 07008KT 7000 FEW010 SCT030 BKN120 TN23/2721Z TX28/2805Z \n BECMG 2718/2719 15006KT 4200 BR FEW010 BKN025 OVC080 \n BECMG 2721/2722 18006KT -RA \n BECMG 2803/2804 21008KT 2800 RA \n BECMG 2810/2811 15008KT 3500 -RA \n BECMG 2814/2815 18015G25KT 1400"
"taf	RKSI	2018-08-27 18:00:00	TAF RKSI 271700Z 2718/2824 06006KT 6000 SCT008 BKN020 BKN180 TN23/2721Z TX27/2806Z TN24/2821Z \n BECMG 2723/2724 12008KT 4200 -RA BKN025 OVC080 \n BECMG 2802/2803 15010KT 2800 RA SCT010 BKN020 OVC100 \n BECMG 2808/2809 18012KT 6000 -RA BKN030 OVC120 \n BECMG 2815/2816 20015G25KT NSW SCT030 BKN150 \n TEMPO 2821/2824 -RA FEW010 BKN030 BKN150"
"taf	RKSI	2018-08-28 00:00:00	TAF RKSI 282300Z 2900/3006 21015G25KT 9999 SCT030 BKN180 TX29/2906Z TN24/2921Z TX27/3006Z \n TEMPO 2905/2907 23012KT RA FEW010 BKN025 OVC080 \n BECMG 2908/2909 23012KT \n TEMPO 2918/3001 29010KT 3500 RA FEW010 BKN025 OVC100 \n BECMG 3002/3003 31008KT"
"taf	RKSI	2018-08-28 06:00:00	TAF RKSI 280500Z 2806/2912 18008KT 7000 -RA FEW010 BKN025 OVC080 TN24/2821Z TX29/2906Z \n BECMG 2808/2809 4200 \n TEMPO 2811/2813 2500 RA \n BECMG 2815/2816 22015G25KT BR FEW010 SCT030 BKN150 \n BECMG 2821/2822 6000 NSW \n BECMG 2823/2824 4200 -RA FEW010 BKN025 OVC080"
"taf	RKSI	2018-08-28 09:48:00	TAF \n AMD RKSI 280848Z 2809/2912 18008KT 2500 -TSRA SCT010CB BKN025 OVC080 TN24/2821Z TX29/2906Z \n BECMG 2810/2811 4200 -RA FEW010 BKN025 OVC080 \n TEMPO 2812/2814 2500 RA \n BECMG 2815/2816 22015G25KT BR FEW010 SCT030 BKN150 \n BECMG 2821/2822 6000 NSW \n BECMG 2823/2824 4200 -RA FEW010 BKN025 OVC080"
"taf	RKSI	2018-08-28 09:51:00	TAF \n AMD TAF \n AMD RKSI 280848Z 2809/2912 18008KT 2500 -TSRA SCT010CB BKN025 OVC080 TN24/2821Z TX29/2906Z \n BECMG 2810/2811 4200 -RA FEW010 BKN025 OVC080 \n TEMPO 2812/2814 2500 RA \n BECMG 2815/2816 22015G25KT BR FEW010 SCT030 BKN150 \n BECMG 2821/2822 6000 NSW \n BECMG 2823/2824 4200 -RA FEW010 BKN025 OVC080"
"taf	RKSI	2018-08-28 12:00:00	TAF RKSI 281100Z 2812/2918 03010KT 2500 -RA FEW010 BKN025 OVC080 TN24/2821Z TX29/2906Z \n TEMPO 2812/2813 -TSRA FEW010CB BKN025 OVC080 \n BECMG 2814/2815 23015G25KT \n BECMG 2822/2823 3500 \n BECMG 2903/2904 23013KT \n TEMPO 2914/2918 1400"
"taf	RKSI	2018-08-28 14:00:00	TAF \n AMD TAF \n AMD RKSI 281358Z 2814/2918 15015G25KT 6000 -RA FEW010 BKN025 OVC080 TN24/2821Z TX29/2906Z \n BECMG 2815/2816 NSW \n BECMG 2912/2913 1400 -RA"
"taf	RKSI	2018-08-28 14:58:00	TAF \n AMD RKSI 281358Z 2814/2918 15015G25KT 6000 -RA FEW010 BKN025 OVC080 TN24/2821Z TX29/2906Z \n BECMG 2815/2816 NSW \n BECMG 2912/2913 1400 -RA"
"taf	RKSI	2018-08-28 18:00:00	TAF RKSI 281700Z 2818/2924 21012KT 9999 FEW010 BKN020 TN24/2821Z TX29/2906Z TN24/2921Z \n BECMG 2823/2824 SCT030 BKN150 \n BECMG 2905/2906 FEW010 BKN025 OVC100 \n BECMG 2911/2912 31008KT -RA \n BECMG 2923/2924 NSW"
"taf	RKSI	2018-08-29 00:00:00	TAF RKSI 292300Z 3000/3106 31010KT 7000 FEW010 BKN020 BKN120 TX27/3006Z TN21/3021Z TX26/3105Z \n BECMG 3002/3003 SCT030 BKN180 \n BECMG 3015/3016 34007KT 4200 BR \n TEMPO 3017/3020 -RA FEW005 BKN020 OVC080 \n BECMG 3021/3022 31008KT 7000 NSW"
"taf	RKSI	2018-08-29 06:00:00	TAF \n AMD RKSI 290500Z 2906/3012 21015G25KT 9999 FEW010 BKN025 OVC080 TN23/2921Z TX28/3006Z \n TEMPO 2906/2909 4200 -TSRA SCT010 FEW015CB BKN025 OVC080 \n BECMG 2911/2912 21012KT 6000 -RA \n BECMG 2913/2914 24010KT 3500 RA \n BECMG 2920/2921 -RA \n BECMG 2923/2924 30008KT 6000 NSW SCT030 BKN180"
"taf	RKSI	2018-08-29 06:42:00	TAF \n AMD TAF \n AMD RKSI 290500Z 2906/3012 21015G25KT 9999 FEW010 BKN025 OVC080 TN23/2921Z TX28/3006Z \n TEMPO 2906/2909 4200 -TSRA SCT010 FEW015CB BKN025 OVC080 \n BECMG 2911/2912 21012KT 6000 -RA \n BECMG 2913/2914 24010KT 3500 RA \n BECMG 2920/2921 -RA \n BECMG 2923/2924 30008KT 6000 NSW SCT030 BKN180"
"taf	RKSI	2018-08-29 12:00:00	TAF RKSI 291100Z 2912/3018 21010KT 4200 -TSRA FEW005 SCT015CB BKN025 OVC080 TN23/2921Z TX28/3006Z \n BECMG 2914/2915 25010KT RA SCT008 BKN025 OVC080 \n BECMG 2920/2921 30008KT -RA \n BECMG 2923/2924 6000 NSW \n BECMG 3003/3004 SCT030 BKN180"
"taf	RKSI	2018-08-29 15:05:00	TAF \n AMD RKSI 291505Z 2915/3018 21010KT 4200 -TSRA FEW005 SCT015CB BKN025 OVC080 TN23/2921Z TX28/3006Z \n TEMPO 2915/2917 1500 TSRA \n BECMG 2918/2919 30008KT -RA \n BECMG 2923/2924 6000 NSW \n BECMG 3003/3004 SCT030 BKN180"
"taf	RKSI	2018-08-29 15:12:00	TAF \n AMD TAF \n AMD RKSI 291505Z 2915/3018 21010KT 4200 -TSRA FEW005 SCT015CB BKN025 OVC080 TN23/2921Z TX28/3006Z \n TEMPO 2915/2917 1500 TSRA \n BECMG 2918/2919 30008KT -RA \n BECMG 2923/2924 6000 NSW \n BECMG 3003/3004 SCT030 BKN180"
"taf	RKSI	2018-08-29 18:00:00	TAF RKSI 291700Z 2918/3024 25008KT 7000 FEW005 BKN020 OVC080 TN23/2921Z TX27/3006Z TN21/3021Z \n TEMPO 2918/2921 4200 -RA \n BECMG 3002/3003 31010KT SCT030 BKN180 \n BECMG 3015/3016 34007KT 4200 BR \n TEMPO 3017/3020 -RA FEW005 BKN020 OVC080 \n BECMG 3021/3022 25010KT 7000 NSW"
"taf	RKSI	2018-08-30 00:00:00	TAF RKSI 302300Z 3100/0106 32008KT 8000 FEW010 SCT030 BKN180 TX27/3105Z TN21/3121Z TX29/0105Z \n TEMPO 3100/3101 -RA \n BECMG 3115/3116 07008KT \n BECMG 3119/3120 11007KT 4200 BR \n BECMG 3122/3123 08008KT 8000 NSW"
"taf	RKSI	2018-08-30 06:00:00	TAF RKSI 300500Z 3006/3112 29008KT 9999 SCT030 BKN120 TN21/3021Z TX27/3105Z \n BECMG 3015/3016 FEW006 BKN025 OVC080 \n BECMG 3017/3018 33006KT 6000 -RA \n BECMG 3021/3022 29007KT NSW SCT030 BKN150"
"taf	RKSI	2018-08-30 12:00:00	TAF RKSI 301100Z 3012/3118 26007KT 9999 FEW010 BKN030 BKN080 TN22/3021Z TX27/3105Z \n BECMG 3017/3018 33006KT 6000 -RA \n BECMG 3022/3023 29010KT 9999 NSW FEW030 SCT180 \n BECMG 3111/3112 35006KT \n BECMG 3116/3117 07005KT 6000"
"taf	RKSI	2018-08-30 18:00:00	TAF RKSI 301700Z 3018/3124 33008KT 8000 FEW010 SCT030 BKN180 TN22/3021Z TX27/3105Z TN21/3121Z \n TEMPO 3018/3021 -RA FEW010 BKN025 BKN100 \n BECMG 3111/3112 07008KT \n BECMG 3119/3120 11007KT 4200 BR \n BECMG 3122/3123 08008KT 8000 NSW"
"taf	RKSI	2018-08-30 22:15:00	TAF \n AMD RKSI 302215Z 3022/3124 33008KT 8000 FEW010 SCT030 BKN180 TN22/3021Z TX27/3105Z TN21/3121Z \n TEMPO 3022/3101 -RA FEW010 BKN025 BKN100 \n BECMG 3111/3112 07008KT \n BECMG 3119/3120 11007KT 4200 BR \n BECMG 3122/3123 08008KT 8000 NSW"
"taf	RKSI	2018-08-30 22:21:00	TAF \n AMD TAF \n AMD RKSI 302215Z 3022/3124 33008KT 8000 FEW010 SCT030 BKN180 TN22/3021Z TX27/3105Z TN21/3121Z \n TEMPO 3022/3101 -RA FEW010 BKN025 BKN100 \n BECMG 3111/3112 07008KT \n BECMG 3119/3120 11007KT 4200 BR \n BECMG 3122/3123 08008KT 8000 NSW"
"taf	RKSI	2018-08-31 00:00:00	TAF RKSI 312300Z 0100/0206 07007KT 8000 NSC TX29/0105Z TN20/0121Z TX28/0205Z \n BECMG 0106/0107 28007KT FEW030 \n BECMG 0109/0110 08010KT \n BECMG 0203/0204 15006KT NSC"
"taf	RKSI	2018-08-31 06:00:00	TAF RKSI 310500Z 3106/0112 29007KT 8000 SCT030 BKN180 TN21/3121Z TX29/0105Z \n BECMG 3115/3116 07006KT \n BECMG 3120/3121 4200 BR \n BECMG 3123/3124 10007KT 8000 NSW \n TEMPO 0106/0110 28007KT \n BECMG 0111/0112 04006KT"
"taf	RKSI	2018-08-31 12:00:00	TAF RKSI 311100Z 3112/0118 27006KT 8000 SCT030 BKN180 TN21/3121Z TX29/0105Z \n BECMG 3115/3116 07006KT \n BECMG 3120/3121 4200 BR \n BECMG 3123/3124 10007KT 8000 NSW \n BECMG 0106/0107 28007KT \n BECMG 0110/0111 07007KT"
"taf	RKSI	2018-08-31 18:00:00	TAF RKSI 311700Z 3118/0124 06006KT 6000 NSC TN21/3121Z TX29/0105Z TN20/0121Z \n BECMG 3121/3122 4200 BR \n BECMG 3123/3124 09007KT 8000 NSW \n BECMG 0106/0107 28007KT SCT030 \n BECMG 0109/0110 09007KT"
"taf	RKSI	2018-09-01 00:00:00	TAF RKSI 012300Z 0200/0306 10010KT CAVOK TX28/0205Z TN22/0221Z TX27/0303Z \n BECMG 0203/0204 16008KT \n BECMG 0210/0211 06007KT \n BECMG 0212/0213 14010KT 6000 FEW030 BKN180 \n BECMG 0223/0224 -RA FEW010 BKN025 OVC100 \n TEMPO 0304/0306 4200 RA"
"taf	RKSI	2018-09-01 06:00:00	TAF RKSI 010500Z 0106/0212 28006KT 9999 FEW030 TN20/0121Z TX29/0205Z \n BECMG 0109/0110 07007KT \n BECMG 0202/0203 30006KT \n TEMPO 0203/0209 14007KT \n BECMG 0210/0211 07006KT"
"taf	RKSI	2018-09-01 12:00:00	TAF RKSI 011100Z 0112/0218 06007KT 9999 SCT030 TN20/0121Z TX29/0205Z \n TEMPO 0203/0210 14007KT \n BECMG 0214/0215 15007KT BKN025 OVC100"
"taf	RKSI	2018-09-01 18:00:00	TAF RKSI 011700Z 0118/0224 10010KT 9999 FEW030 BKN180 TN20/0121Z TX28/0205Z TN22/0221Z \n BECMG 0203/0204 16008KT \n BECMG 0208/0209 06007KT \n BECMG 0212/0213 15010KT 6000 \n BECMG 0219/0220 FEW010 BKN030 OVC100 \n BECMG 0222/0223 -RA"
"taf	RKSI	2018-09-02 00:00:00	TAF RKSI 022300Z 0300/0406 16008KT 6000 RA FEW010 BKN025 OVC100 TX27/0306Z TN23/0321Z TX28/0405Z \n TEMPO 0306/0308 23012KT 4200 \n TEMPO 0309/0311 31010KT 4200 \n BECMG 0311/0312 32007KT NSW FEW010 SCT030 BKN120 \n BECMG 0323/0324 02010KT \n TEMPO 0401/0406 31010G20KT NSC"
"taf	RKSI	2018-09-02 06:00:00	TAF RKSI 020500Z 0206/0312 16007KT 9999 SCT040 BKN180 TN23/0221Z TX27/0306Z \n BECMG 0210/0211 15015G25KT \n BECMG 0212/0213 14010KT \n BECMG 0300/0301 3500 -RA FEW010 BKN020 OVC080 \n TEMPO 0303/0306 29008KT 2500 SHRA \n BECMG 0307/0308 32010KT"
"taf	RKSI	2018-09-02 08:20:00	TAF \n AMD RKSI 020820Z 0208/0312 31008KT 9999 FEW030 BKN080 BKN150 TN23/0221Z TX27/0306Z \n BECMG 0212/0213 14010KT SCT030 BKN150 \n BECMG 0300/0301 3500 -RA FEW010 BKN020 OVC080 \n TEMPO 0303/0306 29008KT 2500 SHRA \n BECMG 0307/0308 32010KT"
"taf	RKSI	2018-09-02 08:21:00	TAF \n AMD TAF \n AMD RKSI 020820Z 0208/0312 31008KT 9999 FEW030 BKN080 BKN150 TN23/0221Z TX27/0306Z \n BECMG 0212/0213 14010KT SCT030 BKN150 \n BECMG 0300/0301 3500 -RA FEW010 BKN020 OVC080 \n TEMPO 0303/0306 29008KT 2500 SHRA \n BECMG 0307/0308 32010KT"
"taf	RKSI	2018-09-02 12:00:00	TAF RKSI 021100Z 0212/0318 06006KT 9999 SCT030 BKN150 TN23/0221Z TX27/0306Z \n BECMG 0213/0214 15010KT \n TEMPO 0215/0218 22008KT -RA BKN025 BKN100 \n BECMG 0300/0301 18008KT 3500 -RA BKN025 BKN100 \n TEMPO 0303/0306 23008KT 2500 SHRA SCT008 BKN020 OVC080 \n BECMG 0312/0313 32010KT 6000 NSW SCT030 BKN150"
"taf	RKSI	2018-09-02 18:00:00	TAF RKSI 021700Z 0218/0324 16008KT 6000 FEW010 BKN025 OVC100 TN23/0221Z TX27/0306Z TN23/0321Z \n BECMG 0300/0301 -RA \n TEMPO 0306/0308 23012KT 4200 RA \n TEMPO 0309/0311 31010KT 4200 RA \n BECMG 0311/0312 32007KT NSW FEW010 SCT030 BKN120 \n BECMG 0323/0324 02010KT"
"taf	RKSI	2018-09-03 00:00:00	TAF RKSI 032300Z 0400/0506 36007KT 7000 FEW030 TX28/0405Z TN21/0421Z TX28/0506Z \n BECMG 0402/0403 30012KT \n BECMG 0502/0503 30015G25KT"
"taf	RKSI	2018-09-03 06:00:00	TAF RKSI 030500Z 0306/0412 16008KT 6000 RA FEW010 BKN025 OVC100 TN23/0321Z TX28/0405Z \n TEMPO 0309/0310 31010KT 4200 \n BECMG 0311/0312 32007KT NSW FEW010 SCT030 BKN120 \n BECMG 0323/0324 02010KT \n BECMG 0407/0408 32012KT"
"taf	RKSI	2018-09-03 07:50:00	TAF \n AMD RKSI 030650Z 0307/0412 16008KT 1500 RA FEW010 BKN025 OVC100 TN23/0321Z TX28/0405Z \n BECMG 0309/0310 4200 -RA \n BECMG 0311/0312 32007KT 6000 NSW FEW010 SCT030 BKN120 \n BECMG 0323/0324 02010KT \n BECMG 0407/0408 32012KT"
"taf	RKSI	2018-09-03 07:54:00	TAF \n AMD TAF \n AMD RKSI 030650Z 0307/0412 16008KT 1500 RA FEW010 BKN025 OVC100 TN23/0321Z TX28/0405Z \n BECMG 0309/0310 4200 -RA \n BECMG 0311/0312 32007KT 6000 NSW FEW010 SCT030 BKN120 \n BECMG 0323/0324 02010KT \n BECMG 0407/0408 32012KT"
"taf	RKSI	2018-09-03 07:55:00	TAF \n AMD RKSI 030655Z 0307/0412 16015G25KT 1500 RA FEW010 BKN025 OVC100 TN23/0321Z TX28/0405Z \n BECMG 0309/0310 16010KT 4200 -RA \n BECMG 0311/0312 32007KT 6000 NSW FEW010 SCT030 BKN120 \n BECMG 0323/0324 02010KT \n BECMG 0407/0408 32012KT"
"taf	RKSI	2018-09-03 07:57:00	TAF \n AMD TAF \n AMD RKSI 030655Z 0307/0412 16015G25KT 1500 RA FEW010 BKN025 OVC100 TN23/0321Z TX28/0405Z \n BECMG 0309/0310 16010KT 4200 -RA \n BECMG 0311/0312 32007KT 6000 NSW FEW010 SCT030 BKN120 \n BECMG 0323/0324 02010KT \n BECMG 0407/0408 32012KT"
"taf	RKSI	2018-09-03 12:00:00	TAF RKSI 031100Z 0312/0418 32008KT 6000 FEW010 SCT030 BKN120 TN22/0321Z TX28/0405Z \n BECMG 0317/0318 02010KT NSC \n BECMG 0405/0406 32015G25KT \n BECMG 0408/0409 29010KT"
"taf	RKSI	2018-09-03 18:00:00	TAF RKSI 031700Z 0318/0424 36007KT 7000 SCT030 TN21/0321Z TX28/0405Z TN21/0421Z \n BECMG 0402/0403 30012KT"
"taf	RKSI	2018-09-04 00:00:00	TAF RKSI 042300Z 0500/0606 30015G25KT CAVOK TX28/0506Z TN20/0520Z TX28/0605Z \n BECMG 0508/0509 31010KT \n BECMG 0517/0518 20007KT 9999 FEW030 BKN180 \n BECMG 0603/0604 19015G25KT"
"taf	RKSI	2018-09-04 06:00:00	TAF RKSI 040500Z 0406/0512 32015G25KT 9999 FEW030 TN21/0421Z TX27/0506Z \n BECMG 0419/0420 32013KT \n BECMG 0502/0503 30015G25KT \n BECMG 0510/0511 33013KT"
"taf	RKSI	2018-09-04 12:00:00	TAF RKSI 041100Z 0412/0518 33015G25KT 9999 SCT030 TN20/0421Z TX29/0505Z \n BECMG 0417/0418 27007KT \n BECMG 0502/0503 27015G25KT \n BECMG 0510/0511 27008KT"
"taf	RKSI	2018-09-04 18:00:00	TAF RKSI 041700Z 0418/0524 30010KT CAVOK TN22/0421Z TX28/0506Z TN19/0521Z \n BECMG 0501/0502 31015G25KT \n BECMG 0508/0509 30010KT \n BECMG 0517/0518 20007KT"
"taf	RKSI	2018-09-05 00:00:00	TAF RKSI 052300Z 0600/0706 18010KT 9999 SCT030 TX28/0605Z TN23/0620Z TX26/0705Z \n BECMG 0605/0606 20015G28KT SCT030 BKN080 \n BECMG 0615/0616 27015G25KT 4200 -RA SCT010 BKN025 OVC080 \n BECMG 0620/0621 6000 NSW SCT030 BKN120"
"taf	RKSI	2018-09-05 06:00:00	TAF RKSI 050500Z 0506/0612 29015G25KT CAVOK TN22/0520Z TX28/0605Z \n BECMG 0508/0509 31008KT \n BECMG 0519/0520 23007KT 9999 FEW030 BKN180 \n BECMG 0603/0604 20015G25KT"
"taf	RKSI	2018-09-05 12:00:00	TAF RKSI 051100Z 0512/0618 28010KT CAVOK TN22/0520Z TX28/0605Z \n BECMG 0519/0520 22007KT 9999 FEW030 BKN180 \n BECMG 0603/0604 23015G25KT \n BECMG 0615/0616 26018G30KT 6000 -RA FEW010 BKN025 OVC080"
"taf	RKSI	2018-09-05 18:00:00	TAF RKSI 051700Z 0518/0624 27007KT 9999 SCT030 TN22/0521Z TX28/0605Z TN23/0620Z \n BECMG 0605/0606 20015G28KT SCT030 BKN080 \n BECMG 0615/0616 27015G25KT 4200 -RA SCT010 BKN025 OVC080 \n BECMG 0620/0621 6000 NSW"
"taf	RKSI	2018-09-06 00:00:00	TAF RKSI 062300Z 0700/0806 33012KT 8000 NSC TX26/0705Z TN17/0721Z TX27/0805Z \n TEMPO 0703/0710 33015G25KT"
"taf	RKSI	2018-09-06 06:00:00	TAF RKSI 060500Z 0606/0712 20012KT 7000 FEW030 BKN180 TN23/0621Z TX26/0705Z \n BECMG 0614/0615 4200 -RA FEW020 BKN030 OVC100 \n BECMG 0619/0620 32010KT 7000 NSW SCT030"
"taf	RKSI	2018-09-06 12:00:00	TAF RKSI 061100Z 0612/0718 23012KT 7000 FEW030 BKN180 TN22/0621Z TX26/0705Z \n BECMG 0614/0615 4200 -RA FEW020 BKN030 OVC100 \n BECMG 0618/0619 7000 NSW SCT030 \n BECMG 0621/0622 32010KT"
"taf	RKSI	2018-09-06 13:45:00	TAF \n AMD RKSI 061245Z 0613/0718 23012KT 7000 FEW030 BKN180 TN22/0621Z TX26/0705Z \n TEMPO 0613/0614 4200 -SHRA FEW005 BKN020 BKN100 \n BECMG 0615/0616 4200 -RA FEW020 BKN030 OVC100 \n BECMG 0618/0619 7000 NSW SCT030 \n BECMG 0621/0622 32010KT"
"taf	RKSI	2018-09-06 13:48:00	TAF \n AMD TAF \n AMD RKSI 061245Z 0613/0718 23012KT 7000 FEW030 BKN180 TN22/0621Z TX26/0705Z \n TEMPO 0613/0614 4200 -SHRA FEW005 BKN020 BKN100 \n BECMG 0615/0616 4200 -RA FEW020 BKN030 OVC100 \n BECMG 0618/0619 7000 NSW SCT030 \n BECMG 0621/0622 32010KT"
"taf	RKSI	2018-09-06 14:40:00	TAF \n AMD RKSI 061340Z 0614/0718 23020G35KT 7000 FEW030 BKN180 TN22/0621Z TX26/0705Z \n BECMG 0615/0616 4200 -RA FEW020 BKN030 OVC100 \n BECMG 0618/0619 7000 NSW SCT030 \n BECMG 0620/0621 32013KT"
"taf	RKSI	2018-09-06 14:42:00	TAF \n AMD TAF \n AMD RKSI 061340Z 0614/0718 23020G35KT 7000 FEW030 BKN180 TN22/0621Z TX26/0705Z \n BECMG 0615/0616 4200 -RA FEW020 BKN030 OVC100 \n BECMG 0618/0619 7000 NSW SCT030 \n BECMG 0620/0621 32013KT"
"taf	RKSI	2018-09-06 18:00:00	TAF RKSI 061700Z 0618/0724 33015G25KT 7000 SCT030 TN21/0621Z TX26/0705Z TN17/0721Z \n BECMG 0712/0713 35012KT"
"taf	RKSI	2018-09-06 18:05:00	TAF \n AMD RKSI 061805Z 0618/0724 33015G25KT 7000 SCT030 TN21/0621Z TX26/0705Z TN17/0721Z \n TEMPO 0618/0620 -RA FEW005 BKN025 BKN100 \n BECMG 0712/0713 35012KT"
"taf	RKSI	2018-09-06 18:09:00	TAF \n AMD TAF \n AMD RKSI 061805Z 0618/0724 33015G25KT 7000 SCT030 TN21/0621Z TX26/0705Z TN17/0721Z \n TEMPO 0618/0620 -RA FEW005 BKN025 BKN100 \n BECMG 0712/0713 35012KT"
"taf	RKSI	2018-09-07 00:00:00	TAF RKSI 072300Z 0800/0906 34008KT CAVOK TX27/0805Z TN17/0821Z TX26/0905Z \n BECMG 0809/0810 33015G25KT \n BECMG 0811/0812 35008KT \n BECMG 0819/0820 07006KT \n BECMG 0902/0903 29008KT"
"taf	RKSI	2018-09-07 06:00:00	TAF RKSI 070500Z 0706/0812 33015G25KT 9999 SCT030 TN17/0721Z TX27/0805Z \n TEMPO 0706/0710 31013KT \n BECMG 0711/0712 34010KT CAVOK \n BECMG 0809/0810 34015G25KT \n BECMG 0811/0812 34012KT"
"taf	RKSI	2018-09-07 12:00:00	TAF RKSI 071100Z 0712/0818 34010KT CAVOK TN18/0721Z TX27/0805Z \n BECMG 0809/0810 33015G25KT \n BECMG 0811/0812 35010KT"
"taf	RKSI	2018-09-07 18:00:00	TAF RKSI 071700Z 0718/0824 34010KT CAVOK TN18/0721Z TX27/0805Z TN17/0821Z \n BECMG 0809/0810 33015G25KT \n BECMG 0811/0812 35008KT"
"taf	RKSI	2018-09-08 00:00:00	TAF RKSI 082300Z 0900/1006 06006KT CAVOK TX26/0905Z TN18/0921Z TX27/1006Z \n BECMG 0905/0906 29010KT \n BECMG 0910/0911 06007KT 9999 SCT030"
"taf	RKSI	2018-09-08 06:00:00	TAF RKSI 080500Z 0806/0912 33007KT CAVOK TN17/0821Z TX26/0905Z \n BECMG 0814/0815 07006KT \n TEMPO 0901/0904 34006KT \n BECMG 0905/0906 29007KT \n BECMG 0911/0912 07006KT"
"taf	RKSI	2018-09-08 12:00:00	TAF RKSI 081100Z 0812/0918 33006KT CAVOK TN17/0821Z TX26/0905Z \n BECMG 0815/0816 07006KT \n TEMPO 0906/0910 29006KT"
"taf	RKSI	2018-09-08 18:00:00	TAF RKSI 081700Z 0818/0924 35006KT CAVOK TN17/0821Z TX26/0905Z TN18/0921Z \n BECMG 0820/0821 07006KT \n BECMG 0905/0906 29006KT \n BECMG 0910/0911 07007KT 9999 SCT030"
"taf	RKSI	2018-09-09 00:00:00	TAF RKSI 092300Z 1000/1106 06007KT 9999 SCT030 TX26/1006Z TN17/1021Z TX26/1105Z \n TEMPO 1006/1009 32010KT \n BECMG 1013/1014 13007KT \n BECMG 1015/1016 07010KT \n BECMG 1105/1106 13007KT"
"taf	RKSI	2018-09-09 06:00:00	TAF RKSI 090500Z 0906/1012 29010KT CAVOK TN17/0921Z TX26/1006Z \n BECMG 0910/0911 06007KT 9999 SCT030 \n BECMG 1006/1007 33010KT CAVOK \n BECMG 1008/1009 06006KT"
"taf	RKSI	2018-09-09 12:00:00	TAF RKSI 091100Z 0912/1018 06007KT 9999 SCT030 TN17/0921Z TX26/1006Z \n BECMG 1006/1007 33010KT CAVOK \n BECMG 1008/1009 06007KT"
"taf	RKSI	2018-09-09 18:00:00	TAF RKSI 091700Z 0918/1024 06007KT CAVOK TN17/0921Z TX26/1006Z TN16/1021Z \n BECMG 1006/1007 33010KT 9999 SCT030 \n BECMG 1008/1009 06007KT \n TEMPO 1014/1016 12007KT"
"taf	RKSI	2018-09-10 00:00:00	TAF RKSI 102300Z 1100/1206 11006KT 9999 SCT030 BKN160 TX26/1106Z TN18/1121Z TX26/1206Z \n BECMG 1106/1107 30006KT \n TEMPO 1110/1114 12006KT \n BECMG 1115/1116 07006KT"
"taf	RKSI	2018-09-10 06:00:00	TAF RKSI 100500Z 1006/1112 31008KT 9999 FEW030 TN17/1021Z TX26/1106Z \n BECMG 1011/1012 07008KT \n BECMG 1104/1105 32008KT \n BECMG 1110/1111 13008KT"
"taf	RKSI	2018-09-10 12:00:00	TAF RKSI 101100Z 1012/1118 01006KT 9999 FEW030 TN17/1021Z TX26/1106Z \n BECMG 1014/1015 07008KT \n BECMG 1104/1105 32008KT \n BECMG 1110/1111 07008KT \n TEMPO 1115/1118 13010KT"
"taf	RKSI	2018-09-10 18:00:00	TAF RKSI 101700Z 1018/1124 10006KT 9999 FEW030 BKN160 TN18/1021Z TX26/1106Z TN18/1121Z \n BECMG 1106/1107 30006KT \n TEMPO 1110/1114 10006KT \n BECMG 1115/1116 07006KT"
"taf	RKSI	2018-09-11 00:00:00	TAF RKSI 112300Z 1200/1306 07006KT 9999 SCT030 BKN160 TX27/1206Z TN19/1221Z TX27/1306Z \n BECMG 1205/1206 30006KT \n BECMG 1210/1211 07006KT \n BECMG 1305/1306 30006KT"
"taf	RKSI	2018-09-11 06:00:00	TAF RKSI 110500Z 1106/1212 35008KT 9999 FEW030 BKN150 TN17/1121Z TX28/1206Z \n BECMG 1108/1109 07008KT"
"taf	RKSI	2018-09-11 12:00:00	TAF RKSI 111100Z 1112/1218 12006KT 9999 FEW030 BKN150 TN17/1121Z TX28/1206Z \n BECMG 1116/1117 06008KT \n BECMG 1205/1206 31010KT \n BECMG 1211/1212 06008KT CAVOK"
"taf	RKSI	2018-09-11 18:00:00	TAF RKSI 111700Z 1118/1224 13006KT 9999 SCT030 BKN150 TN17/1121Z TX27/1206Z TN18/1221Z \n TEMPO 1121/1204 06007KT \n BECMG 1205/1206 31006KT \n BECMG 1210/1211 07006KT"
"taf	RKSI	2018-09-12 00:00:00	TAF RKSI 122300Z 1300/1406 06008KT 9999 FEW030 BKN180 TX28/1306Z TN21/1321Z TX27/1406Z \n BECMG 1305/1306 32010KT \n BECMG 1311/1312 07008KT"
"taf	RKSI	2018-09-12 06:00:00	TAF RKSI 120500Z 1206/1312 13010KT 9999 SCT030 BKN160 TN19/1221Z TX28/1306Z \n BECMG 1210/1211 07006KT \n BECMG 1305/1306 33008KT"
"taf	RKSI	2018-09-12 12:00:00	TAF RKSI 121100Z 1212/1318 07006KT 9999 SCT030 BKN160 TN19/1221Z TX28/1306Z \n BECMG 1305/1306 33008KT \n BECMG 1313/1314 07006KT"
"taf	RKSI	2018-09-12 18:00:00	TAF RKSI 121700Z 1218/1324 06008KT 9999 FEW030 BKN180 TN20/1221Z TX28/1306Z TN21/1321Z \n BECMG 1305/1306 32010KT \n BECMG 1311/1312 06008KT"
"taf	RKSI	2018-09-13 00:00:00	TAF RKSI 132300Z 1400/1506 05008KT 9999 FEW030 BKN150 TX28/1406Z TN20/1421Z TX26/1506Z \n BECMG 1404/1405 11008KT \n TEMPO 1406/1411 17010KT \n BECMG 1412/1413 05008KT \n BECMG 1503/1504 31010KT"
"taf	RKSI	2018-09-13 06:00:00	TAF RKSI 130500Z 1306/1412 33008KT 9999 FEW030 BKN180 TN20/1321Z TX28/1406Z \n BECMG 1309/1310 07008KT \n BECMG 1410/1411 FEW010 BKN020 OVC080"
"taf	RKSI	2018-09-13 12:00:00	TAF RKSI 131100Z 1312/1418 08008KT 9999 FEW030 BKN180 TN20/1321Z TX28/1406Z \n BECMG 1410/1411 FEW010 BKN020 OVC080 \n TEMPO 1414/1418 4200 -RA"
"taf	RKSI	2018-09-13 12:12:00	TAF RKSI 131100Z 1312/1418 08008KT 9999 FEW030 BKN180 TN20/1321Z TX28/1406Z \n BECMG 1410/1411 FEW010 BKN020 OVC080 \n TEMPO 1414/1418 4200 -RA"
"taf	RKSI	2018-09-13 18:00:00	TAF RKSI 131700Z 1318/1424 10008KT 9999 FEW030 BKN180 TN20/1321Z TX28/1406Z TN20/1421Z \n BECMG 1405/1406 18010KT \n BECMG 1409/1410 12008KT FEW010 BKN025 BKN150 \n BECMG 1414/1415 06008KT \n TEMPO 1416/1421 -RA"
"taf	RKSI	2018-09-14 00:00:00	TAF RKSI 142300Z 1500/1606 07007KT 7000 FEW010 BKN025 OVC100 TX25/1506Z TN22/1521Z TX25/1605Z \n BECMG 1502/1503 SCT030 BKN150 \n BECMG 1504/1505 30007KT \n TEMPO 1520/1523 33007KT 4200 -RA FEW010 BKN020 OVC080 \n BECMG 1602/1603 24006KT \n BECMG 1604/1605 30008KT"
"taf	RKSI	2018-09-14 06:00:00	TAF RKSI 140500Z 1406/1512 13007KT 9999 SCT030 BKN120 TN20/1421Z TX26/1506Z \n BECMG 1414/1415 05007KT \n BECMG 1418/1419 FEW010 BKN025 OVC100 \n BECMG 1503/1504 30010KT"
"taf	RKSI	2018-09-14 12:00:00	TAF RKSI 141100Z 1412/1518 06007KT 9999 FEW010 BKN025 OVC100 TN20/1421Z TX26/1506Z \n TEMPO 1423/1501 6000 -RA \n BECMG 1502/1503 13006KT \n BECMG 1504/1505 30007KT \n BECMG 1517/1518 33007KT 6000 -RA"
"taf	RKSI	2018-09-14 12:55:00	TAF \n AMD RKSI 141155Z 1412/1518 06007KT 9999 FEW010 BKN025 OVC100 TN20/1421Z TX26/1506Z \n TEMPO 1412/1419 6000 -RA \n BECMG 1502/1503 13006KT \n BECMG 1504/1505 30007KT \n BECMG 1517/1518 33007KT 6000 -RA"
"taf	RKSI	2018-09-14 12:57:00	TAF \n AMD TAF \n AMD RKSI 141155Z 1412/1518 06007KT 9999 FEW010 BKN025 OVC100 TN20/1421Z TX26/1506Z \n TEMPO 1412/1419 6000 -RA \n BECMG 1502/1503 13006KT \n BECMG 1504/1505 30007KT \n BECMG 1517/1518 33007KT 6000 -RA"
"taf	RKSI	2018-09-14 18:00:00	TAF RKSI 141700Z 1418/1524 06007KT 7000 -RA FEW010 BKN025 OVC080 TN20/1421Z TX25/1506Z TN22/1521Z \n BECMG 1419/1420 NSW \n BECMG 1502/1503 13006KT FEW010 SCT030 BKN150 \n BECMG 1504/1505 30007KT \n TEMPO 1519/1523 33007KT -RA FEW010 BKN020 OVC080"
"taf	RKSI	2018-09-15 00:00:00	TAF RKSI 152300Z 1600/1706 33007KT 7000 -RA FEW010 BKN025 OVC080 TX24/1605Z TN19/1621Z TX26/1705Z \n TEMPO 1604/1606 NSW \n BECMG 1612/1613 NSW FEW010 SCT025 BKN120 \n BECMG 1616/1617 4200 BR \n BECMG 1620/1621 30008KT 7000 NSW"
"taf	RKSI	2018-09-15 06:00:00	TAF RKSI 150500Z 1506/1612 30007KT 7000 FEW010 BKN025 OVC100 TN21/1521Z TX25/1605Z \n TEMPO 1506/1508 25006KT -RA \n BECMG 1517/1518 SCT030 BKN120 \n TEMPO 1521/1524 35007KT 4200 -RA FEW010 BKN025 OVC080 \n TEMPO 1606/1609 BKN030 BKN100"
"taf	RKSI	2018-09-15 12:00:00	TAF RKSI 151100Z 1512/1618 30007KT 6000 BKN025 BKN100 TN21/1521Z TX24/1605Z \n BECMG 1517/1518 SCT030 BKN120 \n TEMPO 1523/1602 -RA FEW010 BKN025 OVC080 \n TEMPO 1606/1609 BKN030 BKN100 \n BECMG 1617/1618 33010KT 4200 BR"
"taf	RKSI	2018-09-15 16:00:00	TAF COR RKSI 151600Z 1516/1618 30007KT 6000 FEW010 BKN025 OVC080 TN21/1521Z TX24/1605Z \n TEMPO 1518/1602 -RA \n BECMG 1603/1604 SCT030 BKN150 \n TEMPO 1606/1609 BKN030 BKN100 \n BECMG 1617/1618 33010KT 4200 BR"
"taf	RKSI	2018-09-15 16:03:00	TAF \n AMD TAF \n AMD RKSI 151600Z 1516/1618 30007KT 6000 BKN025 BKN100 TN21/1521Z TX24/1605Z \n TEMPO 1518/1602 -RA FEW010 BKN025 OVC080 \n TEMPO 1606/1609 BKN030 BKN100 \n BECMG 1617/1618 33010KT 4200 BR"
"taf	RKSI	2018-09-15 16:21:00	TAF COR TAF COR RKSI 151600Z 1516/1618 30007KT 6000 FEW010 BKN025 OVC080 TN21/1521Z TX24/1605Z \n TEMPO 1518/1602 -RA \n BECMG 1603/1604 SCT030 BKN150 \n TEMPO 1606/1609 BKN030 BKN100 \n BECMG 1617/1618 33010KT 4200 BR"
"taf	RKSI	2018-09-15 18:00:00	TAF RKSI 151700Z 1518/1624 33007KT 7000 -RA FEW010 BKN025 OVC080 TN21/1521Z TX24/1605Z TN19/1621Z \n TEMPO 1519/1521 4200 \n BECMG 1600/1601 30007KT NSW SCT025 BKN120 \n TEMPO 1606/1609 BKN025 BKN100 \n BECMG 1617/1618 33008KT 4200 BR \n BECMG 1620/1621 7000 NSW"
"taf	RKSI	2018-09-16 00:00:00	TAF RKSI 162300Z 1700/1806 30007KT CAVOK TX26/1705Z TN18/1721Z TX25/1805Z \n BECMG 1713/1714 36010KT \n BECMG 1716/1717 07005KT \n BECMG 1801/1802 29007KT"
"taf	RKSI	2018-09-16 06:00:00	TAF RKSI 160500Z 1606/1712 30007KT 6000 -RA FEW010 BKN025 OVC080 TN19/1621Z TX26/1705Z \n BECMG 1612/1613 NSW FEW010 SCT025 BKN120 \n BECMG 1617/1618 35006KT 4200 BR \n BECMG 1620/1621 32007KT 7000 NSW NSC"
"taf	RKSI	2018-09-16 07:48:00	TAF \n AMD TAF \n AMD RKSI 160650Z 1607/1712 30007KT 6000 -RA FEW010 BKN025 OVC080 TN19/1621Z TX26/1705Z \n TEMPO 1607/1611 29015G25KT 4200 \n BECMG 1612/1613 NSW FEW010 SCT025 BKN120 \n BECMG 1617/1618 35006KT 4200 BR \n BECMG 1620/1621 32007KT 7000 NSW NSC"
"taf	RKSI	2018-09-16 07:50:00	TAF \n AMD RKSI 160650Z 1607/1712 30007KT 6000 -RA FEW010 BKN025 OVC080 TN19/1621Z TX26/1705Z \n TEMPO 1607/1611 29015G25KT 4200 \n BECMG 1612/1613 NSW FEW010 SCT025 BKN120 \n BECMG 1617/1618 35006KT 4200 BR \n BECMG 1620/1621 32007KT 7000 NSW NSC"
"taf	RKSI	2018-09-16 12:00:00	TAF RKSI 161100Z 1612/1718 30006KT 6000 FEW010 SCT030 BKN120 TN19/1621Z TX26/1705Z \n BECMG 1617/1618 34006KT 4200 BR \n BECMG 1620/1621 31007KT 7000 NSW NSC \n BECMG 1715/1716 07006KT"
"taf	RKSI	2018-09-16 14:20:00	TAF \n AMD RKSI 161420Z 1614/1718 31006KT 6000 FEW010 SCT030 BKN120 TN19/1621Z TX26/1705Z \n TEMPO 1614/1617 4200 -DZ SCT030 OVC100 \n BECMG 1618/1619 34006KT 4200 BR \n BECMG 1620/1621 31007KT 7000 NSW NSC \n BECMG 1715/1716 07006KT"
"taf	RKSI	2018-09-16 14:24:00	TAF \n AMD TAF \n AMD RKSI 161420Z 1614/1718 31006KT 6000 FEW010 SCT030 BKN120 TN19/1621Z TX26/1705Z \n TEMPO 1614/1617 4200 -DZ SCT030 OVC100 \n BECMG 1618/1619 34006KT 4200 BR \n BECMG 1620/1621 31007KT 7000 NSW NSC \n BECMG 1715/1716 07006KT"
"taf	RKSI	2018-09-16 18:00:00	TAF RKSI 161700Z 1618/1724 30006KT 9999 SCT030 BKN120 TN19/1621Z TX26/1705Z TN17/1721Z \n BECMG 1620/1621 33006KT 4200 BR \n BECMG 1622/1623 29007KT 7000 NSW NSC \n BECMG 1713/1714 35010KT \n BECMG 1715/1716 05006KT"
"taf	RKSI	2018-09-17 00:00:00	TAF RKSI 172300Z 1800/1906 07005KT CAVOK TX25/1805Z TN18/1822Z TX23/1905Z \n BECMG 1803/1804 29008KT \n BECMG 1814/1815 07005KT 6000 SCT030 BKN120 \n BECMG 1902/1903 28006KT \n BECMG 1905/1906 FEW010 BKN025 OVC100"
"taf	RKSI	2018-09-17 06:00:00	TAF RKSI 170500Z 1706/1812 34006KT CAVOK TN17/1721Z TX25/1805Z \n TEMPO 1706/1711 28010KT \n BECMG 1716/1717 07005KT \n BECMG 1802/1803 28008KT"
"taf	RKSI	2018-09-17 12:00:00	TAF RKSI 171100Z 1712/1818 32005KT CAVOK TN17/1721Z TX25/1805Z \n BECMG 1716/1717 07005KT \n BECMG 1803/1804 28008KT \n BECMG 1814/1815 07006KT"
"taf	RKSI	2018-09-17 18:00:00	TAF RKSI 171700Z 1718/1824 07005KT CAVOK TN17/1721Z TX25/1805Z TN18/1822Z \n BECMG 1802/1803 29008KT \n BECMG 1814/1815 07005KT 6000 SCT030 BKN150"
"taf	RKSI	2018-09-18 00:00:00	TAF RKSI 182300Z 1900/2006 06005KT 9999 FEW030 BKN120 TX25/1906Z TN18/1921Z TX24/2005Z \n BECMG 1904/1905 30006KT \n BECMG 1915/1916 07006KT 6000 FEW010 BKN030 OVC080 \n TEMPO 1920/1924 -RA \n BECMG 2004/2005 -RA"
"taf	RKSI	2018-09-18 06:00:00	TAF RKSI 180500Z 1806/1912 31007KT 9999 FEW035 BKN130 TN18/1821Z TX23/1906Z \n BECMG 1814/1815 07006KT \n BECMG 1903/1904 31006KT \n BECMG 1906/1907 FEW010 BKN025 OVC100"
"taf	RKSI	2018-09-18 12:00:00	TAF RKSI 181100Z 1812/1918 32007KT 9999 FEW035 BKN150 TN18/1821Z TX24/1906Z \n BECMG 1817/1818 07006KT \n BECMG 1906/1907 30006KT \n BECMG 1914/1915 07006KT \n BECMG 1916/1917 FEW010 BKN030 OVC100"
"taf	RKSI	2018-09-18 18:00:00	TAF RKSI 181700Z 1818/1924 05005KT 9999 FEW030 BKN120 TN18/1821Z TX24/1906Z TN18/1921Z \n BECMG 1901/1902 15006KT \n BECMG 1904/1905 30006KT \n BECMG 1915/1916 07006KT 6000 FEW010 BKN030 OVC080 \n BECMG 1918/1919 -RA"
"taf	RKSI	2018-09-19 00:00:00	TAF RKSI 192300Z 2000/2106 06007KT 6000 FEW010 BKN025 OVC100 TX23/2006Z TN19/2021Z TX24/2105Z \n TEMPO 2000/2001 4200 -RA \n BECMG 2016/2017 -RA \n TEMPO 2020/2023 4200 RA \n BECMG 2100/2101 NSW \n BECMG 2104/2105 12007KT"
"taf	RKSI	2018-09-19 03:09:00	TAF \n AMD RKSI 190309Z 1903/2006 07005KT 7000 -RA FEW030 BKN120 TX25/1906Z TN18/1921Z TX24/2005Z \n BECMG 1904/1905 30006KT NSW \n BECMG 1915/1916 07006KT FEW010 BKN030 OVC080 \n TEMPO 1920/1924 -RA \n BECMG 2004/2005 -RA"
"taf	RKSI	2018-09-19 03:12:00	TAF \n AMD TAF \n AMD RKSI 190309Z 1903/2006 07005KT 7000 -RA FEW030 BKN120 TX25/1906Z TN18/1921Z TX24/2005Z \n BECMG 1904/1905 30006KT NSW \n BECMG 1915/1916 07006KT FEW010 BKN030 OVC080 \n TEMPO 1920/1924 -RA \n BECMG 2004/2005 -RA"
"taf	RKSI	2018-09-19 06:00:00	TAF RKSI 190500Z 1906/2012 30006KT 9999 SCT030 BKN120 TN19/1921Z TX24/2006Z \n BECMG 1911/1912 07006KT \n BECMG 1913/1914 01006KT \n TEMPO 1915/1918 -RA FEW010 BKN025 OVC100 \n BECMG 1919/1920 08010KT \n TEMPO 1921/1924 -RA"
"taf	RKSI	2018-09-19 06:01:00	TAF \n AMD RKSI 190501Z 1906/2012 30006KT 7000 -RA SCT030 BKN120 TN19/1921Z TX24/2006Z \n BECMG 1907/1908 07006KT NSW \n BECMG 1911/1912 01006KT \n TEMPO 1915/1918 -RA FEW010 BKN025 OVC100 \n BECMG 1919/1920 08010KT \n TEMPO 1921/1924 -RA"
"taf	RKSI	2018-09-19 06:03:00	TAF \n AMD TAF \n AMD RKSI 190501Z 1906/2012 30006KT 7000 -RA SCT030 BKN120 TN19/1921Z TX24/2006Z \n BECMG 1907/1908 07006KT NSW \n BECMG 1911/1912 01006KT \n TEMPO 1915/1918 -RA FEW010 BKN025 OVC100 \n BECMG 1919/1920 08010KT \n TEMPO 1921/1924 -RA"
"taf	RKSI	2018-09-19 07:35:00	TAF \n AMD RKSI 190735Z 1907/2012 30006KT 7000 -RA SCT030 BKN120 TN19/1921Z TX24/2006Z \n BECMG 1909/1910 07006KT \n BECMG 1911/1912 01006KT NSW \n TEMPO 1915/1918 -RA FEW010 BKN025 OVC100 \n BECMG 1919/1920 08010KT \n TEMPO 1921/1924 -RA"
"taf	RKSI	2018-09-19 07:39:00	TAF \n AMD TAF \n AMD RKSI 190735Z 1907/2012 30006KT 7000 -RA SCT030 BKN120 TN19/1921Z TX24/2006Z \n BECMG 1909/1910 07006KT \n BECMG 1911/1912 01006KT NSW \n TEMPO 1915/1918 -RA FEW010 BKN025 OVC100 \n BECMG 1919/1920 08010KT \n TEMPO 1921/1924 -RA"
"taf	RKSI	2018-09-19 08:39:00	TAF COR RKSI 190739Z 1908/2012 30006KT 7000 -RA SCT030 BKN120 TN19/1921Z TX24/2006Z \n BECMG 1909/1910 07006KT \n BECMG 1911/1912 01006KT NSW \n TEMPO 1915/1918 -RA FEW010 BKN025 OVC100 \n BECMG 1919/1920 08010KT \n TEMPO 1921/1924 -RA"
"taf	RKSI	2018-09-19 08:42:00	TAF COR TAF COR RKSI 190739Z 1908/2012 30006KT 7000 -RA SCT030 BKN120 TN19/1921Z TX24/2006Z \n BECMG 1909/1910 07006KT \n BECMG 1911/1912 01006KT NSW \n TEMPO 1915/1918 -RA FEW010 BKN025 OVC100 \n BECMG 1919/1920 08010KT \n TEMPO 1921/1924 -RA"
"taf	RKSI	2018-09-19 12:00:00	TAF RKSI 191100Z 1912/2018 24006KT 7000 -RA FEW010 BKN025 OVC100 TN19/1921Z TX24/2006Z \n BECMG 1915/1916 32008KT NSW \n TEMPO 1918/1921 -RA \n BECMG 2002/2003 08010KT \n TEMPO 2004/2008 -RA \n BECMG 2015/2016 -RA"
"taf	RKSI	2018-09-19 18:00:00	TAF RKSI 191700Z 1918/2024 07011KT 6000 FEW010 BKN025 OVC100 TN19/1921Z TX24/2006Z TN20/2021Z \n TEMPO 1920/1922 -RA \n TEMPO 2002/2005 -RA \n BECMG 2016/2017 -RA \n TEMPO 2020/2023 4200 RA"
"taf	RKSI	2018-09-19 21:29:00	TAF \n AMD RKSI 192129Z 1921/2024 07011KT 6000 FEW010 BKN025 OVC100 TN19/1922Z TX24/2006Z TN20/2021Z \n TEMPO 1921/1924 2800 -RA \n TEMPO 2002/2005 -RA \n BECMG 2016/2017 -RA \n TEMPO 2020/2023 4200 RA"
"taf	RKSI	2018-09-19 21:33:00	TAF \n AMD TAF \n AMD RKSI 192129Z 1921/2024 07011KT 6000 FEW010 BKN025 OVC100 TN19/1922Z TX24/2006Z TN20/2021Z \n TEMPO 1921/1924 2800 -RA \n TEMPO 2002/2005 -RA \n BECMG 2016/2017 -RA \n TEMPO 2020/2023 4200 RA"
"taf	RKSI	2018-09-20 00:00:00	TAF RKSI 202300Z 2100/2206 08007KT 6000 -RA FEW010 BKN025 OVC080 TX25/2106Z TN19/2121Z TX23/2206Z \n BECMG 2103/2104 NSW \n BECMG 2105/2106 31008KT SCT030 BKN150 \n BECMG 2115/2116 07006KT \n BECMG 2202/2203 31007KT"
"taf	RKSI	2018-09-20 06:00:00	TAF \n AMD RKSI 200535Z 2006/2112 06007KT 6000 FEW015 BKN025 OVC100 TN19/2021Z TX24/2105Z \n TEMPO 2006/2008 -RA \n BECMG 2016/2017 4200 -RA \n BECMG 2100/2101 BR \n BECMG 2104/2105 13007KT SCT025 BKN120 \n BECMG 2110/2111 25006KT 2800"
"taf	RKSI	2018-09-20 06:35:00	TAF \n AMD RKSI 200535Z 2006/2112 06007KT 6000 FEW015 BKN025 OVC100 TN19/2021Z TX24/2105Z \n TEMPO 2006/2008 -RA \n BECMG 2016/2017 4200 -RA \n BECMG 2100/2101 BR \n BECMG 2104/2105 13007KT SCT025 BKN120 \n BECMG 2110/2111 25006KT 2800"
"taf	RKSI	2018-09-20 06:39:00	TAF \n AMD TAF \n AMD RKSI 200535Z 2006/2112 06007KT 6000 FEW015 BKN025 OVC100 TN19/2021Z TX24/2105Z \n TEMPO 2006/2008 -RA \n BECMG 2016/2017 4200 -RA \n BECMG 2100/2101 BR \n BECMG 2104/2105 13007KT SCT025 BKN120 \n BECMG 2110/2111 25006KT 2800"
"taf	RKSI	2018-09-20 12:00:00	TAF RKSI 201100Z 2012/2118 06007KT 6000 -RA FEW010 BKN025 OVC080 TN19/2021Z TX24/2105Z \n TEMPO 2020/2023 4200 RA \n BECMG 2103/2104 NSW \n BECMG 2105/2106 13007KT SCT025 BKN120 \n BECMG 2112/2113 25006KT 4200 BR \n BECMG 2115/2116 33010KT"
"taf	RKSI	2018-09-20 13:26:00	TAF \n AMD RKSI 201326Z 2013/2118 06007KT 6000 FEW010 BKN025 OVC080 TN19/2021Z TX24/2105Z \n BECMG 2016/2017 4200 -RA \n BECMG 2103/2104 6000 NSW \n BECMG 2105/2106 13007KT SCT025 BKN120 \n BECMG 2112/2113 25006KT 4200 BR \n BECMG 2115/2116 33010KT"
"taf	RKSI	2018-09-20 13:30:00	TAF \n AMD TAF \n AMD RKSI 201326Z 2013/2118 06007KT 6000 FEW010 BKN025 OVC080 TN19/2021Z TX24/2105Z \n BECMG 2016/2017 4200 -RA \n BECMG 2103/2104 6000 NSW \n BECMG 2105/2106 13007KT SCT025 BKN120 \n BECMG 2112/2113 25006KT 4200 BR \n BECMG 2115/2116 33010KT"
"taf	RKSI	2018-09-20 18:00:00	TAF RKSI 201700Z 2018/2124 07007KT 7000 -RA FEW010 BKN030 OVC080 TN19/2021Z TX26/2106Z TN19/2121Z \n BECMG 2103/2104 NSW \n BECMG 2105/2106 31008KT SCT030 BKN120 \n TEMPO 2107/2112 17006KT"
"taf	RKSI	2018-09-21 00:00:00	TAF RKSI 212300Z 2200/2306 30008KT 9999 SCT030 TX24/2206Z TN17/2221Z TX22/2306Z \n BECMG 2215/2216 13006KT \n TEMPO 2221/2224 4200 -SHRA FEW010 BKN025 \n BECMG 2301/2302 31006KT"
"taf	RKSI	2018-09-21 06:00:00	TAF RKSI 210500Z 2106/2212 07007KT 7000 FEW010 BKN025 OVC080 TN19/2121Z TX23/2206Z \n BECMG 2107/2108 SCT030 BKN150 \n BECMG 2114/2115 33010KT 4200 BR \n TEMPO 2119/2121 BKN025 BKN130 \n BECMG 2122/2123 7000 NSW \n TEMPO 2203/2208 31015G25KT"
"taf	RKSI	2018-09-21 12:00:00	TAF RKSI 211100Z 2112/2218 03007KT 7000 SCT030 BKN150 TN19/2121Z TX23/2206Z \n BECMG 2114/2115 33010KT 4200 BR \n TEMPO 2119/2121 BKN025 BKN130 \n BECMG 2121/2122 7000 NSW \n TEMPO 2204/2208 31015G25KT \n BECMG 2214/2215 07007KT"
"taf	RKSI	2018-09-21 18:00:00	TAF RKSI 211700Z 2118/2224 30006KT 7000 FEW010 SCT030 TN19/2121Z TX24/2206Z TN17/2221Z \n TEMPO 2119/2121 23007KT SHRA FEW010 BKN025 OVC080 \n BECMG 2122/2123 24007KT \n BECMG 2200/2201 32010KT \n BECMG 2211/2212 07006KT"
"taf	RKSI	2018-09-22 00:00:00	TAF RKSI 222300Z 2300/2406 17006KT 7000 FEW010 BKN025 BKN120 TX22/2306Z TN16/2321Z TX21/2405Z \n TEMPO 2300/2302 05006KT -RA \n BECMG 2303/2304 32010KT SCT030 \n BECMG 2310/2311 33015G25KT \n BECMG 2401/2402 33010KT"
"taf	RKSI	2018-09-22 06:00:00	TAF RKSI 220500Z 2206/2312 29010KT CAVOK TN17/2221Z TX23/2306Z \n BECMG 2213/2214 17006KT 6000 SCT030 \n TEMPO 2222/2301 09006KT -SHRA FEW010 BKN025 \n BECMG 2302/2303 29008KT \n BECMG 2309/2310 30015G25KT"
"taf	RKSI	2018-09-22 12:00:00	TAF RKSI 221100Z 2212/2318 29007KT CAVOK TN17/2221Z TX23/2306Z \n BECMG 2215/2216 18006KT 6000 SCT030 \n TEMPO 2220/2223 09006KT -RA FEW010 BKN025 \n BECMG 2303/2304 29008KT 9999 \n BECMG 2311/2312 30015G25KT \n BECMG 2314/2315 30010KT"
"taf	RKSI	2018-09-22 18:00:00	TAF RKSI 221700Z 2218/2324 05007KT CAVOK TN16/2221Z TX23/2306Z TN16/2321Z \n TEMPO 2220/2301 15006KT 4200 -RA FEW010 BKN025 OVC080 \n BECMG 2303/2304 32010KT \n BECMG 2311/2312 33015G25KT"
"taf	RKSI	2018-09-23 00:00:00	TAF RKSI 232300Z 2400/2506 34010KT 9999 FEW030 TX21/2405Z TN13/2421Z TX22/2505Z \n BECMG 2403/2404 32015G25KT \n BECMG 2410/2411 34008KT \n BECMG 2500/2501 05010KT"
"taf	RKSI	2018-09-23 06:00:00	TAF RKSI 230500Z 2306/2412 30008KT 9999 FEW030 TN16/2321Z TX22/2405Z \n BECMG 2310/2311 31015G25KT \n BECMG 2320/2321 31010KT \n BECMG 2411/2412 33015G25KT"
"taf	RKSI	2018-09-23 12:00:00	TAF RKSI 231100Z 2312/2418 31015G25KT 9999 FEW030 TN16/2321Z TX21/2405Z \n BECMG 2320/2321 31010KT \n BECMG 2410/2411 33015G25KT \n BECMG 2415/2416 33011KT"
"taf	RKSI	2018-09-23 18:00:00	TAF RKSI 231700Z 2318/2424 32010KT 9999 FEW030 TN16/2321Z TX21/2405Z TN13/2421Z \n BECMG 2403/2404 33015G25KT \n BECMG 2410/2411 34010KT"
"taf	RKSI	2018-09-24 00:00:00	TAF RKSI 242300Z 2500/2606 07007KT 9999 FEW030 TX22/2505Z TN14/2521Z TX23/2605Z \n BECMG 2505/2506 34008KT \n BECMG 2513/2514 07010KT"
"taf	RKSI	2018-09-24 06:00:00	TAF RKSI 240500Z 2406/2512 34007KT CAVOK TN14/2421Z TX23/2505Z \n BECMG 2421/2422 07007KT \n BECMG 2506/2507 34007KT \n BECMG 2510/2511 07006KT"
"taf	RKSI	2018-09-24 12:00:00	TAF RKSI 241100Z 2412/2518 35007KT 9999 FEW030 TN14/2421Z TX23/2505Z \n BECMG 2420/2421 07006KT \n TEMPO 2506/2511 34006KT"
"taf	RKSI	2018-09-24 18:00:00	TAF RKSI 241700Z 2418/2524 07006KT 9999 FEW030 TN13/2421Z TX22/2505Z TN14/2521Z \n BECMG 2505/2506 34007KT \n BECMG 2513/2514 07008KT"
"taf	RKSI	2018-09-25 00:00:00	TAF RKSI 252300Z 2600/2706 06007KT 9999 FEW030 TX23/2605Z TN13/2621Z TX23/2705Z"
"taf	RKSI	2018-09-25 06:00:00	TAF RKSI 250500Z 2506/2612 33007KT 9999 FEW030 SCT180 TN15/2521Z TX23/2605Z \n BECMG 2513/2514 12006KT \n BECMG 2515/2516 06007KT"
"taf	RKSI	2018-09-25 12:00:00	TAF RKSI 251100Z 2512/2618 06007KT 9999 FEW030 SCT180 TN15/2521Z TX23/2605Z"
"taf	RKSI	2018-09-25 18:00:00	TAF RKSI 251700Z 2518/2624 06007KT 9999 FEW030 BKN200 TN15/2521Z TX23/2605Z TN13/2621Z"
"taf	RKSI	2018-09-26 00:00:00	TAF RKSI 262300Z 2700/2806 06007KT CAVOK TX24/2705Z TN14/2720Z TX24/2805Z \n BECMG 2706/2707 32010KT \n BECMG 2709/2710 07006KT 9999 FEW030 SCT160 \n BECMG 2802/2803 14010KT"
"taf	RKSI	2018-09-26 06:00:00	TAF RKSI 260500Z 2606/2712 13007KT 9999 FEW030 BKN180 TN13/2621Z TX23/2706Z \n BECMG 2615/2616 06007KT"
"taf	RKSI	2018-09-26 12:00:00	TAF \n AMD RKSI 261119Z 2612/2718 07007KT 9999 FEW030 TN13/2621Z TX23/2706Z \n TEMPO 2706/2709 31007KT"
"taf	RKSI	2018-09-26 12:19:00	TAF \n AMD RKSI 261119Z 2612/2718 07007KT 9999 FEW030 TN13/2621Z TX23/2706Z \n TEMPO 2706/2709 31007KT"
"taf	RKSI	2018-09-26 12:21:00	TAF \n AMD TAF \n AMD RKSI 261119Z 2612/2718 07007KT 9999 FEW030 TN13/2621Z TX23/2706Z \n TEMPO 2706/2709 31007KT"
"taf	RKSI	2018-09-26 18:00:00	TAF RKSI 261700Z 2618/2724 06007KT 9999 FEW030 TN13/2620Z TX24/2705Z TN14/2720Z \n BECMG 2706/2707 32010KT \n BECMG 2709/2710 07006KT"
"taf	RKSI	2018-09-27 00:00:00	TAF RKSI 272300Z 2800/2906 10007KT 9999 SCT030 BKN150 TX22/2806Z TN15/2821Z TX24/2905Z \n TEMPO 2800/2803 04006KT \n BECMG 2902/2903 16010KT CAVOK \n BECMG 2905/2906 22007KT"
"taf	RKSI	2018-09-27 06:00:00	TAF RKSI 270500Z 2706/2812 31007KT 9999 FEW030 TN14/2721Z TX22/2806Z \n BECMG 2711/2712 07007KT \n BECMG 2805/2806 31007KT \n BECMG 2809/2810 07007KT"
"taf	RKSI	2018-09-27 12:00:00	TAF RKSI 271100Z 2712/2818 06007KT 9999 FEW030 TN15/2721Z TX23/2806Z \n BECMG 2717/2718 12007KT \n TEMPO 2805/2810 31007KT"
"taf	RKSI	2018-09-27 18:00:00	TAF RKSI 271700Z 2718/2824 06006KT 9999 SCT030 BKN150 TN15/2721Z TX23/2806Z TN15/2820Z \n TEMPO 2803/2811 13010KT \n BECMG 2811/2812 12006KT \n BECMG 2823/2824 06006KT"
"taf	RKSI	2018-09-28 00:00:00	TAF RKSI 282300Z 2900/3006 07007KT 9999 FEW030 TX24/2906Z TN17/2921Z TX21/3006Z \n BECMG 2905/2906 32008KT \n BECMG 3000/3001 32015G25KT"
"taf	RKSI	2018-09-28 06:00:00	TAF RKSI 280500Z 2806/2912 12010KT 9999 SCT030 BKN150 TN15/2821Z TX24/2905Z \n TEMPO 2809/2811 18010KT \n BECMG 2905/2906 33007KT CAVOK"
"taf	RKSI	2018-09-28 12:00:00	TAF RKSI 281100Z 2812/2918 12010KT 9999 SCT030 BKN150 TN16/2821Z TX24/2905Z \n BECMG 2905/2906 33007KT \n BECMG 2914/2915 11006KT"
"taf	RKSI	2018-09-28 18:00:00	TAF RKSI 281700Z 2818/2924 11007KT 9999 FEW030 TN16/2821Z TX24/2906Z TN17/2921Z \n BECMG 2905/2906 32007KT \n BECMG 2915/2916 07006KT \n BECMG 2923/2924 32008KT"
"taf	RKSI	2018-09-29 00:00:00	TAF RKSI 292300Z 3000/0106 32008KT 9999 SCT030 TX21/3006Z TN14/3021Z TX18/0106Z \n BECMG 3005/3006 32015G25KT \n BECMG 3023/3024 32010KT"
"taf	RKSI	2018-09-29 06:00:00	TAF RKSI 290500Z 2906/3012 33007KT CAVOK TN17/2921Z TX21/3006Z \n TEMPO 2906/2907 07008KT \n BECMG 2915/2916 07006KT \n BECMG 3000/3001 33010KT \n TEMPO 3003/3012 33018G30KT"
"taf	RKSI	2018-09-29 12:00:00	TAF RKSI 291100Z 2912/3018 05007KT CAVOK TN17/2921Z TX21/3006Z \n BECMG 2920/2921 11007KT \n BECMG 3000/3001 33013KT \n TEMPO 3003/3012 33018G30KT"
"taf	RKSI	2018-09-29 18:00:00	TAF RKSI 291700Z 2918/3024 05008KT CAVOK TN17/2921Z TX21/3006Z TN13/3021Z \n BECMG 3000/3001 32010KT \n BECMG 3003/3004 32015G30KT"
"taf	RKSI	2018-09-30 00:00:00	TAF RKSI 302300Z 0100/0206 30014KT 9999 SCT030 BKN120 TX17/0106Z TN12/0121Z TX20/0205Z \n BECMG 0102/0103 30018G30KT BKN025 OVC120 \n BECMG 0112/0113 34012KT SCT030 \n BECMG 0119/0120 07006KT \n BECMG 0202/0203 30008KT"
"taf	RKSI	2018-09-30 00:12:00	TAF \n AMD TAF \n AMD RKSI 292300Z 3000/0106 32025G35KT 9999 SCT030 TX21/3006Z TN14/3021Z TX18/0106Z \n BECMG 3012/3013 32015G25KT \n BECMG 3023/3024 32010KT"
"taf	RKSI	2018-09-30 04:10:00	TAF \n AMD RKSI 300410Z 3004/0106 32025G35KT 9999 SCT030 TX21/3006Z TN14/3021Z TX18/0106Z \n BECMG 3012/3013 32015G25KT \n BECMG 3023/3024 32010KT"
"taf	RKSI	2018-09-30 04:15:00	TAF \n AMD TAF \n AMD RKSI 300410Z 3004/0106 32025G35KT 9999 SCT030 TX21/3006Z TN14/3021Z TX18/0106Z \n BECMG 3012/3013 32015G25KT \n BECMG 3023/3024 32010KT"
"taf	RKSI	2018-09-30 06:00:00	TAF RKSI 300500Z 3006/0112 31015G25KT 9999 SCT030 TN13/3021Z TX17/0106Z \n BECMG 3017/3018 32012KT \n BECMG 3023/3024 31015G25KT \n TEMPO 0106/0109 BKN030 \n BECMG 0111/0112 32012KT"
"taf	RKSI	2018-09-30 12:00:00	TAF RKSI 301100Z 3012/0118 32015G25KT 9999 SCT030 TN13/3021Z TX18/0106Z \n BECMG 3014/3015 31012KT \n TEMPO 3019/3022 BKN030 \n BECMG 0100/0101 31015G25KT \n TEMPO 0104/0108 30015KT BKN030 \n BECMG 0110/0111 32012KT"
"taf	RKSI	2018-09-30 18:00:00	TAF RKSI 301700Z 3018/0124 33014KT 9999 BKN025 BKN120 TN15/3021Z TX17/0106Z TN12/0121Z \n BECMG 3021/3022 SCT030 BKN120 \n BECMG 0102/0103 33018G30KT BKN025 OVC120 \n BECMG 0107/0108 SCT030 \n BECMG 0112/0113 34012KT \n BECMG 0118/0119 06006KT"
"taf	RKSI	2018-09-30 18:45:00	TAF \n AMD RKSI 301845Z 3018/0124 33014KT 7000 -RA BKN025 BKN120 TN15/3021Z TX17/0106Z TN12/0121Z \n BECMG 3021/3022 NSW SCT030 BKN120 \n BECMG 0102/0103 33018G30KT BKN025 OVC120 \n BECMG 0107/0108 SCT030 \n BECMG 0112/0113 34012KT \n BECMG 0118/0119 06006KT"
"taf	RKSI	2018-09-30 18:48:00	TAF \n AMD TAF \n AMD RKSI 301845Z 3018/0124 33014KT 7000 -RA BKN025 BKN120 TN15/3021Z TX17/0106Z TN12/0121Z \n BECMG 3021/3022 NSW SCT030 BKN120 \n BECMG 0102/0103 33018G30KT BKN025 OVC120 \n BECMG 0107/0108 SCT030 \n BECMG 0112/0113 34012KT \n BECMG 0118/0119 06006KT"
"taf	RKSI	2018-10-01 00:00:00	TAF RKSI 012300Z 0200/0306 07006KT CAVOK TX20/0205Z TN12/0221Z TX21/0305Z \n BECMG 0201/0202 29008KT \n BECMG 0214/0215 07006KT \n BECMG 0302/0303 30008KT"
"taf	RKSI	2018-10-01 06:00:00	TAF RKSI 010500Z 0106/0212 30015G27KT 9999 SCT030 TN12/0121Z TX20/0205Z \n TEMPO 0106/0108 6000 -SHRA FEW010 BKN030 \n BECMG 0112/0113 32012KT CAVOK \n BECMG 0118/0119 07006KT \n BECMG 0202/0203 29008KT"
"taf	RKSI	2018-10-01 12:00:00	TAF RKSI 011100Z 0112/0218 33008KT 9999 SCT030 TN12/0121Z TX20/0205Z \n BECMG 0120/0121 07006KT CAVOK \n BECMG 0201/0202 29007KT \n BECMG 0212/0213 35010KT"
"taf	RKSI	2018-10-01 18:00:00	TAF RKSI 011700Z 0118/0224 01008KT CAVOK TN13/0121Z TX20/0205Z TN12/0221Z \n BECMG 0120/0121 07006KT \n BECMG 0201/0202 29007KT \n BECMG 0217/0218 07006KT"
"taf	RKSI	2018-10-02 00:00:00	TAF RKSI 022300Z 0300/0406 07006KT CAVOK TX22/0305Z TN14/0321Z TX25/0405Z \n BECMG 0302/0303 29007KT \n BECMG 0312/0313 36010KT \n BECMG 0314/0315 06007KT 7000 NSC"
"taf	RKSI	2018-10-02 06:00:00	TAF RKSI 020500Z 0206/0312 29007KT CAVOK TN12/0221Z TX22/0305Z \n BECMG 0214/0215 07006KT \n BECMG 0302/0303 29007KT"
"taf	RKSI	2018-10-02 12:00:00	TAF RKSI 021100Z 0212/0318 28006KT CAVOK TN12/0221Z TX22/0305Z \n BECMG 0214/0215 07006KT \n BECMG 0302/0303 29007KT \n BECMG 0312/0313 07006KT"
"taf	RKSI	2018-10-02 18:00:00	TAF RKSI 021700Z 0218/0324 07006KT CAVOK TN12/0221Z TX22/0305Z TN14/0321Z \n BECMG 0302/0303 29007KT \n BECMG 0312/0313 07006KT"
"taf	RKSI	2018-10-03 00:00:00	TAF RKSI 032300Z 0400/0506 06007KT CAVOK TX25/0405Z TN17/0421Z TX20/0505Z \n BECMG 0408/0409 35010KT \n BECMG 0410/0411 05010KT 6000 FEW030 BKN180 \n BECMG 0423/0424 FEW010 BKN030 OVC080 \n BECMG 0503/0504 -RA \n BECMG 0505/0506 4200"
"taf	RKSI	2018-10-03 06:00:00	TAF RKSI 030500Z 0306/0412 30006KT CAVOK TN14/0321Z TX25/0405Z \n BECMG 0314/0315 36010KT \n BECMG 0316/0317 06007KT 7000 NSC"
"taf	RKSI	2018-10-03 12:00:00	TAF RKSI 031100Z 0312/0418 06006KT CAVOK TN14/0321Z TX25/0405Z \n BECMG 0408/0409 35010KT \n BECMG 0410/0411 06008KT 7000 FEW030 BKN180"
"taf	RKSI	2018-10-03 18:00:00	TAF RKSI 031700Z 0318/0424 07007KT CAVOK TN14/0321Z TX25/0405Z TN17/0421Z \n BECMG 0407/0408 35008KT \n BECMG 0409/0410 06010KT 7000 FEW030 BKN180 \n BECMG 0423/0424 FEW010 BKN030 OVC100"
"taf	RKSI	2018-10-04 00:00:00	TAF RKSI 042300Z 0500/0606 05011KT 6000 -RA FEW010 BKN025 OVC080 TX20/0507Z TN18/0521Z TX23/0606Z \n BECMG 0509/0510 05015G25KT \n BECMG 0514/0515 4200 \n BECMG 0519/0520 05018G35KT RA \n BECMG 0523/0524 02020G35KT \n BECMG 0602/0603 34018G30KT 6000 NSW SCT030 BKN120"
"taf	RKSI	2018-10-04 06:00:00	TAF RKSI 040500Z 0406/0512 09008KT 9999 SCT030 BKN180 TN16/0421Z TX20/0506Z \n BECMG 0503/0504 6000 -RA FEW010 BKN025 OVC080 \n BECMG 0505/0506 06010KT 4200"
"taf	RKSI	2018-10-04 12:00:00	TAF RKSI 041100Z 0412/0518 07010KT 9999 SCT030 BKN180 TN17/0421Z TX20/0506Z \n BECMG 0502/0503 6000 -RA FEW010 BKN025 OVC080 \n BECMG 0505/0506 4200 \n BECMG 0511/0512 06015G25KT"
"taf	RKSI	2018-10-04 18:00:00	TAF RKSI 041700Z 0418/0524 05010KT 9999 SCT030 BKN180 TN17/0421Z TX20/0507Z TN18/0521Z \n BECMG 0423/0424 6000 -RA FEW010 BKN025 OVC080 \n BECMG 0506/0507 05015G25KT \n BECMG 0511/0512 4200 \n TEMPO 0520/0524 04018G35KT RA"
"taf	RKSI	2018-10-05 00:00:00	TAF RKSI 052300Z 0600/0706 03015G25KT 6000 RA FEW010 BKN025 OVC080 TX21/0606Z TN14/0621Z TX20/0706Z \n BECMG 0601/0602 36020G35KT \n BECMG 0603/0604 33015G25KT NSW SCT030 BKN120 \n BECMG 0609/0610 31010KT CAVOK \n TEMPO 0703/0706 31015G25KT"
"taf	RKSI	2018-10-05 06:00:00	TAF RKSI 050500Z 0506/0612 04015G25KT 6000 -RA FEW010 BKN025 OVC080 TN17/0521Z TX23/0606Z \n BECMG 0514/0515 4200 \n BECMG 0519/0520 04018G35KT 2800 RA \n BECMG 0523/0524 01020G35KT 3500 \n BECMG 0603/0604 34018G35KT 6000 NSW SCT030 BKN120 \n BECMG 0608/0609 34015G25KT"
"taf	RKSI	2018-10-05 12:00:00	TAF RKSI 051100Z 0512/0618 04015G25KT 4200 -RA FEW010 BKN025 OVC080 TN16/0521Z TX20/0606Z \n BECMG 0519/0520 04018G35KT 2800 RA \n BECMG 0523/0524 01020G35KT 3500 -RA \n BECMG 0603/0604 34018G35KT 6000 NSW SCT030 BKN120 \n BECMG 0608/0609 32015G25KT"
"taf	RKSI	2018-10-05 18:00:00	TAF RKSI 051700Z 0518/0624 05017G30KT 6000 RA FEW010 BKN025 OVC080 TN16/0521Z TX20/0606Z TN14/0621Z \n BECMG 0523/0524 02017G30KT 4200 \n BECMG 0601/0602 35015G25KT 6000 NSW SCT030 BKN120 \n TEMPO 0602/0604 01020G35KT -RA BKN030 OVC100 \n BECMG 0608/0609 31009KT NSC"
"taf	RKSI	2018-10-06 00:00:00	TAF RKSI 062300Z 0700/0806 32012G25KT CAVOK TX20/0706Z TN13/0721Z TX19/0806Z \n BECMG 0723/0724 03005KT \n BECMG 0802/0803 31010KT"
"taf	RKSI	2018-10-06 06:00:00	TAF RKSI 060500Z 0606/0712 33017G30KT 9999 SCT030 BKN120 TN14/0621Z TX20/0706Z \n BECMG 0609/0610 31012KT \n BECMG 0703/0704 33015G25KT \n BECMG 0708/0709 33008KT"
"taf	RKSI	2018-10-06 12:00:00	TAF RKSI 061100Z 0612/0718 34007KT 9999 SCT030 BKN120 TN14/0621Z TX20/0706Z \n BECMG 0703/0704 33015G25KT \n BECMG 0708/0709 33008KT"
"taf	RKSI	2018-10-06 18:00:00	TAF RKSI 061700Z 0618/0724 31012G25KT CAVOK TN16/0621Z TX20/0706Z TN13/0721Z"
"taf	RKSI	2018-10-07 00:00:00	TAF RKSI 072300Z 0800/0906 07006KT CAVOK TX20/0806Z TN13/0821Z TX18/0906Z \n BECMG 0802/0803 31007KT \n BECMG 0815/0816 07006KT \n BECMG 0823/0824 13010KT"
"taf	RKSI	2018-10-07 06:00:00	TAF RKSI 070500Z 0706/0812 32010KT CAVOK TN13/0721Z TX19/0806Z \n BECMG 0715/0716 07006KT \n BECMG 0802/0803 31008KT \n BECMG 0810/0811 07006KT"
"taf	RKSI	2018-10-07 12:00:00	TAF RKSI 071100Z 0712/0818 32010KT CAVOK TN13/0721Z TX19/0806Z \n BECMG 0717/0718 07006KT \n BECMG 0802/0803 30008KT \n BECMG 0814/0815 07006KT"
"taf	RKSI	2018-10-07 18:00:00	TAF RKSI 071700Z 0718/0824 01006KT CAVOK TN13/0721Z TX20/0806Z TN13/0821Z \n BECMG 0720/0721 07007KT \n BECMG 0803/0804 31007KT \n BECMG 0815/0816 07006KT"
"taf	RKSI	2018-10-08 00:00:00	TAF RKSI 082300Z 0900/1006 13010KT 9999 FEW030 BKN120 TX21/0906Z TN12/0921Z TX15/1005Z \n TEMPO 0906/0908 07008KT \n BECMG 0912/0913 17012KT 4200 -RA FEW010 BKN025 OVC100 \n BECMG 0917/0918 28014KT \n BECMG 0919/0920 33017G30KT 7000 NSW SCT030"
"taf	RKSI	2018-10-08 06:00:00	TAF RKSI 080500Z 0806/0912 30006KT CAVOK TN13/0821Z TX18/0906Z \n BECMG 0815/0816 07006KT \n BECMG 0823/0824 13010KT 9999 FEW030 BKN120 \n BECMG 0909/0910 19008KT \n BECMG 0911/0912 FEW010 BKN030 OVC100"
"taf	RKSI	2018-10-08 12:00:00	TAF RKSI 081100Z 0812/0918 30006KT CAVOK TN13/0821Z TX18/0906Z \n BECMG 0815/0816 07006KT \n BECMG 0823/0824 13010KT 9999 FEW030 BKN120 \n BECMG 0909/0910 19008KT FEW010 BKN030 OVC100 \n BECMG 0912/0913 16010KT 6000 -RA \n BECMG 0917/0918 26012KT"
"taf	RKSI	2018-10-08 18:00:00	TAF RKSI 081700Z 0818/0924 07006KT CAVOK TN13/0821Z TX18/0906Z TN12/0921Z \n BECMG 0823/0824 13010KT 9999 FEW030 BKN120 \n BECMG 0907/0908 07008KT FEW010 BKN025 OVC100 \n BECMG 0912/0913 17010KT 4200 -RA \n BECMG 0917/0918 26012KT \n BECMG 0920/0921 33017G30KT 7000 NSW SCT030 BKN150"
"taf	RKSI	2018-10-09 00:00:00	TAF RKSI 092300Z 1000/1106 33015G25KT 9999 SCT030 TX14/1005Z TN07/1021Z TX13/1105Z \n BECMG 1012/1013 34012KT \n BECMG 1101/1102 33015G25KT"
"taf	RKSI	2018-10-09 06:00:00	TAF RKSI 090500Z 0906/1012 13007KT 9999 FEW030 BKN120 TN12/0921Z TX15/1005Z \n BECMG 0912/0913 19012KT 6000 -RA FEW010 BKN025 OVC100 \n BECMG 0917/0918 31017G35KT 9999 NSW SCT030 \n BECMG 0923/0924 31015G25KT \n BECMG 1009/1010 32012KT"
"taf	RKSI	2018-10-09 12:00:00	TAF RKSI 091100Z 0912/1018 17012KT 9999 FEW030 BKN120 TN12/0921Z TX15/1005Z \n BECMG 0914/0915 20015G25KT 6000 -RA FEW010 BKN025 OVC100 \n BECMG 0917/0918 31017G35KT 9999 NSW SCT030 \n BECMG 0923/0924 31015G25KT \n BECMG 1009/1010 32011KT"
"taf	RKSI	2018-10-09 14:00:00	TAF \n AMD RKSI 091400Z 0914/1018 20015G25KT 6000 -TSRA FEW020CB BKN025 OVC100 TN12/0921Z TX15/1005Z \n BECMG 0917/0918 31017G35KT 9999 NSW SCT030 \n BECMG 0923/0924 31015G25KT \n BECMG 1009/1010 32011KT"
"taf	RKSI	2018-10-09 14:06:00	TAF \n AMD TAF \n AMD RKSI 091400Z 0914/1018 20015G25KT 6000 -TSRA FEW020CB BKN025 OVC100 TN12/0921Z TX15/1005Z \n BECMG 0917/0918 31017G35KT 9999 NSW SCT030 \n BECMG 0923/0924 31015G25KT \n BECMG 1009/1010 32011KT"
"taf	RKSI	2018-10-09 18:00:00	TAF RKSI 091700Z 0918/1024 32014KT 6000 SCT030 TN12/0921Z TX14/1005Z TN07/1021Z \n BECMG 0919/0920 33017G35KT 9999 \n BECMG 0923/0924 33015G25KT \n BECMG 1012/1013 34012KT"
"taf	RKSI	2018-10-10 00:00:00	TAF RKSI 102300Z 1100/1206 32015G25KT 9999 SCT030 TX15/1105Z TN08/1121Z TX17/1205Z \n TEMPO 1100/1101 35012KT \n TEMPO 1103/1105 BKN030 \n TEMPO 1110/1115 33010KT \n BECMG 1116/1117 33007KT"
"taf	RKSI	2018-10-10 06:00:00	TAF RKSI 100500Z 1006/1112 33009KT 9999 SCT030 TN07/1021Z TX14/1105Z \n TEMPO 1006/1009 32015G25KT \n TEMPO 1102/1109 32015G25KT"
"taf	RKSI	2018-10-10 12:00:00	TAF RKSI 101100Z 1012/1118 33010KT 9999 SCT030 TN07/1021Z TX14/1105Z \n BECMG 1102/1103 32015G25KT \n BECMG 1109/1110 33008KT"
"taf	RKSI	2018-10-10 18:00:00	TAF RKSI 101700Z 1018/1124 35008KT 9999 SCT030 TN07/1021Z TX14/1105Z TN07/1121Z \n BECMG 1101/1102 31015G25KT \n TEMPO 1110/1115 33010KT \n BECMG 1116/1117 35008KT"
"taf	RKSI	2018-10-11 00:00:00	TAF RKSI 112300Z 1200/1306 07006KT CAVOK TX17/1205Z TN07/1221Z TX18/1305Z \n BECMG 1202/1203 32006KT \n BECMG 1212/1213 07006KT \n BECMG 1302/1303 34005KT"
"taf	RKSI	2018-10-11 06:00:00	TAF RKSI 110500Z 1106/1212 31015G25KT 9999 SCT030 TN08/1121Z TX17/1205Z \n TEMPO 1111/1115 33010KT \n BECMG 1116/1117 34007KT \n TEMPO 1203/1209 28010KT"
"taf	RKSI	2018-10-11 12:00:00	TAF RKSI 111100Z 1112/1218 33007KT 9999 FEW030 TN08/1121Z TX17/1205Z \n BECMG 1200/1201 07006KT \n BECMG 1202/1203 31006KT \n BECMG 1212/1213 07006KT"
"taf	RKSI	2018-10-11 18:00:00	TAF RKSI 111700Z 1118/1224 34007KT CAVOK TN08/1121Z TX17/1205Z TN07/1221Z \n BECMG 1123/1124 07006KT \n BECMG 1201/1202 32006KT \n BECMG 1212/1213 07006KT"
"taf	RKSI	2018-10-12 00:00:00	TAF RKSI 122300Z 1300/1406 07005KT CAVOK TX18/1306Z TN09/1321Z TX18/1406Z \n BECMG 1303/1304 31006KT \n BECMG 1311/1312 07005KT \n BECMG 1402/1403 29006KT 9999 SCT030 BKN180"
"taf	RKSI	2018-10-12 06:00:00	TAF RKSI 120500Z 1206/1312 32006KT CAVOK TN08/1221Z TX18/1306Z \n BECMG 1215/1216 07006KT \n BECMG 1302/1303 32006KT \n BECMG 1310/1311 07005KT"
"taf	RKSI	2018-10-12 12:00:00	TAF RKSI 121100Z 1212/1318 07005KT 9999 FEW030 TN08/1221Z TX18/1306Z \n BECMG 1303/1304 32006KT \n BECMG 1311/1312 07006KT"
"taf	RKSI	2018-10-12 18:00:00	TAF RKSI 121700Z 1218/1324 07005KT CAVOK TN08/1221Z TX18/1306Z TN09/1321Z \n BECMG 1303/1304 31006KT \n BECMG 1312/1313 07005KT"
"taf	RKSI	2018-10-13 00:00:00	TAF RKSI 132300Z 1400/1506 07005KT 7000 FEW030 BKN180 TX18/1406Z TN12/1421Z TX18/1506Z \n TEMPO 1404/1411 28006KT \n BECMG 1412/1413 29006KT \n BECMG 1418/1419 32005KT 4200 BR FEW010 BKN030 \n BECMG 1421/1422 29007KT 6000 NSW FEW035 SCT200"
"taf	RKSI	2018-10-13 06:00:00	TAF RKSI 130500Z 1306/1412 32006KT CAVOK TN08/1321Z TX18/1406Z \n BECMG 1312/1313 07006KT \n BECMG 1402/1403 31006KT"
"taf	RKSI	2018-10-13 12:00:00	TAF RKSI 131100Z 1312/1418 07005KT CAVOK TN08/1321Z TX18/1406Z \n BECMG 1402/1403 31006KT \n BECMG 1416/1417 01010KT 9999 BKN030 BKN150"
"taf	RKSI	2018-10-13 18:00:00	TAF RKSI 131700Z 1318/1424 07005KT CAVOK TN08/1321Z TX18/1406Z TN12/1421Z \n TEMPO 1404/1411 28007KT \n BECMG 1411/1412 32006KT \n BECMG 1417/1418 9999 BKN030 \n BECMG 1421/1422 FEW030"
"taf	RKSI	2018-10-14 00:00:00	TAF RKSI 142300Z 1500/1606 32010KT 7000 SCT030 TX19/1506Z TN11/1521Z TX17/1606Z"
"taf	RKSI	2018-10-14 06:00:00	TAF RKSI 140500Z 1406/1512 29006KT 7000 FEW030 BKN180 TN13/1421Z TX19/1506Z \n BECMG 1418/1419 32005KT 4200 BR FEW010 BKN030 \n TEMPO 1421/1424 03007KT 6000 NSW FEW030 SCT200 \n BECMG 1501/1502 29007KT 7000 NSW FEW035 \n BECMG 1510/1511 35010KT"
"taf	RKSI	2018-10-14 12:00:00	TAF RKSI 141100Z 1412/1518 31006KT 7000 FEW030 BKN180 TN13/1421Z TX19/1506Z \n BECMG 1418/1419 4200 BR FEW010 BKN030 \n TEMPO 1421/1424 03007KT 6000 NSW FEW030 SCT200 \n BECMG 1501/1502 28008KT 7000 NSW FEW035 SCT200 \n BECMG 1510/1511 34010KT"
"taf	RKSI	2018-10-14 18:00:00	TAF RKSI 141700Z 1418/1524 33006KT CAVOK TN13/1421Z TX19/1506Z TN11/1521Z \n BECMG 1420/1421 07006KT \n BECMG 1500/1501 33010KT"
"taf	RKSI	2018-10-15 00:00:00	TAF RKSI 152300Z 1600/1706 32010KT 9999 FEW030 BKN180 TX18/1606Z TN09/1621Z TX16/1706Z"
"taf	RKSI	2018-10-15 03:20:00	TAF \n AMD RKSI 150320Z 1503/1606 28008KT 7000 SCT030 TX19/1506Z TN11/1521Z TX17/1606Z \n BECMG 1510/1511 34010KT"
"taf	RKSI	2018-10-15 03:21:00	TAF \n AMD TAF \n AMD RKSI 150320Z 1503/1606 28008KT 7000 SCT030 TX19/1506Z TN11/1521Z TX17/1606Z \n BECMG 1510/1511 34010KT"
"taf	RKSI	2018-10-15 06:00:00	TAF RKSI 150500Z 1506/1612 28008KT 6000 FEW030 BKN180 TN11/1521Z TX18/1606Z \n BECMG 1510/1511 34010KT \n TEMPO 1518/1520 4200 BR"
"taf	RKSI	2018-10-15 12:00:00	TAF RKSI 151100Z 1512/1618 33010KT 7000 FEW030 BKN180 TN11/1521Z TX18/1606Z \n TEMPO 1518/1520 4200 BR"
"taf	RKSI	2018-10-15 18:00:00	TAF RKSI 151700Z 1518/1624 33010KT 9999 FEW030 BKN180 TN12/1521Z TX18/1606Z TN09/1621Z"
"taf	RKSI	2018-10-16 00:00:00	TAF RKSI 162300Z 1700/1806 33008KT CAVOK TX16/1705Z TN09/1721Z TX16/1805Z \n BECMG 1704/1705 27010KT \n BECMG 1711/1712 01007KT 6000 NSC \n TEMPO 1718/1721 06007KT 4200 BR \n BECMG 1722/1723 07010KT 9999 FEW030 SCT180"
"taf	RKSI	2018-10-16 06:00:00	TAF RKSI 160500Z 1606/1712 31008KT 9999 FEW030 SCT180 TN09/1621Z TX16/1705Z \n BECMG 1706/1707 07006KT \n BECMG 1709/1710 34007KT"
"taf	RKSI	2018-10-16 12:00:00	TAF RKSI 161100Z 1612/1718 33008KT 9999 FEW030 SCT180 TN09/1621Z TX16/1705Z \n BECMG 1704/1705 27010KT \n BECMG 1711/1712 36007KT 6000 \n BECMG 1717/1718 06007KT 4200 BR"
"taf	RKSI	2018-10-16 18:00:00	TAF RKSI 161700Z 1618/1724 33008KT CAVOK TN08/1621Z TX16/1705Z TN09/1721Z \n BECMG 1704/1705 27010KT \n BECMG 1711/1712 36007KT 6000 NSC \n TEMPO 1719/1721 06007KT 4200 BR \n BECMG 1722/1723 07007KT CAVOK"
"taf	RKSI	2018-10-17 00:00:00	TAF RKSI 172300Z 1800/1906 05010KT 7000 SCT025 TX16/1805Z TN09/1821Z TX18/1905Z \n BECMG 1803/1804 BKN025 \n TEMPO 1805/1807 -RA \n BECMG 1808/1809 SCT030 \n BECMG 1903/1904 33008KT"
"taf	RKSI	2018-10-17 06:00:00	TAF RKSI 170500Z 1706/1812 29010KT CAVOK TN08/1721Z TX16/1805Z \n BECMG 1711/1712 36007KT 6000 NSC \n BECMG 1718/1719 03006KT 4200 BR \n BECMG 1722/1723 06010KT 6000 NSW SCT030 \n BECMG 1802/1803 BKN030 \n BECMG 1807/1808 SCT030"
"taf	RKSI	2018-10-17 12:00:00	TAF RKSI 171100Z 1712/1818 12006KT 6000 NSC TN08/1721Z TX16/1805Z \n BECMG 1722/1723 06007KT SCT030 \n BECMG 1802/1803 BKN030 \n BECMG 1805/1806 03008KT -RA \n BECMG 1808/1809 NSW SCT030"
"taf	RKSI	2018-10-17 18:00:00	TAF RKSI 171700Z 1718/1824 12008KT 7000 NSC TN08/1721Z TX16/1805Z TN09/1821Z \n BECMG 1719/1720 06008KT SCT030 \n BECMG 1802/1803 BKN025 \n TEMPO 1805/1807 03012KT -RA \n BECMG 1808/1809 05015G25KT SCT030 \n TEMPO 1820/1824 04010KT"
"taf	RKSI	2018-10-18 00:00:00	TAF RKSI 182300Z 1900/2006 03007KT CAVOK TX18/1905Z TN08/1921Z TX18/2005Z \n BECMG 1903/1904 24007KT \n TEMPO 1904/1911 30007KT \n BECMG 1912/1913 34006KT \n BECMG 1918/1919 07006KT \n BECMG 2000/2001 29006KT"
"taf	RKSI	2018-10-18 06:00:00	TAF \n AMD RKSI 180529Z 1806/1912 02008KT 7000 SCT030 TN09/1821Z TX18/1905Z \n TEMPO 1806/1808 05008KT -TSRA FEW015CB BKN030 \n BECMG 1902/1903 24007KT \n TEMPO 1903/1909 32007KT \n BECMG 1910/1911 30006KT"
"taf	RKSI	2018-10-18 06:29:00	TAF \n AMD RKSI 180529Z 1806/1912 02008KT 7000 SCT030 TN09/1821Z TX18/1905Z \n TEMPO 1806/1808 05008KT -TSRA FEW015CB BKN030 \n BECMG 1902/1903 24007KT \n TEMPO 1903/1909 32007KT \n BECMG 1910/1911 30006KT"
"taf	RKSI	2018-10-18 06:33:00	TAF \n AMD TAF \n AMD RKSI 180529Z 1806/1912 02008KT 7000 SCT030 TN09/1821Z TX18/1905Z \n TEMPO 1806/1808 05008KT -TSRA FEW015CB BKN030 \n BECMG 1902/1903 24007KT \n TEMPO 1903/1909 32007KT \n BECMG 1910/1911 30006KT"
"taf	RKSI	2018-10-18 12:00:00	TAF RKSI 181100Z 1812/1918 03007KT 9999 FEW030 TN09/1821Z TX18/1905Z \n BECMG 1903/1904 24007KT CAVOK \n TEMPO 1904/1911 31007KT \n BECMG 1912/1913 34006KT \n BECMG 1916/1917 07006KT"
"taf	RKSI	2018-10-18 18:00:00	TAF RKSI 181700Z 1818/1924 03007KT CAVOK TN08/1821Z TX18/1905Z TN08/1921Z \n BECMG 1903/1904 24007KT \n TEMPO 1904/1911 30007KT \n BECMG 1912/1913 34006KT \n BECMG 1917/1918 07006KT"
"taf	RKSI	2018-10-19 00:00:00	TAF RKSI 192300Z 2000/2106 07006KT CAVOK TX18/2005Z TN09/2021Z TX18/2105Z \n BECMG 2001/2002 29006KT \n BECMG 2013/2014 07005KT 7000 NSC \n BECMG 2102/2103 29006KT"
"taf	RKSI	2018-10-19 06:00:00	TAF RKSI 190500Z 1906/2012 30007KT CAVOK TN08/1921Z TX18/2005Z \n BECMG 1911/1912 07005KT \n BECMG 2000/2001 29006KT"
"taf	RKSI	2018-10-19 12:00:00	TAF RKSI 191100Z 1912/2018 31005KT CAVOK TN08/1921Z TX18/2005Z \n BECMG 1916/1917 07005KT \n BECMG 2000/2001 29006KT \n BECMG 2012/2013 07005KT"
"taf	RKSI	2018-10-19 18:00:00	TAF RKSI 191700Z 1918/2024 07005KT CAVOK TN08/1921Z TX18/2005Z TN09/2021Z \n BECMG 2001/2002 29006KT \n BECMG 2014/2015 07005KT"
"taf	RKSI	2018-10-20 00:00:00	TAF RKSI 202300Z 2100/2206 07005KT CAVOK TX18/2106Z TN10/2121Z TX18/2205Z \n BECMG 2102/2103 30006KT \n BECMG 2112/2113 07005KT \n BECMG 2123/2124 25006KT \n TEMPO 2200/2205 16006KT"
"taf	RKSI	2018-10-20 06:00:00	TAF RKSI 200500Z 2006/2112 30006KT CAVOK TN09/2021Z TX18/2106Z \n BECMG 2013/2014 07006KT \n BECMG 2102/2103 30006KT"
"taf	RKSI	2018-10-20 12:00:00	TAF RKSI 201100Z 2012/2118 07005KT CAVOK TN09/2021Z TX18/2106Z \n BECMG 2102/2103 30006KT \n BECMG 2114/2115 07005KT"
"taf	RKSI	2018-10-20 18:00:00	TAF RKSI 201700Z 2018/2124 07005KT CAVOK TN09/2021Z TX18/2106Z TN10/2121Z \n BECMG 2102/2103 30006KT \n BECMG 2112/2113 07005KT"
"taf	RKSI	2018-10-21 00:00:00	TAF RKSI 212300Z 2200/2306 16006KT 9999 FEW030 BKN150 TX18/2206Z TN12/2221Z TX19/2306Z \n BECMG 2219/2220 13006KT 4200 BR FEW010 BKN025 OVC100 \n BECMG 2221/2222 17010KT -RA \n BECMG 2300/2301 22010G20KT 6000 NSW FEW010 SCT030 BKN120 \n BECMG 2302/2303 28010KT NSC"
"taf	RKSI	2018-10-21 06:00:00	TAF RKSI 210500Z 2106/2212 30006KT CAVOK TN09/2121Z TX17/2206Z \n BECMG 2111/2112 07006KT \n BECMG 2123/2124 25006KT \n TEMPO 2201/2205 17006KT"
"taf	RKSI	2018-10-21 12:00:00	TAF RKSI 211100Z 2112/2218 05006KT CAVOK TN10/2121Z TX18/2206Z \n BECMG 2200/2201 15006KT \n BECMG 2206/2207 25006KT \n BECMG 2211/2212 19008KT 7000 SCT030 BKN180"
"taf	RKSI	2018-10-21 18:00:00	TAF RKSI 211700Z 2118/2224 06005KT CAVOK TN10/2121Z TX18/2206Z TN12/2221Z \n BECMG 2200/2201 16006KT 9999 FEW030 BKN150 \n BECMG 2219/2220 13006KT 4200 -RA FEW010 BKN025 OVC100 \n BECMG 2222/2223 16010KT 6000 NSW"
"taf	RKSI	2018-10-22 00:00:00	TAF RKSI 222300Z 2300/2406 24008KT 4200 BR FEW010 BKN030 OVC110 TX19/2305Z TN10/2321Z TX17/2406Z \n TEMPO 2303/2304 30010KT -RA \n BECMG 2305/2306 32012KT 6000 NSW SCT030 \n BECMG 2311/2312 02010KT CAVOK \n BECMG 2317/2318 08006KT \n BECMG 2401/2402 32006KT"
"taf	RKSI	2018-10-22 06:00:00	TAF RKSI 220500Z 2206/2312 21006KT 9999 FEW030 BKN150 TN12/2221Z TX19/2306Z \n BECMG 2219/2220 13006KT 4200 BR FEW010 BKN025 OVC100 \n BECMG 2221/2222 17010KT -RA \n BECMG 2300/2301 22013KT 7000 NSW FEW010 SCT030 BKN120 \n BECMG 2302/2303 28013KT NSC \n BECMG 2309/2310 33015G25KT"
"taf	RKSI	2018-10-22 12:00:00	TAF RKSI 221100Z 2212/2318 10006KT 9999 FEW030 BKN150 TN12/2221Z TX19/2306Z \n BECMG 2219/2220 13006KT 4200 BR FEW010 BKN025 OVC100 \n BECMG 2221/2222 17010KT -RA \n BECMG 2300/2301 22013KT 7000 NSW FEW010 SCT030 BKN120 \n BECMG 2302/2303 28013KT NSC \n BECMG 2311/2312 33015G25KT"
"taf	RKSI	2018-10-22 18:00:00	TAF RKSI 221700Z 2218/2324 22006KT 7000 SCT030 BKN150 TN11/2220Z TX19/2305Z TN09/2321Z \n BECMG 2223/2224 17008KT 4200 -RA FEW010 BKN025 OVC100 \n BECMG 2303/2304 24010KT 6000 NSW SCT030 BKN150 \n BECMG 2305/2306 29015G25KT \n BECMG 2311/2312 32010KT CAVOK \n BECMG 2314/2315 03008KT"
"taf	RKSI	2018-10-23 00:00:00	TAF RKSI 232300Z 2400/2506 10006KT 9999 SCT030 TX17/2406Z TN10/2421Z TX18/2506Z \n BECMG 2402/2403 32006KT \n TEMPO 2416/2421 12006KT \n BECMG 2422/2423 15006KT"
"taf	RKSI	2018-10-23 00:05:00	TAF \n AMD RKSI 230005Z 2300/2406 24008KT 4200 BR FEW010 BKN030 OVC110 TX19/2305Z TN10/2321Z TX17/2406Z \n TEMPO 2302/2304 30010KT -TSRA FEW020CB BKN025 OVC100 \n BECMG 2305/2306 32012KT 6000 NSW SCT030 \n BECMG 2311/2312 02010KT CAVOK \n BECMG 2317/2318 08006KT \n BECMG 2401/2402 32006KT"
"taf	RKSI	2018-10-23 00:09:00	TAF \n AMD TAF \n AMD RKSI 230005Z 2300/2406 24008KT 4200 BR FEW010 BKN030 OVC110 TX19/2305Z TN10/2321Z TX17/2406Z \n TEMPO 2302/2304 30010KT -TSRA FEW020CB BKN025 OVC100 \n BECMG 2305/2306 32012KT 6000 NSW SCT030 \n BECMG 2311/2312 02010KT CAVOK \n BECMG 2317/2318 08006KT \n BECMG 2401/2402 32006KT"
"taf	RKSI	2018-10-23 01:20:00	TAF \n AMD RKSI 230120Z 2301/2406 24008KT 4200 BR FEW010 BKN030 OVC110 TX19/2305Z TN10/2321Z TX17/2406Z \n TEMPO 2301/2304 30017G35KT 3500 TSRA FEW020CB BKN025 OVC100 \n BECMG 2305/2306 32012KT 6000 NSW SCT030 \n BECMG 2311/2312 02010KT CAVOK \n BECMG 2317/2318 08006KT \n BECMG 2401/2402 32006KT"
"taf	RKSI	2018-10-23 01:27:00	TAF \n AMD TAF \n AMD RKSI 230120Z 2301/2406 24008KT 4200 BR FEW010 BKN030 OVC110 TX19/2305Z TN10/2321Z TX17/2406Z \n TEMPO 2301/2304 30017G35KT 3500 TSRA FEW020CB BKN025 OVC100 \n BECMG 2305/2306 32012KT 6000 NSW SCT030 \n BECMG 2311/2312 02010KT CAVOK \n BECMG 2317/2318 08006KT \n BECMG 2401/2402 32006KT"
"taf	RKSI	2018-10-23 03:24:00	TAF \n AMD TAF \n AMD RKSI 230325Z 2303/2406 24008KT 4200 BR FEW010 BKN030 OVC110 TX19/2305Z TN10/2321Z TX17/2406Z \n BECMG 2305/2306 33012KT 6000 NSW SCT030 \n BECMG 2311/2312 02010KT CAVOK \n BECMG 2317/2318 08006KT \n BECMG 2401/2402 32006KT"
"taf	RKSI	2018-10-23 03:25:00	TAF \n AMD RKSI 230325Z 2303/2406 24008KT 4200 BR FEW010 BKN030 OVC110 TX19/2305Z TN10/2321Z TX17/2406Z \n BECMG 2305/2306 33012KT 6000 NSW SCT030 \n BECMG 2311/2312 02010KT CAVOK \n BECMG 2317/2318 08006KT \n BECMG 2401/2402 32006KT"
"taf	RKSI	2018-10-23 06:00:00	TAF RKSI 230500Z 2306/2412 23008KT 7000 SCT030 TN10/2321Z TX17/2406Z \n BECMG 2307/2308 33010KT \n BECMG 2315/2316 05008KT \n BECMG 2318/2319 12006KT \n BECMG 2402/2403 30007KT"
"taf	RKSI	2018-10-23 12:00:00	TAF RKSI 231100Z 2312/2418 33013KT 7000 SCT030 TN10/2321Z TX17/2406Z \n BECMG 2315/2316 05008KT \n BECMG 2318/2319 12006KT \n BECMG 2402/2403 30007KT \n BECMG 2414/2415 07006KT"
"taf	RKSI	2018-10-23 18:00:00	TAF RKSI 231700Z 2318/2424 32006KT 9999 SCT030 TN10/2321Z TX18/2406Z TN09/2421Z \n BECMG 2415/2416 07006KT"
"taf	RKSI	2018-10-24 00:00:00	TAF RKSI 242300Z 2500/2606 25006KT CAVOK TX19/2506Z TN12/2516Z TX15/2602Z \n BECMG 2510/2511 07006KT \n BECMG 2515/2516 16011KT \n BECMG 2518/2519 16015G25KT \n BECMG 2522/2523 3500 -RA FEW010 BKN020 OVC080 \n TEMPO 2602/2604 21023G35KT 2500"
"taf	RKSI	2018-10-24 06:00:00	TAF RKSI 240500Z 2406/2512 29006KT 9999 SCT030 TN10/2421Z TX18/2506Z \n TEMPO 2417/2421 12006KT \n BECMG 2423/2424 15006KT \n BECMG 2503/2504 29006KT \n BECMG 2509/2510 07006KT"
"taf	RKSI	2018-10-24 12:00:00	TAF RKSI 241100Z 2412/2518 29006KT CAVOK TN09/2421Z TX19/2506Z \n TEMPO 2418/2422 09006KT \n BECMG 2423/2424 15006KT \n BECMG 2504/2505 25006KT 9999 SCT030 \n BECMG 2510/2511 07006KT \n BECMG 2515/2516 16011KT"
"taf	RKSI	2018-10-24 18:00:00	TAF RKSI 241700Z 2418/2524 13006KT CAVOK TN08/2421Z TX19/2506Z TN12/2516Z \n BECMG 2503/2504 25006KT \n BECMG 2510/2511 07006KT \n BECMG 2515/2516 16011KT \n BECMG 2518/2519 16015G25KT 6000 SCT030 \n BECMG 2522/2523 3200 -RA FEW010 BKN020 OVC080"
"taf	RKSI	2018-10-25 00:00:00	TAF RKSI 252300Z 2600/2706 17015G25KT 3500 -RA FEW010 BKN025 OVC080 TX14/2602Z TN08/2621Z TX12/2706Z \n TEMPO 2603/2605 23017G35KT 2500 -TSRA FEW008 SCT012CB BKN020 OVC080 \n BECMG 2606/2607 32019G35KT 7000 NSW FEW010 SCT030 \n BECMG 2617/2618 33015G25KT PROB30 \n TEMPO 2614/2616 -SHRA"
"taf	RKSI	2018-10-25 06:00:00	TAF RKSI 250500Z 2506/2612 25006KT CAVOK TN12/2516Z TX16/2602Z \n BECMG 2513/2514 16011KT \n BECMG 2518/2519 17015G25KT 6000 SCT030 BKN120 \n BECMG 2522/2523 4200 -RA FEW010 BKN020 OVC080 \n TEMPO 2603/2605 21017G35KT 2500 TSRA SCT008 SCT012CB BKN020 OVC060 \n BECMG 2606/2607 30018G35KT 6000 NSW FEW010 SCT030 BKN120"
"taf	RKSI	2018-10-25 12:00:00	TAF RKSI 251100Z 2512/2618 06006KT CAVOK TN12/2516Z TX17/2602Z \n BECMG 2514/2515 16010KT 6000 SCT030 BKN120 \n BECMG 2518/2519 17015G25KT FEW010 BKN020 OVC080 \n BECMG 2522/2523 4200 -RA \n TEMPO 2603/2605 21017G35KT 2500 TSRA SCT008 SCT012CB BKN020 OVC060 \n BECMG 2605/2606 30019G35KT 6000 NSW FEW010 SCT030"
"taf	RKSI	2018-10-25 18:00:00	TAF RKSI 251700Z 2518/2624 17013KT 7000 SCT030 BKN120 TN12/2521Z TX14/2604Z TN08/2621Z \n BECMG 2520/2521 17015G25KT 4200 -RA FEW010 BKN025 OVC080 \n TEMPO 2602/2604 21017G35KT 2500 TSRA SCT008 SCT012CB BKN020 OVC060 \n BECMG 2606/2607 32019G35KT 7000 NSW SCT030 \n BECMG 2617/2618 33015G25KT"
"taf	RKSI	2018-10-26 00:00:00	TAF RKSI 262300Z 2700/2806 32017G35KT 9999 SCT030 TX12/2706Z TN08/2721Z TX15/2805Z \n BECMG 2709/2710 31015G25KT \n BECMG 2715/2716 31010KT \n BECMG 2718/2719 25012KT FEW010 BKN030 OVC100 \n BECMG 2723/2724 30018G30KT 6000 -RA \n BECMG 2803/2804 9999 NSW"
"taf	RKSI	2018-10-26 00:15:00	TAF \n AMD TAF \n AMD RKSI 260015Z 2600/2706 17015G25KT 3500 -RA FEW010 BKN025 OVC080 TX14/2602Z TN08/2621Z TX12/2706Z \n TEMPO 2601/2605 23017G35KT 2500 -TSRA FEW008 SCT012CB BKN020 OVC080 \n BECMG 2606/2607 32019G35KT 7000 NSW FEW010 SCT030 PROB30 \n TEMPO 2614/2616 -SHRA \n BECMG 2617/2618 33015G25KT"
"taf	RKSI	2018-10-26 06:00:00	TAF RKSI 260500Z 2606/2712 32013G23KT 9999 FEW010 SCT030 TN08/2621Z TX12/2706Z \n BECMG 2621/2622 30016G33KT \n BECMG 2710/2711 31011KT"
"taf	RKSI	2018-10-26 10:50:00	TAF \n AMD RKSI 260950Z 2610/2712 32015G25KT 9999 FEW010 SCT030 TN08/2621Z TX12/2706Z \n TEMPO 2610/2618 30023G35KT \n BECMG 2710/2711 31011KT"
"taf	RKSI	2018-10-26 10:51:00	TAF \n AMD TAF \n AMD RKSI 260950Z 2610/2712 32015G25KT 9999 FEW010 SCT030 TN08/2621Z TX12/2706Z \n TEMPO 2610/2618 30023G35KT \n BECMG 2710/2711 31011KT"
"taf	RKSI	2018-10-26 12:00:00	TAF \n AMD RKSI 261200Z 2612/2718 31015G25KT 9999 FEW010 SCT030 TN09/2621Z TX12/2706Z \n TEMPO 2612/2618 30018G35KT -RA FEW010 BKN025 OVC100 \n TEMPO 2700/2707 30020G35KT \n TEMPO 2712/2715 31010KT \n BECMG 2715/2716 30007KT"
"taf	RKSI	2018-10-26 12:03:00	TAF \n AMD TAF \n AMD RKSI 261200Z 2612/2718 31015G25KT 9999 FEW010 SCT030 TN09/2621Z TX12/2706Z \n TEMPO 2612/2618 30018G35KT -RA FEW010 BKN025 OVC100 \n TEMPO 2700/2707 30020G35KT \n TEMPO 2712/2715 31010KT \n BECMG 2715/2716 30007KT"
"taf	RKSI	2018-10-26 18:00:00	TAF RKSI 261700Z 2618/2724 31017G35KT 9999 SCT030 TN09/2621Z TX12/2706Z TN08/2721Z \n TEMPO 2618/2622 31015G25KT \n BECMG 2707/2708 31015G25KT \n BECMG 2715/2716 31010KT \n BECMG 2718/2719 25012KT FEW010 BKN030 OVC100 \n BECMG 2723/2724 29017G27KT 4200 -RA"
"taf	RKSI	2018-10-27 00:00:00	TAF RKSI 272300Z 2800/2906 28017G35KT 6000 -RA FEW010 BKN025 BKN100 TX14/2805Z TN06/2821Z TX13/2905Z \n TEMPO 2800/2801 NSW SCT030 BKN120 \n BECMG 2807/2808 31015G25KT NSW SCT030 BKN120 \n BECMG 2812/2813 35008KT \n BECMG 2818/2819 17007KT \n BECMG 2902/2903 31013G25KT"
"taf	RKSI	2018-10-27 06:00:00	TAF RKSI 270500Z 2706/2812 32016G30KT 9999 SCT030 TN08/2721Z TX15/2805Z \n BECMG 2712/2713 31010KT \n BECMG 2716/2717 25012KT FEW010 BKN030 OVC100 \n BECMG 2723/2724 30016G30KT 6000 -RA \n TEMPO 2804/2807 NSW \n BECMG 2809/2810 32010KT NSW SCT030 BKN120"
"taf	RKSI	2018-10-27 12:00:00	TAF RKSI 271100Z 2712/2818 32011KT 9999 SCT030 TN08/2721Z TX15/2805Z \n BECMG 2716/2717 26010KT FEW010 BKN025 OVC080 \n BECMG 2720/2721 28016G30KT 6000 -RA \n TEMPO 2802/2806 NSW \n BECMG 2807/2808 32010KT NSW FEW010 SCT030 \n BECMG 2813/2814 07006KT"
"taf	RKSI	2018-10-27 18:00:00	TAF RKSI 271700Z 2718/2824 29008KT 9999 FEW010 BKN025 OVC080 TN08/2721Z TX14/2805Z TN06/2821Z \n BECMG 2720/2721 28016G30KT 6000 -RA \n TEMPO 2802/2806 NSW \n BECMG 2807/2808 31012KT NSW FEW010 SCT030 \n BECMG 2814/2815 07006KT \n BECMG 2821/2822 31010KT"
"taf	RKSI	2018-10-27 20:55:00	TAF \n AMD RKSI 271955Z 2720/2824 28008KT 6000 -RA FEW010 BKN025 OVC080 TN08/2721Z TX14/2805Z TN06/2821Z \n TEMPO 2720/2721 25015G25KT 3500 -TSRA FEW005 FEW015CB BKN030 OVC080 \n TEMPO 2802/2806 NSW \n BECMG 2807/2808 31012KT NSW FEW010 SCT030 \n BECMG 2814/2815 07006KT \n BECMG 2821/2822 31010KT"
"taf	RKSI	2018-10-27 20:57:00	TAF \n AMD TAF \n AMD RKSI 271955Z 2720/2824 28008KT 6000 -RA FEW010 BKN025 OVC080 TN08/2721Z TX14/2805Z TN06/2821Z \n TEMPO 2720/2721 25015G25KT 3500 -TSRA FEW005 FEW015CB BKN030 OVC080 \n TEMPO 2802/2806 NSW \n BECMG 2807/2808 31012KT NSW FEW010 SCT030 \n BECMG 2814/2815 07006KT \n BECMG 2821/2822 31010KT"
"taf	RKSI	2018-10-27 22:30:00	TAF \n AMD RKSI 272230Z 2722/2824 28015G25KT 6000 -RA FEW010 BKN025 OVC080 TN08/2721Z TX14/2805Z TN06/2821Z \n TEMPO 2723/2801 15015G25KT 3500 -TSRA FEW005 SCT015CB BKN030 OVC080 \n BECMG 2807/2808 31012KT NSW FEW010 SCT030 \n BECMG 2814/2815 07006KT \n BECMG 2821/2822 31010KT"
"taf	RKSI	2018-10-27 22:36:00	TAF \n AMD RKSI 272230Z 2722/2824 28015G25KT 6000 -RA FEW010 BKN025 OVC080 TN08/2721Z TX14/2805Z TN06/2821Z \n TEMPO 2722/2724 15015G25KT 3500 -TSRA FEW005 SCT015CB BKN030 OVC080 \n BECMG 2807/2808 31012KT NSW FEW010 SCT030 \n BECMG 2814/2815 07006KT \n BECMG 2821/2822 31010KT"
"taf	RKSI	2018-10-28 00:00:00	TAF RKSI 282300Z 2900/3006 05006KT 9999 SCT030 TX13/2906Z TN03/2921Z TX12/3005Z \n BECMG 2903/2904 28010KT \n BECMG 2909/2910 34007KT \n BECMG 3000/3001 04010KT \n BECMG 3002/3003 32010KT"
"taf	RKSI	2018-10-28 06:00:00	TAF RKSI 280500Z 2806/2912 32020G35KT 7000 -SHRA FEW010 BKN025 BKN120 TN05/2821Z TX14/2906Z \n TEMPO 2807/2809 28012G25KT NSW FEW010 SCT030 BKN120 \n TEMPO 2811/2813 30012G25KT NSW FEW010 SCT030 BKN120 \n BECMG 2814/2815 32010KT NSW SCT030 BKN150 \n BECMG 2816/2817 05008KT \n BECMG 2823/2824 32012KT"
"taf	RKSI	2018-10-28 07:10:00	TAF \n AMD RKSI 280710Z 2807/2912 32025G35KT 7000 -RA FEW010 BKN025 BKN120 TN05/2821Z TX14/2906Z \n BECMG 2808/2809 NSW SCT030 BKN150 \n BECMG 2811/2812 32015G25KT \n BECMG 2816/2817 05008KT \n BECMG 2823/2824 32012KT"
"taf	RKSI	2018-10-28 07:12:00	TAF \n AMD TAF \n AMD RKSI 280710Z 2807/2912 32025G35KT 7000 -RA FEW010 BKN025 BKN120 TN05/2821Z TX14/2906Z \n BECMG 2808/2809 NSW SCT030 BKN150 \n BECMG 2811/2812 32015G25KT \n BECMG 2816/2817 05008KT \n BECMG 2823/2824 32012KT"
"taf	RKSI	2018-10-28 07:31:00	TAF \n AMD RKSI 280631Z 2807/2912 32025G35KT 7000 -SHRA FEW010CB BKN025 BKN120 TN05/2821Z TX14/2906Z \n BECMG 2808/2809 NSW SCT030 BKN150 \n BECMG 2811/2812 32015G25KT \n BECMG 2816/2817 05008KT \n BECMG 2823/2824 32012KT"
"taf	RKSI	2018-10-28 07:36:00	TAF \n AMD TAF \n AMD RKSI 280631Z 2807/2912 32025G35KT 7000 -SHRA FEW010CB BKN025 BKN120 TN05/2821Z TX14/2906Z \n BECMG 2808/2809 NSW SCT030 BKN150 \n BECMG 2811/2812 32015G25KT \n BECMG 2816/2817 05008KT \n BECMG 2823/2824 32012KT"
"taf	RKSI	2018-10-28 07:44:00	TAF \n AMD RKSI 280644Z 2807/2912 32025G35KT 7000 -TSRA FEW010CB BKN025 BKN120 TN05/2821Z TX14/2906Z \n BECMG 2808/2809 NSW SCT030 BKN150 \n BECMG 2811/2812 32015G25KT \n BECMG 2816/2817 05008KT \n BECMG 2823/2824 32012KT"
"taf	RKSI	2018-10-28 07:45:00	TAF \n AMD TAF \n AMD RKSI 280644Z 2807/2912 32025G35KT 7000 -TSRA FEW010CB BKN025 BKN120 TN05/2821Z TX14/2906Z \n BECMG 2808/2809 NSW SCT030 BKN150 \n BECMG 2811/2812 32015G25KT \n BECMG 2816/2817 05008KT \n BECMG 2823/2824 32012KT"
"taf	RKSI	2018-10-28 08:01:00	TAF \n AMD RKSI 280801Z 2808/2912 32015G25KT 9999 FEW010 SCT025 BKN120 TN05/2821Z TX14/2906Z \n BECMG 2811/2812 33010KT \n BECMG 2816/2817 05008KT \n BECMG 2823/2824 32012KT"
"taf	RKSI	2018-10-28 08:03:00	TAF \n AMD TAF \n AMD RKSI 280801Z 2808/2912 32015G25KT 9999 FEW010 SCT025 BKN120 TN05/2821Z TX14/2906Z \n BECMG 2811/2812 33010KT \n BECMG 2816/2817 05008KT \n BECMG 2823/2824 32012KT"
"taf	RKSI	2018-10-28 12:00:00	TAF RKSI 281100Z 2812/2918 33015G25KT 9999 SCT030 TN05/2821Z TX14/2906Z \n BECMG 2815/2816 35010KT \n BECMG 2817/2818 05008KT \n TEMPO 2818/2820 19006KT \n BECMG 2823/2824 32012KT \n TEMPO 2905/2910 32015G25KT"
"taf	RKSI	2018-10-28 18:00:00	TAF RKSI 281700Z 2818/2924 04006KT 9999 SCT030 TN05/2821Z TX13/2906Z TN03/2921Z \n TEMPO 2818/2819 6000 -RA BKN030 OVC100 \n BECMG 2901/2902 28010KT \n TEMPO 2904/2909 31015G25KT \n BECMG 2910/2911 34007KT"
"taf	RKSI	2018-10-29 00:00:00	TAF RKSI 292300Z 3000/3106 32007KT 9999 SCT030 TX11/3005Z TN04/3021Z TX12/3105Z \n BECMG 3008/3009 26010KT \n BECMG 3010/3011 02006KT \n TEMPO 3013/3018 BKN030 \n BECMG 3021/3022 32010KT"
"taf	RKSI	2018-10-29 06:00:00	TAF RKSI 290500Z 2906/3012 32015G25KT 9999 SCT030 TN02/2921Z TX11/3006Z \n BECMG 2910/2911 33010KT \n BECMG 2917/2918 05006KT \n BECMG 3001/3002 32010KT"
"taf	RKSI	2018-10-29 08:10:00	TAF \n AMD RKSI 290810Z 2908/3012 30025G35KT 9999 SCT030 TN02/2921Z TX11/3006Z \n BECMG 2912/2913 33012KT \n BECMG 2917/2918 05006KT \n BECMG 3001/3002 32010KT"
"taf	RKSI	2018-10-29 08:12:00	TAF \n AMD TAF \n AMD RKSI 290810Z 2908/3012 30025G35KT 9999 SCT030 TN02/2921Z TX11/3006Z \n BECMG 2912/2913 33012KT \n BECMG 2917/2918 05006KT \n BECMG 3001/3002 32010KT"
"taf	RKSI	2018-10-29 12:00:00	TAF RKSI 291100Z 2912/3018 34012KT 9999 SCT030 TN02/2921Z TX11/3006Z \n BECMG 2917/2918 05008KT \n BECMG 3001/3002 32010KT \n BECMG 3011/3012 03008KT"
"taf	RKSI	2018-10-29 18:00:00	TAF RKSI 291700Z 2918/3024 33007KT 9999 SCT030 TN03/2921Z TX11/3006Z TN04/3021Z \n BECMG 3007/3008 24006KT \n TEMPO 3013/3017 04007KT BKN030 \n BECMG 3017/3018 34008KT"
"taf	RKSI	2018-10-30 00:00:00	TAF RKSI 302300Z 3100/0106 34012KT 9999 FEW030 TX13/3106Z TN05/3121Z TX14/0106Z \n BECMG 3117/3118 04010KT \n BECMG 3123/3124 33008KT"
"taf	RKSI	2018-10-30 06:00:00	TAF RKSI 300500Z 3006/3112 33010KT 9999 SCT030 TN04/3021Z TX12/3105Z \n BECMG 3012/3013 03006KT BKN030 PROB30 \n TEMPO 3016/3017 -RA \n BECMG 3020/3021 33010KT SCT030"
"taf	RKSI	2018-10-30 12:00:00	TAF RKSI 301100Z 3012/3118 03006KT 9999 SCT030 TN04/3021Z TX12/3105Z \n BECMG 3013/3014 BKN030 PROB30 \n TEMPO 3016/3017 -RA \n BECMG 3020/3021 33012KT SCT030"
"taf	RKSI	2018-10-30 18:00:00	TAF RKSI 301700Z 3018/3124 04010KT 9999 BKN040 TN05/3021Z TX12/3106Z TN05/3121Z PROB40 \n TEMPO 3018/3019 -RA \n BECMG 3021/3022 34012KT SCT030 \n BECMG 3111/3112 34015G25KT \n BECMG 3115/3116 35010KT \n BECMG 3122/3123 29010KT"
"taf	RKSI	2018-10-31 00:00:00	TAF RKSI 312300Z 0100/0206 33006KT CAVOK TX15/0106Z TN06/0121Z TX16/0206Z \n BECMG 0117/0118 07006KT \n BECMG 0201/0202 33006KT"
"taf	RKSI	2018-10-31 06:00:00	TAF RKSI 310500Z 3106/0112 34012KT 9999 FEW030 TN05/3121Z TX14/0106Z \n BECMG 3117/3118 04010KT \n BECMG 3121/3122 33008KT \n TEMPO 0106/0109 27010KT"
"taf	RKSI	2018-10-31 12:00:00	TAF RKSI 311100Z 3112/0118 34010KT 9999 FEW030 TN05/3121Z TX14/0106Z \n BECMG 3115/3116 04007KT \n BECMG 3122/3123 33010KT \n TEMPO 0106/0109 27010KT \n BECMG 0115/0116 07006KT"
"taf	RKSI	2018-10-31 18:00:00	TAF RKSI 311700Z 3118/0124 07006KT CAVOK TN05/3121Z TX15/0106Z TN05/0121Z \n BECMG 0102/0103 33008KT \n BECMG 0115/0116 07006KT"
"taf	RKSI	2018-11-01 00:00:00	TAF RKSI 012300Z 0200/0306 07007KT 7000 NSC TX16/0206Z TN07/0221Z TX16/0305Z \n BECMG 0202/0203 27007KT \n BECMG 0214/0215 07005KT \n BECMG 0302/0303 33007KT"
"taf	RKSI	2018-11-01 06:00:00	TAF RKSI 010500Z 0106/0212 32006KT CAVOK TN05/0121Z TX16/0206Z \n BECMG 0117/0118 07005KT \n BECMG 0202/0203 31006KT"
"taf	RKSI	2018-11-01 12:00:00	TAF RKSI 011100Z 0112/0218 32006KT CAVOK TN05/0121Z TX16/0206Z \n BECMG 0115/0116 07005KT \n BECMG 0202/0203 31006KT \n BECMG 0214/0215 07005KT"
"taf	RKSI	2018-11-01 18:00:00	TAF RKSI 011700Z 0118/0224 09005KT CAVOK TN06/0121Z TX16/0206Z TN07/0221Z \n BECMG 0202/0203 27006KT \n BECMG 0214/0215 07005KT"
"taf	RKSI	2018-11-02 00:00:00	TAF RKSI 022300Z 0300/0406 16006KT 4200 BR FEW005 TX16/0305Z TN07/0321Z TX16/0405Z \n BECMG 0301/0302 29006KT 7000 NSW NSC \n BECMG 0317/0318 07005KT 3500 BR FEW005 \n TEMPO 0320/0322 0800 FG BKN005 \n BECMG 0400/0401 7000 NSW \n BECMG 0403/0404 33008KT"
"taf	RKSI	2018-11-02 06:00:00	TAF RKSI 020500Z 0206/0312 32006KT CAVOK TN07/0221Z TX16/0305Z \n BECMG 0214/0215 07005KT \n BECMG 0303/0304 31007KT"
"taf	RKSI	2018-11-02 12:00:00	TAF RKSI 021100Z 0212/0318 31006KT CAVOK TN07/0221Z TX17/0305Z \n BECMG 0215/0216 07005KT \n BECMG 0303/0304 29006KT \n BECMG 0315/0316 07005KT \n BECMG 0317/0318 4200 BR NSC"
"taf	RKSI	2018-11-02 18:00:00	TAF RKSI 021700Z 0218/0324 07006KT 3500 BR FEW005 TN07/0221Z TX16/0305Z TN07/0321Z \n BECMG 0222/0223 29006KT 7000 NSW NSC \n BECMG 0317/0318 07005KT 3500 BR FEW005 PROB40 \n TEMPO 0320/0321 1600 \n BECMG 0322/0323 7000 NSW NSC"
"taf	RKSI	2018-11-02 22:10:00	TAF \n AMD RKSI 022210Z 0222/0324 07006KT 2800 BR FEW005 TN07/0221Z TX16/0305Z TN07/0321Z \n BECMG 0301/0302 29006KT 7000 NSW NSC \n BECMG 0317/0318 07005KT 3500 BR FEW005 PROB40 \n TEMPO 0320/0321 1600 \n BECMG 0322/0323 7000 NSW NSC"
"taf	RKSI	2018-11-02 22:15:00	TAF \n AMD TAF \n AMD RKSI 022210Z 0222/0324 07006KT 2800 BR FEW005 TN07/0221Z TX16/0305Z TN07/0321Z \n BECMG 0301/0302 29006KT 7000 NSW NSC \n BECMG 0317/0318 07005KT 3500 BR FEW005 PROB40 \n TEMPO 0320/0321 1600 \n BECMG 0322/0323 7000 NSW NSC"
"taf	RKSI	2018-11-03 00:00:00	TAF RKSI 032300Z 0400/0506 30006KT 6000 NSC TX17/0405Z TN08/0421Z TX17/0505Z \n TEMPO 0400/0401 05005KT 2800 BR \n BECMG 0413/0414 35006KT 3500 BR \n TEMPO 0420/0423 02006KT 1800 FEW005 \n BECMG 0501/0502 31007KT 7000 NSW FEW030 BKN180"
"taf	RKSI	2018-11-03 06:00:00	TAF RKSI 030500Z 0306/0412 29006KT 6000 NSC TN07/0321Z TX16/0405Z \n BECMG 0314/0315 05005KT 3200 BR \n TEMPO 0318/0324 2200 FEW005 \n BECMG 0402/0403 30006KT 7000 NSW"
"taf	RKSI	2018-11-03 12:00:00	TAF RKSI 031100Z 0312/0418 05005KT 6000 NSC TN07/0321Z TX16/0405Z \n BECMG 0314/0315 3200 BR \n TEMPO 0318/0323 1800 FEW005 \n BECMG 0401/0402 30006KT 7000 NSW \n BECMG 0414/0415 33005KT 3500 BR"
"taf	RKSI	2018-11-04 00:00:00	TAF RKSI 042300Z 0500/0606 30007KT 6000 FEW030 BKN180 TX17/0505Z TN08/0521Z TX15/0605Z \n TEMPO 0500/0501 05005KT 4200 BR \n BECMG 0513/0514 35007KT 4200 BR NSC \n TEMPO 0520/0524 1800 FEW005 \n BECMG 0601/0602 31006KT 6000 NSW FEW030 BKN120"
"taf	RKSI	2018-11-04 06:00:00	TAF RKSI 040500Z 0406/0512 31006KT 6000 NSC TN08/0421Z TX17/0505Z \n BECMG 0414/0415 35006KT 3500 BR \n TEMPO 0420/0423 02006KT 1800 FEW005 \n BECMG 0500/0501 32007KT 7000 NSW FEW030 BKN180 \n BECMG 0511/0512 35008KT 4200 BR"
"taf	RKSI	2018-11-04 12:00:00	TAF RKSI 041100Z 0412/0518 32006KT 7000 NSC TN08/0421Z TX17/0505Z \n BECMG 0417/0418 35006KT 3500 BR \n TEMPO 0420/0422 02006KT 2500 FEW005 \n BECMG 0500/0501 32007KT 6000 NSW FEW030 BKN180 \n BECMG 0513/0514 35007KT 4200 BR"
"taf	RKSI	2018-11-04 18:00:00	TAF \n AMD RKSI 041730Z 0418/0524 35005KT 6000 NSC TN08/0421Z TX17/0505Z TN08/0521Z \n BECMG 0420/0421 3500 BR FEW005 \n BECMG 0500/0501 30007KT 6000 NSW FEW030 BKN180 \n BECMG 0513/0514 35007KT 4200 BR \n TEMPO 0520/0523 2800"
"taf	RKSI	2018-11-04 18:30:00	TAF \n AMD RKSI 041730Z 0418/0524 35005KT 6000 NSC TN08/0421Z TX17/0505Z TN08/0521Z \n BECMG 0420/0421 3500 BR FEW005 \n BECMG 0500/0501 30007KT 6000 NSW FEW030 BKN180 \n BECMG 0513/0514 35007KT 4200 BR \n TEMPO 0520/0523 2800"
"taf	RKSI	2018-11-04 18:33:00	TAF \n AMD TAF \n AMD RKSI 041730Z 0418/0524 35005KT 6000 NSC TN08/0421Z TX17/0505Z TN08/0521Z \n BECMG 0420/0421 3500 BR FEW005 \n BECMG 0500/0501 30007KT 6000 NSW FEW030 BKN180 \n BECMG 0513/0514 35007KT 4200 BR \n TEMPO 0520/0523 2800"
"taf	RKSI	2018-11-05 00:00:00	TAF RKSI 052300Z 0600/0706 30005KT 6000 FEW030 BKN120 TX15/0605Z TN09/0621Z TX15/0706Z \n TEMPO 0600/0601 3500 BR \n BECMG 0616/0617 35005KT 3500 BR FEW010 BKN030 OVC100 \n TEMPO 0617/0620 2500 -RA \n BECMG 0701/0702 32006KT 6000 NSW \n BECMG 0703/0704 SCT030 BKN120"
"taf	RKSI	2018-11-05 06:00:00	TAF RKSI 050500Z 0506/0612 34007KT 7000 FEW030 BKN180 TN08/0521Z TX15/0605Z \n BECMG 0513/0514 03006KT 4200 BR NSC \n TEMPO 0520/0524 1800 FEW005 \n BECMG 0601/0602 31006KT 7000 NSW FEW030 BKN120"
"taf	RKSI	2018-11-05 12:00:00	TAF RKSI 051100Z 0512/0618 34006KT 6000 FEW030 BKN180 TN08/0521Z TX15/0605Z \n BECMG 0513/0514 03006KT 3500 BR NSC \n TEMPO 0520/0524 1800 FEW005 \n BECMG 0601/0602 31006KT 7000 NSW FEW030 BKN120 \n BECMG 0616/0617 03006KT 4200 BR"
"taf	RKSI	2018-11-05 16:50:00	TAF \n AMD RKSI 051550Z 0516/0618 03006KT 2800 BR NSC TN08/0521Z TX15/0605Z \n TEMPO 0516/0524 1400 SCT001 \n BECMG 0601/0602 31006KT 7000 NSW FEW030 BKN120 \n BECMG 0616/0617 03006KT 4200 BR"
"taf	RKSI	2018-11-05 16:51:00	TAF \n AMD TAF \n AMD RKSI 051550Z 0516/0618 03006KT 2800 BR NSC TN08/0521Z TX15/0605Z \n TEMPO 0516/0524 1400 SCT001 \n BECMG 0601/0602 31006KT 7000 NSW FEW030 BKN120 \n BECMG 0616/0617 03006KT 4200 BR"
"taf	RKSI	2018-11-05 18:00:00	TAF RKSI 051700Z 0518/0624 04005KT 3200 BR NSC TN08/0521Z TX15/0605Z TN09/0621Z \n TEMPO 0518/0524 1800 FEW003 \n BECMG 0601/0602 30005KT 6000 NSW FEW030 BKN120 \n BECMG 0617/0618 35005KT 4200 BR FEW010 BKN030 OVC100 \n TEMPO 0618/0620 2800 -RA \n BECMG 0623/0624 6000 NSW"
"taf	RKSI	2018-11-06 00:00:00	TAF RKSI 062300Z 0700/0806 07006KT 3200 BR FEW010 BKN030 OVC100 TX14/0706Z TN10/0721Z TX14/0806Z \n TEMPO 0700/0703 2500 \n TEMPO 0704/0710 30006KT HZ \n BECMG 0712/0713 2500 \n BECMG 0719/0720 10008KT -RA \n TEMPO 0804/0806 10015G25KT RA"
"taf	RKSI	2018-11-06 06:00:00	TAF RKSI 060500Z 0606/0712 30005KT 3300 HZ FEW030 BKN120 TN09/0621Z TX14/0706Z \n BECMG 0614/0615 35005KT 2200 BR FEW010 BKN030 OVC100 \n TEMPO 0617/0621 -RA \n BECMG 0621/0622 06006KT 3200 \n BECMG 0701/0702 32006KT 6000 NSW \n BECMG 0706/0707 07006KT"
"taf	RKSI	2018-11-06 12:00:00	TAF RKSI 061100Z 0612/0718 30005KT 6000 FEW030 BKN120 TN09/0621Z TX14/0706Z \n BECMG 0614/0615 35005KT 4200 BR FEW010 BKN030 OVC100 \n TEMPO 0617/0620 2200 -RA \n BECMG 0621/0622 07006KT \n BECMG 0702/0703 30006KT HZ \n BECMG 0711/0712 09008KT 2500 BR"
"taf	RKSI	2018-11-06 18:00:00	TAF RKSI 061700Z 0618/0724 04006KT 3500 -RA FEW010 BKN030 OVC100 TN10/0621Z TX14/0706Z TN10/0721Z \n BECMG 0621/0622 2800 BR \n BECMG 0700/0701 07006KT 6000 NSW \n TEMPO 0704/0710 30006KT \n BECMG 0712/0713 3500 BR \n TEMPO 0720/0724 10008KT 2800 -RA"
"taf	RKSI	2018-11-07 00:00:00	TAF RKSI 072300Z 0800/0906 07010KT 4500 -RA FEW010 BKN025 OVC060 TX14/0806Z TN09/0821Z TX15/0905Z \n BECMG 0802/0803 15015G25KT 2800 RA \n BECMG 0806/0807 23025G35KT 4200 \n BECMG 0811/0812 29025G35KT \n BECMG 0818/0819 32015G25KT \n BECMG 0820/0821 7000 NSW"
"taf	RKSI	2018-11-07 06:00:00	TAF RKSI 070500Z 0706/0812 30006KT 2500 BR FEW010 BKN030 OVC100 TN11/0721Z TX14/0806Z \n BECMG 0712/0713 10008KT \n BECMG 0719/0720 -RA \n BECMG 0804/0805 15015G25KT 1300 RA \n BECMG 0809/0810 23025G35KT"
"taf	RKSI	2018-11-07 12:00:00	TAF RKSI 071100Z 0712/0818 10008KT 3500 BR FEW010 BKN030 OVC100 TN11/0721Z TX14/0806Z \n BECMG 0716/0717 2500 -RA \n BECMG 0804/0805 15015G25KT 1300 RA \n BECMG 0809/0810 23025G35KT 2300 -RA \n BECMG 0812/0813 30025G35KT 4200 \n BECMG 0816/0817 7000 NSW"
"taf	RKSI	2018-11-07 15:15:00	TAF \n AMD RKSI 071415Z 0715/0818 10008KT 6000 -RA FEW010 BKN030 OVC100 TN11/0721Z TX14/0806Z \n BECMG 0716/0717 2500 \n BECMG 0804/0805 15015G25KT 1300 RA \n BECMG 0809/0810 23025G35KT 2300 -RA \n BECMG 0812/0813 30025G35KT 4200 \n BECMG 0816/0817 7000 NSW"
"taf	RKSI	2018-11-07 15:21:00	TAF \n AMD TAF \n AMD RKSI 071415Z 0715/0818 10008KT 6000 -RA FEW010 BKN030 OVC100 TN11/0721Z TX14/0806Z \n BECMG 0716/0717 2500 \n BECMG 0804/0805 15015G25KT 1300 RA \n BECMG 0809/0810 23025G35KT 2300 -RA \n BECMG 0812/0813 30025G35KT 4200 \n BECMG 0816/0817 7000 NSW"
"taf	RKSI	2018-11-07 18:00:00	TAF RKSI 071700Z 0718/0824 05008KT 4500 -RA FEW010 BKN025 OVC060 TN10/0721Z TX14/0806Z TN09/0821Z \n BECMG 0802/0803 15015G25KT 1300 RA \n BECMG 0806/0807 23025G35KT 4200 -RA \n BECMG 0815/0816 29015G25KT \n BECMG 0820/0821 7000 NSW"
"taf	RKSI	2018-11-08 00:00:00	TAF RKSI 082300Z 0900/1006 28017G30KT 9999 SCT030 TX16/0905Z TN09/0920Z TX15/1005Z \n TEMPO 0900/0901 BKN030 \n TEMPO 0912/0918 29012KT \n BECMG 0919/0920 34008KT \n BECMG 1003/1004 28010KT"
"taf	RKSI	2018-11-08 06:00:00	TAF \n AMD RKSI 080535Z 0806/0912 14013KT 2500 -RA FEW010 BKN025 OVC070 TN09/0821Z TX15/0905Z \n BECMG 0807/0808 18020G35KT 3500 \n BECMG 0811/0812 24023G35KT 2500 \n BECMG 0818/0819 30025G35KT 3500 BR \n BECMG 0822/0823 33023G35KT 7000 NSW SCT030 \n BECMG 0907/0908 27015G25KT"
"taf	RKSI	2018-11-08 06:35:00	TAF \n AMD RKSI 080535Z 0806/0912 14013KT 2500 -RA FEW010 BKN025 OVC070 TN09/0821Z TX15/0905Z \n BECMG 0807/0808 18020G35KT 3500 \n BECMG 0811/0812 24023G35KT 2500 \n BECMG 0818/0819 30025G35KT 3500 BR \n BECMG 0822/0823 33023G35KT 7000 NSW SCT030 \n BECMG 0907/0908 27015G25KT"
"taf	RKSI	2018-11-08 06:39:00	TAF \n AMD TAF \n AMD RKSI 080535Z 0806/0912 14013KT 2500 -RA FEW010 BKN025 OVC070 TN09/0821Z TX15/0905Z \n BECMG 0807/0808 18020G35KT 3500 \n BECMG 0811/0812 24023G35KT 2500 \n BECMG 0818/0819 30025G35KT 3500 BR \n BECMG 0822/0823 33023G35KT 7000 NSW SCT030 \n BECMG 0907/0908 27015G25KT"
"taf	RKSI	2018-11-08 12:00:00	TAF RKSI 081100Z 0812/0918 28018G35KT 6000 -RA FEW010 BKN025 OVC070 TN09/0821Z TX15/0905Z \n BECMG 0818/0819 31025G35KT 4200 BR \n BECMG 0822/0823 34023G35KT 9999 NSW SCT030 \n BECMG 0907/0908 27015G25KT \n BECMG 0916/0917 33010KT"
"taf	RKSI	2018-11-08 18:00:00	TAF RKSI 081700Z 0818/0924 28020G35KT 9999 BKN030 OVC100 TN10/0821Z TX16/0905Z TN09/0920Z \n BECMG 0822/0823 SCT030 \n TEMPO 0906/0913 28015G25KT \n TEMPO 0914/0919 29012KT \n BECMG 0920/0921 33008KT"
"taf	RKSI	2018-11-08 21:20:00	TAF \n AMD RKSI 082120Z 0821/0924 28020G35KT 9999 -RA BKN030 OVC070 TN11/0822Z TX16/0905Z TN09/0920Z \n BECMG 0900/0901 NSW SCT030 \n TEMPO 0906/0913 28015G25KT \n TEMPO 0914/0919 29012KT \n BECMG 0920/0921 33008KT"
"taf	RKSI	2018-11-08 21:21:00	TAF \n AMD TAF \n AMD RKSI 082120Z 0821/0924 28020G35KT 9999 -RA BKN030 OVC070 TN11/0822Z TX16/0905Z TN09/0920Z \n BECMG 0900/0901 NSW SCT030 \n TEMPO 0906/0913 28015G25KT \n TEMPO 0914/0919 29012KT \n BECMG 0920/0921 33008KT"
"taf	RKSI	2018-11-09 06:00:00	TAF RKSI 090500Z 0906/1012 30015G25KT 6000 SCT030 TN09/0920Z TX15/1005Z \n TEMPO 0912/0917 28012KT \n BECMG 0917/0918 30010KT FEW010 BKN030 \n BECMG 0920/0921 SCT030 \n BECMG 1009/1010 36008KT NSC"
"taf	RKSI	2018-11-09 12:00:00	TAF RKSI 091100Z 0912/1018 27008KT 6000 SCT030 TN09/0920Z TX15/1005Z \n BECMG 0918/0919 4200 BR FEW010 BKN030 \n BECMG 0920/0921 30010KT 6000 NSW SCT030 \n BECMG 1010/1011 36007KT NSC"
"taf	RKSI	2018-11-09 18:00:00	TAF RKSI 091700Z 0918/1024 07006KT 4200 BR SCT030 TN09/0920Z TX15/1005Z TN05/1021Z \n BECMG 0919/0920 FEW010 BKN030 \n BECMG 0921/0922 7000 NSW SCT030 \n BECMG 0923/0924 33010KT \n BECMG 1010/1011 05007KT NSC \n BECMG 1018/1019 11006KT"
"taf	RKSI	2018-11-09 19:45:00	TAF COR RKSI 091845Z 0919/1024 07006KT 4200 BR SCT030 TN09/0920Z TX15/1005Z TN05/1021Z \n TEMPO 0919/0921 2500 -RA FEW010 BKN030 \n BECMG 0921/0922 7000 NSW \n BECMG 0923/0924 33010KT \n BECMG 1010/1011 05007KT NSC \n BECMG 1018/1019 11006KT"
"taf	RKSI	2018-11-09 19:48:00	TAF \n AMD TAF \n AMD RKSI 091845Z 0919/1024 07006KT 4200 BR SCT030 TN09/0920Z TX15/1005Z TN05/1021Z \n TEMPO 0919/0921 -RA FEW010 BKN030 \n BECMG 0921/0922 7000 NSW SCT030 \n BECMG 0923/0924 33010KT \n BECMG 1010/1011 05007KT NSC \n BECMG 1018/1019 11006KT"
"taf	RKSI	2018-11-09 19:51:00	TAF COR TAF COR RKSI 091845Z 0919/1024 07006KT 4200 BR SCT030 TN09/0920Z TX15/1005Z TN05/1021Z \n TEMPO 0919/0921 2500 -RA FEW010 BKN030 \n BECMG 0921/0922 7000 NSW \n BECMG 0923/0924 33010KT \n BECMG 1010/1011 05007KT NSC \n BECMG 1018/1019 11006KT"
"taf	RKSI	2018-11-09 22:50:00	TAF \n AMD RKSI 092150Z 0922/1024 07006KT 3500 BR SCT030 TN09/0920Z TX15/1005Z TN05/1021Z \n BECMG 0923/0924 33010KT 7000 NSW \n BECMG 1010/1011 05007KT NSC \n BECMG 1018/1019 11006KT"
"taf	RKSI	2018-11-09 22:54:00	TAF \n AMD TAF \n AMD RKSI 092150Z 0922/1024 07006KT 3500 BR SCT030 TN09/0920Z TX15/1005Z TN05/1021Z \n BECMG 0923/0924 33010KT 7000 NSW \n BECMG 1010/1011 05007KT NSC \n BECMG 1018/1019 11006KT"
"taf	RKSI	2018-11-10 00:00:00	TAF RKSI 102300Z 1100/1206 05007KT 7000 SCT030 BKN150 TX11/1105Z TN06/1121Z TX13/1205Z \n BECMG 1102/1103 FEW010 BKN030 BKN150 \n BECMG 1108/1109 35010KT \n BECMG 1116/1117 4200 BR SCT030 \n BECMG 1121/1122 32010KT 7000 NSW NSC"
"taf	RKSI	2018-11-10 06:00:00	TAF RKSI 100500Z 1006/1112 30010KT 6000 SCT030 TN05/1021Z TX11/1105Z \n BECMG 1012/1013 01006KT NSC \n TEMPO 1019/1021 05005KT 3500 BR \n BECMG 1022/1023 07006KT \n BECMG 1101/1102 31007KT SCT030 BKN120"
"taf	RKSI	2018-11-10 12:00:00	TAF RKSI 101100Z 1012/1118 29006KT 4200 HZ NSC TN05/1021Z TX11/1105Z \n BECMG 1017/1018 05005KT 2800 BR \n BECMG 1022/1023 36006KT 3500 \n BECMG 1101/1102 31007KT 6000 NSW SCT030 BKN120 \n TEMPO 1106/1109 FEW010 BKN030 \n BECMG 1117/1118 35007KT 4200 BR"
"taf	RKSI	2018-11-10 18:00:00	TAF RKSI 101700Z 1018/1124 05005KT 7000 NSC TN06/1021Z TX11/1105Z TN06/1121Z \n BECMG 1022/1023 36006KT 4200 BR \n BECMG 1101/1102 31007KT 7000 NSW SCT030 BKN120 \n TEMPO 1105/1109 FEW010 BKN030 \n BECMG 1117/1118 35006KT 4200 BR \n BECMG 1121/1122 7000 NSW NSC"
"taf	RKSI	2018-11-11 00:00:00	TAF RKSI 112300Z 1200/1306 35007KT CAVOK TX13/1205Z TN04/1221Z TX13/1305Z \n BECMG 1219/1220 03006KT 4200 BR SCT030 \n BECMG 1221/1222 35007KT 6000 NSW"
"taf	RKSI	2018-11-11 06:00:00	TAF RKSI 110500Z 1106/1212 05010KT 7000 SCT030 BKN090 TN06/1121Z TX13/1205Z \n TEMPO 1106/1109 -RA \n BECMG 1110/1111 35008KT FEW010 SCT030 \n BECMG 1117/1118 4200 BR \n BECMG 1122/1123 7000 NSW NSC \n BECMG 1211/1212 03006KT 4200 BR"
"taf	RKSI	2018-11-11 12:00:00	TAF RKSI 111100Z 1112/1218 02007KT 7000 SCT030 TN05/1121Z TX13/1205Z \n BECMG 1119/1120 4200 BR \n BECMG 1122/1123 35007KT 7000 NSW NSC \n BECMG 1217/1218 03006KT 4200 BR SCT030"
"taf	RKSI	2018-11-11 18:00:00	TAF RKSI 111700Z 1118/1224 07005KT 7000 SCT030 TN04/1121Z TX13/1205Z TN05/1221Z \n BECMG 1121/1122 35007KT NSC \n BECMG 1219/1220 03006KT 4200 BR SCT030 \n BECMG 1221/1222 35007KT 6000 NSW"
"taf	RKSI	2018-11-12 00:00:00	TAF RKSI 122300Z 1300/1406 04006KT CAVOK TX13/1305Z TN05/1321Z TX14/1405Z \n TEMPO 1303/1312 33010KT \n BECMG 1319/1320 4200 BR NSC \n BECMG 1323/1324 07006KT 6000 NSW \n BECMG 1404/1405 31006KT CAVOK"
"taf	RKSI	2018-11-12 06:00:00	TAF RKSI 120500Z 1206/1312 04006KT CAVOK TN05/1221Z TX13/1305Z \n TEMPO 1206/1210 33010KT \n TEMPO 1303/1309 33010KT"
"taf	RKSI	2018-11-12 12:00:00	TAF RKSI 121100Z 1212/1318 04006KT CAVOK TN05/1221Z TX13/1305Z \n TEMPO 1212/1214 34010KT \n TEMPO 1303/1311 33010KT \n BECMG 1317/1318 4200 BR NSC"
"taf	RKSI	2018-11-12 18:00:00	TAF RKSI 121700Z 1218/1324 03006KT CAVOK TN05/1221Z TX13/1305Z TN05/1321Z \n TEMPO 1303/1312 33010KT \n BECMG 1319/1320 4200 BR NSC \n BECMG 1323/1324 06007KT 6000 NSW"
"taf	RKSI	2018-11-13 00:00:00	TAF RKSI 132300Z 1400/1506 07005KT CAVOK TX15/1405Z TN06/1421Z TX14/1505Z \n TEMPO 1404/1410 31006KT \n BECMG 1419/1420 4200 BR FEW030 SCT180 \n BECMG 1423/1424 15006KT 6000 NSW \n BECMG 1504/1505 28006KT"
"taf	RKSI	2018-11-13 06:00:00	TAF RKSI 130500Z 1306/1412 33008KT CAVOK TN05/1321Z TX14/1405Z \n BECMG 1319/1320 03005KT 4200 BR NSC \n BECMG 1323/1324 07006KT 7000 NSW \n BECMG 1404/1405 31006KT"
"taf	RKSI	2018-11-13 12:00:00	TAF RKSI 131100Z 1312/1418 03005KT CAVOK TN05/1321Z TX14/1405Z \n BECMG 1320/1321 4200 BR NSC \n BECMG 1323/1324 07006KT 7000 NSW \n BECMG 1404/1405 31006KT \n BECMG 1413/1414 07005KT \n BECMG 1415/1416 4200 BR"
"taf	RKSI	2018-11-13 18:00:00	TAF RKSI 131700Z 1318/1424 05005KT 7000 NSC TN05/1320Z TX15/1405Z TN06/1420Z \n TEMPO 1404/1410 31010KT \n BECMG 1419/1420 4200 BR \n BECMG 1422/1423 6000 NSW"
"taf	RKSI	2018-11-14 00:00:00	TAF RKSI 142300Z 1500/1606 15005KT 6000 FEW030 BKN150 TX14/1505Z TN07/1520Z TX12/1606Z \n BECMG 1507/1508 06005KT \n BECMG 1516/1517 3500 BR \n TEMPO 1523/1602 01007KT 6000 NSW BKN030 OVC080 \n BECMG 1602/1603 33011KT 7000 NSW"
"taf	RKSI	2018-11-14 06:00:00	TAF RKSI 140500Z 1406/1512 35005KT CAVOK TN06/1421Z TX14/1505Z \n BECMG 1411/1412 07005KT \n BECMG 1419/1420 4200 BR FEW030 SCT180 \n BECMG 1423/1424 15006KT 6000 NSW \n BECMG 1504/1505 30006KT 9999"
"taf	RKSI	2018-11-14 12:00:00	TAF RKSI 141100Z 1412/1518 35005KT CAVOK TN06/1421Z TX14/1505Z \n BECMG 1414/1415 07005KT \n BECMG 1419/1420 4200 BR NSC \n BECMG 1422/1423 15006KT 6000 NSW \n BECMG 1504/1505 32006KT 9999 FEW030 BKN180"
"taf	RKSI	2018-11-14 18:00:00	TAF RKSI 141700Z 1418/1524 06005KT 6000 NSC TN06/1421Z TX14/1505Z TN07/1520Z \n TEMPO 1420/1422 4200 BR \n BECMG 1500/1501 14006KT \n BECMG 1505/1506 32005KT FEW030 BKN180 \n BECMG 1518/1519 05005KT 4200 BR \n BECMG 1523/1524 33007KT 6000 NSW BKN030 OVC100"
"taf	RKSI	2018-11-15 00:00:00	TAF RKSI 152300Z 1600/1706 36006KT 7000 FEW030 BKN120 TX10/1605Z TN02/1621Z TX09/1705Z \n TEMPO 1605/1610 33015G25KT"
"taf	RKSI	2018-11-15 06:00:00	TAF RKSI 150500Z 1506/1612 15007KT 6000 FEW030 TN05/1521Z TX11/1605Z \n BECMG 1508/1509 06005KT \n BECMG 1516/1517 15005KT 3500 BR BKN030 OVC120 \n BECMG 1523/1524 7000 NSW \n BECMG 1602/1603 33010KT SCT030"
"taf	RKSI	2018-11-15 12:00:00	TAF RKSI 151100Z 1512/1618 03005KT 6000 FEW030 BKN120 TN05/1521Z TX11/1605Z \n BECMG 1516/1517 3500 BR BKN030 OVC100 \n BECMG 1523/1524 33012KT 7000 NSW"
"taf	RKSI	2018-11-15 18:00:00	TAF RKSI 151700Z 1518/1624 36005KT 9999 FEW030 BKN120 TN05/1521Z TX10/1605Z TN03/1621Z \n BECMG 1520/1521 4200 BR BKN030 OVC100 \n BECMG 1600/1601 33012KT 7000 NSW SCT030"
"taf	RKSI	2018-11-16 00:00:00	TAF RKSI 162300Z 1700/1806 05006KT CAVOK TX09/1706Z TN02/1721Z TX10/1805Z \n BECMG 1702/1703 31010KT \n BECMG 1711/1712 05006KT \n BECMG 1800/1801 16006KT \n BECMG 1805/1806 27007KT"
"taf	RKSI	2018-11-16 06:00:00	TAF RKSI 160500Z 1606/1712 33012KT 7000 FEW030 BKN120 TN02/1621Z TX09/1705Z \n TEMPO 1606/1608 BKN025 BKN120 \n BECMG 1615/1616 35015G25KT \n BECMG 1623/1624 33010KT"
"taf	RKSI	2018-11-16 12:00:00	TAF RKSI 161100Z 1612/1718 36010KT 7000 FEW030 BKN120 TN02/1621Z TX09/1705Z \n BECMG 1619/1620 35015G25KT \n BECMG 1621/1622 33010KT \n TEMPO 1711/1714 03007KT"
"taf	RKSI	2018-11-16 18:00:00	TAF RKSI 161700Z 1618/1724 34010KT CAVOK TN02/1621Z TX09/1705Z TN01/1721Z \n BECMG 1712/1713 04006KT \n BECMG 1723/1724 11006KT"
"taf	RKSI	2018-11-17 00:00:00	TAF RKSI 172300Z 1800/1906 16006KT 9999 FEW030 BKN120 TX11/1805Z TN05/1821Z TX11/1905Z \n TEMPO 1807/1815 31007KT \n BECMG 1816/1817 33008KT 6000 BKN030 \n BECMG 1900/1901 NSC"
"taf	RKSI	2018-11-17 06:00:00	TAF RKSI 170500Z 1706/1812 31010KT CAVOK TN02/1721Z TX10/1805Z \n BECMG 1711/1712 01006KT \n TEMPO 1719/1801 07006KT 6000 NSC \n BECMG 1801/1802 16006KT 9999 FEW030 BKN120 \n BECMG 1808/1809 30007KT \n BECMG 1811/1812 BKN030 BKN100"
"taf	RKSI	2018-11-17 12:00:00	TAF RKSI 171100Z 1712/1818 05006KT CAVOK TN01/1721Z TX10/1805Z \n BECMG 1800/1801 16006KT 9999 FEW030 BKN120 \n BECMG 1808/1809 30007KT 7000 \n BECMG 1812/1813 BKN030"
"taf	RKSI	2018-11-17 18:00:00	TAF RKSI 171700Z 1718/1824 05006KT CAVOK TN01/1721Z TX11/1805Z TN05/1821Z \n BECMG 1800/1801 16006KT 7000 FEW030 BKN120 \n TEMPO 1808/1815 30007KT \n BECMG 1816/1817 34008KT BKN030"
"taf	RKSI	2018-11-18 00:00:00	TAF RKSI 182300Z 1900/2006 07005KT 7000 SCT030 BKN120 TX12/1905Z TN01/1921Z TX11/2005Z \n BECMG 1902/1903 33010KT NSC \n BECMG 1918/1919 15006KT \n BECMG 2003/2004 21010KT"
"taf	RKSI	2018-11-18 06:00:00	TAF RKSI 180500Z 1806/1912 24006KT 9999 FEW030 BKN180 TN05/1821Z TX11/1905Z \n BECMG 1808/1809 30007KT \n TEMPO 1819/1821 33007KT -RA FEW010 BKN030 \n BECMG 1823/1824 02010KT \n BECMG 1901/1902 32010KT CAVOK"
"taf	RKSI	2018-11-18 12:00:00	TAF RKSI 181100Z 1812/1918 09005KT 9999 FEW030 BKN180 TN05/1821Z TX11/1905Z \n BECMG 1814/1815 31006KT 6000 \n TEMPO 1818/1821 FEW010 BKN030 \n BECMG 1823/1824 03010KT NSC \n BECMG 1901/1902 33010KT CAVOK"
"taf	RKSI	2018-11-18 18:00:00	TAF RKSI 181700Z 1818/1924 07005KT 7000 FEW010 SCT030 BKN180 TN05/1821Z TX12/1905Z TN01/1921Z \n TEMPO 1819/1820 FEW010 BKN025 BKN120 \n BECMG 1902/1903 33010KT NSC \n BECMG 1915/1916 15006KT"
"taf	RKSI	2018-11-19 00:00:00	TAF RKSI 192300Z 2000/2106 15007KT CAVOK TX10/2006Z TN05/2015Z TX08/2103Z \n BECMG 2004/2005 21010KT 9999 FEW030 BKN120 \n BECMG 2011/2012 25012G25KT 6000 FEW010 BKN030 OVC100 \n TEMPO 2014/2017 27012KT 4200 -RA \n BECMG 2019/2020 36008KT FEW010 SCT030 BKN120 \n BECMG 2104/2105 4200 -RA FEW010 BKN030 OVC100"
"taf	RKSI	2018-11-19 06:00:00	TAF RKSI 190500Z 1906/2012 33007KT 7000 FEW030 SCT180 TN02/1921Z TX10/2006Z \n BECMG 1919/1920 05007KT 4200 BR \n BECMG 1923/1924 15006KT 7000 NSW \n BECMG 2002/2003 21010KT \n BECMG 2010/2011 32010KT"
"taf	RKSI	2018-11-19 12:00:00	TAF RKSI 191100Z 1912/2018 35008KT 7000 FEW030 SCT120 TN02/1921Z TX10/2006Z \n BECMG 1919/1920 05007KT 4200 BR \n BECMG 2000/2001 15007KT 7000 NSW \n BECMG 2004/2005 23010KT \n TEMPO 2013/2015 -RA BKN030 OVC120 \n BECMG 2016/2017 33010KT"
"taf	RKSI	2018-11-19 18:00:00	TAF RKSI 191700Z 1918/2024 05006KT CAVOK TN02/1921Z TX10/2006Z TN05/2015Z \n BECMG 2000/2001 15007KT \n BECMG 2004/2005 21010KT 9999 FEW030 BKN120 \n BECMG 2012/2013 25015G25KT 6000 FEW010 BKN030 OVC100 \n TEMPO 2015/2018 4200 -RA \n BECMG 2021/2022 36008KT FEW010 SCT030 BKN120"
"taf	RKSI	2018-11-20 00:00:00	TAF RKSI 202300Z 2100/2206 05008KT 6000 SCT040 OVC120 TX07/2103Z TNM01/2123Z TX07/2205Z \n BECMG 2106/2107 35008KT -RA FEW010 BKN030 OVC100 \n TEMPO 2110/2111 3500 -RASN \n BECMG 2111/2112 NSW SCT030"
"taf	RKSI	2018-11-20 06:00:00	TAF RKSI 200500Z 2006/2112 20010KT 7000 FEW030 TN05/2021Z TX07/2105Z \n TEMPO 2016/2019 -RA SCT030 OVC100 \n BECMG 2021/2022 05010KT \n BECMG 2105/2106 4500 -RA BKN030 OVC100 \n BECMG 2111/2112 7000 NSW"
"taf	RKSI	2018-11-20 12:00:00	TAF RKSI 201100Z 2012/2118 22010KT 7000 FEW030 BKN120 TN05/2021Z TX07/2105Z \n TEMPO 2016/2019 -RA SCT030 OVC100 \n BECMG 2020/2021 03010KT \n BECMG 2105/2106 4500 -RA BKN030 OVC100 \n BECMG 2111/2112 33013KT 7000 NSW FEW030"
"taf	RKSI	2018-11-20 14:55:00	TAF \n AMD RKSI 201355Z 2014/2118 22010KT 7000 FEW030 BKN120 TN05/2021Z TX07/2105Z \n TEMPO 2014/2016 -RA FEW010 BKN030 OVC100 \n BECMG 2020/2021 03010KT \n BECMG 2105/2106 4500 -RA BKN030 OVC100 \n BECMG 2111/2112 33013KT 7000 NSW FEW030"
"taf	RKSI	2018-11-20 14:57:00	TAF \n AMD TAF \n AMD RKSI 201355Z 2014/2118 22010KT 7000 FEW030 BKN120 TN05/2021Z TX07/2105Z \n TEMPO 2014/2016 -RA FEW010 BKN030 OVC100 \n BECMG 2020/2021 03010KT \n BECMG 2105/2106 4500 -RA BKN030 OVC100 \n BECMG 2111/2112 33013KT 7000 NSW FEW030"
"taf	RKSI	2018-11-20 18:00:00	TAF RKSI 201700Z 2018/2124 25008KT 6000 FEW030 BKN120 TX07/2103Z TN00/2123Z \n BECMG 2020/2021 36010KT \n BECMG 2105/2106 -RA FEW010 BKN030 OVC100 \n BECMG 2111/2112 33008KT NSW SCT030"
"taf	RKSI	2018-11-20 19:40:00	TAF \n AMD RKSI 201840Z 2019/2124 05008KT 6000 FEW030 BKN120 TX07/2103Z TN00/2123Z \n TEMPO 2019/2022 2500 BR \n BECMG 2105/2106 -RA FEW010 BKN030 OVC100 \n BECMG 2111/2112 33008KT NSW SCT030"
"taf	RKSI	2018-11-20 19:42:00	TAF \n AMD TAF \n AMD RKSI 201840Z 2019/2124 05008KT 6000 FEW030 BKN120 TX07/2103Z TN00/2123Z \n TEMPO 2019/2022 2500 BR \n BECMG 2105/2106 -RA FEW010 BKN030 OVC100 \n BECMG 2111/2112 33008KT NSW SCT030"
"taf	RKSI	2018-11-21 00:00:00	TAF RKSI 212300Z 2200/2306 01010KT 9999 FEW030 TX07/2206Z TNM01/2221Z TX05/2305Z \n BECMG 2203/2204 33015G25KT \n BECMG 2212/2213 36010KT \n BECMG 2300/2301 12007KT"
"taf	RKSI	2018-11-21 06:00:00	TAF RKSI 210500Z 2106/2212 01008KT 6000 -RA FEW010 BKN025 OVC080 TN00/2121Z TX08/2206Z \n TEMPO 2107/2108 NSW \n BECMG 2108/2109 34010KT 4200 -RASN \n BECMG 2111/2112 01012KT 6000 NSW SCT030 \n BECMG 2115/2116 31008KT \n BECMG 2205/2206 34015G25KT"
"taf	RKSI	2018-11-21 08:54:00	TAF \n AMD TAF \n AMD RKSI 210755Z 2108/2212 35010KT 6000 FEW010 BKN025 OVC080 TN00/2121Z TX08/2206Z \n BECMG 2111/2112 4200 -RASN \n BECMG 2113/2114 01012KT 6000 NSW SCT030 \n BECMG 2115/2116 31008KT \n BECMG 2205/2206 34015G25KT"
"taf	RKSI	2018-11-21 08:55:00	TAF \n AMD RKSI 210755Z 2108/2212 35010KT 6000 FEW010 BKN025 OVC080 TN00/2121Z TX08/2206Z \n BECMG 2111/2112 4200 -RASN \n BECMG 2113/2114 02012KT 6000 NSW SCT030 \n BECMG 2115/2116 31008KT \n BECMG 2205/2206 34015G25KT"
"taf	RKSI	2018-11-21 08:57:00	TAF \n AMD TAF \n AMD RKSI 210755Z 2108/2212 35010KT 6000 FEW010 BKN025 OVC080 TN00/2121Z TX08/2206Z \n BECMG 2111/2112 4200 -RASN \n BECMG 2113/2114 02012KT 6000 NSW SCT030 \n BECMG 2115/2116 31008KT \n BECMG 2205/2206 34015G25KT"
"taf	RKSI	2018-11-21 12:00:00	TAF RKSI 211100Z 2112/2218 01008KT 9999 SCT030 TN00/2121Z TX08/2206Z \n BECMG 2200/2201 31010KT \n BECMG 2205/2206 33015G25KT \n BECMG 2211/2212 35010KT"
"taf	RKSI	2018-11-21 18:00:00	TAF RKSI 211700Z 2118/2224 01008KT 9999 SCT030 TN00/2121Z TX07/2206Z TNM01/2221Z \n BECMG 2122/2123 31010KT \n BECMG 2203/2204 33015G25KT \n BECMG 2212/2213 35010KT"
"taf	RKSI	2018-11-22 00:00:00	TAF RKSI 222300Z 2300/2406 05007KT 9999 FEW030 SCT180 TX05/2306Z TN01/2321Z TX09/2405Z \n BECMG 2305/2306 12010KT \n BECMG 2321/2322 4200 -RASN FEW010 BKN030 OVC120 \n BECMG 2404/2405 7000 NSW SCT030 BKN120"
"taf	RKSI	2018-11-22 06:00:00	TAF RKSI 220500Z 2206/2312 32018G30KT CAVOK TNM04/2221Z TX05/2306Z \n BECMG 2211/2212 35010KT \n BECMG 2217/2218 06008KT \n BECMG 2223/2224 12008KT \n BECMG 2310/2311 18010KT"
"taf	RKSI	2018-11-22 12:00:00	TAF RKSI 221100Z 2212/2318 33015G25KT CAVOK TNM04/2221Z TX06/2306Z \n BECMG 2213/2214 33010KT \n BECMG 2217/2218 03007KT \n BECMG 2302/2303 09008KT \n BECMG 2311/2312 15010KT \n BECMG 2316/2317 13015G25KT 9999 BKN030 BKN150"
"taf	RKSI	2018-11-22 18:00:00	TAF RKSI 221700Z 2218/2324 03010KT 9999 FEW030 SCT180 TNM02/2221Z TX05/2306Z TN01/2321Z \n BECMG 2303/2304 09008KT \n BECMG 2310/2311 15010KT \n BECMG 2316/2317 12015G25KT \n BECMG 2320/2321 12010KT 4800 -RA BKN030 OVC120"
"taf	RKSI	2018-11-23 06:00:00	TAF RKSI 230500Z 2306/2412 15007KT 9999 FEW030 SCT180 TN01/2321Z TX09/2405Z \n BECMG 2319/2320 12008KT 4200 -RASN FEW010 BKN025 OVC120 \n TEMPO 2321/2323 2800 -SN \n BECMG 2404/2405 27010KT 7000 NSW SCT030 BKN120"
"taf	RKSI	2018-11-23 12:00:00	TAF RKSI 231100Z 2312/2418 15006KT 9999 FEW030 SCT180 TN01/2321Z TX09/2405Z \n BECMG 2319/2320 12008KT 3500 -RASN FEW010 BKN025 OVC120 \n TEMPO 2321/2323 07010KT 2500 -SN \n BECMG 2404/2405 32008KT 7000 NSW SCT030 BKN120 \n TEMPO 2406/2408 FEW010 BKN030"
"taf	RKSI	2018-11-23 18:00:00	TAF RKSI 231700Z 2318/2424 12017G35KT 7000 FEW010 BKN025 OVC080 TN02/2321Z TX13/2406Z TN03/2421Z \n BECMG 2319/2320 3500 -RASN \n TEMPO 2321/2323 06010KT 2500 -SN \n BECMG 2400/2401 06010KT -SNRA \n BECMG 2402/2403 17006KT 6000 NSW SCT030 \n BECMG 2414/2415 35006KT"
"taf	RKSI	2018-11-23 18:01:00	TAF \n AMD RKSI 231801Z 2318/2424 14017G35KT 7000 -RA FEW010 BKN025 OVC080 TN02/2321Z TX13/2406Z TN03/2421Z \n BECMG 2319/2320 3500 -TSRASN FEW010CB BKN020 OVC080 \n TEMPO 2321/2323 06010KT 2500 -SN FEW010 BKN025 OVC080 \n BECMG 2400/2401 06010KT -SNRA \n BECMG 2402/2403 17006KT 6000 NSW SCT030 \n BECMG 2414/2415 35006KT"
"taf	RKSI	2018-11-23 18:03:00	TAF \n AMD TAF \n AMD RKSI 231801Z 2318/2424 14017G35KT 7000 -RA FEW010 BKN025 OVC080 TN02/2321Z TX13/2406Z TN03/2421Z \n BECMG 2319/2320 3500 -TSRASN FEW010CB BKN020 OVC080 \n TEMPO 2321/2323 06010KT 2500 -SN FEW010 BKN025 OVC080 \n BECMG 2400/2401 06010KT -SNRA \n BECMG 2402/2403 17006KT 6000 NSW SCT030 \n BECMG 2414/2415 35006KT"
"taf	RKSI	2018-11-24 00:00:00	TAF RKSI 242300Z 2500/2606 11006KT 3500 BR FEW010 TX12/2506Z TN04/2521Z TX13/2606Z \n BECMG 2502/2503 14006KT 6000 NSW NSC \n BECMG 2505/2506 29006KT \n BECMG 2511/2512 05006KT 4200 BR \n TEMPO 2520/2523 08006KT 2800 \n BECMG 2600/2601 14006KT 6000 NSW"
"taf	RKSI	2018-11-24 06:00:00	TAF RKSI 240500Z 2406/2512 04008KT 7000 FEW010 BKN030 BKN110 TN02/2421Z TX10/2506Z \n TEMPO 2419/2422 2800 BR \n BECMG 2422/2423 SCT030 \n TEMPO 2503/2505 11006KT BKN030 \n BECMG 2506/2507 21006KT"
"taf	RKSI	2018-11-24 12:00:00	TAF RKSI 241100Z 2412/2518 04008KT 6000 FEW010 BKN030 TN02/2421Z TX10/2506Z \n TEMPO 2419/2422 01006KT 2500 BR \n TEMPO 2503/2505 11006KT \n BECMG 2506/2507 21006KT SCT030 \n BECMG 2509/2510 29006KT \n BECMG 2514/2515 13006KT 2800 BR"
"taf	RKSI	2018-11-24 18:00:00	TAF RKSI 241700Z 2418/2524 06006KT 4200 BR FEW010 BKN030 TN04/2421Z TX12/2506Z TN05/2521Z \n BECMG 2501/2502 12006KT 6000 NSW SCT030 \n BECMG 2503/2504 05006KT \n BECMG 2505/2506 12006KT \n TEMPO 2507/2511 28006KT \n BECMG 2512/2513 05006KT 3500 BR"
"taf	RKSI	2018-11-25 00:00:00	TAF RKSI 252300Z 2600/2706 13008KT 2800 BR NSC TX11/2606Z TN08/2616Z TX15/2705Z \n BECMG 2602/2603 16007KT 4200 HZ \n BECMG 2617/2618 22012KT 2800 BR FEW010 BKN025 BKN120 \n BECMG 2620/2621 25015G25KT 3500 \n TEMPO 2700/2702 -RA \n BECMG 2703/2704 33015G25KT 7000 NSW FEW030 BKN150"
"taf	RKSI	2018-11-25 06:00:00	TAF RKSI 250500Z 2506/2612 18006KT 6000 NSC TN04/2521Z TX12/2606Z \n BECMG 2510/2511 29006KT \n BECMG 2515/2516 05006KT 4200 BR \n TEMPO 2519/2522 08006KT 2800 BKN030 \n BECMG 2523/2524 17007KT 6000 NSW"
"taf	RKSI	2018-11-25 12:00:00	TAF RKSI 251100Z 2512/2618 13005KT 3800 BR NSC TN04/2521Z TX12/2606Z \n BECMG 2519/2520 2800 BKN030 \n BECMG 2522/2523 4200 \n BECMG 2600/2601 16007KT 6000 NSW NSC \n BECMG 2609/2610 22010KT"
"taf	RKSI	2018-11-25 18:00:00	TAF RKSI 251700Z 2518/2624 13005KT 2500 BR NSC TN04/2521Z TX13/2606Z TN08/2616Z \n BECMG 2522/2523 4200 \n BECMG 2600/2601 16007KT 6000 NSW \n BECMG 2617/2618 22010KT FEW010 BKN025 BKN120"
"taf	RKSI	2018-11-26 00:00:00	TAF RKSI 262300Z 2700/2806 15010KT 2800 BR SCT030 BKN150 TX11/2705Z TN01/2721Z TX09/2805Z \n TEMPO 2701/2702 24012KT 3500 -RA BKN030 BKN120 \n BECMG 2702/2703 33012KT 7000 NSW \n BECMG 2712/2713 34015G25KT \n BECMG 2721/2722 02010KT"
"taf	RKSI	2018-11-26 06:00:00	TAF RKSI 260500Z 2606/2712 16007KT 6000 NSC TN08/2616Z TX15/2705Z \n BECMG 2615/2616 22010KT 4200 BR \n BECMG 2620/2621 19012KT 2800 FEW010 BKN025 BKN120 \n TEMPO 2623/2702 3500 -RA \n BECMG 2702/2703 30015G25KT 6000 NSW FEW030 BKN150 \n BECMG 2709/2710 32012KT"
"taf	RKSI	2018-11-26 12:00:00	TAF RKSI 261100Z 2612/2718 01005KT 4200 BR NSC TN06/2616Z TX15/2705Z \n BECMG 2615/2616 21007KT \n BECMG 2620/2621 18012KT 2800 SCT030 BKN150 \n TEMPO 2700/2702 24012KT 3500 -RA FEW010 BKN030 BKN120 \n BECMG 2702/2703 32015G25KT 6000 NSW \n BECMG 2709/2710 34012KT"
"taf	RKSI	2018-11-26 18:00:00	TAF RKSI 261700Z 2618/2724 07005KT 2800 BR NSC TN04/2619Z TX11/2705Z TN01/2721Z \n BECMG 2620/2621 18012KT FEW010 BKN030 BKN120 \n TEMPO 2701/2702 24012KT 3500 -RA \n BECMG 2702/2703 32015G25KT 7000 NSW SCT030 BKN150 \n BECMG 2709/2710 33012KT"
"taf	RKSI	2018-11-27 00:00:00	TAF RKSI 272300Z 2800/2906 07007KT CAVOK TX08/2806Z TN00/2821Z TX06/2905Z \n BECMG 2802/2803 36010KT \n BECMG 2816/2817 06006KT 7000 SCT030 \n BECMG 2823/2824 BKN030 \n BECMG 2903/2904 35010KT"
"taf	RKSI	2018-11-27 06:00:00	TAF RKSI 270500Z 2706/2812 32010KT 7000 SCT030 BKN180 TN01/2721Z TX08/2806Z \n BECMG 2713/2714 35015G25KT \n BECMG 2720/2721 03012KT"
"taf	RKSI	2018-11-27 07:18:00	TAF \n AMD RKSI 270720Z 2707/2812 32010KT 4200 DU SCT030 BKN180 TN01/2721Z TX08/2806Z \n BECMG 2713/2714 35015G25KT 7000 \n BECMG 2720/2721 03012KT"
"taf	RKSI	2018-11-27 07:20:00	TAF \n AMD RKSI 270720Z 2707/2812 32010KT 4200 DU SCT030 BKN180 TN01/2721Z TX08/2806Z \n BECMG 2713/2714 35015G25KT 7000 NSW \n BECMG 2720/2721 03012KT"
"taf	RKSI	2018-11-27 12:00:00	TAF RKSI 271100Z 2712/2818 33013KT 7000 FEW030 SCT180 TN01/2721Z TX08/2806Z \n BECMG 2722/2723 03010KT \n BECMG 2816/2817 12008KT"
"taf	RKSI	2018-11-27 18:00:00	TAF RKSI 271700Z 2718/2824 36009KT CAVOK TN01/2721Z TX08/2806Z TN00/2821Z \n BECMG 2815/2816 07006KT 7000 SCT030 \n BECMG 2823/2824 BKN030"
"taf	RKSI	2018-11-28 00:00:00	TAF RKSI 282300Z 2900/3006 07006KT CAVOK TX06/2906Z TNM02/2921Z TX06/3005Z \n BECMG 2902/2903 9999 BKN030 BKN100 \n BECMG 2904/2905 34010KT \n BECMG 2910/2911 SCT030 \n BECMG 2915/2916 05007KT \n BECMG 3004/3005 24006KT"
"taf	RKSI	2018-11-28 06:00:00	TAF RKSI 280500Z 2806/2912 05007KT 7000 FEW030 TN01/2821Z TX07/2906Z \n BECMG 2819/2820 BKN030 \n BECMG 2903/2904 35010KT \n BECMG 2907/2908 SCT030"
"taf	RKSI	2018-11-28 12:00:00	TAF RKSI 281100Z 2812/2918 36010KT 7000 FEW030 TN01/2821Z TX07/2906Z \n BECMG 2819/2820 BKN030 \n BECMG 2907/2908 SCT030"
"taf	RKSI	2018-11-28 18:00:00	TAF RKSI 281700Z 2818/2924 06006KT CAVOK TN01/2821Z TX06/2906Z TNM02/2921Z \n BECMG 2820/2821 9999 BKN030 \n BECMG 2902/2903 34010KT \n BECMG 2908/2909 SCT030 \n BECMG 2915/2916 05007KT"
"taf	RKSI	2018-11-29 00:00:00	TAF RKSI 292300Z 3000/0106 07007KT 7000 FEW030 TX07/3006Z TN01/3021Z TX11/0105Z \n BECMG 3006/3007 26007KT \n BECMG 3017/3018 12007KT \n BECMG 3023/3024 05007KT"
"taf	RKSI	2018-11-29 06:00:00	TAF RKSI 290500Z 2906/3012 04008KT 7000 FEW010 BKN030 OVC100 TNM02/2921Z TX07/3006Z \n BECMG 2911/2912 34010KT SCT030 \n BECMG 2920/2921 07008KT \n BECMG 3001/3002 32006KT"
"taf	RKSI	2018-11-29 06:42:00	TAF \n AMD RKSI 290642Z 2906/3012 04008KT 7000 FEW010 BKN030 OVC100 TNM02/2921Z TX07/3006Z \n TEMPO 2906/2907 -RA \n BECMG 2911/2912 34010KT SCT030 \n BECMG 2920/2921 07008KT \n BECMG 3001/3002 32006KT"
"taf	RKSI	2018-11-29 06:45:00	TAF \n AMD TAF \n AMD RKSI 290642Z 2906/3012 04008KT 7000 FEW010 BKN030 OVC100 TNM02/2921Z TX07/3006Z \n TEMPO 2906/2907 -RA \n BECMG 2911/2912 34010KT SCT030 \n BECMG 2920/2921 07008KT \n BECMG 3001/3002 32006KT"
"taf	RKSI	2018-11-29 12:00:00	TAF RKSI 291100Z 2912/3018 01007KT 7000 SCT030 TNM01/2921Z TX07/3006Z \n BECMG 2917/2918 07007KT \n BECMG 2923/2924 33008KT"
"taf	RKSI	2018-11-29 18:00:00	TAF RKSI 291700Z 2918/3024 07006KT 7000 FEW030 TNM01/2921Z TX07/3006Z TN01/3021Z \n BECMG 3005/3006 26007KT \n BECMG 3017/3018 12007KT"
"taf	RKSI	2018-11-30 00:00:00	TAF RKSI 302300Z 0100/0206 15007KT 7000 FEW030 TX10/0106Z TN02/0121Z TX12/0205Z \n BECMG 0108/0109 03006KT \n BECMG 0116/0117 15007KT BKN030 OVC180"
"taf	RKSI	2018-11-30 06:00:00	TAF RKSI 300500Z 3006/0112 32006KT CAVOK TN04/3021Z TX10/0106Z \n BECMG 3014/3015 15006KT \n TEMPO 3019/3021 35007KT 9999 BKN030 \n BECMG 3022/3023 02006KT \n BECMG 0105/0106 08006KT"
"taf	RKSI	2018-11-30 12:00:00	TAF RKSI 301100Z 3012/0118 29006KT CAVOK TN03/3021Z TX10/0106Z \n BECMG 3019/3020 05010KT 9999 BKN030 \n BECMG 3021/3022 11006KT SCT030 \n BECMG 0102/0103 33006KT \n BECMG 0111/0112 07006KT"
"taf	RKSI	2018-11-30 18:00:00	TAF RKSI 301700Z 3018/0124 15007KT 7000 SCT030 TN02/3021Z TX10/0106Z TN02/0121Z \n BECMG 0107/0108 03006KT \n BECMG 0114/0115 15007KT BKN030"
"taf	RKSI	2018-12-01 00:00:00	TAF RKSI 012300Z 0200/0306 11010KT 7000 SCT030 BKN110 TX13/0206Z TN10/0221Z TX15/0306Z \n BECMG 0211/0212 -RA FEW010 BKN030 OVC080 \n BECMG 0214/0215 08010KT 3500 \n BECMG 0220/0221 12010KT 2800 \n BECMG 0223/0224 18010KT 4200 BR \n TEMPO 0301/0303 21010KT 2800 -RA"
"taf	RKSI	2018-12-01 06:00:00	TAF RKSI 010500Z 0106/0212 05007KT 7000 FEW030 TN06/0121Z TX16/0205Z \n BECMG 0116/0117 11010KT \n TEMPO 0203/0211 BKN030 BKN120"
"taf	RKSI	2018-12-01 12:00:00	TAF RKSI 011100Z 0112/0218 05007KT 7000 FEW030 TN06/0121Z TX16/0205Z \n BECMG 0116/0117 11010KT \n TEMPO 0203/0211 BKN030 BKN120 \n BECMG 0212/0213 3500 -RA FEW010 BKN025 OVC080 \n TEMPO 0217/0218 2500"
"taf	RKSI	2018-12-01 18:00:00	TAF RKSI 011700Z 0118/0224 06008KT CAVOK TN03/0121Z TX13/0206Z TN11/0221Z \n BECMG 0201/0202 12010KT \n BECMG 0211/0212 4200 -RA FEW010 BKN030 OVC080 \n BECMG 0214/0215 06010KT \n BECMG 0217/0218 09010KT 2800 \n BECMG 0222/0223 15010KT"
"taf	RKSI	2018-12-02 00:00:00	TAF RKSI 022300Z 0300/0406 11010KT 6000 FEW010 BKN030 OVC100 TX15/0306Z TN07/0321Z TX09/0406Z \n BECMG 0302/0303 34010KT \n BECMG 0314/0315 SCT030 BKN150 \n BECMG 0321/0322 33015G25KT"
"taf	RKSI	2018-12-02 06:00:00	TAF RKSI 020500Z 0206/0312 11010KT 7000 SCT030 BKN120 TN10/0221Z TX15/0306Z \n BECMG 0212/0213 08010KT 3500 -RA FEW010 BKN025 OVC080 \n BECMG 0215/0216 12010KT 2800 \n TEMPO 0219/0222 18010KT \n BECMG 0301/0302 21010KT 4200 \n BECMG 0307/0308 33010KT BR"
"taf	RKSI	2018-12-02 12:00:00	TAF RKSI 021100Z 0212/0318 12008KT 7000 SCT030 BKN110 TN10/0221Z TX15/0306Z \n BECMG 0214/0215 -RA FEW010 BKN025 OVC080 \n BECMG 0216/0217 08010KT 3500 \n TEMPO 0303/0305 36008KT BR \n BECMG 0307/0308 33010KT BR \n BECMG 0314/0315 2500"
"taf	RKSI	2018-12-02 18:00:00	TAF RKSI 021700Z 0218/0324 11008KT 7000 FEW010 BKN030 OVC110 TN11/0221Z TX16/0306Z TN06/0321Z \n TEMPO 0220/0223 -RA \n BECMG 0305/0306 19008KT 4200 -RA \n BECMG 0307/0308 27008KT 6000 NSW \n BECMG 0311/0312 33010KT SCT030 BKN150 \n BECMG 0320/0321 35015G25KT"
"taf	RKSI	2018-12-03 00:00:00	TAF RKSI 032300Z 0400/0506 33013KT 6000 FEW030 BKN150 TX08/0403Z TNM03/0421Z TX03/0505Z \n BECMG 0403/0404 33017G30KT CAVOK \n BECMG 0422/0423 34010KT"
"taf	RKSI	2018-12-03 06:00:00	TAF \n AMD RKSI 030600Z 0306/0412 28008KT 3500 BR FEW005 BKN025 OVC080 TN07/0321Z TX09/0406Z \n BECMG 0309/0310 34010KT 6000 NSW \n BECMG 0321/0322 32015G25KT 3500 -RA \n BECMG 0401/0402 6000 NSW FEW030 BKN150"
"taf	RKSI	2018-12-03 06:03:00	TAF \n AMD TAF \n AMD RKSI 030600Z 0306/0412 28008KT 3500 BR FEW005 BKN025 OVC080 TN07/0321Z TX09/0406Z \n BECMG 0309/0310 34010KT 6000 NSW \n BECMG 0321/0322 32015G25KT 3500 -RA \n BECMG 0401/0402 6000 NSW FEW030 BKN150"
"taf	RKSI	2018-12-03 09:15:00	TAF \n AMD RKSI 030915Z 0309/0412 28008KT 1800 BR FEW005 BKN025 OVC080 TN07/0321Z TX09/0406Z \n TEMPO 0309/0312 0800 FG \n BECMG 0314/0315 34010KT 6000 NSW \n BECMG 0321/0322 32015G25KT 3500 -RA \n BECMG 0401/0402 6000 NSW FEW030 BKN150"
"taf	RKSI	2018-12-03 09:21:00	TAF \n AMD RKSI 030915Z 0309/0412 28008KT 1800 BR FEW005 BKN025 OVC080 TN07/0321Z TX09/0406Z \n TEMPO 0309/0312 0800 FG \n BECMG 0312/0313 34010KT 6000 NSW \n BECMG 0321/0322 32015G25KT 3500 -RA \n BECMG 0401/0402 6000 NSW FEW030 BKN150"
"taf	RKSI	2018-12-03 12:00:00	TAF RKSI 031100Z 0312/0418 33007KT 3500 BR FEW010 BKN025 OVC080 TN07/0321Z TX09/0406Z \n TEMPO 0312/0319 2200 \n BECMG 0320/0321 33015G25KT 2800 -RA \n TEMPO 0322/0324 32012KT 4200 \n BECMG 0401/0402 6000 NSW FEW030 BKN150"
"taf	RKSI	2018-12-03 18:00:00	TAF RKSI 031700Z 0318/0424 36006KT 4200 BR FEW008 BKN025 OVC080 TN07/0321Z TX08/0403Z TNM03/0421Z \n BECMG 0319/0320 33013KT 2800 -RA \n BECMG 0401/0402 6000 NSW FEW030 BKN150 \n BECMG 0406/0407 33017G30KT CAVOK \n BECMG 0422/0423 34010KT"
"taf	RKSI	2018-12-04 00:00:00	TAF RKSI 042300Z 0500/0606 34010KT 9999 FEW030 BKN120 TX02/0505Z TNM01/0521Z TX06/0605Z \n TEMPO 0520/0523 BKN030 BKN100 \n BECMG 0600/0601 05006KT \n BECMG 0602/0603 33010KT"
"taf	RKSI	2018-12-04 06:00:00	TAF RKSI 040500Z 0406/0512 33017G35KT 9999 SCT030 TNM04/0421Z TX03/0505Z \n BECMG 0417/0418 34015G25KT CAVOK \n BECMG 0423/0424 34010KT"
"taf	RKSI	2018-12-04 12:00:00	TAF RKSI 041100Z 0412/0518 32017G35KT CAVOK TNM04/0421Z TX03/0505Z \n BECMG 0417/0418 34015G25KT \n BECMG 0500/0501 34010KT \n BECMG 0517/0518 9999 FEW030 BKN100"
"taf	RKSI	2018-12-04 18:00:00	TAF RKSI 041700Z 0418/0524 34010KT CAVOK TNM04/0421Z TX02/0505Z TNM01/0521Z \n BECMG 0517/0518 9999 FEW030 BKN120 \n TEMPO 0520/0523 BKN030 BKN100"
"taf	RKSI	2018-12-05 00:00:00	TAF RKSI 052300Z 0600/0706 34008KT CAVOK TX06/0605Z TNM08/0622Z TXM04/0705Z \n TEMPO 0600/0601 07006KT \n BECMG 0606/0607 33015G25KT \n TEMPO 0609/0611 4200 -SNRA FEW010 BKN030 \n BECMG 0612/0613 33018G35KT 9999 SCT030 \n BECMG 0705/0706 BKN030"
"taf	RKSI	2018-12-05 06:00:00	TAF RKSI 050500Z 0506/0612 36010KT 7000 FEW030 BKN180 TNM00/0521Z TX06/0605Z \n TEMPO 0520/0523 BKN030 \n BECMG 0601/0602 33015G25KT \n TEMPO 0607/0608 BKN030"
"taf	RKSI	2018-12-05 12:00:00	TAF RKSI 051100Z 0512/0618 01010KT 7000 FEW030 SCT180 TNM00/0521Z TX06/0605Z \n TEMPO 0520/0523 BKN030 \n BECMG 0605/0606 33015G25KT BKN030"
"taf	RKSI	2018-12-05 18:00:00	TAF RKSI 051700Z 0518/0624 01010KT 9999 FEW030 SCT180 TNM00/0521Z TX06/0605Z TNM08/0622Z \n BECMG 0520/0521 BKN030 \n BECMG 0522/0523 31007KT SCT030 \n BECMG 0605/0606 33015G25KT \n BECMG 0610/0611 4200 -SN FEW010 BKN030 \n BECMG 0612/0613 33018G35KT 7000 NSW FEW030 SCT180"
"taf	RKSI	2018-12-06 00:00:00	TAF RKSI 062300Z 0700/0806 33015G25KT 9999 SCT030 TXM04/0706Z TNM09/0722Z TXM04/0805Z \n BECMG 0704/0705 BKN030 \n BECMG 0712/0713 34012KT \n TEMPO 0714/0716 -SN \n BECMG 0719/0720 SCT030 \n TEMPO 0802/0804 BKN040"
"taf	RKSI	2018-12-06 06:00:00	TAF RKSI 060500Z 0606/0712 33015G25KT CAVOK TNM08/0622Z TXM04/0706Z \n TEMPO 0610/0611 4200 -SNRA FEW010 BKN025 \n BECMG 0613/0614 33018G35KT 9999 SCT030 \n BECMG 0704/0705 BKN030 \n BECMG 0710/0711 33015G25KT"
"taf	RKSI	2018-12-06 12:00:00	TAF RKSI 061100Z 0612/0718 33015G25KT 7000 SCT030 TNM06/0622Z TXM02/0706Z \n BECMG 0613/0614 33018G35KT \n BECMG 0704/0705 BKN030 \n BECMG 0710/0711 33015G25KT"
"taf	RKSI	2018-12-06 18:00:00	TAF RKSI 061700Z 0618/0724 33018G35KT 9999 SCT030 TNM07/0622Z TXM02/0706Z TNM09/0722Z \n BECMG 0704/0705 BKN030 \n BECMG 0710/0711 33015G25KT \n BECMG 0716/0717 SCT030 \n BECMG 0722/0723 05007KT"
"taf	RKSI	2018-12-07 00:00:00	TAF RKSI 072300Z 0800/0906 36012KT 9999 FEW030 TXM03/0806Z TNM09/0821Z TXM00/0905Z \n BECMG 0806/0807 33015G25KT \n BECMG 0813/0814 36012KT"
"taf	RKSI	2018-12-07 06:00:00	TAF RKSI 070500Z 0706/0812 34016G28KT 9999 SCT030 TNM09/0721Z TXM03/0806Z \n BECMG 0709/0710 BKN030 \n BECMG 0711/0712 34012KT \n TEMPO 0713/0715 -SN \n BECMG 0717/0718 SCT030 \n BECMG 0805/0806 34018G30KT BKN030"
"taf	RKSI	2018-12-07 12:00:00	TAF RKSI 071100Z 0712/0818 34016G28KT 9999 SCT030 TNM09/0721Z TXM03/0806Z \n BECMG 0717/0718 34012KT \n BECMG 0808/0809 34018G30KT \n BECMG 0811/0812 34012KT"
"taf	RKSI	2018-12-07 18:00:00	TAF RKSI 071700Z 0718/0824 01010KT 9999 FEW030 TNM10/0721Z TXM03/0806Z TNM09/0821Z \n BECMG 0804/0805 33015G25KT \n BECMG 0813/0814 36010KT"
"taf	RKSI	2018-12-08 00:00:00	TAF RKSI 082300Z 0900/1006 35010KT 9999 FEW030 TXM01/0905Z TNM05/0921Z TX03/1005Z \n BECMG 0915/0916 06008KT"
"taf	RKSI	2018-12-08 06:00:00	TAF RKSI 080500Z 0806/0912 33012KT 9999 FEW030 TNM09/0821Z TXM01/0906Z \n BECMG 0808/0809 33017G28KT \n BECMG 0811/0812 34012KT \n BECMG 0814/0815 04008KT \n BECMG 0900/0901 34010KT"
"taf	RKSI	2018-12-08 12:00:00	TAF RKSI 081100Z 0812/0918 36012KT 9999 SCT030 TNM09/0821Z TXM01/0906Z \n BECMG 0915/0916 06008KT"
"taf	RKSI	2018-12-08 18:00:00	TAF RKSI 081700Z 0818/0924 36012KT 9999 FEW030 TNM09/0821Z TXM01/0905Z TNM05/0921Z \n BECMG 0915/0916 06008KT"
"taf	RKSI	2018-12-09 06:00:00	TAF RKSI 090500Z 0906/1012 35006KT 9999 FEW030 BKN150 TNM07/0921Z TX03/1005Z \n BECMG 0917/0918 07008KT"
"taf	RKSI	2018-12-09 12:00:00	TAF RKSI 091100Z 0912/1018 35006KT 9999 SCT030 BKN150 TNM07/0921Z TX03/1005Z \n BECMG 0916/0917 07006KT \n TEMPO 1006/1012 36007KT"
"taf	RKSI	2018-12-09 18:00:00	TAF RKSI 091700Z 0918/1024 03008KT CAVOK TNM06/0921Z TX04/1006Z TNM02/1021Z \n TEMPO 1005/1011 33010KT"
"taf	RKSI	2018-12-10 00:00:00	TAF RKSI 102300Z 1100/1206 06010KT 7000 FEW030 BKN100 TX04/1106Z TNM04/1121Z TX02/1206Z \n BECMG 1102/1103 36012KT \n BECMG 1110/1111 SCT030 \n TEMPO 1112/1116 34015G25KT \n TEMPO 1118/1121 34018G30KT"
"taf	RKSI	2018-12-10 06:00:00	TAF RKSI 100500Z 1006/1112 05008KT CAVOK TNM02/1021Z TX03/1105Z \n TEMPO 1006/1008 35010KT \n TEMPO 1111/1112 33010KT 7000 BKN025 BKN120"
"taf	RKSI	2018-12-10 12:00:00	TAF RKSI 101100Z 1012/1118 05007KT 9999 SCT025 BKN150 TNM02/1021Z TX03/1105Z \n BECMG 1112/1113 33010KT 6000 \n TEMPO 1113/1116 BKN025 BKN120"
"taf	RKSI	2018-12-10 18:00:00	TAF RKSI 101700Z 1018/1124 04007KT CAVOK TNM02/1021Z TX04/1106Z TNM04/1121Z \n BECMG 1108/1109 34012KT \n TEMPO 1112/1116 34015G25KT 6000 BKN030 BKN150 \n TEMPO 1118/1121 34018G30KT"
"taf	RKSI	2018-12-11 06:00:00	TAF RKSI 110500Z 1106/1212 35008KT 9999 FEW030 BKN120 TNM04/1121Z TX01/1206Z \n BECMG 1114/1115 34015G25KT CAVOK \n BECMG 1206/1207 33010KT"
"taf	RKSI	2018-12-11 12:00:00	TAF RKSI 111100Z 1112/1218 34010KT 9999 SCT030 BKN080 TNM04/1121Z TX02/1206Z \n BECMG 1114/1115 34015G25KT CAVOK \n BECMG 1207/1208 33010KT \n BECMG 1217/1218 17005KT 4200 -SN FEW010 BKN030 OVC100"
"taf	RKSI	2018-12-11 18:00:00	TAF RKSI 111700Z 1118/1224 34013KT CAVOK TNM04/1121Z TX02/1206Z TNM03/1216Z \n BECMG 1217/1218 17005KT 3500 -SN FEW010 BKN030 OVC100 \n BECMG 1222/1223 29013KT -SNRA"
"taf	RKSI	2018-12-12 00:00:00	TAF RKSI 122300Z 1300/1406 29007KT 3500 -SN FEW010 BKN030 OVC080 TX04/1305Z TNM07/1321Z TX00/1405Z \n BECMG 1302/1303 33017G30KT 7000 NSW SCT030 BKN120 \n BECMG 1315/1316 34010KT"
"taf	RKSI	2018-12-12 06:00:00	TAF RKSI 120500Z 1206/1312 33012KT CAVOK TNM02/1216Z TX04/1305Z \n BECMG 1216/1217 25005KT 2800 -SN FEW010 BKN030 OVC080 \n TEMPO 1218/1220 30007KT 1200 \n BECMG 1221/1222 29013KT 3500 -SNRA \n BECMG 1301/1302 33017G30KT 7000 NSW \n BECMG 1303/1304 SCT030 BKN120"
"taf	RKSI	2018-12-12 12:00:00	TAF RKSI 121100Z 1212/1318 32008KT CAVOK TNM02/1216Z TX04/1305Z \n BECMG 1217/1218 29006KT 3500 -SN FEW010 BKN030 OVC080 \n TEMPO 1219/1221 1800 \n BECMG 1222/1223 30015G25KT -SNRA \n BECMG 1302/1303 33017G30KT 7000 NSW SCT030 BKN120 \n BECMG 1315/1316 34013KT"
"taf	RKSI	2018-12-12 18:00:00	TAF RKSI 121700Z 1218/1324 29007KT 3500 -SN FEW010 BKN030 OVC080 TNM01/1218Z TX04/1305Z TNM07/1321Z \n TEMPO 1218/1220 1800 \n BECMG 1222/1223 30015G25KT -SNRA \n BECMG 1302/1303 33017G30KT 7000 NSW SCT030 BKN120 \n BECMG 1315/1316 34010KT"
"taf	RKSI	2018-12-12 19:48:00	TAF \n AMD TAF \n AMD RKSI 121850Z 1219/1324 29007KT 2300 -SN FEW010 BKN030 OVC080 TNM01/1218Z TX04/1305Z TNM07/1321Z \n TEMPO 1219/1302 30015G25KT 1400 SN \n BECMG 1302/1303 33017G30KT 7000 NSW SCT030 BKN120 \n BECMG 1315/1316 34010KT"
"taf	RKSI	2018-12-12 19:50:00	TAF \n AMD RKSI 121850Z 1219/1324 29007KT 2300 -SN FEW010 BKN030 OVC080 TNM01/1218Z TX04/1305Z TNM07/1321Z \n TEMPO 1219/1302 30015G25KT 1400 SN \n BECMG 1302/1303 33017G30KT 7000 NSW SCT030 BKN120 \n BECMG 1315/1316 34010KT"
"taf	RKSI	2018-12-13 06:00:00	TAF RKSI 130500Z 1306/1412 33015G25KT 9999 FEW030 TNM07/1321Z TX00/1406Z \n BECMG 1314/1315 34010KT"
"taf	RKSI	2018-12-13 12:00:00	TAF RKSI 131100Z 1312/1418 33015G25KT 9999 FEW030 TNM07/1321Z TX00/1406Z \n BECMG 1314/1315 34008KT"
"taf	RKSI	2018-12-13 18:00:00	TAF RKSI 131700Z 1318/1424 03006KT CAVOK TNM07/1321Z TX00/1406Z TNM06/1422Z \n BECMG 1400/1401 33010KT \n BECMG 1414/1415 04006KT"
"taf	RKSI	2018-12-14 00:00:00	TAF RKSI 142300Z 1500/1606 06006KT CAVOK TX02/1506Z TNM01/1522Z TX05/1605Z \n BECMG 1512/1513 12006KT 6000 SCT030 BKN120 \n BECMG 1520/1521 18010KT FEW010 BKN025 OVC080 \n BECMG 1523/1524 18015G25KT 2800 -SNRA \n BECMG 1603/1604 3500 -RA \n BECMG 1605/1606 21012KT 6000 NSW SCT030 BKN110"
"taf	RKSI	2018-12-14 06:00:00	TAF RKSI 140500Z 1406/1512 34010KT 9999 FEW030 TNM06/1422Z TX03/1505Z \n BECMG 1417/1418 04006KT \n BECMG 1505/1506 24006KT"
"taf	RKSI	2018-12-14 12:00:00	TAF RKSI 141100Z 1412/1518 34007KT 9999 FEW030 TNM06/1421Z TX03/1506Z \n BECMG 1505/1506 07007KT"
"taf	RKSI	2018-12-14 18:00:00	TAF RKSI 141700Z 1418/1524 05006KT CAVOK TNM06/1421Z TX03/1506Z TNM00/1522Z \n BECMG 1503/1504 19005KT \n BECMG 1508/1509 30005KT \n BECMG 1512/1513 11006KT 6000 SCT030 \n BECMG 1520/1521 17010KT FEW010 BKN025 OVC080 \n BECMG 1523/1524 17015G25KT 4200 -SNRA"
"taf	RKSI	2018-12-15 00:00:00	TAF RKSI 152300Z 1600/1706 16008KT 7000 -SNRA FEW010 BKN030 OVC100 TX07/1605Z TNM00/1621Z TX05/1705Z \n BECMG 1601/1602 -RA \n BECMG 1603/1604 21008KT NSW SCT030 BKN120 \n BECMG 1607/1608 28010KT \n BECMG 1616/1617 30015G25KT"
"taf	RKSI	2018-12-15 00:56:00	TAF \n AMD RKSI 152356Z 1600/1706 16008KT 1500 -SN FEW010 BKN030 OVC100 TX07/1605Z TNM00/1621Z TX05/1705Z \n BECMG 1601/1602 -SNRA \n BECMG 1603/1604 21008KT 3500 BR SCT030 BKN120 \n BECMG 1607/1608 28010KT 6000 NSW \n BECMG 1616/1617 30015G25KT"
"taf	RKSI	2018-12-15 06:00:00	TAF RKSI 150500Z 1506/1612 35006KT 9999 FEW030 BKN180 TNM00/1521Z TX08/1606Z \n BECMG 1508/1509 09006KT \n BECMG 1518/1519 20010KT FEW010 BKN030 OVC080 \n BECMG 1600/1601 17010KT 2800 -SNRA \n BECMG 1602/1603 3500 -RA \n BECMG 1606/1607 33010KT 6000 NSW SCT030"
"taf	RKSI	2018-12-15 12:00:00	TAF RKSI 151100Z 1512/1618 04006KT 9999 FEW030 BKN150 TNM01/1521Z TX07/1606Z \n BECMG 1518/1519 20010KT FEW010 BKN030 OVC080 \n BECMG 1600/1601 17010KT 2800 -SN \n BECMG 1603/1604 20010KT 3500 -RA \n BECMG 1606/1607 33010KT 6000 NSW SCT030 \n BECMG 1611/1612 34015G25KT"
"taf	RKSI	2018-12-15 18:00:00	TAF RKSI 151700Z 1518/1624 16008KT 9999 SCT030 OVC120 TNM02/1521Z TX07/1605Z TNM00/1621Z \n BECMG 1523/1524 3500 -SNRA BKN030 OVC120 \n BECMG 1602/1603 23010KT 7000 -RA \n BECMG 1605/1606 30010KT NSW SCT030 \n BECMG 1615/1616 33015G25KT"
"taf	RKSI	2018-12-16 00:00:00	TAF \n AMD TAF \n AMD RKSI 152356Z 1600/1706 16008KT 1500 -SN FEW010 BKN030 OVC100 TX07/1605Z TNM00/1621Z TX05/1705Z \n BECMG 1601/1602 -SNRA \n BECMG 1603/1604 21008KT 3500 BR SCT030 BKN120 \n BECMG 1607/1608 28010KT 6000 NSW \n BECMG 1616/1617 30015G25KT"
"taf	RKSI	2018-12-16 06:00:00	TAF RKSI 160500Z 1606/1712 18010KT 7000 FEW010 BKN030 OVC100 TNM01/1621Z TX06/1706Z \n BECMG 1608/1609 24010KT SCT030 BKN150 \n BECMG 1610/1611 30012KT \n BECMG 1617/1618 33015G25KT \n BECMG 1620/1621 35008KT"
"taf	RKSI	2018-12-16 12:00:00	TAF RKSI 161100Z 1612/1718 26010KT 6000 SCT030 TNM01/1621Z TX05/1706Z \n BECMG 1617/1618 32010KT \n BECMG 1620/1621 05008KT \n BECMG 1702/1703 34010KT"
"taf	RKSI	2018-12-16 18:00:00	TAF RKSI 161700Z 1618/1724 33010KT 7000 SCT030 TN00/1621Z TX05/1706Z TN00/1721Z \n BECMG 1622/1623 05007KT \n BECMG 1706/1707 33010KT"
"taf	RKSI	2018-12-16 21:09:00	TAF COR RKSI 162109Z 1621/1724 33010KT 2800 BR SCT030 TN00/1621Z TX05/1706Z TN00/1721Z \n BECMG 1622/1623 05007KT 7000 NSW \n BECMG 1706/1707 33010KT"
"taf	RKSI	2018-12-16 21:12:00	TAF \n AMD TAF \n AMD RKSI 162109Z 1621/1724 33010KT 2800 BR SCT030 TN00/1621Z TX05/1706Z TN00/1721Z \n BECMG 1622/1623 05007KT 7000 \n BECMG 1706/1707 33010KT"
"taf	RKSI	2018-12-16 21:36:00	TAF COR TAF COR RKSI 162109Z 1621/1724 33010KT 2800 BR SCT030 TN00/1621Z TX05/1706Z TN00/1721Z \n BECMG 1622/1623 05007KT 7000 NSW \n BECMG 1706/1707 33010KT"
"taf	RKSI	2018-12-17 00:00:00	TAF RKSI 172300Z 1800/1906 30006KT 7000 FEW030 TX08/1806Z TN00/1821Z TX06/1906Z \n BECMG 1802/1803 24008KT \n BECMG 1811/1812 30010KT \n BECMG 1815/1816 01006KT"
"taf	RKSI	2018-12-17 06:00:00	TAF RKSI 170500Z 1706/1812 33007KT 7000 FEW025 TNM01/1721Z TX08/1805Z \n BECMG 1802/1803 24007KT"
"taf	RKSI	2018-12-17 12:00:00	TAF RKSI 171100Z 1712/1818 33007KT 7000 FEW025 TNM01/1721Z TX08/1805Z \n TEMPO 1720/1721 24006KT BKN030 \n BECMG 1802/1803 24007KT \n BECMG 1816/1817 32010KT"
"taf	RKSI	2018-12-17 18:00:00	TAF RKSI 171700Z 1718/1824 21005KT 6000 NSC TNM03/1721Z TX08/1806Z TN00/1821Z \n BECMG 1721/1722 28006KT \n BECMG 1804/1805 22006KT \n BECMG 1817/1818 34006KT"
"taf	RKSI	2018-12-18 00:00:00	TAF RKSI 182300Z 1900/2006 34006KT 4200 BR FEW030 TX07/1906Z TNM01/1921Z TX08/2006Z \n BECMG 1902/1903 6000 NSW \n BECMG 1914/1915 07005KT \n BECMG 1920/1921 04006KT 4200 BR \n BECMG 1923/1924 35006KT 6000 NSW"
"taf	RKSI	2018-12-18 06:00:00	TAF RKSI 180500Z 1806/1912 24008KT 7000 FEW030 TNM01/1821Z TX07/1906Z \n BECMG 1816/1817 31008KT \n TEMPO 1818/1819 BKN025 \n BECMG 1903/1904 24006KT \n BECMG 1910/1911 13006KT 4200 BR"
"taf	RKSI	2018-12-18 12:00:00	TAF RKSI 181100Z 1812/1918 24008KT 7000 FEW030 TN01/1821Z TX07/1906Z \n BECMG 1816/1817 33008KT \n BECMG 1904/1905 24006KT \n BECMG 1910/1911 05006KT \n BECMG 1916/1917 13006KT 4200 BR"
"taf	RKSI	2018-12-18 18:00:00	TAF RKSI 181700Z 1818/1924 24006KT 6000 SCT030 TN01/1821Z TX07/1906Z TNM01/1921Z \n BECMG 1819/1820 30006KT \n BECMG 1821/1822 07008KT \n BECMG 1905/1906 34008KT \n BECMG 1912/1913 07006KT"
"taf	RKSI	2018-12-19 00:00:00	TAF RKSI 192300Z 2000/2106 06006KT 8000 FEW030 BKN180 TX08/2006Z TN01/2021Z TX09/2105Z \n BECMG 2100/2101 13006KT"
"taf	RKSI	2018-12-19 06:00:00	TAF RKSI 190500Z 1906/2012 30006KT CAVOK TN00/1921Z TX08/2006Z \n BECMG 1911/1912 07005KT \n BECMG 1921/1922 04006KT 4200 BR NSC \n BECMG 1923/1924 07006KT 6000 NSW \n BECMG 2006/2007 01005KT CAVOK \n BECMG 2010/2011 07006KT"
"taf	RKSI	2018-12-19 12:00:00	TAF RKSI 191100Z 1912/2018 06006KT CAVOK TN00/1921Z TX08/2006Z \n BECMG 1921/1922 03005KT 4200 BR NSC \n BECMG 1923/1924 07006KT 6000 NSW \n BECMG 2006/2007 01006KT CAVOK \n BECMG 2011/2012 07006KT"
"taf	RKSI	2018-12-19 18:00:00	TAF RKSI 191700Z 1918/2024 07006KT 8000 FEW030 BKN180 TN00/1921Z TX08/2006Z TN01/2021Z \n TEMPO 2004/2008 30005KT"
"taf	RKSI	2018-12-20 00:00:00	TAF RKSI 202300Z 2100/2206 12006KT 7000 NSC TX08/2105Z TN00/2121Z TX06/2205Z \n TEMPO 2110/2111 4200 BR \n BECMG 2112/2113 03007KT 3500 BR BKN030 BKN180 \n BECMG 2115/2116 FEW030 BKN180 \n TEMPO 2200/2202 6000 NSW \n BECMG 2203/2204 33006KT 7000 NSW"
"taf	RKSI	2018-12-20 06:00:00	TAF RKSI 200500Z 2006/2112 05006KT CAVOK TN01/2021Z TX08/2105Z \n BECMG 2023/2024 13006KT \n BECMG 2105/2106 35005KT \n BECMG 2111/2112 9999 BKN030"
"taf	RKSI	2018-12-20 12:00:00	TAF RKSI 201100Z 2012/2118 04005KT CAVOK TN00/2021Z TX08/2105Z \n BECMG 2023/2024 13006KT \n BECMG 2106/2107 35005KT \n BECMG 2112/2113 6000 BKN030 BKN180 \n BECMG 2117/2118 FEW030 BKN180"
"taf	RKSI	2018-12-20 18:00:00	TAF RKSI 201700Z 2018/2124 04005KT 7000 NSC TN00/2021Z TX08/2105Z TN00/2121Z \n BECMG 2023/2024 12006KT \n TEMPO 2110/2111 4200 BR \n BECMG 2112/2113 03007KT 3500 BR BKN030 BKN180 \n BECMG 2117/2118 FEW030 BKN180 \n TEMPO 2122/2124 6000 NSW"
"taf	RKSI	2018-12-21 00:00:00	TAF RKSI 212300Z 2200/2306 03010KT 7000 NSC TX07/2206Z TN00/2222Z TX05/2305Z \n BECMG 2201/2202 33008KT \n TEMPO 2221/2223 4200 BR \n BECMG 2302/2303 33015G25KT"
"taf	RKSI	2018-12-21 06:00:00	TAF RKSI 210500Z 2106/2212 13007KT 7000 FEW030 BKN180 TN01/2121Z TX04/2206Z \n BECMG 2112/2113 05007KT BKN030 \n BECMG 2117/2118 SCT030 \n BECMG 2202/2203 33010KT"
"taf	RKSI	2018-12-21 06:30:00	TAF RKSI 210500Z 2106/2212 13007KT 7000 FEW030 BKN180 TN01/2121Z TX04/2206Z \n BECMG 2112/2113 05007KT BKN030 \n BECMG 2117/2118 SCT030 \n BECMG 2202/2203 33010KT"
"taf	RKSI	2018-12-21 12:00:00	TAF RKSI 211100Z 2112/2218 35007KT 7000 BKN030 TN01/2121Z TX04/2206Z \n BECMG 2117/2118 4200 BR SCT030 \n BECMG 2122/2123 7000 NSW"
"taf	RKSI	2018-12-21 18:00:00	TAF RKSI 211700Z 2118/2224 06006KT 6000 BKN030 TN02/2121Z TX07/2206Z TN00/2222Z \n BECMG 2121/2122 SCT030 BKN120 \n BECMG 2202/2203 15006KT \n BECMG 2206/2207 34008KT"
"taf	RKSI	2018-12-22 00:00:00	TAF RKSI 222300Z 2300/2406 33012KT CAVOK TX06/2306Z TNM06/2322Z TX01/2405Z \n BECMG 2302/2303 33015G25KT \n BECMG 2314/2315 32010KT"
"taf	RKSI	2018-12-22 06:00:00	TAF RKSI 220500Z 2206/2312 32008KT 7000 NSC TN01/2221Z TX05/2306Z \n BECMG 2303/2304 31015G25KT"
"taf	RKSI	2018-12-22 12:00:00	TAF RKSI 221100Z 2212/2318 32008KT 7000 NSC TN01/2221Z TX05/2306Z \n BECMG 2303/2304 31015G25KT FEW030"
"taf	RKSI	2018-12-22 18:00:00	TAF RKSI 221700Z 2218/2324 34008KT 6000 NSC TN02/2221Z TX05/2306Z TNM06/2322Z \n BECMG 2303/2304 32015G25KT CAVOK \n BECMG 2313/2314 34010KT"
"taf	RKSI	2018-12-23 00:00:00	TAF RKSI 232300Z 2400/2506 35010KT 9999 FEW030 TX02/2406Z TNM01/2421Z TX06/2505Z \n BECMG 2408/2409 25007KT \n BECMG 2418/2419 BKN030"
"taf	RKSI	2018-12-23 06:00:00	TAF RKSI 230500Z 2306/2412 33015G25KT CAVOK TNM07/2321Z TX01/2406Z \n BECMG 2314/2315 32010KT \n BECMG 2405/2406 26008KT"
"taf	RKSI	2018-12-23 12:00:00	TAF RKSI 231100Z 2312/2418 32015G25KT CAVOK TNM07/2321Z TX02/2406Z \n BECMG 2405/2406 26006KT \n BECMG 2414/2415 9999 BKN030"
"taf	RKSI	2018-12-23 18:00:00	TAF RKSI 231700Z 2318/2424 34010KT 9999 FEW030 TNM07/2321Z TX02/2406Z TNM01/2421Z \n BECMG 2408/2409 24007KT"
"taf	RKSI	2018-12-24 00:00:00	TAF RKSI 242300Z 2500/2606 15010KT 9999 SCT030 TX07/2506Z TNM04/2521Z TXM01/2605Z \n BECMG 2508/2509 33010KT \n BECMG 2520/2521 33015G25KT"
"taf	RKSI	2018-12-24 06:00:00	TAF RKSI 240500Z 2406/2512 32006KT CAVOK TNM02/2421Z TX07/2506Z \n BECMG 2414/2415 16008KT \n BECMG 2417/2418 9999 BKN030 \n BECMG 2508/2509 34008KT SCT030"
"taf	RKSI	2018-12-24 12:00:00	TAF RKSI 241100Z 2412/2518 25005KT CAVOK TNM02/2421Z TX07/2506Z \n BECMG 2417/2418 15006KT 9999 BKN030 \n BECMG 2508/2509 34012KT SCT030"
"taf	RKSI	2018-12-24 18:00:00	TAF RKSI 241700Z 2418/2524 15008KT 9999 SCT030 TNM03/2421Z TX07/2506Z TNM04/2521Z \n BECMG 2508/2509 33010KT \n BECMG 2520/2521 33015G25KT"
"taf	RKSI	2018-12-25 04:25:00	TAF \n AMD RKSI 250425Z 2504/2606 15010KT 9999 SCT030 BKN180 TX07/2506Z TNM04/2521Z TXM01/2605Z \n TEMPO 2504/2509 6000 -SHSN BKN025 BKN180 \n BECMG 2511/2512 33010KT"
"taf	RKSI	2018-12-25 04:30:00	TAF \n AMD TAF \n AMD RKSI 250425Z 2504/2606 15010KT 9999 SCT030 BKN180 TX07/2506Z TNM04/2521Z TXM01/2605Z \n TEMPO 2504/2509 6000 -SHSN BKN025 BKN180 \n BECMG 2511/2512 33010KT"
"taf	RKSI	2018-12-25 06:00:00	TAF RKSI 250500Z 2506/2612 26010KT 9999 SCT030 BKN180 TNM05/2521Z TXM01/2605Z \n TEMPO 2506/2509 23010KT -SHSN BKN025 BKN180 \n BECMG 2515/2516 33017G30KT"
"taf	RKSI	2018-12-25 12:00:00	TAF RKSI 251100Z 2512/2618 26010KT 7000 SCT030 BKN180 TNM05/2521Z TXM01/2605Z \n TEMPO 2513/2515 BKN025 BKN180 \n BECMG 2515/2516 33017G30KT NSC"
"taf	RKSI	2018-12-25 15:51:00	TAF COR RKSI 251451Z 2515/2618 18005KT 7000 SCT030 BKN180 TNM05/2521Z TXM01/2605Z \n TEMPO 2515/2516 -RA BKN025 BKN180 \n BECMG 2517/2518 33017G30KT NSC"
"taf	RKSI	2018-12-25 15:54:00	TAF COR TAF COR RKSI 251451Z 2515/2618 18005KT 7000 SCT030 BKN180 TNM05/2521Z TXM01/2605Z \n TEMPO 2515/2516 -RA BKN025 BKN180 \n BECMG 2517/2518 33017G30KT NSC"
"taf	RKSI	2018-12-25 18:00:00	TAF RKSI 251700Z 2518/2624 34012KT 7000 FEW035 TNM05/2521Z TXM01/2606Z TNM12/2621Z \n BECMG 2522/2523 34017G27KT \n BECMG 2611/2612 34022G37KT"
"taf	RKSI	2018-12-26 00:00:00	TAF RKSI 262300Z 2700/2806 34020G30KT CAVOK TXM07/2706Z TNM13/2721Z TXM04/2806Z"
"taf	RKSI	2018-12-26 06:00:00	TAF RKSI 260500Z 2606/2712 34014KT CAVOK TNM09/2621Z TXM05/2706Z \n BECMG 2614/2615 34018G30KT"
"taf	RKSI	2018-12-26 12:00:00	TAF RKSI 261100Z 2612/2718 34014KT CAVOK TNM09/2621Z TXM05/2706Z \n BECMG 2614/2615 34017G30KT 7000 SCT030"
"taf	RKSI	2018-12-26 13:04:00	TAF \n AMD RKSI 261304Z 2613/2718 34015G25KT CAVOK TNM09/2621Z TXM05/2706Z \n BECMG 2614/2615 34020G35KT 7000 SCT030 \n BECMG 2622/2623 34015G25KT"
"taf	RKSI	2018-12-26 13:06:00	TAF \n AMD TAF \n AMD RKSI 261304Z 2613/2718 34015G25KT CAVOK TNM09/2621Z TXM05/2706Z \n BECMG 2614/2615 34020G35KT 7000 SCT030 \n BECMG 2622/2623 34015G25KT"
"taf	RKSI	2018-12-26 18:00:00	TAF RKSI 261700Z 2618/2724 33022G35KT CAVOK TNM12/2621Z TXM08/2706Z TNM13/2721Z"
"taf	RKSI	2018-12-27 00:00:00	TAF RKSI 272300Z 2800/2906 33012KT 9999 FEW030 TXM04/2806Z TNM10/2821Z TXM03/2905Z \n BECMG 2814/2815 34015G25KT \n BECMG 2819/2820 33013KT"
"taf	RKSI	2018-12-27 06:00:00	TAF RKSI 270500Z 2706/2812 33017G30KT CAVOK TNM12/2721Z TXM04/2806Z \n TEMPO 2706/2709 33015KT \n TEMPO 2719/2723 33013KT \n BECMG 2806/2807 33012KT \n BECMG 2811/2812 33015G25KT"
"taf	RKSI	2018-12-27 12:00:00	TAF RKSI 271100Z 2712/2818 33015G25KT 9999 FEW030 TNM12/2721Z TXM04/2806Z \n BECMG 2718/2719 33013KT CAVOK \n BECMG 2814/2815 33015G25KT"
"taf	RKSI	2018-12-27 18:00:00	TAF RKSI 271700Z 2718/2824 33013KT 9999 FEW030 TNM12/2721Z TXM04/2806Z TNM10/2821Z \n BECMG 2814/2815 34015G25KT \n BECMG 2819/2820 33013KT"
"taf	RKSI	2018-12-28 00:00:00	TAF RKSI 282300Z 2900/3006 34015G25KT CAVOK TXM03/2905Z TNM09/2921Z TXM03/3005Z \n BECMG 2902/2903 33013KT \n BECMG 3004/3005 27006KT"
"taf	RKSI	2018-12-28 06:00:00	TAF RKSI 280500Z 2806/2912 34010KT CAVOK TNM11/2821Z TXM03/2905Z \n BECMG 2812/2813 33015G25KT \n BECMG 2817/2818 34010KT \n BECMG 2902/2903 33015G25KT"
"taf	RKSI	2018-12-28 12:00:00	TAF RKSI 281100Z 2812/2918 32008KT CAVOK TNM10/2821Z TXM03/2905Z \n BECMG 2902/2903 33015G25KT \n BECMG 2909/2910 33012KT"
"taf	RKSI	2018-12-28 18:00:00	TAF RKSI 281700Z 2818/2924 34015G25KT CAVOK TNM09/2821Z TXM03/2905Z TNM09/2921Z \n BECMG 2902/2903 33010KT"
"taf	RKSI	2018-12-29 00:00:00	TAF RKSI 292300Z 3000/3106 34008KT CAVOK TXM02/3006Z TNM08/3022Z TX00/3106Z \n BECMG 3015/3016 07007KT \n BECMG 3020/3021 33007KT"
"taf	RKSI	2018-12-29 06:00:00	TAF RKSI 290500Z 2906/3012 33015G25KT CAVOK TNM09/2921Z TXM03/3005Z \n BECMG 2922/2923 33013KT"
"taf	RKSI	2018-12-29 12:00:00	TAF RKSI 291100Z 2912/3018 33013KT 9999 FEW030 TNM09/2921Z TXM03/3006Z \n BECMG 3012/3013 03008KT"
"taf	RKSI	2018-12-29 18:00:00	TAF RKSI 291700Z 2918/3024 34010KT CAVOK TNM09/2921Z TXM03/3006Z TNM08/3022Z \n BECMG 3016/3017 07008KT \n BECMG 3019/3020 35007KT"
"taf	RKSI	2018-12-30 00:00:00	TAF RKSI 302300Z 3100/0106 07006KT CAVOK TXM01/3106Z TNM06/3122Z TXM01/0105Z \n BECMG 3102/3103 33008KT \n BECMG 0100/0101 32015G25KT"
"taf	RKSI	2018-12-30 06:00:00	TAF RKSI 300500Z 3006/3112 03007KT 9999 FEW030 TNM08/3021Z TXM01/3106Z \n BECMG 3019/3020 33010KT"
"taf	RKSI	2018-12-30 12:00:00	TAF RKSI 301100Z 3012/3118 03007KT 9999 FEW030 SCT180 TNM08/3021Z TXM01/3106Z \n BECMG 3019/3020 33010KT"
"taf	RKSI	2018-12-30 18:00:00	TAF RKSI 301700Z 3018/3124 04006KT CAVOK TNM08/3021Z TXM01/3106Z TNM06/3122Z \n BECMG 3101/3102 33010KT"
"taf	RKSI	2018-12-31 00:00:00	TAF RKSI 312300Z 0100/0206 03005KT 9999 FEW030 TXM01/0106Z TNM08/0121Z TXM00/0205Z \n BECMG 0102/0103 33010KT \n BECMG 0106/0107 33015G25KT \n BECMG 0117/0118 33013KT"
"taf	RKSI	2018-12-31 06:00:00	TAF RKSI 310500Z 3106/0112 33008KT 9999 FEW030 BKN180 TNM06/3121Z TXM01/0106Z \n BECMG 0102/0103 33015G25KT"
"taf	RKSI	2018-12-31 12:00:00	TAF RKSI 311100Z 3112/0118 33008KT 9999 BKN030 BKN180 TNM06/3121Z TXM01/0106Z \n BECMG 3113/3114 SCT030 \n BECMG 0102/0103 33015G25KT"
"taf	RKSI	2018-12-31 18:00:00	TAF RKSI 311700Z 3118/0124 33008KT 9999 FEW030 TNM06/3121Z TXM01/0106Z TNM08/0121Z \n BECMG 0102/0103 33015G25KT \n BECMG 0117/0118 33010KT"
"taf	RKSI	2019-01-01 00:00:00	TAF RKSI 012300Z 0200/0306 33008KT 9999 FEW030 TXM01/0206Z TNM06/0221Z TX01/0305Z \n BECMG 0202/0203 33015G25KT \n BECMG 0209/0210 33010KT \n BECMG 0215/0216 03006KT"
"taf	RKSI	2019-01-01 06:00:00	TAF RKSI 010500Z 0106/0212 32012KT 9999 SCT030 TNM06/0121Z TXM01/0206Z"
"taf	RKSI	2019-01-01 12:00:00	TAF RKSI 011100Z 0112/0218 33016G26KT 9999 FEW030 TNM07/0121Z TXM01/0206Z \n BECMG 0117/0118 33013KT"
"taf	RKSI	2019-01-01 18:00:00	TAF RKSI 011700Z 0118/0224 03007KT 9999 FEW030 TNM07/0121Z TXM01/0206Z TNM06/0221Z \n BECMG 0202/0203 33010KT \n BECMG 0215/0216 03006KT"
