"taf	RKSI	2019-12-30 00:00:00	TAF RKSI 302300Z 3100/0106 32015G25KT 9999 SCT030 TXM03/3107Z TNM06/3116Z TX03/0105Z \n BECMG 3104/3105 32010KT \n BECMG 3115/3116 17006KT FEW010 BKN025 \n TEMPO 3117/3119 4200 -SHSN \n BECMG 3122/3123 33007KT SCT025"
"taf	RKSI	2019-12-30 00:06:00	TAF RKSI 302300Z 3100/0106 32015G25KT 9999 SCT030 TXM03/3107Z TNM06/3116Z TX03/0105Z \n BECMG 3104/3105 32010KT \n BECMG 3115/3116 17006KT FEW010 BKN025 \n TEMPO 3117/3119 4200 -SHSN \n BECMG 3122/3123 33007KT SCT025"
"taf	RKSI	2019-12-30 03:03:00	TAF \n AMD TAF \n AMD RKSI 300255Z 3003/3106 33010KT 6000 FEW010 BKN020 TX06/3006Z TNM10/3022Z TXM03/3106Z \n TEMPO 3003/3004 4200 -RA \n BECMG 3004/3005 32015G25KT SCT035 \n BECMG 3006/3007 32023G38KT \n BECMG 3021/3022 33012KT"
"taf	RKSI	2019-12-30 03:55:00	TAF \n AMD RKSI 300255Z 3003/3106 33010KT 6000 FEW010 BKN020 TX06/3006Z TNM10/3022Z TXM03/3106Z \n TEMPO 3003/3004 4200 -RA \n BECMG 3004/3005 32015G25KT SCT035 \n BECMG 3006/3007 32023G38KT \n BECMG 3021/3022 33012KT"
"taf	RKSI	2019-12-30 06:00:00	TAF RKSI 300500Z 3006/3112 31013KT 8000 SCT010 BKN025 TNM10/3022Z TXM03/3107Z \n BECMG 3008/3009 31018G28KT SCT030 \n BECMG 3012/3013 31025G38KT \n BECMG 3022/3023 32015G25KT \n BECMG 3109/3110 32010KT"
"taf	RKSI	2019-12-30 06:09:00	TAF RKSI 300500Z 3006/3112 31013KT 8000 SCT010 BKN025 TNM10/3022Z TXM03/3107Z \n BECMG 3008/3009 31018G28KT SCT030 \n BECMG 3012/3013 31025G38KT \n BECMG 3022/3023 32015G25KT \n BECMG 3109/3110 32010KT"
"taf	RKSI	2019-12-30 08:27:00	TAF \n AMD TAF \n AMD RKSI 300830Z 3008/3112 31018G28KT 9999 SCT030 TNM10/3022Z TXM03/3107Z \n BECMG 3010/3011 31025G38KT \n TEMPO 3013/3016 BKN025 \n BECMG 3022/3023 32015G25KT \n BECMG 3109/3110 32010KT"
"taf	RKSI	2019-12-30 08:30:00	TAF \n AMD RKSI 300830Z 3008/3112 31018G28KT 9999 SCT030 TNM10/3022Z TXM03/3107Z \n BECMG 3010/3011 31025G38KT \n TEMPO 3013/3016 BKN025 \n BECMG 3022/3023 32015G25KT \n BECMG 3109/3110 32010KT"
"taf	RKSI	2019-12-30 12:00:00	TAF RKSI 301100Z 3012/3118 31025G38KT 9999 SCT030 TNM10/3022Z TXM03/3107Z \n TEMPO 3013/3016 BKN025 \n BECMG 3022/3023 32015G25KT \n BECMG 3109/3110 32010KT \n BECMG 3114/3115 FEW010 BKN025"
"taf	RKSI	2019-12-30 12:09:00	TAF RKSI 301100Z 3012/3118 31025G38KT 9999 SCT030 TNM10/3022Z TXM03/3107Z \n TEMPO 3013/3016 BKN025 \n BECMG 3022/3023 32015G25KT \n BECMG 3109/3110 32010KT \n BECMG 3114/3115 FEW010 BKN025"
"taf	RKSI	2019-12-30 14:10:00	TAF \n AMD RKSI 301410Z 3014/3118 31025G38KT 9999 SCT030 TNM10/3022Z TXM03/3107Z \n TEMPO 3014/3019 2500 -SHSN FEW010 BKN025 \n BECMG 3022/3023 32015G25KT \n BECMG 3109/3110 32010KT \n BECMG 3114/3115 FEW010 BKN025"
"taf	RKSI	2019-12-30 14:12:00	TAF \n AMD TAF \n AMD RKSI 301410Z 3014/3118 31025G38KT 9999 SCT030 TNM10/3022Z TXM03/3107Z \n TEMPO 3014/3019 2500 -SHSN FEW010 BKN025 \n BECMG 3022/3023 32015G25KT \n BECMG 3109/3110 32010KT \n BECMG 3114/3115 FEW010 BKN025"
"taf	RKSI	2019-12-30 14:35:00	TAF \n AMD RKSI 301335Z 3014/3118 31025G38KT 9999 SCT030 TNM10/3022Z TXM03/3107Z \n TEMPO 3014/3019 -SHSN FEW010 BKN025 \n BECMG 3022/3023 32015G25KT \n BECMG 3109/3110 32010KT \n BECMG 3114/3115 FEW010 BKN025"
"taf	RKSI	2019-12-30 14:36:00	TAF \n AMD TAF \n AMD RKSI 301335Z 3014/3118 31025G38KT 9999 SCT030 TNM10/3022Z TXM03/3107Z \n TEMPO 3014/3019 -SHSN FEW010 BKN025 \n BECMG 3022/3023 32015G25KT \n BECMG 3109/3110 32010KT \n BECMG 3114/3115 FEW010 BKN025"
"taf	RKSI	2019-12-30 17:35:00	TAF \n AMD RKSI 301635Z 3017/3118 31015G25KT 9999 SCT030 TNM10/3022Z TXM03/3107Z \n TEMPO 3017/3018 2500 -SHSN FEW010 BKN025 \n BECMG 3109/3110 32010KT \n BECMG 3114/3115 FEW010 BKN025"
"taf	RKSI	2019-12-30 17:36:00	TAF \n AMD TAF \n AMD RKSI 301635Z 3017/3118 31015G25KT 9999 SCT030 TNM10/3022Z TXM03/3107Z \n TEMPO 3017/3018 2500 -SHSN FEW010 BKN025 \n BECMG 3109/3110 32010KT \n BECMG 3114/3115 FEW010 BKN025"
"taf	RKSI	2019-12-30 18:00:00	TAF RKSI 301700Z 3018/3124 32017G28KT 9999 SCT030 TNM10/3022Z TXM03/3107Z TNM06/3116Z \n BECMG 3104/3105 32010KT \n BECMG 3115/3116 17006KT FEW010 BKN025 \n BECMG 3121/3122 33010KT SCT025"
"taf	RKSI	2019-12-30 18:06:00	TAF RKSI 301700Z 3018/3124 32017G28KT 9999 SCT030 TNM10/3022Z TXM03/3107Z TNM06/3116Z \n BECMG 3104/3105 32010KT \n BECMG 3115/3116 17006KT FEW010 BKN025 \n BECMG 3121/3122 33010KT SCT025"
"taf	RKSI	2019-12-31 00:00:00	TAF RKSI 312300Z 0100/0206 33007KT 9999 FEW010 BKN025 TX02/0105Z TNM03/0121Z TX04/0206Z \n TEMPO 0100/0103 -SN \n BECMG 0104/0105 SCT025 \n BECMG 0112/0113 07005KT \n BECMG 0203/0204 33006KT"
"taf	RKSI	2019-12-31 00:06:00	TAF RKSI 312300Z 0100/0206 33007KT 9999 FEW010 BKN025 TX02/0105Z TNM03/0121Z TX04/0206Z \n TEMPO 0100/0103 -SN \n BECMG 0104/0105 SCT025 \n BECMG 0112/0113 07005KT \n BECMG 0203/0204 33006KT"
"taf	RKSI	2019-12-31 06:00:00	TAF RKSI 310500Z 3106/0112 33015G25KT 9999 FEW030 TNM06/3115Z TX03/0106Z \n BECMG 3107/3108 33010KT \n BECMG 3114/3115 07005KT FEW010 BKN025 \n TEMPO 3117/3120 16005KT 4200 -SN \n BECMG 3122/3123 33007KT SCT030"
"taf	RKSI	2019-12-31 06:06:00	TAF RKSI 310500Z 3106/0112 33015G25KT 9999 FEW030 TNM06/3115Z TX03/0106Z \n BECMG 3107/3108 33010KT \n BECMG 3114/3115 07005KT FEW010 BKN025 \n TEMPO 3117/3120 16005KT 4200 -SN \n BECMG 3122/3123 33007KT SCT030"
"taf	RKSI	2019-12-31 12:00:00	TAF RKSI 311100Z 3112/0118 33008KT 9999 FEW030 TNM06/3115Z TX03/0106Z \n BECMG 3113/3114 07005KT FEW010 BKN025 \n TEMPO 3116/3120 16005KT 4200 -SN \n BECMG 3122/3123 32007KT \n BECMG 0106/0107 SCT030 \n BECMG 0112/0113 07005KT 6000"
"taf	RKSI	2019-12-31 12:06:00	TAF RKSI 311100Z 3112/0118 33008KT 9999 FEW030 TNM06/3115Z TX03/0106Z \n BECMG 3113/3114 07005KT FEW010 BKN025 \n TEMPO 3116/3120 16005KT 4200 -SN \n BECMG 3122/3123 32007KT \n BECMG 0106/0107 SCT030 \n BECMG 0112/0113 07005KT 6000"
"taf	RKSI	2019-12-31 13:00:00	TAF \n AMD TAF \n AMD RKSI 311300Z 3113/0118 33008KT 9999 FEW030 TNM06/3115Z TX03/0106Z \n TEMPO 3114/3118 25005KT 4200 -SN SCT010 BKN025 \n BECMG 3122/3123 32007KT \n BECMG 0106/0107 SCT030 \n BECMG 0112/0113 07005KT 6000"
"taf	RKSI	2019-12-31 18:00:00	TAF RKSI 311700Z 3118/0124 33007KT 9999 FEW010 BKN025 TNM04/3118Z TX03/0105Z TNM03/0121Z \n TEMPO 3118/3119 23005KT -SN \n BECMG 3122/3123 SCT025 \n BECMG 0112/0113 07005KT"
"taf	RKSI	2019-12-31 18:09:00	TAF RKSI 311700Z 3118/0124 33007KT 9999 FEW010 BKN025 TNM04/3118Z TX03/0105Z TNM03/0121Z \n TEMPO 3118/3119 23005KT -SN \n BECMG 3122/3123 SCT025 \n BECMG 0112/0113 07005KT"
"taf	RKSI	2019-12-31 21:39:00	TAF \n AMD TAF \n AMD RKSI 312040Z 3121/0124 15007KT 9999 FEW010 BKN025 TNM03/3121Z TX03/0105Z TNM03/0121Z \n TEMPO 3121/3122 -SN \n BECMG 3123/3124 33007KT SCT025 \n BECMG 0112/0113 07005KT"
"taf	RKSI	2019-12-31 21:40:00	TAF \n AMD RKSI 312040Z 3121/0124 15007KT 9999 FEW010 BKN025 TNM03/3121Z TX03/0105Z TNM03/0121Z \n TEMPO 3121/3122 -SN \n BECMG 3123/3124 33007KT SCT025 \n BECMG 0112/0113 07005KT"
"taf	RKSI	2019-12-31 22:50:00	TAF \n AMD RKSI 312150Z 3122/0124 15007KT 9999 FEW010 BKN025 TNM03/3122Z TX03/0105Z TNM03/0121Z \n TEMPO 3122/0103 -SN \n BECMG 0104/0105 33007KT SCT025 \n BECMG 0112/0113 07005KT"
"taf	RKSI	2019-12-31 22:51:00	TAF \n AMD TAF \n AMD RKSI 312150Z 3122/0124 15007KT 9999 FEW010 BKN025 TNM03/3122Z TX03/0105Z TNM03/0121Z \n TEMPO 3122/0103 -SN \n BECMG 0104/0105 33007KT SCT025 \n BECMG 0112/0113 07005KT"
"taf	RKSI	2020-01-01 00:00:00	TAF RKSI 012300Z 0200/0306 14005KT 8000 FEW010 BKN030 TX04/0205Z TNM03/0223Z TX04/0305Z \n BECMG 0202/0203 32008KT \n BECMG 0209/0210 SCT030 \n TEMPO 0221/0224 07005KT"
"taf	RKSI	2020-01-01 00:06:00	TAF RKSI 012300Z 0200/0306 14005KT 8000 FEW010 BKN030 TX04/0205Z TNM03/0223Z TX04/0305Z \n BECMG 0202/0203 32008KT \n BECMG 0209/0210 SCT030 \n TEMPO 0221/0224 07005KT"
"taf	RKSI	2020-01-01 00:10:00	TAF \n AMD RKSI 010010Z 0100/0206 09005KT 9999 FEW010 BKN025 TX02/0105Z TNM03/0121Z TX04/0206Z \n TEMPO 0100/0103 -SN \n BECMG 0104/0105 33007KT SCT025 \n BECMG 0112/0113 07005KT \n BECMG 0203/0204 33006KT"
"taf	RKSI	2020-01-01 00:15:00	TAF \n AMD TAF \n AMD RKSI 010010Z 0100/0206 09005KT 9999 FEW010 BKN025 TX02/0105Z TNM03/0121Z TX04/0206Z \n TEMPO 0100/0103 -SN \n BECMG 0104/0105 33007KT SCT025 \n BECMG 0112/0113 07005KT \n BECMG 0203/0204 33006KT"
"taf	RKSI	2020-01-01 02:00:00	TAF \n AMD RKSI 010200Z 0102/0206 09005KT 9999 FEW010 BKN025 TX02/0105Z TNM03/0121Z TX04/0206Z \n BECMG 0104/0105 33007KT SCT025 \n BECMG 0112/0113 07005KT \n BECMG 0203/0204 33006KT"
"taf	RKSI	2020-01-01 02:57:00	TAF \n AMD TAF \n AMD RKSI 010200Z 0102/0206 09005KT 9999 FEW010 BKN025 TX02/0105Z TNM03/0121Z TX04/0206Z \n BECMG 0104/0105 33007KT SCT025 \n BECMG 0112/0113 07005KT \n BECMG 0203/0204 33006KT"
"taf	RKSI	2020-01-01 06:00:00	TAF RKSI 010500Z 0106/0212 33005KT 9999 BKN030 TNM03/0121Z TX04/0206Z \n BECMG 0112/0113 07006KT \n BECMG 0203/0204 33008KT"
"taf	RKSI	2020-01-01 06:08:00	TAF \n AMD RKSI 010608Z 0106/0212 18005KT 9999 BKN030 TNM03/0121Z TX04/0206Z \n BECMG 0109/0110 33006KT \n BECMG 0112/0113 07006KT \n BECMG 0203/0204 33008KT"
"taf	RKSI	2020-01-01 06:09:00	TAF \n AMD TAF \n AMD RKSI 010608Z 0106/0212 18005KT 9999 BKN030 TNM03/0121Z TX04/0206Z \n BECMG 0109/0110 33006KT \n BECMG 0112/0113 07006KT \n BECMG 0203/0204 33008KT"
"taf	RKSI	2020-01-01 12:00:00	TAF RKSI 011100Z 0112/0218 07006KT 9999 BKN030 TNM03/0121Z TX04/0206Z \n BECMG 0203/0204 33008KT \n BECMG 0211/0212 SCT030"
"taf	RKSI	2020-01-01 12:06:00	TAF RKSI 011100Z 0112/0218 07006KT 9999 BKN030 TNM03/0121Z TX04/0206Z \n BECMG 0203/0204 33008KT \n BECMG 0211/0212 SCT030"
"taf	RKSI	2020-01-01 18:00:00	TAF RKSI 011700Z 0118/0224 07005KT 9999 FEW010 BKN030 TNM03/0121Z TX04/0205Z TNM03/0223Z \n BECMG 0202/0203 32008KT \n BECMG 0209/0210 SCT030 \n BECMG 0221/0222 10005KT"
"taf	RKSI	2020-01-01 18:06:00	TAF RKSI 011700Z 0118/0224 07005KT 9999 FEW010 BKN030 TNM03/0121Z TX04/0205Z TNM03/0223Z \n BECMG 0202/0203 32008KT \n BECMG 0209/0210 SCT030 \n BECMG 0221/0222 10005KT"
"taf	RKSI	2020-01-02 00:00:00	TAF RKSI 022300Z 0300/0406 07005KT 6000 FEW030 TX05/0306Z TNM03/0319Z TX06/0403Z \n BECMG 0301/0302 32006KT CAVOK \n TEMPO 0318/0320 4200 BR NSC \n BECMG 0320/0321 07005KT 6000 SCT030 \n BECMG 0400/0401 33008KT"
"taf	RKSI	2020-01-02 00:06:00	TAF RKSI 022300Z 0300/0406 07005KT 6000 FEW030 TX05/0306Z TNM03/0319Z TX06/0403Z \n BECMG 0301/0302 32006KT CAVOK \n TEMPO 0318/0320 4200 BR NSC \n BECMG 0320/0321 07005KT 6000 SCT030 \n BECMG 0400/0401 33008KT"
"taf	RKSI	2020-01-02 06:00:00	TAF RKSI 020500Z 0206/0312 32008KT 6000 BKN030 TNM03/0223Z TX04/0305Z \n BECMG 0209/0210 4200 BR SCT030 \n BECMG 0212/0213 6000 NSW \n BECMG 0221/0222 07005KT \n BECMG 0305/0306 31006KT"
"taf	RKSI	2020-01-02 06:09:00	TAF RKSI 020500Z 0206/0312 32008KT 6000 BKN030 TNM03/0223Z TX04/0305Z \n BECMG 0209/0210 4200 BR SCT030 \n BECMG 0212/0213 6000 NSW \n BECMG 0221/0222 07005KT \n BECMG 0305/0306 31006KT"
"taf	RKSI	2020-01-02 12:00:00	TAF RKSI 021100Z 0212/0318 32008KT 6000 SCT030 TNM03/0223Z TX04/0305Z \n TEMPO 0218/0221 4200 BR \n BECMG 0222/0223 07005KT \n BECMG 0305/0306 31006KT \n BECMG 0312/0313 07005KT"
"taf	RKSI	2020-01-02 12:06:00	TAF RKSI 021100Z 0212/0318 32008KT 6000 SCT030 TNM03/0223Z TX04/0305Z \n TEMPO 0218/0221 4200 BR \n BECMG 0222/0223 07005KT \n BECMG 0305/0306 31006KT \n BECMG 0312/0313 07005KT"
"taf	RKSI	2020-01-02 18:00:00	TAF RKSI 021700Z 0218/0324 32007KT 6000 FEW030 TNM03/0221Z TX04/0306Z TNM03/0316Z \n TEMPO 0218/0221 4200 BR \n BECMG 0320/0321 07005KT"
"taf	RKSI	2020-01-02 18:06:00	TAF RKSI 021700Z 0218/0324 32007KT 6000 FEW030 TNM03/0221Z TX04/0306Z TNM03/0316Z \n TEMPO 0218/0221 4200 BR \n BECMG 0320/0321 07005KT"
"taf	RKSI	2020-01-03 00:00:00	TAF RKSI 032300Z 0400/0506 14005KT 4200 BR SCT030 TX05/0406Z TNM03/0421Z TX05/0505Z \n BECMG 0402/0403 35010KT 6000 NSW \n BECMG 0420/0421 07005KT"
"taf	RKSI	2020-01-03 00:06:00	TAF RKSI 032300Z 0400/0506 14005KT 4200 BR SCT030 TX05/0406Z TNM03/0421Z TX05/0505Z \n BECMG 0402/0403 35010KT 6000 NSW \n BECMG 0420/0421 07005KT"
"taf	RKSI	2020-01-03 06:00:00	TAF RKSI 030500Z 0306/0412 32005KT CAVOK TNM02/0322Z TX05/0406Z \n BECMG 0318/0319 07005KT 4200 BR NSC \n BECMG 0320/0321 BKN020 \n BECMG 0322/0323 SCT035 \n BECMG 0400/0401 32008KT 6000 NSW"
"taf	RKSI	2020-01-03 06:09:00	TAF RKSI 030500Z 0306/0412 32005KT CAVOK TNM02/0322Z TX05/0406Z \n BECMG 0318/0319 07005KT 4200 BR NSC \n BECMG 0320/0321 BKN020 \n BECMG 0322/0323 SCT035 \n BECMG 0400/0401 32008KT 6000 NSW"
"taf	RKSI	2020-01-03 12:00:00	TAF RKSI 031100Z 0312/0418 31005KT CAVOK TNM02/0322Z TX05/0406Z \n BECMG 0318/0319 07005KT 4200 BR NSC \n BECMG 0320/0321 BKN020 \n BECMG 0322/0323 SCT035 \n BECMG 0400/0401 01010KT 6000 NSW"
"taf	RKSI	2020-01-03 12:06:00	TAF RKSI 031100Z 0312/0418 31005KT CAVOK TNM02/0322Z TX05/0406Z \n BECMG 0318/0319 07005KT 4200 BR NSC \n BECMG 0320/0321 BKN020 \n BECMG 0322/0323 SCT035 \n BECMG 0400/0401 01010KT 6000 NSW"
"taf	RKSI	2020-01-03 18:00:00	TAF RKSI 031700Z 0318/0424 07005KT 4200 BR FEW030 TNM03/0322Z TX05/0406Z TNM03/0421Z \n BECMG 0319/0320 BKN030 \n BECMG 0322/0323 SCT035 \n BECMG 0400/0401 35010KT 6000 NSW \n BECMG 0420/0421 07005KT"
"taf	RKSI	2020-01-03 18:09:00	TAF RKSI 031700Z 0318/0424 07005KT 4200 BR FEW030 TNM03/0322Z TX05/0406Z TNM03/0421Z \n BECMG 0319/0320 BKN030 \n BECMG 0322/0323 SCT035 \n BECMG 0400/0401 35010KT 6000 NSW \n BECMG 0420/0421 07005KT"
"taf	RKSI	2020-01-03 21:00:00	TAF \n AMD RKSI 032100Z 0321/0424 07005KT 2500 BR BKN030 TNM03/0322Z TX05/0406Z TNM03/0421Z \n BECMG 0322/0323 4200 SCT035 \n BECMG 0400/0401 35010KT 6000 NSW \n BECMG 0420/0421 07005KT"
"taf	RKSI	2020-01-03 21:03:00	TAF \n AMD TAF \n AMD RKSI 032100Z 0321/0424 07005KT 2500 BR BKN030 TNM03/0322Z TX05/0406Z TNM03/0421Z \n BECMG 0322/0323 4200 SCT035 \n BECMG 0400/0401 35010KT 6000 NSW \n BECMG 0420/0421 07005KT"
"taf	RKSI	2020-01-04 00:00:00	TAF RKSI 042300Z 0500/0606 34008KT CAVOK TX05/0506Z TN00/0521Z TX04/0605Z \n BECMG 0508/0509 07006KT \n BECMG 0600/0601 9999 FEW010 BKN025 OVC080 \n BECMG 0603/0604 07015G25KT 4200 -RA"
"taf	RKSI	2020-01-04 00:06:00	TAF RKSI 042300Z 0500/0606 34008KT CAVOK TX05/0506Z TN00/0521Z TX04/0605Z \n BECMG 0508/0509 07006KT \n BECMG 0600/0601 9999 FEW010 BKN025 OVC080 \n BECMG 0603/0604 07015G25KT 4200 -RA"
"taf	RKSI	2020-01-04 06:00:00	TAF RKSI 040500Z 0406/0512 34008KT 6000 NSC TNM03/0422Z TX05/0506Z \n BECMG 0504/0505 08006KT"
"taf	RKSI	2020-01-04 06:06:00	TAF RKSI 040500Z 0406/0512 34008KT 6000 NSC TNM03/0422Z TX05/0506Z \n BECMG 0504/0505 08006KT"
"taf	RKSI	2020-01-04 12:00:00	TAF RKSI 041100Z 0412/0518 34006KT CAVOK TNM03/0422Z TX05/0506Z \n TEMPO 0417/0423 07005KT \n BECMG 0511/0512 07006KT"
"taf	RKSI	2020-01-04 12:06:00	TAF RKSI 041100Z 0412/0518 34006KT CAVOK TNM03/0422Z TX05/0506Z \n TEMPO 0417/0423 07005KT \n BECMG 0511/0512 07006KT"
"taf	RKSI	2020-01-04 18:00:00	TAF RKSI 041700Z 0418/0524 34008KT CAVOK TNM02/0422Z TX05/0506Z TN00/0521Z \n TEMPO 0418/0423 07005KT \n BECMG 0508/0509 07006KT"
"taf	RKSI	2020-01-04 18:09:00	TAF RKSI 041700Z 0418/0524 34008KT CAVOK TNM02/0422Z TX05/0506Z TN00/0521Z \n TEMPO 0418/0423 07005KT \n BECMG 0508/0509 07006KT"
"taf	RKSI	2020-01-05 00:00:00	TAF RKSI 052300Z 0600/0706 12006KT 6000 -SN BKN030 OVC100 TX05/0606Z TN04/0622Z TX06/0706Z \n BECMG 0602/0603 09008KT 3500 -RASN \n BECMG 0604/0605 06008KT 2500 -RA \n BECMG 0611/0612 03010KT 1400 SCT004 BKN020 OVC080 \n BECMG 0619/0620 36010KT 0700 \n BECMG 0701/0702 1400"
"taf	RKSI	2020-01-05 00:06:00	TAF RKSI 052300Z 0600/0706 12006KT 6000 -SN BKN030 OVC100 TX05/0606Z TN04/0622Z TX06/0706Z \n BECMG 0602/0603 09008KT 3500 -RASN \n BECMG 0604/0605 06008KT 2500 -RA \n BECMG 0611/0612 03010KT 1400 SCT004 BKN020 OVC080 \n BECMG 0619/0620 36010KT 0700 \n BECMG 0701/0702 1400"
"taf	RKSI	2020-01-05 06:00:00	TAF RKSI 050500Z 0506/0612 33006KT 9999 FEW035 BKN180 TN00/0521Z TX04/0605Z \n BECMG 0508/0509 07006KT \n BECMG 0600/0601 FEW010 BKN025 OVC080 \n BECMG 0605/0606 06015G25KT 4200 -RA \n BECMG 0610/0611 2500"
"taf	RKSI	2020-01-05 06:09:00	TAF RKSI 050500Z 0506/0612 33006KT 9999 FEW035 BKN180 TN00/0521Z TX04/0605Z \n BECMG 0508/0509 07006KT \n BECMG 0600/0601 FEW010 BKN025 OVC080 \n BECMG 0605/0606 06015G25KT 4200 -RA \n BECMG 0610/0611 2500"
"taf	RKSI	2020-01-05 12:00:00	TAF RKSI 051100Z 0512/0618 33006KT 9999 FEW035 OVC180 TN00/0521Z TX04/0605Z \n BECMG 0513/0514 07006KT FEW010 BKN025 OVC080 \n BECMG 0605/0606 06015G25KT 4200 -RA \n BECMG 0614/0615 2500"
"taf	RKSI	2020-01-05 12:06:00	TAF RKSI 051100Z 0512/0618 33006KT 9999 FEW035 OVC180 TN00/0521Z TX04/0605Z \n BECMG 0513/0514 07006KT FEW010 BKN025 OVC080 \n BECMG 0605/0606 06015G25KT 4200 -RA \n BECMG 0614/0615 2500"
"taf	RKSI	2020-01-05 18:00:00	TAF RKSI 051700Z 0518/0624 06006KT CAVOK TN00/0522Z TX05/0606Z TN04/0622Z \n BECMG 0522/0523 12006KT \n BECMG 0604/0605 09010KT 4200 -RA FEW008 BKN025 OVC080 \n BECMG 0611/0612 06010KT 2800 \n BECMG 0620/0621 03010KT 1400 BKN004 BKN020 OVC080"
"taf	RKSI	2020-01-05 18:06:00	TAF RKSI 051700Z 0518/0624 06006KT CAVOK TN00/0522Z TX05/0606Z TN04/0622Z \n BECMG 0522/0523 12006KT \n BECMG 0604/0605 09010KT 4200 -RA FEW008 BKN025 OVC080 \n BECMG 0611/0612 06010KT 2800 \n BECMG 0620/0621 03010KT 1400 BKN004 BKN020 OVC080"
"taf	RKSI	2020-01-05 21:45:00	TAF \n AMD TAF \n AMD RKSI 052045Z 0521/0624 06006KT 7000 SCT035 BKN120 TN00/0522Z TX05/0606Z TN04/0622Z \n BECMG 0522/0523 -RA FEW008 BKN025 OVC080 \n BECMG 0604/0605 09010KT 4200 \n BECMG 0611/0612 06010KT 2800 \n BECMG 0620/0621 03010KT 1400 BKN004 BKN020 OVC080"
"taf	RKSI	2020-01-05 22:35:00	TAF \n AMD RKSI 052135Z 0522/0624 06006KT 7000 -RA FEW010 BKN035 OVC100 TN00/0522Z TX05/0606Z TN04/0622Z \n TEMPO 0522/0600 -RASN \n BECMG 0604/0605 09010KT 4200 \n BECMG 0611/0612 06010KT 2800 \n BECMG 0620/0621 03010KT 1400 BKN004 BKN020 OVC080"
"taf	RKSI	2020-01-05 22:39:00	TAF \n AMD TAF \n AMD RKSI 052135Z 0522/0624 06006KT 7000 -RA FEW010 BKN035 OVC100 TN00/0522Z TX05/0606Z TN04/0622Z \n TEMPO 0522/0600 -RASN \n BECMG 0604/0605 09010KT 4200 \n BECMG 0611/0612 06010KT 2800 \n BECMG 0620/0621 03010KT 1400 BKN004 BKN020 OVC080"
"taf	RKSI	2020-01-06 00:00:00	TAF RKSI 062300Z 0700/0806 04010KT 3500 -RA FEW010 BKN025 OVC080 TX06/0706Z TN03/0722Z TX04/0806Z \n TEMPO 0709/0713 35010KT 1400 RA SCT003CB BKN020 OVC080 \n BECMG 0714/0715 34015G25KT 1400 RA \n BECMG 0716/0717 32020G35KT 2800 \n BECMG 0721/0722 31015G25KT 4200 -RA \n BECMG 0723/0724 6000 NSW SCT035"
"taf	RKSI	2020-01-06 00:06:00	TAF RKSI 062300Z 0700/0806 04010KT 3500 -RA FEW010 BKN025 OVC080 TX06/0706Z TN03/0722Z TX04/0806Z \n TEMPO 0709/0713 35010KT 1400 RA SCT003CB BKN020 OVC080 \n BECMG 0714/0715 34015G25KT 1400 RA \n BECMG 0716/0717 32020G35KT 2800 \n BECMG 0721/0722 31015G25KT 4200 -RA \n BECMG 0723/0724 6000 NSW SCT035"
"taf	RKSI	2020-01-06 00:09:00	TAF \n AMD TAF \n AMD RKSI 060010Z 0600/0706 12006KT 6000 -RA BKN030 OVC100 TX05/0606Z TN04/0622Z TX06/0706Z \n TEMPO 0602/0603 09008KT 3500 -RASN \n BECMG 0604/0605 06008KT 2500 \n BECMG 0611/0612 03010KT 1400 SCT004 BKN020 OVC080 \n TEMPO 0619/0620 36010KT 0700 RA"
"taf	RKSI	2020-01-06 00:10:00	TAF \n AMD RKSI 060010Z 0600/0706 12006KT 6000 -RA BKN030 OVC100 TX05/0606Z TN04/0622Z TX06/0706Z \n TEMPO 0602/0603 09008KT 3500 -RASN \n BECMG 0604/0605 06008KT 2500 \n BECMG 0611/0612 03010KT 1400 SCT004 BKN020 OVC080 \n TEMPO 0619/0620 36010KT 0700 RA"
"taf	RKSI	2020-01-06 06:00:00	TAF RKSI 060500Z 0606/0712 08012KT 4200 -RA FEW010 BKN025 OVC080 TN04/0622Z TX06/0706Z \n BECMG 0610/0611 05010KT 2800 \n TEMPO 0619/0621 1400 \n BECMG 0622/0623 3500 \n BECMG 0709/0710 2800 RA \n BECMG 0711/0712 07015G25KT 1400 +RA FEW005CB SCT010 BKN025 OVC080"
"taf	RKSI	2020-01-06 06:06:00	TAF RKSI 060500Z 0606/0712 08012KT 4200 -RA FEW010 BKN025 OVC080 TN04/0622Z TX06/0706Z \n BECMG 0610/0611 05010KT 2800 \n TEMPO 0619/0621 1400 \n BECMG 0622/0623 3500 \n BECMG 0709/0710 2800 RA \n BECMG 0711/0712 07015G25KT 1400 +RA FEW005CB SCT010 BKN025 OVC080"
"taf	RKSI	2020-01-06 12:00:00	TAF RKSI 061100Z 0612/0718 05010KT 2000 -RA FEW010 BKN025 OVC080 TN04/0622Z TX06/0706Z \n BECMG 0622/0623 3500 \n BECMG 0709/0710 2500 RA \n TEMPO 0711/0714 07015G25KT 1400 +RA FEW005CB SCT010 BKN025 OVC080 \n BECMG 0716/0717 33017G30KT"
"taf	RKSI	2020-01-06 12:09:00	TAF RKSI 061100Z 0612/0718 05010KT 2000 -RA FEW010 BKN025 OVC080 TN04/0622Z TX06/0706Z \n BECMG 0622/0623 3500 \n BECMG 0709/0710 2500 RA \n TEMPO 0711/0714 07015G25KT 1400 +RA FEW005CB SCT010 BKN025 OVC080 \n BECMG 0716/0717 33017G30KT"
"taf	RKSI	2020-01-06 19:35:00	TAF COR RKSI 061835Z 0619/0724 06010KT 1400 -RA SCT002 BKN020 OVC080 TN03/0620Z TX06/0706Z TN02/0722Z \n TEMPO 0619/0621 1600 RA \n BECMG 0622/0623 2000 \n TEMPO 0709/0713 35010KT 1400 RA SCT003CB BKN020 OVC080 \n BECMG 0714/0715 32015G25KT 1400 \n TEMPO 0716/0721 32020G35KT 1600"
"taf	RKSI	2020-01-06 19:39:00	TAF COR TAF COR RKSI 061835Z 0619/0724 06010KT 1400 -RA SCT002 BKN020 OVC080 TN03/0620Z TX06/0706Z TN02/0722Z \n TEMPO 0619/0621 1600 RA \n BECMG 0622/0623 2000 \n TEMPO 0709/0713 35010KT 1400 RA SCT003CB BKN020 OVC080 \n BECMG 0714/0715 32015G25KT 1400 \n TEMPO 0716/0721 32020G35KT 1600"
"taf	RKSI	2020-01-07 00:00:00	TAF RKSI 072300Z 0800/0906 33015G25KT 7000 FEW010 BKN030 BKN150 TX02/0800Z TNM02/0821Z TX01/0906Z \n BECMG 0802/0803 SCT030"
"taf	RKSI	2020-01-07 00:06:00	TAF RKSI 072300Z 0800/0906 33015G25KT 7000 FEW010 BKN030 BKN150 TX02/0800Z TNM02/0821Z TX01/0906Z \n BECMG 0802/0803 SCT030"
"taf	RKSI	2020-01-07 06:00:00	TAF RKSI 070500Z 0706/0812 05010KT 3500 -RA FEW010 BKN025 OVC070 TX07/0711Z TX05/0716Z TNM01/0811Z \n BECMG 0708/0709 04015G25KT 1400 RA \n TEMPO 0713/0716 05020G35KT SCT014CB BKN020 OVC060 \n BECMG 0716/0717 32020G35KT 2800 -RA \n BECMG 0721/0722 31015G25KT 4200 \n BECMG 0723/0724 6000 NSW FEW010 SCT030"
"taf	RKSI	2020-01-07 06:09:00	TAF RKSI 070500Z 0706/0812 05010KT 3500 -RA FEW010 BKN025 OVC070 TX07/0711Z TX05/0716Z TNM01/0811Z \n BECMG 0708/0709 04015G25KT 1400 RA \n TEMPO 0713/0716 05020G35KT SCT014CB BKN020 OVC060 \n BECMG 0716/0717 32020G35KT 2800 -RA \n BECMG 0721/0722 31015G25KT 4200 \n BECMG 0723/0724 6000 NSW FEW010 SCT030"
"taf	RKSI	2020-01-07 12:00:00	TAF RKSI 071100Z 0712/0818 04015G25KT 2800 RA SCT008 BKN025 OVC070 TX05/0716Z TNM02/0817Z \n TEMPO 0714/0716 05018G35KT 1400 SCT014CB BKN020 OVC060 \n BECMG 0716/0717 32025G40KT -RA \n BECMG 0721/0722 4200 \n BECMG 0800/0801 31015G25KT 6000 NSW FEW010 SCT030"
"taf	RKSI	2020-01-07 12:09:00	TAF RKSI 071100Z 0712/0818 04015G25KT 2800 RA SCT008 BKN025 OVC070 TX05/0716Z TNM02/0817Z \n TEMPO 0714/0716 05018G35KT 1400 SCT014CB BKN020 OVC060 \n BECMG 0716/0717 32025G40KT -RA \n BECMG 0721/0722 4200 \n BECMG 0800/0801 31015G25KT 6000 NSW FEW010 SCT030"
"taf	RKSI	2020-01-07 16:00:00	TAF \n AMD TAF \n AMD RKSI 071550Z 0716/0818 32025G40KT 2500 -RA SCT008 BKN025 OVC070 TX05/0716Z TNM02/0817Z \n TEMPO 0716/0718 1400 RA \n BECMG 0721/0722 4200 \n BECMG 0803/0804 31015G25KT 6000 NSW FEW010 SCT030"
"taf	RKSI	2020-01-07 16:50:00	TAF \n AMD RKSI 071550Z 0716/0818 32025G40KT 2500 -RA SCT008 BKN025 OVC070 TX05/0716Z TNM02/0817Z \n TEMPO 0716/0718 1400 RA \n BECMG 0721/0722 4200 \n BECMG 0803/0804 31015G25KT 6000 NSW FEW010 SCT030"
"taf	RKSI	2020-01-07 18:00:00	TAF RKSI 071700Z 0718/0824 33028G40KT 1400 RA SCT010 BKN020 OVC080 TX03/0718Z TNM02/0821Z \n BECMG 0719/0720 33022G35KT 2500 \n BECMG 0721/0722 4200 \n BECMG 0800/0801 7000 NSW FEW010 SCT030 \n BECMG 0803/0804 33012KT"
"taf	RKSI	2020-01-07 18:09:00	TAF RKSI 071700Z 0718/0824 33028G40KT 1400 RA SCT010 BKN020 OVC080 TX03/0718Z TNM02/0821Z \n BECMG 0719/0720 33022G35KT 2500 \n BECMG 0721/0722 4200 \n BECMG 0800/0801 7000 NSW FEW010 SCT030 \n BECMG 0803/0804 33012KT"
"taf	RKSI	2020-01-08 00:00:00	TAF RKSI 082300Z 0900/1006 32010KT 7000 SCT030 TX03/0906Z TNM04/0922Z TX04/1006Z \n BECMG 0910/0911 07006KT \n BECMG 1002/1003 27006KT"
"taf	RKSI	2020-01-08 00:09:00	TAF RKSI 082300Z 0900/1006 32010KT 7000 SCT030 TX03/0906Z TNM04/0922Z TX04/1006Z \n BECMG 0910/0911 07006KT \n BECMG 1002/1003 27006KT"
"taf	RKSI	2020-01-08 06:00:00	TAF RKSI 080500Z 0806/0912 31015G25KT 6000 FEW010 BKN025 TNM03/0822Z TX02/0906Z \n BECMG 0807/0808 SCT030 \n TEMPO 0819/0822 32010KT \n BECMG 0907/0908 33008KT"
"taf	RKSI	2020-01-08 06:09:00	TAF RKSI 080500Z 0806/0912 31015G25KT 6000 FEW010 BKN025 TNM03/0822Z TX02/0906Z \n BECMG 0807/0808 SCT030 \n TEMPO 0819/0822 32010KT \n BECMG 0907/0908 33008KT"
"taf	RKSI	2020-01-08 12:00:00	TAF RKSI 081100Z 0812/0918 31015G25KT 6000 FEW010 BKN025 TNM03/0822Z TX02/0906Z \n BECMG 0818/0819 SCT030 \n TEMPO 0819/0822 32010KT 4200 BR BKN025 \n BECMG 0907/0908 33008KT"
"taf	RKSI	2020-01-08 12:09:00	TAF RKSI 081100Z 0812/0918 31015G25KT 6000 FEW010 BKN025 TNM03/0822Z TX02/0906Z \n BECMG 0818/0819 SCT030 \n TEMPO 0819/0822 32010KT 4200 BR BKN025 \n BECMG 0907/0908 33008KT"
"taf	RKSI	2020-01-08 18:00:00	TAF RKSI 081700Z 0818/0924 32010KT 8000 SCT030 TNM03/0822Z TX03/0906Z TNM04/0922Z \n BECMG 0910/0911 07006KT"
"taf	RKSI	2020-01-08 18:06:00	TAF RKSI 081700Z 0818/0924 32010KT 8000 SCT030 TNM03/0822Z TX03/0906Z TNM04/0922Z \n BECMG 0910/0911 07006KT"
"taf	RKSI	2020-01-09 00:00:00	TAF RKSI 092300Z 1000/1106 07005KT 6000 NSC TX04/1006Z TNM02/1016Z TX04/1103Z \n BECMG 1001/1002 31006KT CAVOK \n BECMG 1014/1015 10005KT 6000 SCT030 \n TEMPO 1016/1020 BKN030 \n BECMG 1022/1023 32007KT"
"taf	RKSI	2020-01-09 00:06:00	TAF RKSI 092300Z 1000/1106 07005KT 6000 NSC TX04/1006Z TNM02/1016Z TX04/1103Z \n BECMG 1001/1002 31006KT CAVOK \n BECMG 1014/1015 10005KT 6000 SCT030 \n TEMPO 1016/1020 BKN030 \n BECMG 1022/1023 32007KT"
"taf	RKSI	2020-01-09 06:00:00	TAF RKSI 090500Z 0906/1012 32010KT CAVOK TNM04/0922Z TX04/1006Z \n BECMG 0912/0913 07006KT \n BECMG 1002/1003 27006KT"
"taf	RKSI	2020-01-09 06:09:00	TAF RKSI 090500Z 0906/1012 32010KT CAVOK TNM04/0922Z TX04/1006Z \n BECMG 0912/0913 07006KT \n BECMG 1002/1003 27006KT"
"taf	RKSI	2020-01-09 12:00:00	TAF RKSI 091100Z 0912/1018 07005KT CAVOK TNM04/0922Z TX04/1006Z \n BECMG 1002/1003 27006KT \n TEMPO 1015/1018 6000 BKN030"
"taf	RKSI	2020-01-09 12:06:00	TAF RKSI 091100Z 0912/1018 07005KT CAVOK TNM04/0922Z TX04/1006Z \n BECMG 1002/1003 27006KT \n TEMPO 1015/1018 6000 BKN030"
"taf	RKSI	2020-01-09 18:00:00	TAF RKSI 091700Z 0918/1024 07005KT 6000 NSC TNM05/0920Z TX04/1006Z TNM02/1016Z \n BECMG 1001/1002 30006KT CAVOK \n BECMG 1014/1015 07005KT 6000 FEW030 \n TEMPO 1016/1019 BKN030 \n BECMG 1022/1023 31007KT"
"taf	RKSI	2020-01-09 18:06:00	TAF RKSI 091700Z 0918/1024 07005KT 6000 NSC TNM05/0920Z TX04/1006Z TNM02/1016Z \n BECMG 1001/1002 30006KT CAVOK \n BECMG 1014/1015 07005KT 6000 FEW030 \n TEMPO 1016/1019 BKN030 \n BECMG 1022/1023 31007KT"
"taf	RKSI	2020-01-09 18:09:00	TAF RKSI 091700Z 0918/1024 07005KT 6000 NSC TNM05/0920Z TX04/1006Z TNM02/1016Z \n BECMG 1001/1002 30006KT CAVOK \n BECMG 1014/1015 07005KT 6000 FEW030 \n TEMPO 1016/1019 BKN030 \n BECMG 1022/1023 31007KT"
"taf	RKSI	2020-01-10 00:00:00	TAF RKSI 102300Z 1100/1206 07005KT 6000 FEW030 TX04/1103Z TNM03/1119Z TX02/1205Z \n BECMG 1101/1102 32007KT \n TEMPO 1204/1206 31015G25KT"
"taf	RKSI	2020-01-10 00:06:00	TAF RKSI 102300Z 1100/1206 07005KT 6000 FEW030 TX04/1103Z TNM03/1119Z TX02/1205Z \n BECMG 1101/1102 32007KT \n TEMPO 1204/1206 31015G25KT"
"taf	RKSI	2020-01-10 00:18:00	TAF \n AMD RKSI 100018Z 1000/1106 07005KT 3500 BR NSC TX04/1006Z TNM02/1016Z TX04/1103Z \n BECMG 1001/1002 31006KT CAVOK \n BECMG 1014/1015 10005KT 6000 SCT030 \n TEMPO 1016/1020 BKN030 \n BECMG 1022/1023 32007KT"
"taf	RKSI	2020-01-10 00:21:00	TAF \n AMD TAF \n AMD RKSI 100018Z 1000/1106 07005KT 3500 BR NSC TX04/1006Z TNM02/1016Z TX04/1103Z \n BECMG 1001/1002 31006KT CAVOK \n BECMG 1014/1015 10005KT 6000 SCT030 \n TEMPO 1016/1020 BKN030 \n BECMG 1022/1023 32007KT"
"taf	RKSI	2020-01-10 06:00:00	TAF RKSI 100500Z 1006/1112 36005KT 8000 NSC TNM02/1016Z TX04/1103Z \n BECMG 1012/1013 10005KT 4200 BR SCT030 \n TEMPO 1016/1020 BKN030 \n BECMG 1022/1023 32007KT 6000 NSW"
"taf	RKSI	2020-01-10 06:06:00	TAF RKSI 100500Z 1006/1112 36005KT 8000 NSC TNM02/1016Z TX04/1103Z \n BECMG 1012/1013 10005KT 4200 BR SCT030 \n TEMPO 1016/1020 BKN030 \n BECMG 1022/1023 32007KT 6000 NSW"
"taf	RKSI	2020-01-10 12:00:00	TAF RKSI 101100Z 1012/1118 10005KT 7000 SCT030 TNM02/1016Z TX04/1103Z \n BECMG 1014/1015 4200 BR \n TEMPO 1016/1020 BKN030 \n BECMG 1022/1023 32010KT 6000 NSW"
"taf	RKSI	2020-01-10 12:09:00	TAF RKSI 101100Z 1012/1118 10005KT 7000 SCT030 TNM02/1016Z TX04/1103Z \n BECMG 1014/1015 4200 BR \n TEMPO 1016/1020 BKN030 \n BECMG 1022/1023 32010KT 6000 NSW"
"taf	RKSI	2020-01-10 18:00:00	TAF RKSI 101700Z 1018/1124 07005KT 6000 SCT030 TNM03/1019Z TX04/1103Z TNM03/1119Z \n TEMPO 1019/1021 4200 BR BKN030 \n BECMG 1100/1101 32008KT"
"taf	RKSI	2020-01-10 18:09:00	TAF RKSI 101700Z 1018/1124 07005KT 6000 SCT030 TNM03/1019Z TX04/1103Z TNM03/1119Z \n TEMPO 1019/1021 4200 BR BKN030 \n BECMG 1100/1101 32008KT"
"taf	RKSI	2020-01-11 00:00:00	TAF RKSI 112300Z 1200/1306 35006KT 7000 FEW030 BKN120 TX02/1206Z TNM04/1221Z TX00/1305Z \n BECMG 1203/1204 32015G25KT"
"taf	RKSI	2020-01-11 00:06:00	TAF RKSI 112300Z 1200/1306 35006KT 7000 FEW030 BKN120 TX02/1206Z TNM04/1221Z TX00/1305Z \n BECMG 1203/1204 32015G25KT"
"taf	RKSI	2020-01-11 06:00:00	TAF RKSI 110500Z 1106/1212 32010KT 7000 NSC TNM04/1122Z TX02/1206Z \n BECMG 1118/1119 4200 BR \n BECMG 1123/1124 6000 NSW \n BECMG 1203/1204 31015G25KT"
"taf	RKSI	2020-01-11 06:09:00	TAF RKSI 110500Z 1106/1212 32010KT 7000 NSC TNM04/1122Z TX02/1206Z \n BECMG 1118/1119 4200 BR \n BECMG 1123/1124 6000 NSW \n BECMG 1203/1204 31015G25KT"
"taf	RKSI	2020-01-11 12:00:00	TAF RKSI 111100Z 1112/1218 32008KT 6000 FEW010 BKN180 TNM04/1122Z TX02/1206Z \n BECMG 1120/1121 35006KT 4200 BR \n BECMG 1122/1123 32010KT 6000 NSW \n BECMG 1203/1204 32015G25KT"
"taf	RKSI	2020-01-11 12:06:00	TAF RKSI 111100Z 1112/1218 32008KT 6000 FEW010 BKN180 TNM04/1122Z TX02/1206Z \n BECMG 1120/1121 35006KT 4200 BR \n BECMG 1122/1123 32010KT 6000 NSW \n BECMG 1203/1204 32015G25KT"
"taf	RKSI	2020-01-11 18:00:00	TAF RKSI 111700Z 1118/1224 33008KT 6000 SCT030 BKN150 TNM03/1122Z TX02/1206Z TNM04/1221Z \n TEMPO 1120/1123 4200 BR \n BECMG 1203/1204 32015G25KT"
"taf	RKSI	2020-01-11 18:09:00	TAF RKSI 111700Z 1118/1224 33008KT 6000 SCT030 BKN150 TNM03/1122Z TX02/1206Z TNM04/1221Z \n TEMPO 1120/1123 4200 BR \n BECMG 1203/1204 32015G25KT"
"taf	RKSI	2020-01-12 00:00:00	TAF RKSI 122300Z 1300/1406 32010KT 9999 FEW010 BKN030 TX00/1306Z TNM04/1321Z TX01/1405Z \n BECMG 1303/1304 SCT030 \n BECMG 1312/1313 02005KT \n BECMG 1315/1316 08006KT 6000 BKN030 \n BECMG 1400/1401 01006KT SCT030"
"taf	RKSI	2020-01-12 00:09:00	TAF RKSI 122300Z 1300/1406 32010KT 9999 FEW010 BKN030 TX00/1306Z TNM04/1321Z TX01/1405Z \n BECMG 1303/1304 SCT030 \n BECMG 1312/1313 02005KT \n BECMG 1315/1316 08006KT 6000 BKN030 \n BECMG 1400/1401 01006KT SCT030"
"taf	RKSI	2020-01-12 06:00:00	TAF RKSI 120500Z 1206/1312 32015G25KT 9999 SCT035 TNM05/1222Z TX00/1306Z \n BECMG 1215/1216 BKN035 \n BECMG 1217/1218 33010KT FEW035 \n BECMG 1222/1223 BKN035 \n BECMG 1300/1301 32015G25KT SCT035 \n BECMG 1310/1311 34010KT 6000 BKN035"
"taf	RKSI	2020-01-12 06:06:00	TAF RKSI 120500Z 1206/1312 32015G25KT 9999 SCT035 TNM05/1222Z TX00/1306Z \n BECMG 1215/1216 BKN035 \n BECMG 1217/1218 33010KT FEW035 \n BECMG 1222/1223 BKN035 \n BECMG 1300/1301 32015G25KT SCT035 \n BECMG 1310/1311 34010KT 6000 BKN035"
"taf	RKSI	2020-01-12 12:00:00	TAF RKSI 121100Z 1212/1318 32012KT 6000 SCT035 TNM05/1222Z TX00/1306Z \n BECMG 1215/1216 BKN035 \n BECMG 1217/1218 SCT035 \n BECMG 1309/1310 BKN035 \n BECMG 1311/1312 02010KT \n BECMG 1314/1315 08006KT SCT040 BKN150"
"taf	RKSI	2020-01-12 12:06:00	TAF RKSI 121100Z 1212/1318 32012KT 6000 SCT035 TNM05/1222Z TX00/1306Z \n BECMG 1215/1216 BKN035 \n BECMG 1217/1218 SCT035 \n BECMG 1309/1310 BKN035 \n BECMG 1311/1312 02010KT \n BECMG 1314/1315 08006KT SCT040 BKN150"
"taf	RKSI	2020-01-12 18:00:00	TAF RKSI 121700Z 1218/1324 32010KT 9999 SCT030 TNM04/1222Z TX00/1306Z TNM04/1321Z \n TEMPO 1221/1224 BKN030 \n BECMG 1312/1313 02007KT \n BECMG 1317/1318 08005KT 6000 BKN030"
"taf	RKSI	2020-01-12 18:06:00	TAF RKSI 121700Z 1218/1324 32010KT 9999 SCT030 TNM04/1222Z TX00/1306Z TNM04/1321Z \n TEMPO 1221/1224 BKN030 \n BECMG 1312/1313 02007KT \n BECMG 1317/1318 08005KT 6000 BKN030"
"taf	RKSI	2020-01-13 00:00:00	TAF RKSI 132300Z 1400/1506 07005KT 7000 FEW014 BKN040 TX01/1406Z TNM06/1422Z TX01/1506Z \n TEMPO 1400/1401 -SN \n BECMG 1402/1403 32008KT SCT045 \n BECMG 1412/1413 BKN040 \n BECMG 1416/1417 SCT045"
"taf	RKSI	2020-01-13 00:09:00	TAF RKSI 132300Z 1400/1506 07005KT 7000 FEW014 BKN040 TX01/1406Z TNM06/1422Z TX01/1506Z \n TEMPO 1400/1401 -SN \n BECMG 1402/1403 32008KT SCT045 \n BECMG 1412/1413 BKN040 \n BECMG 1416/1417 SCT045"
"taf	RKSI	2020-01-13 00:20:00	TAF \n AMD RKSI 130220Z 1300/1406 32010KT 9999 SCT030 TX00/1306Z TNM04/1321Z TX01/1405Z \n BECMG 1312/1313 02005KT \n BECMG 1315/1316 08006KT 6000 BKN030 \n BECMG 1400/1401 01006KT SCT030"
"taf	RKSI	2020-01-13 00:21:00	TAF \n AMD TAF \n AMD RKSI 130220Z 1300/1406 32010KT 9999 SCT030 TX00/1306Z TNM04/1321Z TX01/1405Z \n BECMG 1312/1313 02005KT \n BECMG 1315/1316 08006KT 6000 BKN030 \n BECMG 1400/1401 01006KT SCT030"
"taf	RKSI	2020-01-13 06:00:00	TAF RKSI 130500Z 1306/1412 32010KT 9999 SCT030 TNM04/1321Z TX01/1405Z \n BECMG 1312/1313 02005KT \n BECMG 1316/1317 08006KT 6000 BKN030 \n BECMG 1322/1323 SCT030 \n BECMG 1401/1402 32008KT"
"taf	RKSI	2020-01-13 06:06:00	TAF RKSI 130500Z 1306/1412 32010KT 9999 SCT030 TNM04/1321Z TX01/1405Z \n BECMG 1312/1313 02005KT \n BECMG 1316/1317 08006KT 6000 BKN030 \n BECMG 1322/1323 SCT030 \n BECMG 1401/1402 32008KT"
"taf	RKSI	2020-01-13 12:00:00	TAF RKSI 131100Z 1312/1418 02005KT 9999 SCT030 TNM04/1321Z TX01/1405Z \n BECMG 1316/1317 08006KT 6000 BKN030 \n BECMG 1322/1323 SCT030 \n BECMG 1401/1402 33008KT"
"taf	RKSI	2020-01-13 12:06:00	TAF RKSI 131100Z 1312/1418 02005KT 9999 SCT030 TNM04/1321Z TX01/1405Z \n BECMG 1316/1317 08006KT 6000 BKN030 \n BECMG 1322/1323 SCT030 \n BECMG 1401/1402 33008KT"
"taf	RKSI	2020-01-13 18:00:00	TAF RKSI 131700Z 1318/1424 07005KT 9999 SCT035 TNM05/1322Z TX02/1406Z TNM06/1422Z \n BECMG 1401/1402 32008KT \n BECMG 1413/1414 BKN035 \n BECMG 1415/1416 SCT035"
"taf	RKSI	2020-01-13 18:09:00	TAF RKSI 131700Z 1318/1424 07005KT 9999 SCT035 TNM05/1322Z TX02/1406Z TNM06/1422Z \n BECMG 1401/1402 32008KT \n BECMG 1413/1414 BKN035 \n BECMG 1415/1416 SCT035"
"taf	RKSI	2020-01-13 22:40:00	TAF \n AMD RKSI 132140Z 1322/1424 07005KT 6000 SCT014 BKN035 TNM05/1323Z TX02/1406Z TNM06/1422Z \n TEMPO 1322/1324 -SN \n BECMG 1401/1402 32008KT SCT035 \n BECMG 1413/1414 BKN035 \n BECMG 1415/1416 SCT035"
"taf	RKSI	2020-01-13 22:42:00	TAF \n AMD TAF \n AMD RKSI 132140Z 1322/1424 07005KT 6000 SCT014 BKN035 TNM05/1323Z TX02/1406Z TNM06/1422Z \n TEMPO 1322/1324 -SN \n BECMG 1401/1402 32008KT SCT035 \n BECMG 1413/1414 BKN035 \n BECMG 1415/1416 SCT035"
"taf	RKSI	2020-01-14 00:00:00	TAF RKSI 142300Z 1500/1606 32008KT CAVOK TX01/1506Z TNM05/1522Z TX02/1606Z \n TEMPO 1518/1524 07005KT"
"taf	RKSI	2020-01-14 00:09:00	TAF RKSI 142300Z 1500/1606 32008KT CAVOK TX01/1506Z TNM05/1522Z TX02/1606Z \n TEMPO 1518/1524 07005KT"
"taf	RKSI	2020-01-14 06:00:00	TAF RKSI 140500Z 1406/1512 32008KT 7000 SCT030 TNM06/1422Z TX01/1506Z"
"taf	RKSI	2020-01-14 06:09:00	TAF RKSI 140500Z 1406/1512 32008KT 7000 SCT030 TNM06/1422Z TX01/1506Z"
"taf	RKSI	2020-01-14 12:00:00	TAF RKSI 141100Z 1412/1518 32008KT 9999 SCT030 TNM06/1422Z TX01/1506Z"
"taf	RKSI	2020-01-14 12:06:00	TAF RKSI 141100Z 1412/1518 32008KT 9999 SCT030 TNM06/1422Z TX01/1506Z"
"taf	RKSI	2020-01-14 18:00:00	TAF RKSI 141700Z 1418/1524 07005KT CAVOK TNM06/1422Z TX01/1506Z TNM05/1522Z \n BECMG 1500/1501 32008KT \n BECMG 1513/1514 07006KT \n BECMG 1515/1516 35005KT"
"taf	RKSI	2020-01-14 18:06:00	TAF RKSI 141700Z 1418/1524 07005KT CAVOK TNM06/1422Z TX01/1506Z TNM05/1522Z \n BECMG 1500/1501 32008KT \n BECMG 1513/1514 07006KT \n BECMG 1515/1516 35005KT"
"taf	RKSI	2020-01-15 00:00:00	TAF RKSI 152300Z 1600/1706 07005KT 9999 FEW030 BKN180 TX02/1606Z TNM04/1620Z TX03/1706Z \n BECMG 1602/1603 32008KT \n BECMG 1613/1614 07005KT \n BECMG 1700/1701 33008KT"
"taf	RKSI	2020-01-15 00:06:00	TAF RKSI 152300Z 1600/1706 07005KT 9999 FEW030 BKN180 TX02/1606Z TNM04/1620Z TX03/1706Z \n BECMG 1602/1603 32008KT \n BECMG 1613/1614 07005KT \n BECMG 1700/1701 33008KT"
"taf	RKSI	2020-01-15 06:00:00	TAF RKSI 150500Z 1506/1612 33008KT CAVOK TNM05/1517Z TX02/1606Z \n TEMPO 1515/1518 07005KT"
"taf	RKSI	2020-01-15 06:06:00	TAF RKSI 150500Z 1506/1612 33008KT CAVOK TNM05/1517Z TX02/1606Z \n TEMPO 1515/1518 07005KT"
"taf	RKSI	2020-01-15 12:00:00	TAF RKSI 151100Z 1512/1618 33008KT CAVOK TNM05/1517Z TX03/1607Z \n TEMPO 1515/1518 07005KT"
"taf	RKSI	2020-01-15 12:09:00	TAF RKSI 151100Z 1512/1618 33008KT CAVOK TNM05/1517Z TX03/1607Z \n TEMPO 1515/1518 07005KT"
"taf	RKSI	2020-01-15 18:00:00	TAF RKSI 151700Z 1518/1624 07005KT CAVOK TNM05/1520Z TX02/1606Z TNM04/1620Z \n BECMG 1602/1603 32008KT \n BECMG 1613/1614 07005KT"
"taf	RKSI	2020-01-15 18:09:00	TAF RKSI 151700Z 1518/1624 07005KT CAVOK TNM05/1520Z TX02/1606Z TNM04/1620Z \n BECMG 1602/1603 32008KT \n BECMG 1613/1614 07005KT"
"taf	RKSI	2020-01-16 00:00:00	TAF RKSI 162300Z 1700/1806 07005KT 9999 FEW030 BKN180 TX03/1705Z TNM03/1721Z TX05/1806Z \n BECMG 1702/1703 33008KT \n BECMG 1717/1718 07006KT \n BECMG 1801/1802 26007KT"
"taf	RKSI	2020-01-16 00:06:00	TAF RKSI 162300Z 1700/1806 07005KT 9999 FEW030 BKN180 TX03/1705Z TNM03/1721Z TX05/1806Z \n BECMG 1702/1703 33008KT \n BECMG 1717/1718 07006KT \n BECMG 1801/1802 26007KT"
"taf	RKSI	2020-01-16 06:00:00	TAF RKSI 160500Z 1606/1712 33007KT CAVOK TNM05/1621Z TX03/1706Z \n BECMG 1623/1624 07005KT 9999 FEW030 BKN180 \n BECMG 1703/1704 33007KT"
"taf	RKSI	2020-01-16 06:06:00	TAF RKSI 160500Z 1606/1712 33007KT CAVOK TNM05/1621Z TX03/1706Z \n BECMG 1623/1624 07005KT 9999 FEW030 BKN180 \n BECMG 1703/1704 33007KT"
"taf	RKSI	2020-01-16 12:00:00	TAF RKSI 161100Z 1612/1718 35007KT 9999 FEW030 BKN180 TNM05/1623Z TX03/1705Z \n BECMG 1622/1623 07005KT \n BECMG 1702/1703 33007KT"
"taf	RKSI	2020-01-16 12:06:00	TAF RKSI 161100Z 1612/1718 35007KT 9999 FEW030 BKN180 TNM05/1623Z TX03/1705Z \n BECMG 1622/1623 07005KT \n BECMG 1702/1703 33007KT"
"taf	RKSI	2020-01-16 18:00:00	TAF RKSI 161700Z 1618/1724 07005KT 9999 FEW030 SCT180 TNM05/1621Z TX03/1705Z TNM03/1721Z \n BECMG 1702/1703 33007KT \n BECMG 1711/1712 07006KT"
"taf	RKSI	2020-01-16 18:09:00	TAF RKSI 161700Z 1618/1724 07005KT 9999 FEW030 SCT180 TNM05/1621Z TX03/1705Z TNM03/1721Z \n BECMG 1702/1703 33007KT \n BECMG 1711/1712 07006KT"
"taf	RKSI	2020-01-17 00:00:00	TAF RKSI 172300Z 1800/1906 34005KT 9999 FEW030 SCT180 TX05/1806Z TNM02/1817Z TX06/1905Z \n TEMPO 1816/1820 07005KT \n BECMG 1820/1821 16005KT BKN030 OVC100 \n BECMG 1900/1901 25010KT \n BECMG 1903/1904 27015G25KT \n TEMPO 1904/1906 6000 -RA"
"taf	RKSI	2020-01-17 00:06:00	TAF RKSI 172300Z 1800/1906 34005KT 9999 FEW030 SCT180 TX05/1806Z TNM02/1817Z TX06/1905Z \n TEMPO 1816/1820 07005KT \n BECMG 1820/1821 16005KT BKN030 OVC100 \n BECMG 1900/1901 25010KT \n BECMG 1903/1904 27015G25KT \n TEMPO 1904/1906 6000 -RA"
"taf	RKSI	2020-01-17 02:25:00	TAF \n AMD RKSI 170225Z 1702/1806 07005KT 9999 FEW030 BKN180 TX03/1705Z TNM03/1721Z TX05/1806Z \n BECMG 1704/1705 33008KT \n BECMG 1717/1718 07006KT \n BECMG 1801/1802 26007KT"
"taf	RKSI	2020-01-17 02:30:00	TAF \n AMD TAF \n AMD RKSI 170225Z 1702/1806 07005KT 9999 FEW030 BKN180 TX03/1705Z TNM03/1721Z TX05/1806Z \n BECMG 1704/1705 33008KT \n BECMG 1717/1718 07006KT \n BECMG 1801/1802 26007KT"
"taf	RKSI	2020-01-17 06:00:00	TAF RKSI 170500Z 1706/1812 33008KT CAVOK TNM03/1721Z TX05/1806Z \n BECMG 1717/1718 07006KT \n BECMG 1804/1805 26005KT"
"taf	RKSI	2020-01-17 06:06:00	TAF RKSI 170500Z 1706/1812 33008KT CAVOK TNM03/1721Z TX05/1806Z \n BECMG 1717/1718 07006KT \n BECMG 1804/1805 26005KT"
"taf	RKSI	2020-01-17 12:00:00	TAF RKSI 171100Z 1712/1818 33005KT 9999 FEW030 SCT150 TNM03/1721Z TX05/1806Z \n BECMG 1717/1718 07006KT \n BECMG 1804/1805 30005KT \n BECMG 1813/1814 07005KT"
"taf	RKSI	2020-01-17 12:06:00	TAF RKSI 171100Z 1712/1818 33005KT 9999 FEW030 SCT150 TNM03/1721Z TX05/1806Z \n BECMG 1717/1718 07006KT \n BECMG 1804/1805 30005KT \n BECMG 1813/1814 07005KT"
"taf	RKSI	2020-01-17 18:00:00	TAF RKSI 171700Z 1718/1824 34005KT 9999 FEW030 SCT120 TNM04/1722Z TX05/1806Z TNM02/1818Z \n TEMPO 1816/1819 07005KT \n BECMG 1819/1820 16005KT BKN030 OVC100"
"taf	RKSI	2020-01-17 18:06:00	TAF RKSI 171700Z 1718/1824 34005KT 9999 FEW030 SCT120 TNM04/1722Z TX05/1806Z TNM02/1818Z \n TEMPO 1816/1819 07005KT \n BECMG 1819/1820 16005KT BKN030 OVC100"
"taf	RKSI	2020-01-18 00:00:00	TAF RKSI 182300Z 1900/2006 26007KT 6000 FEW010 BKN030 OVC100 TX06/1904Z TNM03/1923Z TX04/2004Z \n BECMG 1902/1903 29015G30KT \n TEMPO 1903/1906 4200 -RA \n BECMG 1909/1910 32012KT SCT030 \n BECMG 1916/1917 BKN030 \n TEMPO 2003/2006 26006KT"
"taf	RKSI	2020-01-18 00:06:00	TAF RKSI 182300Z 1900/2006 26007KT 6000 FEW010 BKN030 OVC100 TX06/1904Z TNM03/1923Z TX04/2004Z \n BECMG 1902/1903 29015G30KT \n TEMPO 1903/1906 4200 -RA \n BECMG 1909/1910 32012KT SCT030 \n BECMG 1916/1917 BKN030 \n TEMPO 2003/2006 26006KT"
"taf	RKSI	2020-01-18 06:00:00	TAF RKSI 180500Z 1806/1912 31005KT CAVOK TNM02/1817Z TX06/1905Z \n BECMG 1820/1821 16005KT 9999 BKN030 OVC100 \n BECMG 1900/1901 27015G25KT \n TEMPO 1903/1906 6000 -RA \n BECMG 1909/1910 SCT030"
"taf	RKSI	2020-01-18 06:06:00	TAF RKSI 180500Z 1806/1912 31005KT CAVOK TNM02/1817Z TX06/1905Z \n BECMG 1820/1821 16005KT 9999 BKN030 OVC100 \n BECMG 1900/1901 27015G25KT \n TEMPO 1903/1906 6000 -RA \n BECMG 1909/1910 SCT030"
"taf	RKSI	2020-01-18 12:00:00	TAF RKSI 181100Z 1812/1918 25005KT CAVOK TNM02/1817Z TX06/1905Z \n BECMG 1820/1821 16005KT 9999 BKN030 OVC100 \n BECMG 1900/1901 27015G25KT \n TEMPO 1903/1906 6000 -RA \n BECMG 1907/1908 33015G25KT SCT030 \n BECMG 1914/1915 33012KT 6000 BKN030"
"taf	RKSI	2020-01-18 12:06:00	TAF RKSI 181100Z 1812/1918 25005KT CAVOK TNM02/1817Z TX06/1905Z \n BECMG 1820/1821 16005KT 9999 BKN030 OVC100 \n BECMG 1900/1901 27015G25KT \n TEMPO 1903/1906 6000 -RA \n BECMG 1907/1908 33015G25KT SCT030 \n BECMG 1914/1915 33012KT 6000 BKN030"
"taf	RKSI	2020-01-18 18:00:00	TAF RKSI 181700Z 1818/1924 17005KT 9999 SCT030 BKN160 TNM02/1819Z TX06/1905Z TNM03/1923Z \n BECMG 1820/1821 25007KT BKN030 OVC100 \n BECMG 1902/1903 27015G30KT \n TEMPO 1903/1906 6000 -RA \n BECMG 1908/1909 31012KT SCT030 \n TEMPO 1915/1920 BKN030"
"taf	RKSI	2020-01-18 18:09:00	TAF RKSI 181700Z 1818/1924 17005KT 9999 SCT030 BKN160 TNM02/1819Z TX06/1905Z TNM03/1923Z \n BECMG 1820/1821 25007KT BKN030 OVC100 \n BECMG 1902/1903 27015G30KT \n TEMPO 1903/1906 6000 -RA \n BECMG 1908/1909 31012KT SCT030 \n TEMPO 1915/1920 BKN030"
"taf	RKSI	2020-01-19 00:00:00	TAF RKSI 192300Z 2000/2106 24007KT 9999 SCT030 TX04/2006Z TNM05/2022Z TX03/2105Z \n BECMG 2003/2004 32020G30KT \n BECMG 2011/2012 33010KT \n BECMG 2020/2021 03005KT"
"taf	RKSI	2020-01-19 00:09:00	TAF RKSI 192300Z 2000/2106 24007KT 9999 SCT030 TX04/2006Z TNM05/2022Z TX03/2105Z \n BECMG 2003/2004 32020G30KT \n BECMG 2011/2012 33010KT \n BECMG 2020/2021 03005KT"
"taf	RKSI	2020-01-19 03:10:00	TAF \n AMD RKSI 190310Z 1903/2006 29013KT 3500 BR FEW010 BKN030 OVC100 TX06/1904Z TNM03/1923Z TX04/2004Z \n TEMPO 1903/1905 29015G30KT 1400 -RA \n BECMG 1906/1907 6000 NSW \n BECMG 1909/1910 32012KT SCT030 \n BECMG 1916/1917 BKN030 \n TEMPO 2003/2006 26006KT"
"taf	RKSI	2020-01-19 03:12:00	TAF \n AMD TAF \n AMD RKSI 190310Z 1903/2006 29013KT 3500 BR FEW010 BKN030 OVC100 TX06/1904Z TNM03/1923Z TX04/2004Z \n TEMPO 1903/1905 29015G30KT 1400 -RA \n BECMG 1906/1907 6000 NSW \n BECMG 1909/1910 32012KT SCT030 \n BECMG 1916/1917 BKN030 \n TEMPO 2003/2006 26006KT"
"taf	RKSI	2020-01-19 06:00:00	TAF RKSI 190500Z 1906/2012 31010KT 4200 BR SCT035 TNM03/1922Z TX03/2006Z \n BECMG 1907/1908 6000 NSW \n BECMG 1920/1921 01008KT \n BECMG 2000/2001 30010KT \n BECMG 2002/2003 32015G30KT \n BECMG 2004/2005 31010KT"
"taf	RKSI	2020-01-19 06:09:00	TAF RKSI 190500Z 1906/2012 31010KT 4200 BR SCT035 TNM03/1922Z TX03/2006Z \n BECMG 1907/1908 6000 NSW \n BECMG 1920/1921 01008KT \n BECMG 2000/2001 30010KT \n BECMG 2002/2003 32015G30KT \n BECMG 2004/2005 31010KT"
"taf	RKSI	2020-01-19 12:00:00	TAF RKSI 191100Z 1912/2018 30010KT 6000 FEW010 SCT035 TNM02/1922Z TX04/2006Z \n BECMG 1920/1921 36007KT \n BECMG 1923/1924 30010KT \n BECMG 2002/2003 32018G30KT CAVOK \n BECMG 2010/2011 33010KT \n BECMG 2015/2016 03006KT"
"taf	RKSI	2020-01-19 12:06:00	TAF RKSI 191100Z 1912/2018 30010KT 6000 FEW010 SCT035 TNM02/1922Z TX04/2006Z \n BECMG 1920/1921 36007KT \n BECMG 1923/1924 30010KT \n BECMG 2002/2003 32018G30KT CAVOK \n BECMG 2010/2011 33010KT \n BECMG 2015/2016 03006KT"
"taf	RKSI	2020-01-19 18:00:00	TAF RKSI 191700Z 1918/2024 33010KT 9999 BKN035 TNM02/1922Z TX04/2006Z TNM05/2022Z \n BECMG 2000/2001 24007KT \n BECMG 2003/2004 32020G30KT CAVOK \n BECMG 2011/2012 33010KT \n BECMG 2020/2021 03005KT"
"taf	RKSI	2020-01-19 18:06:00	TAF RKSI 191700Z 1918/2024 33010KT 9999 BKN035 TNM02/1922Z TX04/2006Z TNM05/2022Z \n BECMG 2000/2001 24007KT \n BECMG 2003/2004 32020G30KT CAVOK \n BECMG 2011/2012 33010KT \n BECMG 2020/2021 03005KT"
"taf	RKSI	2020-01-19 20:40:00	TAF \n AMD RKSI 191940Z 1920/2024 33010KT 7000 BKN035 TNM02/1922Z TX04/2006Z TNM05/2022Z \n TEMPO 1920/1922 -SHSN \n BECMG 2000/2001 24007KT \n BECMG 2003/2004 32020G30KT CAVOK \n BECMG 2011/2012 33010KT \n BECMG 2020/2021 03005KT"
"taf	RKSI	2020-01-19 20:42:00	TAF \n AMD TAF \n AMD RKSI 191940Z 1920/2024 33010KT 7000 BKN035 TNM02/1922Z TX04/2006Z TNM05/2022Z \n TEMPO 1920/1922 -SHSN \n BECMG 2000/2001 24007KT \n BECMG 2003/2004 32020G30KT CAVOK \n BECMG 2011/2012 33010KT \n BECMG 2020/2021 03005KT"
"taf	RKSI	2020-01-20 00:00:00	TAF RKSI 202300Z 2100/2206 04005KT CAVOK TX02/2106Z TNM01/2121Z TX06/2205Z \n BECMG 2111/2112 10005KT 6000 FEW030 BKN150 \n BECMG 2200/2201 04006KT"
"taf	RKSI	2020-01-20 00:06:00	TAF RKSI 202300Z 2100/2206 04005KT CAVOK TX02/2106Z TNM01/2121Z TX06/2205Z \n BECMG 2111/2112 10005KT 6000 FEW030 BKN150 \n BECMG 2200/2201 04006KT"
"taf	RKSI	2020-01-20 06:00:00	TAF RKSI 200500Z 2006/2112 28010KT 6000 SCT045 TNM05/2022Z TX02/2106Z \n BECMG 2007/2008 31018G30KT CAVOK \n BECMG 2012/2013 32012KT \n BECMG 2017/2018 02008KT \n BECMG 2022/2023 08005KT"
"taf	RKSI	2020-01-20 06:06:00	TAF RKSI 200500Z 2006/2112 28010KT 6000 SCT045 TNM05/2022Z TX02/2106Z \n BECMG 2007/2008 31018G30KT CAVOK \n BECMG 2012/2013 32012KT \n BECMG 2017/2018 02008KT \n BECMG 2022/2023 08005KT"
"taf	RKSI	2020-01-20 08:32:00	TAF \n AMD RKSI 200632Z 2008/2112 30015G25KT CAVOK TNM05/2022Z TX02/2106Z \n TEMPO 2008/2011 31020G35KT \n BECMG 2012/2013 32012KT \n BECMG 2017/2018 02008KT \n BECMG 2022/2023 08005KT"
"taf	RKSI	2020-01-20 08:33:00	TAF \n AMD TAF \n AMD RKSI 200632Z 2008/2112 30015G25KT CAVOK TNM05/2022Z TX02/2106Z \n TEMPO 2008/2011 31020G35KT \n BECMG 2012/2013 32012KT \n BECMG 2017/2018 02008KT \n BECMG 2022/2023 08005KT"
"taf	RKSI	2020-01-20 12:00:00	TAF RKSI 201100Z 2012/2118 34010KT CAVOK TNM05/2022Z TX02/2106Z \n BECMG 2018/2019 04006KT \n BECMG 2111/2112 10005KT"
"taf	RKSI	2020-01-20 12:06:00	TAF RKSI 201100Z 2012/2118 34010KT CAVOK TNM05/2022Z TX02/2106Z \n BECMG 2018/2019 04006KT \n BECMG 2111/2112 10005KT"
"taf	RKSI	2020-01-20 18:00:00	TAF RKSI 201700Z 2018/2124 04005KT CAVOK TNM04/2022Z TX02/2106Z TNM01/2121Z \n BECMG 2111/2112 10005KT 6000 FEW030 BKN120"
"taf	RKSI	2020-01-20 18:06:00	TAF RKSI 201700Z 2018/2124 04005KT CAVOK TNM04/2022Z TX02/2106Z TNM01/2121Z \n BECMG 2111/2112 10005KT 6000 FEW030 BKN120"
"taf	RKSI	2020-01-21 00:00:00	TAF RKSI 212300Z 2200/2306 07005KT 9999 FEW035 BKN080 TX08/2206Z TN03/2222Z TX10/2306Z \n BECMG 2203/2204 36008KT CAVOK \n BECMG 2304/2305 30010KT"
"taf	RKSI	2020-01-21 00:09:00	TAF RKSI 212300Z 2200/2306 07005KT 9999 FEW035 BKN080 TX08/2206Z TN03/2222Z TX10/2306Z \n BECMG 2203/2204 36008KT CAVOK \n BECMG 2304/2305 30010KT"
"taf	RKSI	2020-01-21 06:00:00	TAF RKSI 210500Z 2106/2212 33005KT CAVOK TNM01/2121Z TX06/2205Z \n BECMG 2111/2112 10005KT 6000 FEW030 BKN150 \n BECMG 2200/2201 33006KT \n BECMG 2211/2212 05010KT"
"taf	RKSI	2020-01-21 06:06:00	TAF RKSI 210500Z 2106/2212 33005KT CAVOK TNM01/2121Z TX06/2205Z \n BECMG 2111/2112 10005KT 6000 FEW030 BKN150 \n BECMG 2200/2201 33006KT \n BECMG 2211/2212 05010KT"
"taf	RKSI	2020-01-21 12:00:00	TAF RKSI 211100Z 2112/2218 10005KT 6000 FEW030 BKN150 TNM01/2121Z TX06/2205Z \n BECMG 2201/2202 32006KT \n BECMG 2211/2212 05010KT"
"taf	RKSI	2020-01-21 12:09:00	TAF RKSI 211100Z 2112/2218 10005KT 6000 FEW030 BKN150 TNM01/2121Z TX06/2205Z \n BECMG 2201/2202 32006KT \n BECMG 2211/2212 05010KT"
"taf	RKSI	2020-01-21 18:00:00	TAF RKSI 211700Z 2118/2224 05005KT 6000 FEW035 BKN100 TNM02/2122Z TX06/2206Z TN03/2222Z \n BECMG 2203/2204 11007KT CAVOK \n TEMPO 2208/2210 35008KT \n BECMG 2211/2212 02010KT"
"taf	RKSI	2020-01-21 18:06:00	TAF RKSI 211700Z 2118/2224 05005KT 6000 FEW035 BKN100 TNM02/2122Z TX06/2206Z TN03/2222Z \n BECMG 2203/2204 11007KT CAVOK \n TEMPO 2208/2210 35008KT \n BECMG 2211/2212 02010KT"
"taf	RKSI	2020-01-22 00:00:00	TAF RKSI 222300Z 2300/2406 34008KT 6000 NSC TX09/2306Z TNM00/2322Z TX08/2406Z"
"taf	RKSI	2020-01-22 00:06:00	TAF RKSI 222300Z 2300/2406 34008KT 6000 NSC TX09/2306Z TNM00/2322Z TX08/2406Z"
"taf	RKSI	2020-01-22 06:00:00	TAF RKSI 220500Z 2206/2312 05010KT CAVOK TN03/2222Z TX10/2306Z \n BECMG 2221/2222 32010KT"
"taf	RKSI	2020-01-22 06:06:00	TAF RKSI 220500Z 2206/2312 05010KT CAVOK TN03/2222Z TX10/2306Z \n BECMG 2221/2222 32010KT"
"taf	RKSI	2020-01-22 12:00:00	TAF RKSI 221100Z 2212/2318 13008KT 9999 FEW030 BKN180 TN03/2222Z TX10/2306Z \n BECMG 2215/2216 05010KT \n BECMG 2223/2224 32010KT CAVOK"
"taf	RKSI	2020-01-22 12:06:00	TAF RKSI 221100Z 2212/2318 13008KT 9999 FEW030 BKN180 TN03/2222Z TX10/2306Z \n BECMG 2215/2216 05010KT \n BECMG 2223/2224 32010KT CAVOK"
"taf	RKSI	2020-01-22 18:00:00	TAF RKSI 221700Z 2218/2324 04005KT CAVOK TN01/2222Z TX09/2306Z TNM00/2322Z \n BECMG 2223/2224 34010KT"
"taf	RKSI	2020-01-22 18:09:00	TAF RKSI 221700Z 2218/2324 04005KT CAVOK TN01/2222Z TX09/2306Z TNM00/2322Z \n BECMG 2223/2224 34010KT"
"taf	RKSI	2020-01-23 00:00:00	TAF RKSI 232300Z 2400/2506 34008KT 7000 NSC TX06/2406Z TN01/2422Z TX08/2505Z \n BECMG 2416/2417 03005KT 4200 BR FEW030 BKN180 \n BECMG 2423/2424 33007KT 7000 NSW"
"taf	RKSI	2020-01-23 00:09:00	TAF RKSI 232300Z 2400/2506 34008KT 7000 NSC TX06/2406Z TN01/2422Z TX08/2505Z \n BECMG 2416/2417 03005KT 4200 BR FEW030 BKN180 \n BECMG 2423/2424 33007KT 7000 NSW"
"taf	RKSI	2020-01-23 06:00:00	TAF RKSI 230500Z 2306/2412 34010KT 8000 NSC TNM01/2322Z TX08/2406Z \n TEMPO 2315/2319 4200 BR"
"taf	RKSI	2020-01-23 06:06:00	TAF RKSI 230500Z 2306/2412 34010KT 8000 NSC TNM01/2322Z TX08/2406Z \n TEMPO 2315/2319 4200 BR"
"taf	RKSI	2020-01-23 12:00:00	TAF RKSI 231100Z 2312/2418 34010KT 8000 NSC TNM01/2322Z TX08/2406Z \n TEMPO 2315/2319 4200 BR \n BECMG 2414/2415 02005KT 4200 BR FEW030"
"taf	RKSI	2020-01-23 12:06:00	TAF RKSI 231100Z 2312/2418 34010KT 8000 NSC TNM01/2322Z TX08/2406Z \n TEMPO 2315/2319 4200 BR \n BECMG 2414/2415 02005KT 4200 BR FEW030"
"taf	RKSI	2020-01-23 18:00:00	TAF RKSI 231700Z 2318/2424 34008KT 4200 BR NSC TNM01/2322Z TX07/2406Z TN01/2422Z \n TEMPO 2318/2322 2500 \n BECMG 2400/2401 7000 NSW \n BECMG 2416/2417 02005KT 4200 BR FEW030 BKN180"
"taf	RKSI	2020-01-23 18:09:00	TAF RKSI 231700Z 2318/2424 34008KT 4200 BR NSC TNM01/2322Z TX07/2406Z TN01/2422Z \n TEMPO 2318/2322 2500 \n BECMG 2400/2401 7000 NSW \n BECMG 2416/2417 02005KT 4200 BR FEW030 BKN180"
"taf	RKSI	2020-01-24 00:00:00	TAF RKSI 242300Z 2500/2606 07005KT 7000 FEW030 BKN180 TX07/2506Z TN00/2521Z TX09/2605Z \n BECMG 2503/2504 32006KT \n TEMPO 2512/2518 05010KT \n BECMG 2519/2520 07010KT"
"taf	RKSI	2020-01-24 00:06:00	TAF RKSI 242300Z 2500/2606 07005KT 7000 FEW030 BKN180 TX07/2506Z TN00/2521Z TX09/2605Z \n BECMG 2503/2504 32006KT \n TEMPO 2512/2518 05010KT \n BECMG 2519/2520 07010KT"
"taf	RKSI	2020-01-24 06:00:00	TAF RKSI 240500Z 2406/2512 34008KT 8000 NSC TN01/2419Z TX08/2505Z \n BECMG 2415/2416 03005KT 4200 BR FEW030 BKN180 \n BECMG 2423/2424 34007KT 6000 NSW"
"taf	RKSI	2020-01-24 06:09:00	TAF RKSI 240500Z 2406/2512 34008KT 8000 NSC TN01/2419Z TX08/2505Z \n BECMG 2415/2416 03005KT 4200 BR FEW030 BKN180 \n BECMG 2423/2424 34007KT 6000 NSW"
"taf	RKSI	2020-01-24 12:00:00	TAF RKSI 241100Z 2412/2518 34005KT 8000 FEW030 SCT180 TN01/2418Z TX08/2506Z \n BECMG 2414/2415 02005KT 4200 BR \n BECMG 2502/2503 34006KT 6000 NSW NSC \n BECMG 2517/2518 03005KT 4200 BR"
"taf	RKSI	2020-01-24 12:09:00	TAF RKSI 241100Z 2412/2518 34005KT 8000 FEW030 SCT180 TN01/2418Z TX08/2506Z \n BECMG 2414/2415 02005KT 4200 BR \n BECMG 2502/2503 34006KT 6000 NSW NSC \n BECMG 2517/2518 03005KT 4200 BR"
"taf	RKSI	2020-01-24 18:00:00	TAF RKSI 241700Z 2418/2524 08005KT 7000 FEW030 BKN180 TNM02/2421Z TX07/2506Z TN00/2521Z \n BECMG 2502/2503 32006KT \n TEMPO 2512/2518 02010KT \n BECMG 2519/2520 05010KT"
"taf	RKSI	2020-01-24 18:06:00	TAF RKSI 241700Z 2418/2524 08005KT 7000 FEW030 BKN180 TNM02/2421Z TX07/2506Z TN00/2521Z \n BECMG 2502/2503 32006KT \n TEMPO 2512/2518 02010KT \n BECMG 2519/2520 05010KT"
"taf	RKSI	2020-01-25 00:00:00	TAF RKSI 252300Z 2600/2706 05009KT 8000 NSC TX10/2607Z TN04/2621Z TX06/2706Z \n BECMG 2610/2611 06015G25KT FEW030 SCT120 \n BECMG 2615/2616 06012KT \n BECMG 2623/2624 05015G25KT SCT030 BKN100"
"taf	RKSI	2020-01-25 00:09:00	TAF RKSI 252300Z 2600/2706 05009KT 8000 NSC TX10/2607Z TN04/2621Z TX06/2706Z \n BECMG 2610/2611 06015G25KT FEW030 SCT120 \n BECMG 2615/2616 06012KT \n BECMG 2623/2624 05015G25KT SCT030 BKN100"
"taf	RKSI	2020-01-25 06:00:00	TAF RKSI 250500Z 2506/2612 34008KT 8000 FEW035 BKN180 TN01/2522Z TX10/2606Z \n BECMG 2518/2519 04010KT"
"taf	RKSI	2020-01-25 06:06:00	TAF RKSI 250500Z 2506/2612 34008KT 8000 FEW035 BKN180 TN01/2522Z TX10/2606Z \n BECMG 2518/2519 04010KT"
"taf	RKSI	2020-01-25 12:00:00	TAF RKSI 251100Z 2512/2618 34008KT 6000 NSC TN01/2522Z TX10/2606Z \n BECMG 2518/2519 04010KT \n BECMG 2611/2612 05015G25KT"
"taf	RKSI	2020-01-25 12:09:00	TAF RKSI 251100Z 2512/2618 34008KT 6000 NSC TN01/2522Z TX10/2606Z \n BECMG 2518/2519 04010KT \n BECMG 2611/2612 05015G25KT"
"taf	RKSI	2020-01-25 18:00:00	TAF RKSI 251700Z 2518/2624 04009KT 7000 NSC TN00/2522Z TX10/2607Z TN04/2621Z \n BECMG 2610/2611 06015G25KT FEW030 SCT120 \n BECMG 2615/2616 06012KT \n BECMG 2623/2624 05015G25KT SCT030 BKN100"
"taf	RKSI	2020-01-25 18:06:00	TAF RKSI 251700Z 2518/2624 04009KT 7000 NSC TN00/2522Z TX10/2607Z TN04/2621Z \n BECMG 2610/2611 06015G25KT FEW030 SCT120 \n BECMG 2615/2616 06012KT \n BECMG 2623/2624 05015G25KT SCT030 BKN100"
"taf	RKSI	2020-01-26 00:00:00	TAF RKSI 262300Z 2700/2806 06010KT 9999 FEW030 BKN120 TX07/2707Z TN04/2722Z TX08/2805Z \n BECMG 2702/2703 06015G25KT \n BECMG 2705/2706 03012KT 6000 BKN030 OVC100 \n BECMG 2709/2710 4200 -RA \n BECMG 2721/2722 6000 NSW"
"taf	RKSI	2020-01-26 00:09:00	TAF RKSI 262300Z 2700/2806 06010KT 9999 FEW030 BKN120 TX07/2707Z TN04/2722Z TX08/2805Z \n BECMG 2702/2703 06015G25KT \n BECMG 2705/2706 03012KT 6000 BKN030 OVC100 \n BECMG 2709/2710 4200 -RA \n BECMG 2721/2722 6000 NSW"
"taf	RKSI	2020-01-26 06:00:00	TAF RKSI 260500Z 2606/2712 05010KT CAVOK TN04/2621Z TX06/2706Z \n BECMG 2610/2611 06015G25KT 9999 FEW030 SCT120 \n BECMG 2703/2704 02012KT 6000 BKN030 OVC100 \n BECMG 2711/2712 -RA"
"taf	RKSI	2020-01-26 06:09:00	TAF RKSI 260500Z 2606/2712 05010KT CAVOK TN04/2621Z TX06/2706Z \n BECMG 2610/2611 06015G25KT 9999 FEW030 SCT120 \n BECMG 2703/2704 02012KT 6000 BKN030 OVC100 \n BECMG 2711/2712 -RA"
"taf	RKSI	2020-01-26 12:00:00	TAF RKSI 261100Z 2612/2718 07015G25KT 9999 FEW030 BKN150 TN04/2621Z TX06/2706Z \n BECMG 2703/2704 02012KT 6000 BKN030 OVC100 \n BECMG 2711/2712 -RA"
"taf	RKSI	2020-01-26 12:06:00	TAF RKSI 261100Z 2612/2718 07015G25KT 9999 FEW030 BKN150 TN04/2621Z TX06/2706Z \n BECMG 2703/2704 02012KT 6000 BKN030 OVC100 \n BECMG 2711/2712 -RA"
"taf	RKSI	2020-01-26 18:00:00	TAF RKSI 261700Z 2618/2724 06010KT 9999 FEW030 BKN120 TN04/2622Z TX07/2707Z TN04/2722Z \n BECMG 2622/2623 06015G25KT \n BECMG 2705/2706 04012KT 6000 BKN030 OVC100 \n BECMG 2710/2711 4200 -RA \n BECMG 2721/2722 6000 NSW"
"taf	RKSI	2020-01-26 18:06:00	TAF RKSI 261700Z 2618/2724 06010KT 9999 FEW030 BKN120 TN04/2622Z TX07/2707Z TN04/2722Z \n BECMG 2622/2623 06015G25KT \n BECMG 2705/2706 04012KT 6000 BKN030 OVC100 \n BECMG 2710/2711 4200 -RA \n BECMG 2721/2722 6000 NSW"
"taf	RKSI	2020-01-27 00:00:00	TAF RKSI 272300Z 2800/2906 02010KT 9999 SCT035 BKN120 TX07/2806Z TN03/2821Z TX06/2905Z"
"taf	RKSI	2020-01-27 00:09:00	TAF RKSI 272300Z 2800/2906 02010KT 9999 SCT035 BKN120 TX07/2806Z TN03/2821Z TX06/2905Z"
"taf	RKSI	2020-01-27 05:00:00	TAF \n AMD RKSI 270442Z 2705/2806 02010KT 6000 FEW010 BKN035 OVC100 TX07/2707Z TN04/2722Z TX08/2805Z \n TEMPO 2705/2709 -RA \n BECMG 2710/2711 01015G25KT 3500 -RA \n BECMG 2721/2722 36010KT 6000 NSW \n BECMG 2800/2801 SCT035 BKN150"
"taf	RKSI	2020-01-27 05:42:00	TAF \n AMD RKSI 270442Z 2705/2806 02010KT 6000 FEW010 BKN035 OVC100 TX07/2707Z TN04/2722Z TX08/2805Z \n TEMPO 2705/2709 -RA \n BECMG 2710/2711 01015G25KT 3500 -RA \n BECMG 2721/2722 36010KT 6000 NSW \n BECMG 2800/2801 SCT035 BKN150"
"taf	RKSI	2020-01-27 05:45:00	TAF \n AMD TAF \n AMD RKSI 270442Z 2705/2806 02010KT 6000 FEW010 BKN035 OVC100 TX07/2707Z TN04/2722Z TX08/2805Z \n TEMPO 2705/2709 -RA \n BECMG 2710/2711 01015G25KT 3500 -RA \n BECMG 2721/2722 36010KT 6000 NSW \n BECMG 2800/2801 SCT035 BKN150"
"taf	RKSI	2020-01-27 06:00:00	TAF RKSI 270500Z 2706/2812 07010KT 6000 FEW010 BKN040 OVC100 TN04/2722Z TX07/2806Z \n TEMPO 2706/2709 01010KT -RA \n BECMG 2710/2711 01015G25KT 3500 -RA \n BECMG 2721/2722 36010KT 6000 NSW \n BECMG 2800/2801 SCT035 BKN150"
"taf	RKSI	2020-01-27 06:06:00	TAF RKSI 270500Z 2706/2812 07010KT 6000 FEW010 BKN040 OVC100 TN04/2722Z TX07/2806Z \n TEMPO 2706/2709 01010KT -RA \n BECMG 2710/2711 01015G25KT 3500 -RA \n BECMG 2721/2722 36010KT 6000 NSW \n BECMG 2800/2801 SCT035 BKN150"
"taf	RKSI	2020-01-27 12:00:00	TAF RKSI 271100Z 2712/2818 05010KT 6000 -RA FEW010 BKN030 OVC100 TN04/2722Z TX07/2806Z \n BECMG 2722/2723 02008KT 4200 -DZ \n BECMG 2800/2801 6000 NSW SCT035 BKN150"
"taf	RKSI	2020-01-27 12:09:00	TAF RKSI 271100Z 2712/2818 05010KT 6000 -RA FEW010 BKN030 OVC100 TN04/2722Z TX07/2806Z \n BECMG 2722/2723 02008KT 4200 -DZ \n BECMG 2800/2801 6000 NSW SCT035 BKN150"
"taf	RKSI	2020-01-27 18:00:00	TAF RKSI 271700Z 2718/2824 01010KT 9999 BKN030 OVC100 TN04/2722Z TX07/2806Z TN03/2821Z \n BECMG 2800/2801 SCT035 BKN120"
"taf	RKSI	2020-01-27 18:09:00	TAF RKSI 271700Z 2718/2824 01010KT 9999 BKN030 OVC100 TN04/2722Z TX07/2806Z TN03/2821Z \n BECMG 2800/2801 SCT035 BKN120"
"taf	RKSI	2020-01-28 00:00:00	TAF RKSI 282300Z 2900/3006 03010KT 9999 SCT030 BKN120 TX07/2906Z TN01/2921Z TX06/3005Z \n BECMG 2904/2905 33006KT"
"taf	RKSI	2020-01-28 00:09:00	TAF RKSI 282300Z 2900/3006 03010KT 9999 SCT030 BKN120 TX07/2906Z TN01/2921Z TX06/3005Z \n BECMG 2904/2905 33006KT"
"taf	RKSI	2020-01-28 06:00:00	TAF RKSI 280500Z 2806/2912 03010KT CAVOK TN02/2822Z TX07/2906Z \n BECMG 2903/2904 33007KT"
"taf	RKSI	2020-01-28 06:09:00	TAF RKSI 280500Z 2806/2912 03010KT CAVOK TN02/2822Z TX07/2906Z \n BECMG 2903/2904 33007KT"
"taf	RKSI	2020-01-28 12:00:00	TAF RKSI 281100Z 2812/2918 02010KT CAVOK TN02/2822Z TX07/2906Z \n BECMG 2904/2905 32007KT"
"taf	RKSI	2020-01-28 12:09:00	TAF RKSI 281100Z 2812/2918 02010KT CAVOK TN02/2822Z TX07/2906Z \n BECMG 2904/2905 32007KT"
"taf	RKSI	2020-01-28 18:00:00	TAF RKSI 281700Z 2818/2924 03010KT 9999 FEW030 BKN120 TN02/2822Z TX07/2906Z TN01/2921Z \n BECMG 2904/2905 33006KT"
"taf	RKSI	2020-01-28 18:09:00	TAF RKSI 281700Z 2818/2924 03010KT 9999 FEW030 BKN120 TN02/2822Z TX07/2906Z TN01/2921Z \n BECMG 2904/2905 33006KT"
"taf	RKSI	2020-01-29 00:00:00	TAF RKSI 292300Z 3000/3106 07006KT CAVOK TX07/3006Z TNM01/3022Z TX05/3106Z \n BECMG 3003/3004 30006KT \n BECMG 3015/3016 07006KT \n BECMG 3100/3101 29006KT 6000 FEW010 BKN040 \n BECMG 3103/3104 SCT045"
"taf	RKSI	2020-01-29 00:09:00	TAF RKSI 292300Z 3000/3106 07006KT CAVOK TX07/3006Z TNM01/3022Z TX05/3106Z \n BECMG 3003/3004 30006KT \n BECMG 3015/3016 07006KT \n BECMG 3100/3101 29006KT 6000 FEW010 BKN040 \n BECMG 3103/3104 SCT045"
"taf	RKSI	2020-01-29 06:00:00	TAF RKSI 290500Z 2906/3012 32008KT 9999 SCT030 BKN120 TN01/2921Z TX06/3005Z \n BECMG 2914/2915 07006KT \n BECMG 3003/3004 33008KT"
"taf	RKSI	2020-01-29 06:09:00	TAF RKSI 290500Z 2906/3012 32008KT 9999 SCT030 BKN120 TN01/2921Z TX06/3005Z \n BECMG 2914/2915 07006KT \n BECMG 3003/3004 33008KT"
"taf	RKSI	2020-01-29 12:00:00	TAF RKSI 291100Z 2912/3018 32008KT 9999 SCT030 BKN120 TN01/2921Z TX06/3005Z \n BECMG 2914/2915 07006KT \n BECMG 3003/3004 33008KT \n BECMG 3015/3016 07006KT"
"taf	RKSI	2020-01-29 12:09:00	TAF RKSI 291100Z 2912/3018 32008KT 9999 SCT030 BKN120 TN01/2921Z TX06/3005Z \n BECMG 2914/2915 07006KT \n BECMG 3003/3004 33008KT \n BECMG 3015/3016 07006KT"
"taf	RKSI	2020-01-29 18:00:00	TAF RKSI 291700Z 2918/3024 04006KT CAVOK TN00/2922Z TX07/3006Z TNM01/3022Z \n BECMG 3001/3002 10006KT \n BECMG 3003/3004 30007KT \n BECMG 3015/3016 07005KT"
"taf	RKSI	2020-01-29 18:09:00	TAF RKSI 291700Z 2918/3024 04006KT CAVOK TN00/2922Z TX07/3006Z TNM01/3022Z \n BECMG 3001/3002 10006KT \n BECMG 3003/3004 30007KT \n BECMG 3015/3016 07005KT"
"taf	RKSI	2020-01-30 00:00:00	TAF RKSI 302300Z 3100/0106 31008KT 6000 FEW035 TX06/3106Z TNM03/3122Z TX06/0106Z \n BECMG 3122/3123 07006KT 4200 BR \n BECMG 0100/0101 33010KT 6000 NSW"
"taf	RKSI	2020-01-30 00:09:00	TAF RKSI 302300Z 3100/0106 31008KT 6000 FEW035 TX06/3106Z TNM03/3122Z TX06/0106Z \n BECMG 3122/3123 07006KT 4200 BR \n BECMG 0100/0101 33010KT 6000 NSW"
"taf	RKSI	2020-01-30 06:00:00	TAF RKSI 300500Z 3006/3112 33006KT 9999 SCT030 TNM01/3022Z TX05/3106Z \n BECMG 3012/3013 FEW010 BKN030 \n BECMG 3015/3016 07006KT \n BECMG 3101/3102 29006KT CAVOK"
"taf	RKSI	2020-01-30 06:09:00	TAF RKSI 300500Z 3006/3112 33006KT 9999 SCT030 TNM01/3022Z TX05/3106Z \n BECMG 3012/3013 FEW010 BKN030 \n BECMG 3015/3016 07006KT \n BECMG 3101/3102 29006KT CAVOK"
"taf	RKSI	2020-01-30 12:00:00	TAF RKSI 301100Z 3012/3118 30006KT 9999 SCT030 TNM01/3022Z TX05/3106Z \n BECMG 3015/3016 07006KT \n BECMG 3018/3019 FEW010 BKN030 \n BECMG 3022/3023 29006KT CAVOK \n BECMG 3113/3114 07006KT"
"taf	RKSI	2020-01-30 12:09:00	TAF RKSI 301100Z 3012/3118 30006KT 9999 SCT030 TNM01/3022Z TX05/3106Z \n BECMG 3015/3016 07006KT \n BECMG 3018/3019 FEW010 BKN030 \n BECMG 3022/3023 29006KT CAVOK \n BECMG 3113/3114 07006KT"
"taf	RKSI	2020-01-30 18:00:00	TAF RKSI 301700Z 3018/3124 07005KT CAVOK TN00/3022Z TX05/3106Z TNM04/3122Z \n BECMG 3102/3103 30007KT \n BECMG 3117/3118 07005KT"
"taf	RKSI	2020-01-30 18:09:00	TAF RKSI 301700Z 3018/3124 07005KT CAVOK TN00/3022Z TX05/3106Z TNM04/3122Z \n BECMG 3102/3103 30007KT \n BECMG 3117/3118 07005KT"
"taf	RKSI	2020-01-31 00:00:00	TAF RKSI 312300Z 0100/0206 27006KT 7000 NSC TX06/0106Z TNM03/0121Z TX03/0205Z \n BECMG 0105/0106 33010KT \n BECMG 0115/0116 07006KT \n BECMG 0202/0203 26006KT"
"taf	RKSI	2020-01-31 00:09:00	TAF RKSI 312300Z 0100/0206 27006KT 7000 NSC TX06/0106Z TNM03/0121Z TX03/0205Z \n BECMG 0105/0106 33010KT \n BECMG 0115/0116 07006KT \n BECMG 0202/0203 26006KT"
"taf	RKSI	2020-01-31 06:00:00	TAF RKSI 310500Z 3106/0112 28006KT 7000 FEW030 TNM02/3122Z TX06/0106Z \n BECMG 3120/3121 07005KT 4200 BR BKN030 \n BECMG 0100/0101 33010KT 7000 NSW SCT030"
"taf	RKSI	2020-01-31 06:09:00	TAF RKSI 310500Z 3106/0112 28006KT 7000 FEW030 TNM02/3122Z TX06/0106Z \n BECMG 3120/3121 07005KT 4200 BR BKN030 \n BECMG 0100/0101 33010KT 7000 NSW SCT030"
"taf	RKSI	2020-01-31 12:00:00	TAF RKSI 311100Z 3112/0118 31008KT 7000 NSC TNM02/3122Z TX06/0106Z \n BECMG 3120/3121 07005KT 4200 BR BKN030 \n BECMG 0100/0101 32010KT 7000 NSW SCT030"
"taf	RKSI	2020-01-31 12:09:00	TAF RKSI 311100Z 3112/0118 31008KT 7000 NSC TNM02/3122Z TX06/0106Z \n BECMG 3120/3121 07005KT 4200 BR BKN030 \n BECMG 0100/0101 32010KT 7000 NSW SCT030"
"taf	RKSI	2020-01-31 18:00:00	TAF RKSI 311700Z 3118/0124 06005KT 7000 NSC TNM03/3122Z TX06/0106Z TNM03/0121Z \n BECMG 0100/0101 24006KT \n BECMG 0105/0106 33010KT \n BECMG 0115/0116 07006KT"
"taf	RKSI	2020-01-31 18:09:00	TAF RKSI 311700Z 3118/0124 06005KT 7000 NSC TNM03/3122Z TX06/0106Z TNM03/0121Z \n BECMG 0100/0101 24006KT \n BECMG 0105/0106 33010KT \n BECMG 0115/0116 07006KT"
"taf	RKSI	2020-01-31 21:42:00	TAF \n AMD TAF \n AMD RKSI 312045Z 3121/0124 06005KT 7000 NSC TNM03/3122Z TX06/0106Z TNM03/0121Z \n TEMPO 3121/3123 BKN030 \n BECMG 0100/0101 24006KT \n BECMG 0105/0106 33010KT \n BECMG 0115/0116 07006KT"
"taf	RKSI	2020-01-31 21:45:00	TAF \n AMD RKSI 312045Z 3121/0124 06005KT 7000 NSC TNM03/3122Z TX06/0106Z TNM03/0121Z \n TEMPO 3121/3123 BKN030 \n BECMG 0100/0101 24006KT \n BECMG 0105/0106 33010KT \n BECMG 0115/0116 07006KT"
"taf	RKSI	2020-02-01 00:00:00	TAF RKSI 012300Z 0200/0306 07006KT 8000 FEW030 BKN180 TX03/0206Z TNM03/0221Z TX02/0305Z \n BECMG 0202/0203 27006KT \n BECMG 0213/0214 34010KT 3500 -SN FEW010 BKN025 OVC080 \n BECMG 0218/0219 8000 NSW SCT030"
"taf	RKSI	2020-02-01 00:09:00	TAF RKSI 012300Z 0200/0306 07006KT 8000 FEW030 BKN180 TX03/0206Z TNM03/0221Z TX02/0305Z \n BECMG 0202/0203 27006KT \n BECMG 0213/0214 34010KT 3500 -SN FEW010 BKN025 OVC080 \n BECMG 0218/0219 8000 NSW SCT030"
"taf	RKSI	2020-02-01 00:29:00	TAF \n AMD RKSI 010029Z 0100/0206 27006KT 7000 BKN030 TX06/0106Z TNM03/0121Z TX03/0205Z \n BECMG 0105/0106 33010KT NSC \n BECMG 0115/0116 07006KT \n BECMG 0202/0203 26006KT"
"taf	RKSI	2020-02-01 00:39:00	TAF \n AMD TAF \n AMD RKSI 010029Z 0100/0206 27006KT 7000 BKN030 TX06/0106Z TNM03/0121Z TX03/0205Z \n BECMG 0105/0106 33010KT NSC \n BECMG 0115/0116 07006KT \n BECMG 0202/0203 26006KT"
"taf	RKSI	2020-02-01 06:00:00	TAF RKSI 010500Z 0106/0212 32010KT 4200 BR BKN030 TNM03/0122Z TX02/0206Z \n BECMG 0107/0108 FEW035 \n BECMG 0111/0112 6000 NSW \n BECMG 0203/0204 26006KT \n BECMG 0205/0206 33010KT"
"taf	RKSI	2020-02-01 06:09:00	TAF RKSI 010500Z 0106/0212 32010KT 4200 BR BKN030 TNM03/0122Z TX02/0206Z \n BECMG 0107/0108 FEW035 \n BECMG 0111/0112 6000 NSW \n BECMG 0203/0204 26006KT \n BECMG 0205/0206 33010KT"
"taf	RKSI	2020-02-01 12:00:00	TAF RKSI 011100Z 0112/0218 32010KT CAVOK TNM03/0122Z TX03/0206Z \n BECMG 0214/0215 9999 FEW010 BKN025 BKN100 \n BECMG 0217/0218 34010KT 3500 -SN"
"taf	RKSI	2020-02-01 12:09:00	TAF RKSI 011100Z 0112/0218 32010KT CAVOK TNM03/0122Z TX03/0206Z \n BECMG 0214/0215 9999 FEW010 BKN025 BKN100 \n BECMG 0217/0218 34010KT 3500 -SN"
"taf	RKSI	2020-02-01 13:18:00	TAF \n AMD RKSI 011318Z 0113/0218 32010KT 4200 BR FEW030 BKN180 TNM03/0122Z TX03/0206Z \n BECMG 0120/0121 8000 NSW \n BECMG 0214/0215 FEW010 BKN025 BKN100 \n BECMG 0217/0218 34010KT 3500 -SN"
"taf	RKSI	2020-02-01 13:21:00	TAF \n AMD TAF \n AMD RKSI 011318Z 0113/0218 32010KT 4200 BR FEW030 BKN180 TNM03/0122Z TX03/0206Z \n BECMG 0120/0121 8000 NSW \n BECMG 0214/0215 FEW010 BKN025 BKN100 \n BECMG 0217/0218 34010KT 3500 -SN"
"taf	RKSI	2020-02-01 18:00:00	TAF RKSI 011700Z 0118/0224 07006KT 8000 FEW030 BKN180 TNM03/0122Z TX03/0206Z TNM03/0221Z \n BECMG 0202/0203 27006KT \n BECMG 0213/0214 34010KT 3500 -SN FEW010 BKN025 OVC080 \n BECMG 0218/0219 8000 NSW SCT030"
"taf	RKSI	2020-02-01 18:09:00	TAF RKSI 011700Z 0118/0224 07006KT 8000 FEW030 BKN180 TNM03/0122Z TX03/0206Z TNM03/0221Z \n BECMG 0202/0203 27006KT \n BECMG 0213/0214 34010KT 3500 -SN FEW010 BKN025 OVC080 \n BECMG 0218/0219 8000 NSW SCT030"
"taf	RKSI	2020-02-02 00:00:00	TAF RKSI 022300Z 0300/0406 33010KT 9999 SCT030 TX02/0305Z TNM06/0321Z TX05/0405Z \n BECMG 0314/0315 05006KT \n BECMG 0320/0321 11007KT \n BECMG 0401/0402 21012KT BKN030 \n BECMG 0403/0404 25015G25KT"
"taf	RKSI	2020-02-02 00:09:00	TAF RKSI 022300Z 0300/0406 33010KT 9999 SCT030 TX02/0305Z TNM06/0321Z TX05/0405Z \n BECMG 0314/0315 05006KT \n BECMG 0320/0321 11007KT \n BECMG 0401/0402 21012KT BKN030 \n BECMG 0403/0404 25015G25KT"
"taf	RKSI	2020-02-02 06:00:00	TAF RKSI 020500Z 0206/0312 27005KT 7000 SCT040 BKN150 TNM03/0221Z TX02/0305Z \n BECMG 0213/0214 34010KT 4200 -SN BKN025 OVC100 \n BECMG 0218/0219 7000 NSW SCT030"
"taf	RKSI	2020-02-02 06:09:00	TAF RKSI 020500Z 0206/0312 27005KT 7000 SCT040 BKN150 TNM03/0221Z TX02/0305Z \n BECMG 0213/0214 34010KT 4200 -SN BKN025 OVC100 \n BECMG 0218/0219 7000 NSW SCT030"
"taf	RKSI	2020-02-02 12:00:00	TAF RKSI 021100Z 0212/0318 33010KT 8000 SCT030 BKN120 TNM03/0221Z TX02/0305Z \n BECMG 0213/0214 4200 -SN BKN025 OVC100 \n BECMG 0218/0219 7000 NSW \n BECMG 0300/0301 SCT030 \n BECMG 0314/0315 07005KT"
"taf	RKSI	2020-02-02 12:09:00	TAF RKSI 021100Z 0212/0318 33010KT 8000 SCT030 BKN120 TNM03/0221Z TX02/0305Z \n BECMG 0213/0214 4200 -SN BKN025 OVC100 \n BECMG 0218/0219 7000 NSW \n BECMG 0300/0301 SCT030 \n BECMG 0314/0315 07005KT"
"taf	RKSI	2020-02-02 18:00:00	TAF RKSI 021700Z 0218/0324 33010KT 7000 BKN025 OVC080 TNM02/0221Z TX02/0305Z TNM07/0321Z \n BECMG 0300/0301 SCT030 \n BECMG 0314/0315 05006KT \n BECMG 0321/0322 11008KT"
"taf	RKSI	2020-02-02 18:09:00	TAF RKSI 021700Z 0218/0324 33010KT 7000 BKN025 OVC080 TNM02/0221Z TX02/0305Z TNM07/0321Z \n BECMG 0300/0301 SCT030 \n BECMG 0314/0315 05006KT \n BECMG 0321/0322 11008KT"
"taf	RKSI	2020-02-03 00:00:00	TAF RKSI 032300Z 0400/0506 20008KT CAVOK TX03/0403Z TNM10/0421Z TXM05/0505Z \n BECMG 0401/0402 3500 -SN SCT010 BKN025 OVC080 \n BECMG 0403/0404 25015G25KT \n BECMG 0409/0410 32015G25KT \n BECMG 0411/0412 33020G35KT 7000 NSW FEW030 \n BECMG 0418/0419 33015G25KT"
"taf	RKSI	2020-02-03 00:06:00	TAF RKSI 032300Z 0400/0506 20008KT CAVOK TX03/0403Z TNM10/0421Z TXM05/0505Z \n BECMG 0401/0402 3500 -SN SCT010 BKN025 OVC080 \n BECMG 0403/0404 25015G25KT \n BECMG 0409/0410 32015G25KT \n BECMG 0411/0412 33020G35KT 7000 NSW FEW030 \n BECMG 0418/0419 33015G25KT"
"taf	RKSI	2020-02-03 06:00:00	TAF RKSI 030500Z 0306/0412 32012KT 9999 FEW030 TNM05/0321Z TX05/0405Z \n BECMG 0314/0315 05005KT \n BECMG 0400/0401 21012KT BKN025 \n BECMG 0403/0404 25015G25KT \n BECMG 0406/0407 33015G25KT 4200 -SN"
"taf	RKSI	2020-02-03 06:09:00	TAF RKSI 030500Z 0306/0412 32012KT 9999 FEW030 TNM05/0321Z TX05/0405Z \n BECMG 0314/0315 05005KT \n BECMG 0400/0401 21012KT BKN025 \n BECMG 0403/0404 25015G25KT \n BECMG 0406/0407 33015G25KT 4200 -SN"
"taf	RKSI	2020-02-03 07:30:00	TAF \n AMD RKSI 030630Z 0307/0412 32012KT 9999 FEW030 TNM05/0321Z TX05/0405Z \n BECMG 0314/0315 05005KT \n BECMG 0400/0401 21012KT BKN030 \n BECMG 0403/0404 25015G25KT \n BECMG 0405/0406 4200 -SN SCT010 BKN025 \n BECMG 0408/0409 33015G25KT"
"taf	RKSI	2020-02-03 07:33:00	TAF \n AMD TAF \n AMD RKSI 030630Z 0307/0412 32012KT 9999 FEW030 TNM05/0321Z TX05/0405Z \n BECMG 0314/0315 05005KT \n BECMG 0400/0401 21012KT BKN030 \n BECMG 0403/0404 25015G25KT \n BECMG 0405/0406 4200 -SN SCT010 BKN025 \n BECMG 0408/0409 33015G25KT"
"taf	RKSI	2020-02-03 12:00:00	TAF RKSI 031100Z 0312/0418 05005KT CAVOK TNM05/0321Z TX05/0403Z \n BECMG 0400/0401 21010KT 9999 BKN030 \n BECMG 0403/0404 25015G25KT \n BECMG 0405/0406 4200 -SN SCT010 BKN025 \n TEMPO 0408/0411 33015G25KT 2800 SN \n BECMG 0412/0413 33020G30KT 6000 NSW SCT030"
"taf	RKSI	2020-02-03 12:09:00	TAF RKSI 031100Z 0312/0418 05005KT CAVOK TNM05/0321Z TX05/0403Z \n BECMG 0400/0401 21010KT 9999 BKN030 \n BECMG 0403/0404 25015G25KT \n BECMG 0405/0406 4200 -SN SCT010 BKN025 \n TEMPO 0408/0411 33015G25KT 2800 SN \n BECMG 0412/0413 33020G30KT 6000 NSW SCT030"
"taf	RKSI	2020-02-03 18:00:00	TAF RKSI 031700Z 0318/0424 05005KT CAVOK TNM06/0321Z TX04/0404Z TNM10/0421Z \n BECMG 0400/0401 20010KT 9999 BKN030 \n BECMG 0403/0404 25015G25KT \n BECMG 0405/0406 3500 -SN SCT010 BKN025 OVC080 \n BECMG 0409/0410 32015G25KT \n BECMG 0412/0413 33020G35KT 7000 NSW FEW030"
"taf	RKSI	2020-02-03 18:06:00	TAF RKSI 031700Z 0318/0424 05005KT CAVOK TNM06/0321Z TX04/0404Z TNM10/0421Z \n BECMG 0400/0401 20010KT 9999 BKN030 \n BECMG 0403/0404 25015G25KT \n BECMG 0405/0406 3500 -SN SCT010 BKN025 OVC080 \n BECMG 0409/0410 32015G25KT \n BECMG 0412/0413 33020G35KT 7000 NSW FEW030"
"taf	RKSI	2020-02-04 00:00:00	TAF RKSI 042300Z 0500/0606 34015G25KT CAVOK TXM04/0506Z TNM11/0521Z TXM01/0605Z \n BECMG 0517/0518 35010KT \n BECMG 0600/0601 05005KT"
"taf	RKSI	2020-02-04 00:09:00	TAF RKSI 042300Z 0500/0606 34015G25KT CAVOK TXM04/0506Z TNM11/0521Z TXM01/0605Z \n BECMG 0517/0518 35010KT \n BECMG 0600/0601 05005KT"
"taf	RKSI	2020-02-04 02:12:00	TAF \n AMD RKSI 040212Z 0402/0506 20008KT 9999 FEW030 TX03/0403Z TNM10/0421Z TXM05/0505Z \n BECMG 0403/0404 4200 -SN SCT010 BKN025 OVC080 \n BECMG 0405/0406 25015G25KT \n BECMG 0409/0410 32015G25KT 7000 NSW FEW030 \n BECMG 0411/0412 33020G35KT \n BECMG 0418/0419 33015G25KT"
"taf	RKSI	2020-02-04 02:15:00	TAF \n AMD TAF \n AMD RKSI 040212Z 0402/0506 20008KT 9999 FEW030 TX03/0403Z TNM10/0421Z TXM05/0505Z \n BECMG 0403/0404 4200 -SN SCT010 BKN025 OVC080 \n BECMG 0405/0406 25015G25KT \n BECMG 0409/0410 32015G25KT 7000 NSW FEW030 \n BECMG 0411/0412 33020G35KT \n BECMG 0418/0419 33015G25KT"
"taf	RKSI	2020-02-04 06:00:00	TAF RKSI 040500Z 0406/0512 24015G25KT 3500 -SN FEW008 BKN025 OVC080 TNM11/0422Z TXM04/0506Z \n BECMG 0408/0409 32015G25KT 2500 \n BECMG 0411/0412 33020G35KT 6000 NSW FEW035 \n BECMG 0419/0420 33015G25KT"
"taf	RKSI	2020-02-04 06:06:00	TAF RKSI 040500Z 0406/0512 24015G25KT 3500 -SN FEW008 BKN025 OVC080 TNM11/0422Z TXM04/0506Z \n BECMG 0408/0409 32015G25KT 2500 \n BECMG 0411/0412 33020G35KT 6000 NSW FEW035 \n BECMG 0419/0420 33015G25KT"
"taf	RKSI	2020-02-04 09:46:00	TAF \n AMD RKSI 040846Z 0409/0512 24015G25KT 4200 -SNRA SCT004 BKN012 OVC070 TNM11/0422Z TXM04/0506Z \n TEMPO 0410/0412 30015G25KT -SN \n BECMG 0413/0414 33020G35KT 6000 NSW FEW035 \n BECMG 0419/0420 33015G25KT"
"taf	RKSI	2020-02-04 09:48:00	TAF \n AMD TAF \n AMD RKSI 040846Z 0409/0512 24015G25KT 4200 -SNRA SCT004 BKN012 OVC070 TNM11/0422Z TXM04/0506Z \n TEMPO 0410/0412 30015G25KT -SN \n BECMG 0413/0414 33020G35KT 6000 NSW FEW035 \n BECMG 0419/0420 33015G25KT"
"taf	RKSI	2020-02-04 12:00:00	TAF RKSI 041100Z 0412/0518 34012KT 7000 FEW010 BKN035 TNM11/0422Z TXM04/0506Z \n TEMPO 0412/0413 33018G30KT 4200 -SN \n BECMG 0414/0415 33020G35KT NSC \n BECMG 0419/0420 33015G25KT"
"taf	RKSI	2020-02-04 12:06:00	TAF RKSI 041100Z 0412/0518 34012KT 7000 FEW010 BKN035 TNM11/0422Z TXM04/0506Z \n TEMPO 0412/0413 33018G30KT 4200 -SN \n BECMG 0414/0415 33020G35KT NSC \n BECMG 0419/0420 33015G25KT"
"taf	RKSI	2020-02-04 16:55:00	TAF \n AMD RKSI 041555Z 0416/0518 34015G25KT 9999 FEW030 TNM11/0422Z TXM04/0506Z"
"taf	RKSI	2020-02-04 16:57:00	TAF \n AMD TAF \n AMD RKSI 041555Z 0416/0518 34015G25KT 9999 FEW030 TNM11/0422Z TXM04/0506Z"
"taf	RKSI	2020-02-04 18:00:00	TAF RKSI 041700Z 0418/0524 34015G25KT CAVOK TNM10/0422Z TXM04/0506Z TNM12/0521Z \n BECMG 0517/0518 35010KT"
"taf	RKSI	2020-02-04 18:06:00	TAF RKSI 041700Z 0418/0524 34015G25KT CAVOK TNM10/0422Z TXM04/0506Z TNM12/0521Z \n BECMG 0517/0518 35010KT"
"taf	RKSI	2020-02-05 00:00:00	TAF RKSI 052300Z 0600/0706 03010KT CAVOK TXM01/0606Z TNM07/0620Z TX02/0705Z \n BECMG 0603/0604 32006KT \n BECMG 0618/0619 07005KT \n BECMG 0702/0703 9999 BKN030"
"taf	RKSI	2020-02-05 00:06:00	TAF RKSI 052300Z 0600/0706 03010KT CAVOK TXM01/0606Z TNM07/0620Z TX02/0705Z \n BECMG 0603/0604 32006KT \n BECMG 0618/0619 07005KT \n BECMG 0702/0703 9999 BKN030"
"taf	RKSI	2020-02-05 06:00:00	TAF RKSI 050500Z 0506/0612 33012KT CAVOK TNM10/0522Z TXM02/0606Z \n BECMG 0519/0520 03006KT \n BECMG 0521/0522 09005KT \n BECMG 0523/0524 33005KT"
"taf	RKSI	2020-02-05 06:09:00	TAF RKSI 050500Z 0506/0612 33012KT CAVOK TNM10/0522Z TXM02/0606Z \n BECMG 0519/0520 03006KT \n BECMG 0521/0522 09005KT \n BECMG 0523/0524 33005KT"
"taf	RKSI	2020-02-05 12:00:00	TAF RKSI 051100Z 0512/0618 35015G25KT CAVOK TNM10/0522Z TXM02/0606Z \n BECMG 0514/0515 36008KT \n BECMG 0520/0521 07005KT \n BECMG 0522/0523 34005KT"
"taf	RKSI	2020-02-05 12:06:00	TAF RKSI 051100Z 0512/0618 35015G25KT CAVOK TNM10/0522Z TXM02/0606Z \n BECMG 0514/0515 36008KT \n BECMG 0520/0521 07005KT \n BECMG 0522/0523 34005KT"
"taf	RKSI	2020-02-05 18:00:00	TAF RKSI 051700Z 0518/0624 02010KT CAVOK TNM10/0522Z TXM02/0606Z TNM07/0620Z \n BECMG 0603/0604 32006KT \n BECMG 0618/0619 07005KT"
"taf	RKSI	2020-02-05 18:09:00	TAF RKSI 051700Z 0518/0624 02010KT CAVOK TNM10/0522Z TXM02/0606Z TNM07/0620Z \n BECMG 0603/0604 32006KT \n BECMG 0618/0619 07005KT"
"taf	RKSI	2020-02-06 00:00:00	TAF RKSI 062300Z 0700/0806 07005KT CAVOK TX01/0706Z TNM03/0722Z TX04/0806Z \n BECMG 0701/0702 35005KT \n BECMG 0703/0704 22005KT 9999 BKN030 \n BECMG 0717/0718 CAVOK \n BECMG 0802/0803 32015G25KT"
"taf	RKSI	2020-02-06 00:06:00	TAF RKSI 062300Z 0700/0806 07005KT CAVOK TX01/0706Z TNM03/0722Z TX04/0806Z \n BECMG 0701/0702 35005KT \n BECMG 0703/0704 22005KT 9999 BKN030 \n BECMG 0717/0718 CAVOK \n BECMG 0802/0803 32015G25KT"
"taf	RKSI	2020-02-06 06:00:00	TAF RKSI 060500Z 0606/0712 32006KT CAVOK TNM07/0620Z TX02/0705Z \n BECMG 0614/0615 07005KT \n BECMG 0701/0702 32006KT 9999 FEW010 BKN030 \n BECMG 0709/0710 07006KT"
"taf	RKSI	2020-02-06 06:06:00	TAF RKSI 060500Z 0606/0712 32006KT CAVOK TNM07/0620Z TX02/0705Z \n BECMG 0614/0615 07005KT \n BECMG 0701/0702 32006KT 9999 FEW010 BKN030 \n BECMG 0709/0710 07006KT"
"taf	RKSI	2020-02-06 12:00:00	TAF RKSI 061100Z 0612/0718 07005KT CAVOK TNM07/0620Z TX02/0705Z \n BECMG 0701/0702 27006KT 9999 BKN030 \n BECMG 0709/0710 07006KT SCT030 \n BECMG 0712/0713 33006KT 6000 \n TEMPO 0714/0716 -SN FEW010 BKN025"
"taf	RKSI	2020-02-06 12:06:00	TAF RKSI 061100Z 0612/0718 07005KT CAVOK TNM07/0620Z TX02/0705Z \n BECMG 0701/0702 27006KT 9999 BKN030 \n BECMG 0709/0710 07006KT SCT030 \n BECMG 0712/0713 33006KT 6000 \n TEMPO 0714/0716 -SN FEW010 BKN025"
"taf	RKSI	2020-02-06 18:00:00	TAF RKSI 061700Z 0618/0724 07005KT CAVOK TNM08/0622Z TX01/0706Z TNM03/0722Z \n BECMG 0701/0702 35005KT 9999 BKN030 \n BECMG 0704/0705 22006KT \n BECMG 0712/0713 33006KT 4200 -SN SCT008 BKN025 \n BECMG 0714/0715 15006KT 6000 NSW BKN030 \n BECMG 0723/0724 33010KT CAVOK"
"taf	RKSI	2020-02-06 18:06:00	TAF RKSI 061700Z 0618/0724 07005KT CAVOK TNM08/0622Z TX01/0706Z TNM03/0722Z \n BECMG 0701/0702 35005KT 9999 BKN030 \n BECMG 0704/0705 22006KT \n BECMG 0712/0713 33006KT 4200 -SN SCT008 BKN025 \n BECMG 0714/0715 15006KT 6000 NSW BKN030 \n BECMG 0723/0724 33010KT CAVOK"
"taf	RKSI	2020-02-07 00:00:00	TAF RKSI 072300Z 0800/0906 35010KT CAVOK TX03/0806Z TNM06/0822Z TX04/0906Z \n BECMG 0803/0804 32015G25KT \n BECMG 0814/0815 34010KT \n BECMG 0900/0901 28008KT \n BECMG 0902/0903 22005KT"
"taf	RKSI	2020-02-07 00:06:00	TAF RKSI 072300Z 0800/0906 35010KT CAVOK TX03/0806Z TNM06/0822Z TX04/0906Z \n BECMG 0803/0804 32015G25KT \n BECMG 0814/0815 34010KT \n BECMG 0900/0901 28008KT \n BECMG 0902/0903 22005KT"
"taf	RKSI	2020-02-07 06:00:00	TAF RKSI 070500Z 0706/0812 02005KT 9999 BKN030 TNM03/0722Z TX04/0806Z \n BECMG 0711/0712 08006KT \n BECMG 0802/0803 32015G25KT SCT030"
"taf	RKSI	2020-02-07 06:06:00	TAF RKSI 070500Z 0706/0812 02005KT 9999 BKN030 TNM03/0722Z TX04/0806Z \n BECMG 0711/0712 08006KT \n BECMG 0802/0803 32015G25KT SCT030"
"taf	RKSI	2020-02-07 11:00:00	TAF \n AMD RKSI 071102Z 0711/0812 07012KT 7000 -SN BKN030 TNM03/0722Z TX04/0806Z \n BECMG 0714/0715 NSW \n BECMG 0802/0803 32015G25KT SCT030"
"taf	RKSI	2020-02-07 11:02:00	TAF \n AMD RKSI 071102Z 0711/0812 07012KT 7000 -SN BKN030 TNM03/0722Z TX04/0806Z \n BECMG 0714/0715 NSW \n BECMG 0802/0803 32015G25KT SCT030"
"taf	RKSI	2020-02-07 11:03:00	TAF \n AMD TAF \n AMD RKSI 071102Z 0711/0812 07012KT 7000 -SN BKN030 TNM03/0722Z TX04/0806Z \n BECMG 0714/0715 NSW \n BECMG 0802/0803 32015G25KT SCT030"
"taf	RKSI	2020-02-07 12:00:00	TAF \n AMD RKSI 071137Z 0712/0818 07006KT 9999 BKN030 TNM03/0722Z TX04/0806Z \n TEMPO 0712/0714 -SN \n BECMG 0802/0803 32015G25KT SCT030 \n BECMG 0813/0814 07006KT"
"taf	RKSI	2020-02-07 12:06:00	TAF RKSI 071100Z 0712/0818 07006KT 9999 BKN030 TNM03/0722Z TX04/0806Z \n TEMPO 0712/0714 -SN \n BECMG 0802/0803 32015G25KT SCT030 \n BECMG 0813/0814 07006KT"
"taf	RKSI	2020-02-07 12:37:00	TAF \n AMD RKSI 071137Z 0712/0818 07006KT 9999 BKN030 TNM03/0722Z TX04/0806Z \n TEMPO 0712/0714 -SN \n BECMG 0802/0803 32015G25KT SCT030 \n BECMG 0813/0814 07006KT"
"taf	RKSI	2020-02-07 12:39:00	TAF \n AMD TAF \n AMD RKSI 071137Z 0712/0818 07006KT 9999 BKN030 TNM03/0722Z TX04/0806Z \n TEMPO 0712/0714 -SN \n BECMG 0802/0803 32015G25KT SCT030 \n BECMG 0813/0814 07006KT"
"taf	RKSI	2020-02-07 14:09:00	TAF \n AMD TAF \n AMD RKSI 071410Z 0714/0818 07006KT 9999 BKN030 TNM03/0722Z TX04/0806Z \n TEMPO 0714/0716 -SN \n BECMG 0802/0803 32015G25KT SCT030 \n BECMG 0813/0814 07006KT"
"taf	RKSI	2020-02-07 14:10:00	TAF \n AMD RKSI 071410Z 0714/0818 07006KT 9999 BKN030 TNM03/0722Z TX04/0806Z \n TEMPO 0714/0716 -SN \n BECMG 0802/0803 32015G25KT SCT030 \n BECMG 0813/0814 07006KT"
"taf	RKSI	2020-02-07 18:00:00	TAF RKSI 071700Z 0718/0824 33010KT 9999 BKN035 TNM04/0722Z TX03/0806Z TNM05/0822Z \n BECMG 0802/0803 33015G25KT CAVOK \n BECMG 0814/0815 33010KT"
"taf	RKSI	2020-02-07 18:06:00	TAF RKSI 071700Z 0718/0824 33010KT 9999 BKN035 TNM04/0722Z TX03/0806Z TNM05/0822Z \n BECMG 0802/0803 33015G25KT CAVOK \n BECMG 0814/0815 33010KT"
"taf	RKSI	2020-02-08 00:00:00	TAF RKSI 082300Z 0900/1006 07007KT CAVOK TX04/0906Z TN00/0921Z TX07/1006Z \n BECMG 0903/0904 25010KT 9999 SCT030 \n BECMG 0915/0916 33012KT BKN030 \n BECMG 0918/0919 07006KT SCT030 \n BECMG 1002/1003 26007KT CAVOK"
"taf	RKSI	2020-02-08 00:06:00	TAF RKSI 082300Z 0900/1006 07007KT CAVOK TX04/0906Z TN00/0921Z TX07/1006Z \n BECMG 0903/0904 25010KT 9999 SCT030 \n BECMG 0915/0916 33012KT BKN030 \n BECMG 0918/0919 07006KT SCT030 \n BECMG 1002/1003 26007KT CAVOK"
"taf	RKSI	2020-02-08 06:00:00	TAF RKSI 080500Z 0806/0912 33015G25KT CAVOK TNM06/0822Z TX04/0906Z \n BECMG 0814/0815 34010KT \n BECMG 0822/0823 28008KT \n BECMG 0904/0905 22010KT 9999 SCT030 \n BECMG 0909/0910 BKN030"
"taf	RKSI	2020-02-08 06:06:00	TAF RKSI 080500Z 0806/0912 33015G25KT CAVOK TNM06/0822Z TX04/0906Z \n BECMG 0814/0815 34010KT \n BECMG 0822/0823 28008KT \n BECMG 0904/0905 22010KT 9999 SCT030 \n BECMG 0909/0910 BKN030"
"taf	RKSI	2020-02-08 12:00:00	TAF RKSI 081100Z 0812/0918 33008KT CAVOK TNM06/0822Z TX04/0906Z \n BECMG 0903/0904 25010KT 9999 SCT030 \n BECMG 0909/0910 BKN030 \n BECMG 0916/0917 33012KT SCT030"
"taf	RKSI	2020-02-08 12:09:00	TAF RKSI 081100Z 0812/0918 33008KT CAVOK TNM06/0822Z TX04/0906Z \n BECMG 0903/0904 25010KT 9999 SCT030 \n BECMG 0909/0910 BKN030 \n BECMG 0916/0917 33012KT SCT030"
"taf	RKSI	2020-02-08 18:00:00	TAF RKSI 081700Z 0818/0924 07007KT CAVOK TNM06/0822Z TX04/0906Z TN00/0921Z \n BECMG 0903/0904 25010KT 9999 SCT030 \n BECMG 0915/0916 33012KT BKN030 \n BECMG 0918/0919 07006KT SCT030"
"taf	RKSI	2020-02-08 18:09:00	TAF RKSI 081700Z 0818/0924 07007KT CAVOK TNM06/0822Z TX04/0906Z TN00/0921Z \n BECMG 0903/0904 25010KT 9999 SCT030 \n BECMG 0915/0916 33012KT BKN030 \n BECMG 0918/0919 07006KT SCT030"
"taf	RKSI	2020-02-09 00:00:00	TAF RKSI 092300Z 1000/1106 07006KT 9999 SCT030 TX07/1006Z TN00/1021Z TX10/1106Z \n BECMG 1002/1003 25007KT \n BECMG 1014/1015 11006KT 4200 BR \n BECMG 1021/1022 8000 NSW \n BECMG 1102/1103 28006KT"
"taf	RKSI	2020-02-09 00:09:00	TAF RKSI 092300Z 1000/1106 07006KT 9999 SCT030 TX07/1006Z TN00/1021Z TX10/1106Z \n BECMG 1002/1003 25007KT \n BECMG 1014/1015 11006KT 4200 BR \n BECMG 1021/1022 8000 NSW \n BECMG 1102/1103 28006KT"
"taf	RKSI	2020-02-09 06:00:00	TAF RKSI 090500Z 0906/1012 27008KT 9999 SCT030 TNM01/0921Z TX07/1006Z \n BECMG 0912/0913 33010KT BKN030 \n BECMG 0918/0919 07006KT 6000 SCT030 \n BECMG 1001/1002 30007KT CAVOK"
"taf	RKSI	2020-02-09 06:09:00	TAF RKSI 090500Z 0906/1012 27008KT 9999 SCT030 TNM01/0921Z TX07/1006Z \n BECMG 0912/0913 33010KT BKN030 \n BECMG 0918/0919 07006KT 6000 SCT030 \n BECMG 1001/1002 30007KT CAVOK"
"taf	RKSI	2020-02-09 12:00:00	TAF RKSI 091100Z 0912/1018 26008KT 9999 FEW030 TNM01/0921Z TX07/1006Z \n BECMG 0915/0916 33010KT BKN030 \n BECMG 0918/0919 07006KT 6000 SCT030 \n BECMG 1000/1001 30007KT CAVOK \n BECMG 1008/1009 22007KT"
"taf	RKSI	2020-02-09 12:06:00	TAF RKSI 091100Z 0912/1018 26008KT 9999 FEW030 TNM01/0921Z TX07/1006Z \n BECMG 0915/0916 33010KT BKN030 \n BECMG 0918/0919 07006KT 6000 SCT030 \n BECMG 1000/1001 30007KT CAVOK \n BECMG 1008/1009 22007KT"
"taf	RKSI	2020-02-09 18:00:00	TAF RKSI 091700Z 0918/1024 09006KT 9999 SCT030 TN01/0921Z TX07/1006Z TN00/1021Z \n BECMG 1002/1003 25007KT \n BECMG 1014/1015 11006KT \n TEMPO 1018/1021 4200 BR"
"taf	RKSI	2020-02-09 18:06:00	TAF RKSI 091700Z 0918/1024 09006KT 9999 SCT030 TN01/0921Z TX07/1006Z TN00/1021Z \n BECMG 1002/1003 25007KT \n BECMG 1014/1015 11006KT \n TEMPO 1018/1021 4200 BR"
"taf	RKSI	2020-02-10 00:00:00	TAF RKSI 102300Z 1100/1206 15008KT 7000 NSC TX10/1106Z TN04/1120Z TX09/1205Z \n BECMG 1117/1118 FEW010 BKN025 OVC080 \n BECMG 1120/1121 08010KT 4200 -RA"
"taf	RKSI	2020-02-10 00:06:00	TAF RKSI 102300Z 1100/1206 15008KT 7000 NSC TX10/1106Z TN04/1120Z TX09/1205Z \n BECMG 1117/1118 FEW010 BKN025 OVC080 \n BECMG 1120/1121 08010KT 4200 -RA"
"taf	RKSI	2020-02-10 06:00:00	TAF RKSI 100500Z 1006/1112 28006KT CAVOK TN00/1021Z TX10/1106Z \n BECMG 1014/1015 10005KT 4200 BR NSC \n BECMG 1021/1022 7000 NSW \n BECMG 1100/1101 16010KT"
"taf	RKSI	2020-02-10 06:06:00	TAF RKSI 100500Z 1006/1112 28006KT CAVOK TN00/1021Z TX10/1106Z \n BECMG 1014/1015 10005KT 4200 BR NSC \n BECMG 1021/1022 7000 NSW \n BECMG 1100/1101 16010KT"
"taf	RKSI	2020-02-10 12:00:00	TAF RKSI 101100Z 1012/1118 30005KT 6000 NSC TN00/1021Z TX10/1106Z \n BECMG 1014/1015 07005KT 4200 BR \n BECMG 1021/1022 7000 NSW \n BECMG 1101/1102 16010KT \n BECMG 1111/1112 10006KT SCT030 BKN120"
"taf	RKSI	2020-02-10 12:06:00	TAF RKSI 101100Z 1012/1118 30005KT 6000 NSC TN00/1021Z TX10/1106Z \n BECMG 1014/1015 07005KT 4200 BR \n BECMG 1021/1022 7000 NSW \n BECMG 1101/1102 16010KT \n BECMG 1111/1112 10006KT SCT030 BKN120"
"taf	RKSI	2020-02-10 18:00:00	TAF RKSI 101700Z 1018/1124 10005KT 7000 NSC TN00/1021Z TX10/1106Z TN04/1121Z \n BECMG 1100/1101 16010KT \n BECMG 1111/1112 10007KT FEW030 BKN150 \n BECMG 1121/1122 4200 -RA FEW010 BKN025 OVC080"
"taf	RKSI	2020-02-10 18:09:00	TAF RKSI 101700Z 1018/1124 10005KT 7000 NSC TN00/1021Z TX10/1106Z TN04/1121Z \n BECMG 1100/1101 16010KT \n BECMG 1111/1112 10007KT FEW030 BKN150 \n BECMG 1121/1122 4200 -RA FEW010 BKN025 OVC080"
"taf	RKSI	2020-02-11 00:00:00	TAF RKSI 112300Z 1200/1306 05008KT 6000 -RA FEW010 BKN025 OVC080 TX09/1205Z TN03/1221Z TX10/1305Z \n BECMG 1212/1213 35010KT 4200 BR \n BECMG 1216/1217 29006KT SCT030 \n TEMPO 1220/1222 2200 \n BECMG 1300/1301 6000 NSW \n BECMG 1304/1305 23006KT"
"taf	RKSI	2020-02-11 00:09:00	TAF RKSI 112300Z 1200/1306 05008KT 6000 -RA FEW010 BKN025 OVC080 TX09/1205Z TN03/1221Z TX10/1305Z \n BECMG 1212/1213 35010KT 4200 BR \n BECMG 1216/1217 29006KT SCT030 \n TEMPO 1220/1222 2200 \n BECMG 1300/1301 6000 NSW \n BECMG 1304/1305 23006KT"
"taf	RKSI	2020-02-11 06:00:00	TAF RKSI 110500Z 1106/1212 15008KT 7000 NSC TN04/1120Z TX09/1205Z \n BECMG 1116/1117 FEW010 BKN025 OVC080 \n BECMG 1120/1121 07010KT 4200 -RA \n BECMG 1209/1210 35010KT BR"
"taf	RKSI	2020-02-11 06:09:00	TAF TAF RKSI 110500Z 1106/1212 15008KT 7000 NSC TN04/1120Z TX09/1205Z \n BECMG 1116/1117 FEW010 BKN025 OVC080 \n BECMG 1120/1121 07010KT 4200 -RA \n BECMG 1209/1210 35010KT BR"
"taf	RKSI	2020-02-11 12:00:00	TAF RKSI 111100Z 1112/1218 15005KT 7000 NSC TN04/1120Z TX09/1205Z \n BECMG 1118/1119 08010KT -RA FEW010 BKN025 OVC080 \n BECMG 1120/1121 4200 \n BECMG 1209/1210 35010KT BR \n BECMG 1213/1214 SCT030"
"taf	RKSI	2020-02-11 12:09:00	TAF RKSI 111100Z 1112/1218 15005KT 7000 NSC TN04/1120Z TX09/1205Z \n BECMG 1118/1119 08010KT -RA FEW010 BKN025 OVC080 \n BECMG 1120/1121 4200 \n BECMG 1209/1210 35010KT BR \n BECMG 1213/1214 SCT030"
"taf	RKSI	2020-02-11 18:00:00	TAF RKSI 111700Z 1118/1224 08006KT 7000 -RA FEW010 BKN025 OVC080 TN05/1120Z TX09/1205Z TN02/1221Z \n BECMG 1120/1121 05010KT 4200 \n BECMG 1210/1211 BR \n BECMG 1215/1216 30007KT SCT030 \n BECMG 1222/1223 6000 NSW"
"taf	RKSI	2020-02-11 18:06:00	TAF RKSI 111700Z 1118/1224 08006KT 7000 -RA FEW010 BKN025 OVC080 TN05/1120Z TX09/1205Z TN02/1221Z \n BECMG 1120/1121 05010KT 4200 \n BECMG 1210/1211 BR \n BECMG 1215/1216 30007KT SCT030 \n BECMG 1222/1223 6000 NSW"
"taf	RKSI	2020-02-12 00:00:00	TAF RKSI 122300Z 1300/1406 24005KT 3500 BR SCT004 BKN030 TX09/1306Z TN03/1321Z TX11/1405Z \n BECMG 1311/1312 1400 \n BECMG 1323/1324 4200"
"taf	RKSI	2020-02-12 00:06:00	TAF RKSI 122300Z 1300/1406 24005KT 3500 BR SCT004 BKN030 TX09/1306Z TN03/1321Z TX11/1405Z \n BECMG 1311/1312 1400 \n BECMG 1323/1324 4200"
"taf	RKSI	2020-02-12 06:00:00	TAF RKSI 120500Z 1206/1312 04006KT 1600 -RA SCT008 BKN025 OVC080 TN03/1221Z TX10/1306Z \n BECMG 1207/1208 36006KT BR \n TEMPO 1209/1212 03006KT 1400 -DZ \n BECMG 1213/1214 32008KT 3500 \n BECMG 1217/1218 FEW010 SCT035 \n BECMG 1308/1309 29005KT 2500 FEW004 BKN020"
"taf	RKSI	2020-02-12 06:09:00	TAF RKSI 120500Z 1206/1312 04006KT 1600 -RA SCT008 BKN025 OVC080 TN03/1221Z TX10/1306Z \n BECMG 1207/1208 36006KT BR \n TEMPO 1209/1212 03006KT 1400 -DZ \n BECMG 1213/1214 32008KT 3500 \n BECMG 1217/1218 FEW010 SCT035 \n BECMG 1308/1309 29005KT 2500 FEW004 BKN020"
"taf	RKSI	2020-02-12 10:50:00	TAF \n AMD RKSI 120950Z 1210/1312 35005KT 1200 -DZ SCT008 BKN025 OVC080 TN03/1221Z TX10/1306Z \n TEMPO 1210/1212 32006KT 0600 \n BECMG 1213/1214 32008KT 1600 BR \n BECMG 1217/1218 3500 FEW010 SCT035 \n BECMG 1308/1309 29005KT 2500 FEW004 BKN020"
"taf	RKSI	2020-02-12 10:54:00	TAF \n AMD TAF \n AMD RKSI 120950Z 1210/1312 35005KT 1200 -DZ SCT008 BKN025 OVC080 TN03/1221Z TX10/1306Z \n TEMPO 1210/1212 32006KT 0600 \n BECMG 1213/1214 32008KT 1600 BR \n BECMG 1217/1218 3500 FEW010 SCT035 \n BECMG 1308/1309 29005KT 2500 FEW004 BKN020"
"taf	RKSI	2020-02-12 12:00:00	TAF RKSI 121100Z 1212/1318 32005KT 1400 BR SCT002 BKN025 TN03/1221Z TX10/1306Z \n TEMPO 1212/1214 0600 -DZ \n BECMG 1215/1216 1600 \n BECMG 1300/1301 3500 SCT004 \n BECMG 1311/1312 1600"
"taf	RKSI	2020-02-12 12:06:00	TAF RKSI 121100Z 1212/1318 32005KT 1400 BR SCT002 BKN025 TN03/1221Z TX10/1306Z \n TEMPO 1212/1214 0600 -DZ \n BECMG 1215/1216 1600 \n BECMG 1300/1301 3500 SCT004 \n BECMG 1311/1312 1600"
"taf	RKSI	2020-02-12 13:30:00	TAF \n AMD RKSI 121230Z 1213/1318 32005KT 1600 BR SCT002 BKN025 TN03/1221Z TX10/1306Z \n BECMG 1300/1301 3500 SCT004 \n BECMG 1311/1312 1600"
"taf	RKSI	2020-02-12 13:33:00	TAF \n AMD TAF \n AMD RKSI 121230Z 1213/1318 32005KT 1600 BR SCT002 BKN025 TN03/1221Z TX10/1306Z \n BECMG 1300/1301 3500 SCT004 \n BECMG 1311/1312 1600"
"taf	RKSI	2020-02-12 18:00:00	TAF RKSI 121700Z 1218/1324 30005KT 1400 BR SCT030 TN04/1221Z TX10/1306Z TN03/1321Z \n BECMG 1300/1301 3500 SCT004 \n BECMG 1311/1312 1600"
"taf	RKSI	2020-02-12 18:06:00	TAF RKSI 121700Z 1218/1324 30005KT 1400 BR SCT030 TN04/1221Z TX10/1306Z TN03/1321Z \n BECMG 1300/1301 3500 SCT004 \n BECMG 1311/1312 1600"
"taf	RKSI	2020-02-12 21:50:00	TAF \n AMD RKSI 122050Z 1221/1324 30005KT 0400 FG BKN004 TN04/1221Z TX10/1306Z TN03/1321Z \n BECMG 1223/1224 1600 BR SCT004"
"taf	RKSI	2020-02-12 21:54:00	TAF \n AMD TAF \n AMD RKSI 122050Z 1221/1324 30005KT 0400 FG BKN004 TN04/1221Z TX10/1306Z TN03/1321Z \n BECMG 1223/1224 1600 BR SCT004"
"taf	RKSI	2020-02-12 22:00:00	TAF \n AMD TAF \n AMD RKSI 122155Z 1222/1324 24005KT 1600 BR FEW004 BKN030 TN04/1221Z TX10/1306Z TN03/1321Z \n BECMG 1223/1224 3500 \n BECMG 1311/1312 1400 SCT004"
"taf	RKSI	2020-02-12 22:55:00	TAF \n AMD RKSI 122155Z 1222/1324 24005KT 1600 BR FEW004 BKN030 TN04/1221Z TX10/1306Z TN03/1321Z \n BECMG 1223/1224 3500 \n BECMG 1311/1312 1400 SCT004"
"taf	RKSI	2020-02-13 00:00:00	TAF RKSI 132300Z 1400/1506 35005KT 1400 BR SCT020 TX12/1406Z TN05/1421Z TX15/1505Z \n BECMG 1401/1402 4200 \n BECMG 1412/1413 1800 \n BECMG 1420/1421 15008KT 3500 \n BECMG 1500/1501 6000 NSW"
"taf	RKSI	2020-02-13 00:09:00	TAF RKSI 132300Z 1400/1506 35005KT 1400 BR SCT020 TX12/1406Z TN05/1421Z TX15/1505Z \n BECMG 1401/1402 4200 \n BECMG 1412/1413 1800 \n BECMG 1420/1421 15008KT 3500 \n BECMG 1500/1501 6000 NSW"
"taf	RKSI	2020-02-13 03:25:00	TAF \n AMD RKSI 130325Z 1303/1406 29008KT 2000 BR BKN005 TX09/1306Z TN03/1321Z TX11/1405Z \n BECMG 1311/1312 1400 \n BECMG 1323/1324 4200"
"taf	RKSI	2020-02-13 03:27:00	TAF \n AMD TAF \n AMD RKSI 130325Z 1303/1406 29008KT 2000 BR BKN005 TX09/1306Z TN03/1321Z TX11/1405Z \n BECMG 1311/1312 1400 \n BECMG 1323/1324 4200"
"taf	RKSI	2020-02-13 06:00:00	TAF RKSI 130500Z 1306/1412 28005KT 3500 BR BKN005 TN03/1321Z TX12/1406Z \n BECMG 1308/1309 22005KT 2500 \n BECMG 1310/1311 32005KT 1400 \n BECMG 1315/1316 35005KT 0600 FG \n BECMG 1322/1323 1400 BR SCT006 BKN025 \n BECMG 1401/1402 3500"
"taf	RKSI	2020-02-13 06:09:00	TAF TAF RKSI 130500Z 1306/1412 28005KT 3500 BR BKN005 TN03/1321Z TX12/1406Z \n BECMG 1308/1309 22005KT 2500 \n BECMG 1310/1311 32005KT 1400 \n BECMG 1315/1316 35005KT 0600 FG \n BECMG 1322/1323 1400 BR SCT006 BKN025 \n BECMG 1401/1402 3500"
"taf	RKSI	2020-02-13 07:29:00	TAF \n AMD RKSI 130729Z 1307/1412 24005KT 6000 FEW010 BKN200 TN03/1321Z TX12/1406Z \n BECMG 1310/1311 32005KT 2500 BR \n BECMG 1312/1313 1400 BKN002 \n BECMG 1315/1316 35005KT 0600 FG \n BECMG 1322/1323 1400 BR SCT006 BKN025 \n BECMG 1401/1402 3500"
"taf	RKSI	2020-02-13 07:33:00	TAF \n AMD TAF \n AMD RKSI 130729Z 1307/1412 24005KT 6000 FEW010 BKN200 TN03/1321Z TX12/1406Z \n BECMG 1310/1311 32005KT 2500 BR \n BECMG 1312/1313 1400 BKN002 \n BECMG 1315/1316 35005KT 0600 FG \n BECMG 1322/1323 1400 BR SCT006 BKN025 \n BECMG 1401/1402 3500"
"taf	RKSI	2020-02-13 12:00:00	TAF RKSI 131100Z 1312/1418 33005KT 6000 FEW008 BKN160 TN03/1321Z TX12/1406Z \n BECMG 1313/1314 36006KT 2500 BR BKN005 \n BECMG 1315/1316 0600 FG \n BECMG 1323/1324 03005KT 1400 BR FEW010 BKN025 \n BECMG 1401/1402 06005KT 3500 \n BECMG 1405/1406 35005KT 6000 NSW SCT035"
"taf	RKSI	2020-02-13 12:06:00	TAF RKSI 131100Z 1312/1418 33005KT 6000 FEW008 BKN160 TN03/1321Z TX12/1406Z \n BECMG 1313/1314 36006KT 2500 BR BKN005 \n BECMG 1315/1316 0600 FG \n BECMG 1323/1324 03005KT 1400 BR FEW010 BKN025 \n BECMG 1401/1402 06005KT 3500 \n BECMG 1405/1406 35005KT 6000 NSW SCT035"
"taf	RKSI	2020-02-13 14:40:00	TAF \n AMD RKSI 131340Z 1314/1418 33005KT 4200 BR SCT010 BKN160 TN03/1321Z TX12/1406Z \n BECMG 1316/1317 1400 \n BECMG 1322/1323 3500 \n BECMG 1401/1402 06005KT 6000 NSW SCT030"
"taf	RKSI	2020-02-13 14:45:00	TAF \n AMD TAF \n AMD RKSI 131340Z 1314/1418 33005KT 4200 BR SCT010 BKN160 TN03/1321Z TX12/1406Z \n BECMG 1316/1317 1400 \n BECMG 1322/1323 3500 \n BECMG 1401/1402 06005KT 6000 NSW SCT030"
"taf	RKSI	2020-02-13 18:00:00	TAF RKSI 131700Z 1318/1424 33005KT 3500 BR BKN010 TN03/1321Z TX12/1406Z TN05/1421Z \n BECMG 1320/1321 1800 BKN004 \n BECMG 1401/1402 4200 SCT030 \n BECMG 1412/1413 1400 \n BECMG 1421/1422 3500"
"taf	RKSI	2020-02-13 18:09:00	TAF RKSI 131700Z 1318/1424 33005KT 3500 BR BKN010 TN03/1321Z TX12/1406Z TN05/1421Z \n BECMG 1320/1321 1800 BKN004 \n BECMG 1401/1402 4200 SCT030 \n BECMG 1412/1413 1400 \n BECMG 1421/1422 3500"
"taf	RKSI	2020-02-13 21:40:00	TAF \n AMD RKSI 132040Z 1321/1424 33005KT 2500 BR FEW030 BKN180 TN03/1321Z TX12/1406Z TN05/1421Z \n BECMG 1401/1402 4200 \n BECMG 1412/1413 1400 \n BECMG 1421/1422 3500"
"taf	RKSI	2020-02-13 21:42:00	TAF \n AMD TAF \n AMD RKSI 132040Z 1321/1424 33005KT 2500 BR FEW030 BKN180 TN03/1321Z TX12/1406Z TN05/1421Z \n BECMG 1401/1402 4200 \n BECMG 1412/1413 1400 \n BECMG 1421/1422 3500"
"taf	RKSI	2020-02-14 00:00:00	TAF RKSI 142300Z 1500/1606 12007KT 6000 NSC TX12/1506Z TNM01/1521Z TX00/1605Z \n BECMG 1509/1510 24010KT 3500 -RA FEW008 BKN025 OVC080 \n BECMG 1514/1515 32012KT 1800 -RASN \n BECMG 1517/1518 30018G30KT 1300 -SN \n TEMPO 1519/1522 0600 SN BKN002 BKN022 OVC080 \n BECMG 1600/1601 6000 NSW"
"taf	RKSI	2020-02-14 00:09:00	TAF RKSI 142300Z 1500/1606 12007KT 6000 NSC TX12/1506Z TNM01/1521Z TX00/1605Z \n BECMG 1509/1510 24010KT 3500 -RA FEW008 BKN025 OVC080 \n BECMG 1514/1515 32012KT 1800 -RASN \n BECMG 1517/1518 30018G30KT 1300 -SN \n TEMPO 1519/1522 0600 SN BKN002 BKN022 OVC080 \n BECMG 1600/1601 6000 NSW"
"taf	RKSI	2020-02-14 06:00:00	TAF RKSI 140500Z 1406/1512 35005KT 4200 BR FEW025 SCT180 TN05/1421Z TX15/1505Z \n BECMG 1415/1416 2500 \n BECMG 1420/1421 15008KT 3500 \n BECMG 1500/1501 6000 NSW \n BECMG 1509/1510 33010KT 2500 BR"
"taf	RKSI	2020-02-14 06:09:00	TAF RKSI 140500Z 1406/1512 35005KT 4200 BR FEW025 SCT180 TN05/1421Z TX15/1505Z \n BECMG 1415/1416 2500 \n BECMG 1420/1421 15008KT 3500 \n BECMG 1500/1501 6000 NSW \n BECMG 1509/1510 33010KT 2500 BR"
"taf	RKSI	2020-02-14 12:00:00	TAF RKSI 141100Z 1412/1518 33005KT 3500 BR FEW030 SCT180 TN05/1421Z TX15/1505Z \n TEMPO 1416/1419 11010KT 2500 \n BECMG 1500/1501 14006KT 6000 NSW \n BECMG 1510/1511 33008KT 3500 BR FEW010 BKN020 OVC080 \n BECMG 1512/1513 2500 -RA \n BECMG 1515/1516 33017G30KT 3300"
"taf	RKSI	2020-02-14 12:09:00	TAF RKSI 141100Z 1412/1518 33005KT 3500 BR FEW030 SCT180 TN05/1421Z TX15/1505Z \n TEMPO 1416/1419 11010KT 2500 \n BECMG 1500/1501 14006KT 6000 NSW \n BECMG 1510/1511 33008KT 3500 BR FEW010 BKN020 OVC080 \n BECMG 1512/1513 2500 -RA \n BECMG 1515/1516 33017G30KT 3300"
"taf	RKSI	2020-02-14 18:00:00	TAF RKSI 141700Z 1418/1524 06005KT 2800 BR NSC TN05/1421Z TX14/1506Z TN00/1521Z \n BECMG 1500/1501 12006KT 6000 NSW \n BECMG 1504/1505 18010KT \n BECMG 1508/1509 24008KT \n BECMG 1510/1511 31012KT 2500 -RA FEW008 BKN025 OVC080 \n BECMG 1519/1520 32018G30KT 1400 -RASN"
"taf	RKSI	2020-02-14 18:06:00	TAF RKSI 141700Z 1418/1524 06005KT 2800 BR NSC TN05/1421Z TX14/1506Z TN00/1521Z \n BECMG 1500/1501 12006KT 6000 NSW \n BECMG 1504/1505 18010KT \n BECMG 1508/1509 24008KT \n BECMG 1510/1511 31012KT 2500 -RA FEW008 BKN025 OVC080 \n BECMG 1519/1520 32018G30KT 1400 -RASN"
"taf	RKSI	2020-02-15 00:00:00	TAF RKSI 152300Z 1600/1706 31020G30KT 7000 FEW010 BKN020 TX00/1603Z TNM06/1621Z TXM04/1706Z \n TEMPO 1602/1603 -SN \n TEMPO 1622/1623 -SN"
"taf	RKSI	2020-02-15 00:09:00	TAF RKSI 152300Z 1600/1706 31020G30KT 7000 FEW010 BKN020 TX00/1603Z TNM06/1621Z TXM04/1706Z \n TEMPO 1602/1603 -SN \n TEMPO 1622/1623 -SN"
"taf	RKSI	2020-02-15 06:00:00	TAF RKSI 150500Z 1506/1612 23007KT 7000 FEW010 BKN020 OVC080 TNM01/1521Z TX00/1605Z \n BECMG 1508/1509 32012KT 3500 -RA \n BECMG 1514/1515 1800 -RASN \n BECMG 1517/1518 30018G30KT 1300 -SN \n TEMPO 1519/1522 0600 SN BKN002 BKN022 OVC080 \n BECMG 1600/1601 6000 NSW"
"taf	RKSI	2020-02-15 06:06:00	TAF RKSI 150500Z 1506/1612 23007KT 7000 FEW010 BKN020 OVC080 TNM01/1521Z TX00/1605Z \n BECMG 1508/1509 32012KT 3500 -RA \n BECMG 1514/1515 1800 -RASN \n BECMG 1517/1518 30018G30KT 1300 -SN \n TEMPO 1519/1522 0600 SN BKN002 BKN022 OVC080 \n BECMG 1600/1601 6000 NSW"
"taf	RKSI	2020-02-15 07:25:00	TAF \n AMD RKSI 150725Z 1507/1612 32012KT 3500 -RA FEW010 BKN020 OVC080 TNM01/1521Z TX00/1605Z \n BECMG 1514/1515 1800 -RASN \n BECMG 1517/1518 30018G30KT 1300 -SN \n TEMPO 1519/1522 0600 SN BKN002 BKN022 OVC080 \n BECMG 1600/1601 6000 NSW"
"taf	RKSI	2020-02-15 07:30:00	TAF \n AMD TAF \n AMD RKSI 150725Z 1507/1612 32012KT 3500 -RA FEW010 BKN020 OVC080 TNM01/1521Z TX00/1605Z \n BECMG 1514/1515 1800 -RASN \n BECMG 1517/1518 30018G30KT 1300 -SN \n TEMPO 1519/1522 0600 SN BKN002 BKN022 OVC080 \n BECMG 1600/1601 6000 NSW"
"taf	RKSI	2020-02-15 09:40:00	TAF \n AMD RKSI 150840Z 1509/1612 32012KT 1800 -RA FEW010 BKN020 OVC080 TNM01/1521Z TX00/1605Z \n BECMG 1514/1515 -RASN \n BECMG 1517/1518 30018G30KT 1300 -SN \n TEMPO 1519/1522 0600 SN BKN002 BKN022 OVC080 \n BECMG 1600/1601 6000 NSW"
"taf	RKSI	2020-02-15 09:42:00	TAF \n AMD TAF \n AMD RKSI 150840Z 1509/1612 32012KT 1800 -RA FEW010 BKN020 OVC080 TNM01/1521Z TX00/1605Z \n BECMG 1514/1515 -RASN \n BECMG 1517/1518 30018G30KT 1300 -SN \n TEMPO 1519/1522 0600 SN BKN002 BKN022 OVC080 \n BECMG 1600/1601 6000 NSW"
"taf	RKSI	2020-02-15 12:00:00	TAF RKSI 151100Z 1512/1618 30013KT 0800 -RA FEW010 BKN020 OVC080 TNM01/1521Z TX00/1605Z \n BECMG 1514/1515 -RASN \n BECMG 1517/1518 32018G30KT -SN \n TEMPO 1519/1522 SN BKN002 BKN020 OVC080 \n BECMG 1522/1523 3500 \n BECMG 1600/1601 6000 NSW"
"taf	RKSI	2020-02-15 12:09:00	TAF TAF RKSI 151100Z 1512/1618 30013KT 0800 -RA FEW010 BKN020 OVC080 TNM01/1521Z TX00/1605Z \n BECMG 1514/1515 -RASN \n BECMG 1517/1518 32018G30KT -SN \n TEMPO 1519/1522 SN BKN002 BKN020 OVC080 \n BECMG 1522/1523 3500 \n BECMG 1600/1601 6000 NSW"
"taf	RKSI	2020-02-15 12:15:00	TAF \n AMD TAF \n AMD RKSI 151215Z 1512/1618 30013KT 0800 -RA BKN002 BKN020 OVC080 TNM01/1521Z TX00/1605Z \n BECMG 1513/1514 0400 \n BECMG 1517/1518 32018G30KT -SNRA \n BECMG 1519/1520 -SN \n BECMG 1521/1522 3500 FEW008 BKN025 OVC080 \n BECMG 1600/1601 6000 NSW"
"taf	RKSI	2020-02-15 14:06:00	TAF \n AMD TAF \n AMD RKSI 151410Z 1514/1618 30013KT 4200 -RA BKN002 BKN020 OVC080 TNM01/1521Z TX00/1605Z \n BECMG 1517/1518 32018G30KT 1600 -SNRA \n BECMG 1519/1520 0800 -SN \n BECMG 1521/1522 2500 FEW008 BKN025 OVC080 \n BECMG 1600/1601 6000 NSW"
"taf	RKSI	2020-02-15 14:10:00	TAF \n AMD RKSI 151410Z 1514/1618 30013KT 4200 -RA BKN002 BKN020 OVC080 TNM01/1521Z TX00/1605Z \n BECMG 1517/1518 32018G30KT 1600 -SNRA \n BECMG 1519/1520 0800 -SN \n BECMG 1521/1522 2500 FEW008 BKN025 OVC080 \n BECMG 1600/1601 6000 NSW"
"taf	RKSI	2020-02-15 18:00:00	TAF RKSI 151700Z 1518/1624 31018G30KT 1800 -SN BKN004 BKN025 OVC080 TNM01/1521Z TX00/1606Z TNM07/1621Z \n BECMG 1519/1520 1400 \n TEMPO 1521/1522 0600 SN \n BECMG 1523/1524 1800 BR \n BECMG 1601/1602 6000 NSW FEW008 BKN025"
"taf	RKSI	2020-02-15 18:09:00	TAF RKSI 151700Z 1518/1624 31018G30KT 1800 -SN BKN004 BKN025 OVC080 TNM01/1521Z TX00/1606Z TNM07/1621Z \n BECMG 1519/1520 1400 \n TEMPO 1521/1522 0600 SN \n BECMG 1523/1524 1800 BR \n BECMG 1601/1602 6000 NSW FEW008 BKN025"
"taf	RKSI	2020-02-15 21:28:00	TAF \n AMD RKSI 152128Z 1521/1624 31018G30KT 7000 SCT010 BKN025 OVC080 TNM01/1521Z TX00/1606Z TNM07/1621Z \n TEMPO 1521/1524 -SN \n BECMG 1601/1602 BKN030"
"taf	RKSI	2020-02-15 21:30:00	TAF \n AMD TAF \n AMD RKSI 152128Z 1521/1624 31018G30KT 7000 SCT010 BKN025 OVC080 TNM01/1521Z TX00/1606Z TNM07/1621Z \n TEMPO 1521/1524 -SN \n BECMG 1601/1602 BKN030"
"taf	RKSI	2020-02-16 00:00:00	TAF RKSI 162300Z 1700/1806 32018G28KT 7000 -SN FEW010 BKN030 TXM04/1706Z TNM08/1721Z TX02/1805Z \n BECMG 1701/1702 NSW \n BECMG 1714/1715 SCT030 \n BECMG 1721/1722 33012KT"
"taf	RKSI	2020-02-16 00:06:00	TAF RKSI 162300Z 1700/1806 32018G28KT 7000 -SN FEW010 BKN030 TXM04/1706Z TNM08/1721Z TX02/1805Z \n BECMG 1701/1702 NSW \n BECMG 1714/1715 SCT030 \n BECMG 1721/1722 33012KT"
"taf	RKSI	2020-02-16 06:00:00	TAF RKSI 160500Z 1606/1712 30020G35KT 7000 SCT010 BKN025 TNM06/1621Z TXM04/1706Z \n TEMPO 1606/1611 3500 -SN \n TEMPO 1621/1623 3500 -SN \n BECMG 1706/1707 32015G25KT"
"taf	RKSI	2020-02-16 06:06:00	TAF RKSI 160500Z 1606/1712 30020G35KT 7000 SCT010 BKN025 TNM06/1621Z TXM04/1706Z \n TEMPO 1606/1611 3500 -SN \n TEMPO 1621/1623 3500 -SN \n BECMG 1706/1707 32015G25KT"
"taf	RKSI	2020-02-16 12:00:00	TAF RKSI 161100Z 1612/1718 32015G25KT 4200 -SN FEW010 BKN030 TNM06/1621Z TXM04/1706Z \n TEMPO 1612/1614 7000 NSW \n BECMG 1704/1705 33020G35KT 7000 NSW \n BECMG 1709/1710 33015G25KT \n BECMG 1714/1715 SCT030"
"taf	RKSI	2020-02-16 12:06:00	TAF RKSI 161100Z 1612/1718 32015G25KT 4200 -SN FEW010 BKN030 TNM06/1621Z TXM04/1706Z \n TEMPO 1612/1614 7000 NSW \n BECMG 1704/1705 33020G35KT 7000 NSW \n BECMG 1709/1710 33015G25KT \n BECMG 1714/1715 SCT030"
"taf	RKSI	2020-02-16 18:00:00	TAF RKSI 161700Z 1618/1724 32015G25KT 4200 -SN FEW010 BKN025 TNM06/1621Z TXM04/1706Z TNM08/1721Z \n TEMPO 1619/1623 33020G35KT \n BECMG 1704/1705 7000 NSW \n BECMG 1714/1715 SCT030 \n BECMG 1721/1722 33012KT"
"taf	RKSI	2020-02-16 18:09:00	TAF RKSI 161700Z 1618/1724 32015G25KT 4200 -SN FEW010 BKN025 TNM06/1621Z TXM04/1706Z TNM08/1721Z \n TEMPO 1619/1623 33020G35KT \n BECMG 1704/1705 7000 NSW \n BECMG 1714/1715 SCT030 \n BECMG 1721/1722 33012KT"
"taf	RKSI	2020-02-16 20:20:00	TAF \n AMD RKSI 162020Z 1620/1724 32015G25KT 7000 FEW010 BKN025 TNM06/1621Z TXM04/1706Z TNM08/1721Z \n TEMPO 1621/1701 33020G35KT 4200 -SN \n BECMG 1714/1715 SCT030 \n BECMG 1721/1722 33012KT"
"taf	RKSI	2020-02-16 20:21:00	TAF \n AMD TAF \n AMD RKSI 162020Z 1620/1724 32015G25KT 7000 FEW010 BKN025 TNM06/1621Z TXM04/1706Z TNM08/1721Z \n TEMPO 1621/1701 33020G35KT 4200 -SN \n BECMG 1714/1715 SCT030 \n BECMG 1721/1722 33012KT"
"taf	RKSI	2020-02-17 00:00:00	TAF RKSI 172300Z 1800/1906 32010KT 9999 SCT025 TX03/1805Z TNM01/1821Z TX08/1905Z \n BECMG 1806/1807 24007KT \n BECMG 1817/1818 13006KT 4200 BR \n BECMG 1822/1823 26007KT 8000 NSW"
"taf	RKSI	2020-02-17 00:06:00	TAF RKSI 172300Z 1800/1906 32010KT 9999 SCT025 TX03/1805Z TNM01/1821Z TX08/1905Z \n BECMG 1806/1807 24007KT \n BECMG 1817/1818 13006KT 4200 BR \n BECMG 1822/1823 26007KT 8000 NSW"
"taf	RKSI	2020-02-17 01:00:00	TAF \n AMD TAF \n AMD RKSI 170100Z 1701/1806 32018G30KT 7000 -SN FEW010 BKN030 TXM04/1706Z TNM08/1721Z TX02/1805Z \n TEMPO 1701/1703 4200 \n BECMG 1706/1707 NSW \n BECMG 1714/1715 SCT030 \n BECMG 1721/1722 33012KT"
"taf	RKSI	2020-02-17 06:00:00	TAF RKSI 170500Z 1706/1812 32018G30KT 7000 BKN025 TNM08/1721Z TX03/1805Z \n TEMPO 1706/1711 -SN \n BECMG 1715/1716 SCT030 \n BECMG 1721/1722 32012KT"
"taf	RKSI	2020-02-17 06:06:00	TAF RKSI 170500Z 1706/1812 32018G30KT 7000 BKN025 TNM08/1721Z TX03/1805Z \n TEMPO 1706/1711 -SN \n BECMG 1715/1716 SCT030 \n BECMG 1721/1722 32012KT"
"taf	RKSI	2020-02-17 12:00:00	TAF RKSI 171100Z 1712/1818 33015G25KT 7000 BKN025 TNM08/1721Z TX03/1805Z \n TEMPO 1712/1713 -SN \n BECMG 1717/1718 SCT030 \n BECMG 1721/1722 32012KT \n BECMG 1815/1816 22007KT"
"taf	RKSI	2020-02-17 12:06:00	TAF RKSI 171100Z 1712/1818 33015G25KT 7000 BKN025 TNM08/1721Z TX03/1805Z \n TEMPO 1712/1713 -SN \n BECMG 1717/1718 SCT030 \n BECMG 1721/1722 32012KT \n BECMG 1815/1816 22007KT"
"taf	RKSI	2020-02-17 18:00:00	TAF RKSI 171700Z 1718/1824 32010KT 9999 SCT030 TNM08/1721Z TX03/1805Z TNM01/1821Z \n BECMG 1806/1807 23007KT \n BECMG 1817/1818 13006KT 4200 BR \n BECMG 1822/1823 26007KT 8000 NSW"
"taf	RKSI	2020-02-17 18:06:00	TAF RKSI 171700Z 1718/1824 32010KT 9999 SCT030 TNM08/1721Z TX03/1805Z TNM01/1821Z \n BECMG 1806/1807 23007KT \n BECMG 1817/1818 13006KT 4200 BR \n BECMG 1822/1823 26007KT 8000 NSW"
"taf	RKSI	2020-02-18 00:00:00	TAF RKSI 182300Z 1900/2006 13006KT 9999 BKN030 TX08/1906Z TN00/1921Z TX09/2006Z \n BECMG 1903/1904 FEW030 \n BECMG 1914/1915 06005KT 4200 BR NSC \n BECMG 1922/1923 12006KT 7000 NSW \n BECMG 2004/2005 27007KT"
"taf	RKSI	2020-02-18 00:06:00	TAF RKSI 182300Z 1900/2006 13006KT 9999 BKN030 TX08/1906Z TN00/1921Z TX09/2006Z \n BECMG 1903/1904 FEW030 \n BECMG 1914/1915 06005KT 4200 BR NSC \n BECMG 1922/1923 12006KT 7000 NSW \n BECMG 2004/2005 27007KT"
"taf	RKSI	2020-02-18 06:00:00	TAF RKSI 180500Z 1806/1912 28007KT CAVOK TNM04/1821Z TX07/1906Z \n BECMG 1817/1818 13006KT 4200 BR NSC \n BECMG 1822/1823 7000 NSW \n BECMG 1903/1904 26006KT"
"taf	RKSI	2020-02-18 06:06:00	TAF RKSI 180500Z 1806/1912 28007KT CAVOK TNM04/1821Z TX07/1906Z \n BECMG 1817/1818 13006KT 4200 BR NSC \n BECMG 1822/1823 7000 NSW \n BECMG 1903/1904 26006KT"
"taf	RKSI	2020-02-18 12:00:00	TAF RKSI 181100Z 1812/1918 27005KT CAVOK TNM03/1821Z TX07/1906Z \n BECMG 1817/1818 13006KT 4200 BR NSC \n BECMG 1822/1823 7000 NSW \n BECMG 1912/1913 4200 BR SCT030"
"taf	RKSI	2020-02-18 12:06:00	TAF RKSI 181100Z 1812/1918 27005KT CAVOK TNM03/1821Z TX07/1906Z \n BECMG 1817/1818 13006KT 4200 BR NSC \n BECMG 1822/1823 7000 NSW \n BECMG 1912/1913 4200 BR SCT030"
"taf	RKSI	2020-02-18 18:00:00	TAF RKSI 181700Z 1818/1924 13006KT CAVOK TNM03/1821Z TX08/1906Z TN01/1921Z \n BECMG 1913/1914 06005KT 4200 BR SCT030 \n BECMG 1922/1923 12006KT 7000 NSW"
"taf	RKSI	2020-02-18 18:06:00	TAF RKSI 181700Z 1818/1924 13006KT CAVOK TNM03/1821Z TX08/1906Z TN01/1921Z \n BECMG 1913/1914 06005KT 4200 BR SCT030 \n BECMG 1922/1923 12006KT 7000 NSW"
"taf	RKSI	2020-02-19 00:00:00	TAF RKSI 192300Z 2000/2106 07005KT 4200 BR NSC TX09/2006Z TN01/2021Z TX11/2105Z \n BECMG 2001/2002 27007KT 7000 NSW \n BECMG 2013/2014 13006KT 4200 BR FEW030 BKN150 \n TEMPO 2018/2021 2500 \n BECMG 2100/2101 16008KT 7000 NSW \n BECMG 2104/2105 BKN030 OVC100"
"taf	RKSI	2020-02-19 00:09:00	TAF RKSI 192300Z 2000/2106 07005KT 4200 BR NSC TX09/2006Z TN01/2021Z TX11/2105Z \n BECMG 2001/2002 27007KT 7000 NSW \n BECMG 2013/2014 13006KT 4200 BR FEW030 BKN150 \n TEMPO 2018/2021 2500 \n BECMG 2100/2101 16008KT 7000 NSW \n BECMG 2104/2105 BKN030 OVC100"
"taf	RKSI	2020-02-19 06:00:00	TAF RKSI 190500Z 1906/2012 15006KT 9999 BKN030 TN00/1921Z TX09/2006Z \n BECMG 1914/1915 06005KT 4200 BR SCT030 \n BECMG 1922/1923 14006KT 7000 NSW \n BECMG 2004/2005 27007KT"
"taf	RKSI	2020-02-19 06:09:00	TAF RKSI 190500Z 1906/2012 15006KT 9999 BKN030 TN00/1921Z TX09/2006Z \n BECMG 1914/1915 06005KT 4200 BR SCT030 \n BECMG 1922/1923 14006KT 7000 NSW \n BECMG 2004/2005 27007KT"
"taf	RKSI	2020-02-19 10:00:00	TAF \n AMD RKSI 191000Z 1910/2012 06005KT 9999 BKN030 TN00/1921Z TX09/2006Z \n BECMG 1914/1915 4200 BR SCT030 \n BECMG 1922/1923 14006KT 7000 NSW \n BECMG 2004/2005 27007KT"
"taf	RKSI	2020-02-19 10:03:00	TAF \n AMD TAF \n AMD RKSI 191000Z 1910/2012 06005KT 9999 BKN030 TN00/1921Z TX09/2006Z \n BECMG 1914/1915 4200 BR SCT030 \n BECMG 1922/1923 14006KT 7000 NSW \n BECMG 2004/2005 27007KT"
"taf	RKSI	2020-02-19 12:00:00	TAF RKSI 191100Z 1912/2018 06005KT 7000 BKN030 TN00/1921Z TX09/2006Z \n BECMG 1914/1915 4200 BR SCT030 \n BECMG 1922/1923 14006KT 7000 NSW \n BECMG 2004/2005 27007KT \n BECMG 2012/2013 15006KT 4200 BR"
"taf	RKSI	2020-02-19 12:09:00	TAF RKSI 191100Z 1912/2018 06005KT 7000 BKN030 TN00/1921Z TX09/2006Z \n BECMG 1914/1915 4200 BR SCT030 \n BECMG 1922/1923 14006KT 7000 NSW \n BECMG 2004/2005 27007KT \n BECMG 2012/2013 15006KT 4200 BR"
"taf	RKSI	2020-02-19 18:00:00	TAF RKSI 191700Z 1918/2024 06005KT 4200 BR FEW030 BKN180 TN00/1921Z TX09/2006Z TN01/2021Z \n BECMG 1922/1923 14006KT 7000 NSW NSC \n BECMG 2004/2005 27007KT \n BECMG 2013/2014 14006KT 4200 BR FEW030 BKN150 \n BECMG 2023/2024 17008KT 7000 NSW"
"taf	RKSI	2020-02-19 18:09:00	TAF RKSI 191700Z 1918/2024 06005KT 4200 BR FEW030 BKN180 TN00/1921Z TX09/2006Z TN01/2021Z \n BECMG 1922/1923 14006KT 7000 NSW NSC \n BECMG 2004/2005 27007KT \n BECMG 2013/2014 14006KT 4200 BR FEW030 BKN150 \n BECMG 2023/2024 17008KT 7000 NSW"
"taf	RKSI	2020-02-20 00:00:00	TAF RKSI 202300Z 2100/2206 17005KT 3500 BR FEW030 BKN150 TX11/2106Z TN03/2120Z TX06/2205Z \n BECMG 2101/2102 6000 NSW \n BECMG 2109/2110 23010KT 4200 -RA SCT005 BKN025 OVC080 \n BECMG 2112/2113 2800 \n BECMG 2118/2119 30012KT 4200 BR SCT030 \n BECMG 2200/2201 32015G25KT 7000 NSW"
"taf	RKSI	2020-02-20 00:09:00	TAF RKSI 202300Z 2100/2206 17005KT 3500 BR FEW030 BKN150 TX11/2106Z TN03/2120Z TX06/2205Z \n BECMG 2101/2102 6000 NSW \n BECMG 2109/2110 23010KT 4200 -RA SCT005 BKN025 OVC080 \n BECMG 2112/2113 2800 \n BECMG 2118/2119 30012KT 4200 BR SCT030 \n BECMG 2200/2201 32015G25KT 7000 NSW"
"taf	RKSI	2020-02-20 06:00:00	TAF RKSI 200500Z 2006/2112 28007KT 6000 NSC TN00/2021Z TX11/2106Z \n BECMG 2011/2012 31006KT 4200 BR \n TEMPO 2016/2021 13006KT 2800 \n BECMG 2100/2101 16007KT 6000 NSW \n BECMG 2104/2105 22010KT BKN035 OVC100 \n TEMPO 2110/2112 25008KT 4200 -RA"
"taf	RKSI	2020-02-20 06:06:00	TAF RKSI 200500Z 2006/2112 28007KT 6000 NSC TN00/2021Z TX11/2106Z \n BECMG 2011/2012 31006KT 4200 BR \n TEMPO 2016/2021 13006KT 2800 \n BECMG 2100/2101 16007KT 6000 NSW \n BECMG 2104/2105 22010KT BKN035 OVC100 \n TEMPO 2110/2112 25008KT 4200 -RA"
"taf	RKSI	2020-02-20 12:00:00	TAF RKSI 201100Z 2012/2118 29005KT 4200 BR NSC TN00/2021Z TX11/2106Z \n BECMG 2014/2015 12006KT \n TEMPO 2016/2021 15006KT 2800 \n BECMG 2100/2101 19008KT 6000 NSW \n TEMPO 2110/2112 23008KT 4200 -RA BKN030 BKN120 \n BECMG 2113/2114 31010KT 2500 -RA SCT005 BKN025 OVC080"
"taf	RKSI	2020-02-20 12:09:00	TAF RKSI 201100Z 2012/2118 29005KT 4200 BR NSC TN00/2021Z TX11/2106Z \n BECMG 2014/2015 12006KT \n TEMPO 2016/2021 15006KT 2800 \n BECMG 2100/2101 19008KT 6000 NSW \n TEMPO 2110/2112 23008KT 4200 -RA BKN030 BKN120 \n BECMG 2113/2114 31010KT 2500 -RA SCT005 BKN025 OVC080"
"taf	RKSI	2020-02-20 14:20:00	TAF \n AMD RKSI 201420Z 2014/2118 12005KT 2800 BR NSC TN00/2021Z TX11/2106Z \n BECMG 2100/2101 19008KT 6000 NSW \n TEMPO 2110/2112 23008KT 4200 -RA BKN030 BKN120 \n BECMG 2113/2114 31010KT 2500 -RA SCT005 BKN025 OVC080"
"taf	RKSI	2020-02-20 14:24:00	TAF \n AMD TAF \n AMD RKSI 201420Z 2014/2118 12005KT 2800 BR NSC TN00/2021Z TX11/2106Z \n BECMG 2100/2101 19008KT 6000 NSW \n TEMPO 2110/2112 23008KT 4200 -RA BKN030 BKN120 \n BECMG 2113/2114 31010KT 2500 -RA SCT005 BKN025 OVC080"
"taf	RKSI	2020-02-20 18:00:00	TAF RKSI 201700Z 2018/2124 15005KT 2500 BR FEW030 BKN150 TN00/2021Z TX11/2106Z TN03/2120Z \n BECMG 2100/2101 6000 NSW \n BECMG 2109/2110 23010KT 4200 -RA SCT005 BKN025 OVC080 \n BECMG 2112/2113 2800 \n BECMG 2118/2119 30012KT 4200 BR SCT030"
"taf	RKSI	2020-02-20 18:06:00	TAF RKSI 201700Z 2018/2124 15005KT 2500 BR FEW030 BKN150 TN00/2021Z TX11/2106Z TN03/2120Z \n BECMG 2100/2101 6000 NSW \n BECMG 2109/2110 23010KT 4200 -RA SCT005 BKN025 OVC080 \n BECMG 2112/2113 2800 \n BECMG 2118/2119 30012KT 4200 BR SCT030"
"taf	RKSI	2020-02-21 00:00:00	TAF RKSI 212300Z 2200/2306 27012KT 3000 BR SCT030 TX06/2206Z TNM02/2221Z TX07/2305Z \n BECMG 2202/2203 31020G35KT 7000 NSW \n TEMPO 2205/2209 BKN030 \n BECMG 2212/2213 32015G25KT \n BECMG 2218/2219 30008KT \n BECMG 2300/2301 23010KT"
"taf	RKSI	2020-02-21 00:06:00	TAF RKSI 212300Z 2200/2306 27012KT 3000 BR SCT030 TX06/2206Z TNM02/2221Z TX07/2305Z \n BECMG 2202/2203 31020G35KT 7000 NSW \n TEMPO 2205/2209 BKN030 \n BECMG 2212/2213 32015G25KT \n BECMG 2218/2219 30008KT \n BECMG 2300/2301 23010KT"
"taf	RKSI	2020-02-21 06:00:00	TAF RKSI 210500Z 2106/2212 18010KT 6000 BKN040 BKN150 TN01/2121Z TX06/2206Z \n TEMPO 2110/2112 22010KT 3500 -RA SCT005 BKN025 OVC080 \n BECMG 2113/2114 29012KT 2800 -RA SCT005 BKN025 OVC080 \n BECMG 2115/2116 31015G25KT 1400 BKN020 \n BECMG 2117/2118 28016G26KT 4200 BR SCT035 \n BECMG 2121/2122 31020G35KT 6000 NSW"
"taf	RKSI	2020-02-21 06:06:00	TAF RKSI 210500Z 2106/2212 18010KT 6000 BKN040 BKN150 TN01/2121Z TX06/2206Z \n TEMPO 2110/2112 22010KT 3500 -RA SCT005 BKN025 OVC080 \n BECMG 2113/2114 29012KT 2800 -RA SCT005 BKN025 OVC080 \n BECMG 2115/2116 31015G25KT 1400 BKN020 \n BECMG 2117/2118 28016G26KT 4200 BR SCT035 \n BECMG 2121/2122 31020G35KT 6000 NSW"
"taf	RKSI	2020-02-21 09:52:00	TAF \n AMD RKSI 210852Z 2109/2212 22010KT 6000 BKN040 OVC090 TN01/2121Z TX06/2206Z \n TEMPO 2109/2112 -RA \n BECMG 2113/2114 29012KT 2800 -RA SCT005 BKN025 OVC080 \n BECMG 2115/2116 31015G25KT 1400 BKN020 \n BECMG 2117/2118 28016G26KT 4200 BR SCT035 \n BECMG 2121/2122 31020G35KT 6000 NSW"
"taf	RKSI	2020-02-21 09:54:00	TAF \n AMD TAF \n AMD RKSI 210852Z 2109/2212 22010KT 6000 BKN040 OVC090 TN01/2121Z TX06/2206Z \n TEMPO 2109/2112 -RA \n BECMG 2113/2114 29012KT 2800 -RA SCT005 BKN025 OVC080 \n BECMG 2115/2116 31015G25KT 1400 BKN020 \n BECMG 2117/2118 28016G26KT 4200 BR SCT035 \n BECMG 2121/2122 31020G35KT 6000 NSW"
"taf	RKSI	2020-02-21 10:22:00	TAF \n AMD RKSI 211020Z 2110/2212 22010KT 6000 -RA BKN035 OVC090 TN01/2121Z TX06/2206Z \n TEMPO 2110/2112 -RA SCT014CB BKN025 OVC090 \n BECMG 2113/2114 29012KT 2800 -RA SCT005 BKN025 OVC080 \n BECMG 2115/2116 31015G25KT 1400 BKN020 \n BECMG 2117/2118 28016G26KT 4200 BR SCT035 \n BECMG 2121/2122 31020G35KT 6000 NSW"
"taf	RKSI	2020-02-21 10:24:00	TAF \n AMD TAF \n AMD RKSI 211020Z 2110/2212 22010KT 6000 -RA BKN035 OVC090 TN01/2121Z TX06/2206Z \n TEMPO 2110/2112 -RA SCT014CB BKN025 OVC090 \n BECMG 2113/2114 29012KT 2800 -RA SCT005 BKN025 OVC080 \n BECMG 2115/2116 31015G25KT 1400 BKN020 \n BECMG 2117/2118 28016G26KT 4200 BR SCT035 \n BECMG 2121/2122 31020G35KT 6000 NSW"
"taf	RKSI	2020-02-21 12:00:00	TAF RKSI 211100Z 2112/2218 22008KT 6000 -RA FEW008 BKN025 OVC080 TN01/2121Z TX06/2206Z \n BECMG 2115/2116 28012KT 4200 \n TEMPO 2117/2118 31012KT 2800 \n BECMG 2119/2120 28015G25KT 6000 NSW SCT035 \n BECMG 2122/2123 31020G35KT \n BECMG 2211/2212 32015G25KT"
"taf	RKSI	2020-02-21 12:06:00	TAF RKSI 211100Z 2112/2218 22008KT 6000 -RA FEW008 BKN025 OVC080 TN01/2121Z TX06/2206Z \n BECMG 2115/2116 28012KT 4200 \n TEMPO 2117/2118 31012KT 2800 \n BECMG 2119/2120 28015G25KT 6000 NSW SCT035 \n BECMG 2122/2123 31020G35KT \n BECMG 2211/2212 32015G25KT"
"taf	RKSI	2020-02-21 12:45:00	TAF \n AMD TAF \n AMD RKSI 211145Z 2112/2218 22008KT 4200 -TSRA FEW008CB BKN025 OVC080 TN01/2121Z TX06/2206Z \n BECMG 2112/2113 28012KT -RA \n TEMPO 2117/2118 31012KT 2800 \n BECMG 2119/2120 28015G25KT 6000 NSW SCT035 \n BECMG 2122/2123 31020G35KT \n BECMG 2211/2212 32015G25KT"
"taf	RKSI	2020-02-21 13:39:00	TAF \n AMD TAF \n AMD RKSI 211240Z 2113/2218 22008KT 4200 -RA FEW008 BKN025 OVC080 TN01/2121Z TX06/2206Z \n BECMG 2114/2115 28012KT \n TEMPO 2117/2118 31012KT 2800 \n BECMG 2119/2120 28015G25KT 6000 NSW SCT035 \n BECMG 2122/2123 31020G35KT \n BECMG 2211/2212 32015G25KT"
"taf	RKSI	2020-02-21 13:40:00	TAF \n AMD RKSI 211240Z 2113/2218 22008KT 4200 -RA FEW008 BKN025 OVC080 TN01/2121Z TX06/2206Z \n BECMG 2114/2115 28012KT \n TEMPO 2117/2118 31012KT 2800 \n BECMG 2119/2120 28015G25KT 6000 NSW SCT035 \n BECMG 2122/2123 31020G35KT \n BECMG 2211/2212 32015G25KT"
"taf	RKSI	2020-02-21 18:00:00	TAF RKSI 211700Z 2118/2224 30015G25KT 7000 BKN030 OVC100 TN03/2121Z TX06/2206Z TNM02/2221Z \n BECMG 2120/2121 24012KT SCT030 \n BECMG 2200/2201 30015G25KT \n BECMG 2203/2204 31020G35KT \n BECMG 2212/2213 32015G25KT \n BECMG 2218/2219 30008KT"
"taf	RKSI	2020-02-21 18:06:00	TAF RKSI 211700Z 2118/2224 30015G25KT 7000 BKN030 OVC100 TN03/2121Z TX06/2206Z TNM02/2221Z \n BECMG 2120/2121 24012KT SCT030 \n BECMG 2200/2201 30015G25KT \n BECMG 2203/2204 31020G35KT \n BECMG 2212/2213 32015G25KT \n BECMG 2218/2219 30008KT"
"taf	RKSI	2020-02-21 19:00:00	TAF \n AMD RKSI 211900Z 2119/2224 30015G25KT 2800 BR BKN030 OVC100 TN03/2121Z TX06/2206Z TNM02/2221Z \n BECMG 2120/2121 24012KT 6000 NSW SCT030 \n BECMG 2200/2201 30015G25KT \n BECMG 2203/2204 31020G35KT \n BECMG 2212/2213 32015G25KT \n BECMG 2218/2219 30008KT"
"taf	RKSI	2020-02-21 19:57:00	TAF \n AMD TAF \n AMD RKSI 211900Z 2119/2224 30015G25KT 2800 BR BKN030 OVC100 TN03/2121Z TX06/2206Z TNM02/2221Z \n BECMG 2120/2121 24012KT 6000 NSW SCT030 \n BECMG 2200/2201 30015G25KT \n BECMG 2203/2204 31020G35KT \n BECMG 2212/2213 32015G25KT \n BECMG 2218/2219 30008KT"
"taf	RKSI	2020-02-21 21:00:00	TAF \n AMD TAF \n AMD RKSI 212100Z 2121/2224 29012KT 3000 BR BKN025 TN03/2121Z TX06/2206Z TNM02/2221Z \n BECMG 2200/2201 30015G25KT 6000 NSW SCT030 \n BECMG 2203/2204 31020G35KT \n BECMG 2212/2213 32015G25KT \n BECMG 2218/2219 30008KT"
"taf	RKSI	2020-02-22 00:00:00	TAF RKSI 222300Z 2300/2406 25005KT CAVOK TX06/2306Z TN00/2321Z TX10/2406Z \n BECMG 2304/2305 18008KT \n BECMG 2405/2406 25006KT"
"taf	RKSI	2020-02-22 00:06:00	TAF RKSI 222300Z 2300/2406 25005KT CAVOK TX06/2306Z TN00/2321Z TX10/2406Z \n BECMG 2304/2305 18008KT \n BECMG 2405/2406 25006KT"
"taf	RKSI	2020-02-22 06:00:00	TAF RKSI 220500Z 2206/2312 31020G35KT 6000 SCT030 TNM02/2221Z TX07/2305Z \n TEMPO 2206/2208 4200 BR \n BECMG 2212/2213 32015G25KT \n BECMG 2218/2219 32008KT \n BECMG 2300/2301 24010KT"
"taf	RKSI	2020-02-22 06:06:00	TAF RKSI 220500Z 2206/2312 31020G35KT 6000 SCT030 TNM02/2221Z TX07/2305Z \n TEMPO 2206/2208 4200 BR \n BECMG 2212/2213 32015G25KT \n BECMG 2218/2219 32008KT \n BECMG 2300/2301 24010KT"
"taf	RKSI	2020-02-22 12:00:00	TAF RKSI 221100Z 2212/2318 32015G25KT 8000 SCT030 TNM02/2221Z TX07/2305Z \n BECMG 2218/2219 32008KT \n BECMG 2300/2301 24010KT \n BECMG 2316/2317 15010KT 4200 BR"
"taf	RKSI	2020-02-22 12:06:00	TAF RKSI 221100Z 2212/2318 32015G25KT 8000 SCT030 TNM02/2221Z TX07/2305Z \n BECMG 2218/2219 32008KT \n BECMG 2300/2301 24010KT \n BECMG 2316/2317 15010KT 4200 BR"
"taf	RKSI	2020-02-22 18:00:00	TAF RKSI 221700Z 2218/2324 31006KT CAVOK TNM02/2221Z TX06/2306Z TN00/2321Z \n BECMG 2302/2303 22010KT \n BECMG 2317/2318 16008KT"
"taf	RKSI	2020-02-22 18:09:00	TAF RKSI 221700Z 2218/2324 31006KT CAVOK TNM02/2221Z TX06/2306Z TN00/2321Z \n BECMG 2302/2303 22010KT \n BECMG 2317/2318 16008KT"
"taf	RKSI	2020-02-23 00:00:00	TAF RKSI 232300Z 2400/2506 16008KT CAVOK TX11/2406Z TN07/2421Z TX09/2506Z \n BECMG 2410/2411 08006KT 4200 BR NSC \n BECMG 2412/2413 11008KT 2800 -RA FEW008 BKN025 OVC080 \n BECMG 2419/2420 08008KT 1400 RA \n BECMG 2421/2422 05010KT 2000 -RA \n BECMG 2503/2504 02012KT 3500"
"taf	RKSI	2020-02-23 00:06:00	TAF RKSI 232300Z 2400/2506 16008KT CAVOK TX11/2406Z TN07/2421Z TX09/2506Z \n BECMG 2410/2411 08006KT 4200 BR NSC \n BECMG 2412/2413 11008KT 2800 -RA FEW008 BKN025 OVC080 \n BECMG 2419/2420 08008KT 1400 RA \n BECMG 2421/2422 05010KT 2000 -RA \n BECMG 2503/2504 02012KT 3500"
"taf	RKSI	2020-02-23 06:00:00	TAF RKSI 230500Z 2306/2412 25010KT CAVOK TN00/2321Z TX10/2406Z \n BECMG 2310/2311 18008KT \n TEMPO 2317/2320 15008KT 4200 BR FEW020 \n BECMG 2405/2406 25006KT \n BECMG 2410/2411 13008KT 9999 SCT025 BKN150"
"taf	RKSI	2020-02-23 06:09:00	TAF RKSI 230500Z 2306/2412 25010KT CAVOK TN00/2321Z TX10/2406Z \n BECMG 2310/2311 18008KT \n TEMPO 2317/2320 15008KT 4200 BR FEW020 \n BECMG 2405/2406 25006KT \n BECMG 2410/2411 13008KT 9999 SCT025 BKN150"
"taf	RKSI	2020-02-23 12:00:00	TAF RKSI 231100Z 2312/2418 18010KT CAVOK TN00/2321Z TX10/2406Z \n TEMPO 2317/2320 15008KT 4200 BR FEW020 \n BECMG 2405/2406 25006KT \n BECMG 2410/2411 13008KT 9999 SCT025 BKN150 \n BECMG 2413/2414 3500 -RA FEW010 BKN025 OVC080 \n BECMG 2416/2417 2500 RA"
"taf	RKSI	2020-02-23 12:06:00	TAF RKSI 231100Z 2312/2418 18010KT CAVOK TN00/2321Z TX10/2406Z \n TEMPO 2317/2320 15008KT 4200 BR FEW020 \n BECMG 2405/2406 25006KT \n BECMG 2410/2411 13008KT 9999 SCT025 BKN150 \n BECMG 2413/2414 3500 -RA FEW010 BKN025 OVC080 \n BECMG 2416/2417 2500 RA"
"taf	RKSI	2020-02-23 18:00:00	TAF RKSI 231700Z 2318/2424 17010KT CAVOK TN01/2321Z TX11/2406Z TN07/2421Z \n TEMPO 2403/2406 23007KT \n BECMG 2410/2411 14006KT 4200 BR NSC \n BECMG 2412/2413 11008KT 2800 -RA FEW010 BKN025 OVC080 \n BECMG 2419/2420 08010KT 1400 RA \n BECMG 2421/2422 05010KT 2000 -RA"
"taf	RKSI	2020-02-23 18:06:00	TAF RKSI 231700Z 2318/2424 17010KT CAVOK TN01/2321Z TX11/2406Z TN07/2421Z \n TEMPO 2403/2406 23007KT \n BECMG 2410/2411 14006KT 4200 BR NSC \n BECMG 2412/2413 11008KT 2800 -RA FEW010 BKN025 OVC080 \n BECMG 2419/2420 08010KT 1400 RA \n BECMG 2421/2422 05010KT 2000 -RA"
"taf	RKSI	2020-02-24 00:00:00	TAF RKSI 242300Z 2500/2606 05013KT 1400 RA FEW010 BKN025 OVC080 TX09/2507Z TN03/2521Z TX08/2603Z \n BECMG 2501/2502 05015G25KT 2500 -RA \n BECMG 2503/2504 3500 \n BECMG 2507/2508 05012KT 8000 NSW SCT030 \n BECMG 2600/2601 32007KT"
"taf	RKSI	2020-02-24 00:06:00	TAF RKSI 242300Z 2500/2606 05013KT 1400 RA FEW010 BKN025 OVC080 TX09/2507Z TN03/2521Z TX08/2603Z \n BECMG 2501/2502 05015G25KT 2500 -RA \n BECMG 2503/2504 3500 \n BECMG 2507/2508 05012KT 8000 NSW SCT030 \n BECMG 2600/2601 32007KT"
"taf	RKSI	2020-02-24 06:00:00	TAF RKSI 240500Z 2406/2512 17006KT 9999 FEW030 BKN180 TN07/2422Z TX10/2507Z \n BECMG 2413/2414 12006KT 3500 -RA FEW008 BKN025 OVC080 \n TEMPO 2419/2423 08010KT 1500 RA \n BECMG 2423/2424 06010KT 2500 \n BECMG 2502/2503 03012KT 4000 \n BECMG 2507/2508 6000 NSW SCT030"
"taf	RKSI	2020-02-24 06:06:00	TAF RKSI 240500Z 2406/2512 17006KT 9999 FEW030 BKN180 TN07/2422Z TX10/2507Z \n BECMG 2413/2414 12006KT 3500 -RA FEW008 BKN025 OVC080 \n TEMPO 2419/2423 08010KT 1500 RA \n BECMG 2423/2424 06010KT 2500 \n BECMG 2502/2503 03012KT 4000 \n BECMG 2507/2508 6000 NSW SCT030"
"taf	RKSI	2020-02-24 12:00:00	TAF RKSI 241100Z 2412/2518 07005KT 7000 FEW030 BKN120 TN07/2423Z TX10/2507Z \n BECMG 2413/2414 12007KT 3500 -RA FEW008 BKN025 OVC080 \n TEMPO 2420/2423 08010KT 1500 RA \n BECMG 2423/2424 05010KT 2500 \n BECMG 2503/2504 02012KT 4000 \n BECMG 2507/2508 6000 NSW SCT030"
"taf	RKSI	2020-02-24 12:09:00	TAF RKSI 241100Z 2412/2518 07005KT 7000 FEW030 BKN120 TN07/2423Z TX10/2507Z \n BECMG 2413/2414 12007KT 3500 -RA FEW008 BKN025 OVC080 \n TEMPO 2420/2423 08010KT 1500 RA \n BECMG 2423/2424 05010KT 2500 \n BECMG 2503/2504 02012KT 4000 \n BECMG 2507/2508 6000 NSW SCT030"
"taf	RKSI	2020-02-24 18:00:00	TAF RKSI 241700Z 2418/2524 08013KT 3200 -RA FEW008 BKN025 OVC080 TN06/2423Z TX09/2507Z TN03/2521Z \n TEMPO 2420/2423 1500 RA \n BECMG 2500/2501 05015G25KT 2500 \n BECMG 2503/2504 3500 \n BECMG 2507/2508 05012KT 8000 NSW SCT030"
"taf	RKSI	2020-02-24 18:06:00	TAF RKSI 241700Z 2418/2524 08013KT 3200 -RA FEW008 BKN025 OVC080 TN06/2423Z TX09/2507Z TN03/2521Z \n TEMPO 2420/2423 1500 RA \n BECMG 2500/2501 05015G25KT 2500 \n BECMG 2503/2504 3500 \n BECMG 2507/2508 05012KT 8000 NSW SCT030"
"taf	RKSI	2020-02-25 00:00:00	TAF RKSI 252300Z 2600/2706 32007KT 9999 SCT030 TX09/2606Z TN00/2621Z TX07/2706Z \n TEMPO 2606/2608 26010KT \n BECMG 2618/2619 04010KT \n BECMG 2704/2705 30008KT"
"taf	RKSI	2020-02-25 00:06:00	TAF RKSI 252300Z 2600/2706 32007KT 9999 SCT030 TX09/2606Z TN00/2621Z TX07/2706Z \n TEMPO 2606/2608 26010KT \n BECMG 2618/2619 04010KT \n BECMG 2704/2705 30008KT"
"taf	RKSI	2020-02-25 06:00:00	TAF RKSI 250500Z 2506/2612 03010KT 7000 FEW010 BKN030 OVC100 TN03/2521Z TX09/2605Z \n BECMG 2507/2508 SCT030 \n BECMG 2523/2524 32007KT \n TEMPO 2606/2609 29015G25KT"
"taf	RKSI	2020-02-25 06:06:00	TAF RKSI 250500Z 2506/2612 03010KT 7000 FEW010 BKN030 OVC100 TN03/2521Z TX09/2605Z \n BECMG 2507/2508 SCT030 \n BECMG 2523/2524 32007KT \n TEMPO 2606/2609 29015G25KT"
"taf	RKSI	2020-02-25 12:00:00	TAF RKSI 251100Z 2512/2618 03010KT 9999 FEW030 SCT120 TN02/2520Z TX09/2606Z \n BECMG 2523/2524 32007KT \n TEMPO 2606/2608 29015G25KT"
"taf	RKSI	2020-02-25 12:09:00	TAF RKSI 251100Z 2512/2618 03010KT 9999 FEW030 SCT120 TN02/2520Z TX09/2606Z \n BECMG 2523/2524 32007KT \n TEMPO 2606/2608 29015G25KT"
"taf	RKSI	2020-02-25 18:00:00	TAF RKSI 251700Z 2518/2624 05010KT 9999 SCT030 TN02/2520Z TX09/2606Z TN00/2621Z \n BECMG 2523/2524 32008KT \n TEMPO 2606/2608 28015G25KT \n BECMG 2618/2619 04010KT"
"taf	RKSI	2020-02-25 18:06:00	TAF RKSI 251700Z 2518/2624 05010KT 9999 SCT030 TN02/2520Z TX09/2606Z TN00/2621Z \n BECMG 2523/2524 32008KT \n TEMPO 2606/2608 28015G25KT \n BECMG 2618/2619 04010KT"
"taf	RKSI	2020-02-26 00:00:00	TAF RKSI 262300Z 2700/2806 03006KT 9999 FEW030 TX09/2705Z TN01/2717Z TX06/2802Z \n BECMG 2702/2703 15005KT \n BECMG 2705/2706 30006KT \n BECMG 2714/2715 16006KT \n BECMG 2720/2721 SCT025 OVC080 \n BECMG 2801/2802 24007KT 4200 -RA SCT010 BKN025 OVC080"
"taf	RKSI	2020-02-26 00:06:00	TAF RKSI 262300Z 2700/2806 03006KT 9999 FEW030 TX09/2705Z TN01/2717Z TX06/2802Z \n BECMG 2702/2703 15005KT \n BECMG 2705/2706 30006KT \n BECMG 2714/2715 16006KT \n BECMG 2720/2721 SCT025 OVC080 \n BECMG 2801/2802 24007KT 4200 -RA SCT010 BKN025 OVC080"
"taf	RKSI	2020-02-26 06:00:00	TAF RKSI 260500Z 2606/2712 29010KT 9999 SCT030 TN00/2621Z TX07/2706Z \n BECMG 2618/2619 04010KT \n BECMG 2704/2705 30007KT"
"taf	RKSI	2020-02-26 06:06:00	TAF RKSI 260500Z 2606/2712 29010KT 9999 SCT030 TN00/2621Z TX07/2706Z \n BECMG 2618/2619 04010KT \n BECMG 2704/2705 30007KT"
"taf	RKSI	2020-02-26 12:00:00	TAF RKSI 261100Z 2612/2718 33006KT 9999 SCT030 TN00/2621Z TX07/2706Z \n BECMG 2618/2619 04010KT \n BECMG 2704/2705 30007KT \n BECMG 2712/2713 07005KT"
"taf	RKSI	2020-02-26 12:09:00	TAF RKSI 261100Z 2612/2718 33006KT 9999 SCT030 TN00/2621Z TX07/2706Z \n BECMG 2618/2619 04010KT \n BECMG 2704/2705 30007KT \n BECMG 2712/2713 07005KT"
"taf	RKSI	2020-02-26 18:00:00	TAF RKSI 261700Z 2618/2724 02006KT 9999 FEW030 TN01/2622Z TX09/2707Z TN01/2717Z \n BECMG 2702/2703 08005KT \n BECMG 2705/2706 30006KT \n BECMG 2714/2715 10005KT \n BECMG 2720/2721 16010KT 7000 SCT025 BKN080"
"taf	RKSI	2020-02-26 18:09:00	TAF RKSI 261700Z 2618/2724 02006KT 9999 FEW030 TN01/2622Z TX09/2707Z TN01/2717Z \n BECMG 2702/2703 08005KT \n BECMG 2705/2706 30006KT \n BECMG 2714/2715 10005KT \n BECMG 2720/2721 16010KT 7000 SCT025 BKN080"
"taf	RKSI	2020-02-27 00:00:00	TAF RKSI 272300Z 2800/2906 16007KT 6000 FEW010 BKN025 OVC080 TX06/2804Z TN03/2822Z TX11/2906Z \n BECMG 2801/2802 20005KT 4200 -RA \n BECMG 2810/2811 01005KT 2500 \n BECMG 2817/2818 4200 BR \n BECMG 2820/2821 34008KT 6000 NSW"
"taf	RKSI	2020-02-27 00:09:00	TAF RKSI 272300Z 2800/2906 16007KT 6000 FEW010 BKN025 OVC080 TX06/2804Z TN03/2822Z TX11/2906Z \n BECMG 2801/2802 20005KT 4200 -RA \n BECMG 2810/2811 01005KT 2500 \n BECMG 2817/2818 4200 BR \n BECMG 2820/2821 34008KT 6000 NSW"
"taf	RKSI	2020-02-27 04:54:00	TAF \n AMD TAF \n AMD RKSI 270355Z 2704/2806 30006KT 9999 FEW030 TX09/2705Z TN01/2717Z TX06/2802Z \n BECMG 2714/2715 16006KT \n BECMG 2720/2721 SCT025 OVC080 \n BECMG 2801/2802 24007KT 4200 -RA SCT010 BKN025 OVC080"
"taf	RKSI	2020-02-27 04:55:00	TAF \n AMD RKSI 270355Z 2704/2806 30006KT 9999 FEW030 TX09/2705Z TN01/2717Z TX06/2802Z \n BECMG 2714/2715 16006KT \n BECMG 2720/2721 SCT025 OVC080 \n BECMG 2801/2802 24007KT 4200 -RA SCT010 BKN025 OVC080"
"taf	RKSI	2020-02-27 06:00:00	TAF RKSI 270500Z 2706/2812 30006KT 9999 FEW030 TN01/2717Z TX06/2802Z \n BECMG 2714/2715 16008KT \n BECMG 2720/2721 SCT025 OVC080 \n BECMG 2801/2802 4200 -RA SCT010 BKN025 OVC080 \n BECMG 2809/2810 2500"
"taf	RKSI	2020-02-27 06:06:00	TAF RKSI 270500Z 2706/2812 30006KT 9999 FEW030 TN01/2717Z TX06/2802Z \n BECMG 2714/2715 16008KT \n BECMG 2720/2721 SCT025 OVC080 \n BECMG 2801/2802 4200 -RA SCT010 BKN025 OVC080 \n BECMG 2809/2810 2500"
"taf	RKSI	2020-02-27 12:00:00	TAF RKSI 271100Z 2712/2818 30006KT CAVOK TN01/2717Z TX06/2802Z \n BECMG 2714/2715 16008KT \n BECMG 2720/2721 SCT025 OVC080 \n BECMG 2801/2802 4200 -RA SCT010 BKN025 OVC080 \n BECMG 2811/2812 35006KT 2500 \n BECMG 2817/2818 6000 NSW"
"taf	RKSI	2020-02-27 12:12:00	TAF RKSI 271100Z 2712/2818 30006KT CAVOK TN01/2717Z TX06/2802Z \n BECMG 2714/2715 16008KT \n BECMG 2720/2721 SCT025 OVC080 \n BECMG 2801/2802 4200 -RA SCT010 BKN025 OVC080 \n BECMG 2811/2812 35006KT 2500 \n BECMG 2817/2818 6000 NSW"
"taf	RKSI	2020-02-27 18:00:00	TAF RKSI 271700Z 2718/2824 16006KT 9999 FEW030 BKN130 TN02/2720Z TX06/2802Z TN03/2820Z \n BECMG 2720/2721 SCT025 BKN080 \n BECMG 2801/2802 20005KT 4200 -RA SCT010 BKN025 OVC080 \n BECMG 2810/2811 35005KT 2500 \n BECMG 2817/2818 32005KT 4200 BR \n BECMG 2823/2824 36008KT 6000 NSW"
"taf	RKSI	2020-02-27 18:09:00	TAF RKSI 271700Z 2718/2824 16006KT 9999 FEW030 BKN130 TN02/2720Z TX06/2802Z TN03/2820Z \n BECMG 2720/2721 SCT025 BKN080 \n BECMG 2801/2802 20005KT 4200 -RA SCT010 BKN025 OVC080 \n BECMG 2810/2811 35005KT 2500 \n BECMG 2817/2818 32005KT 4200 BR \n BECMG 2823/2824 36008KT 6000 NSW"
"taf	RKSI	2020-02-28 00:00:00	TAF RKSI 282300Z 2900/0106 35006KT 6000 SCT030 TX10/2906Z TN02/2921Z TX10/0105Z \n BECMG 2914/2915 07005KT 4200 BR \n BECMG 2922/2923 7000 NSW"
"taf	RKSI	2020-02-28 00:09:00	TAF RKSI 282300Z 2900/0106 35006KT 6000 SCT030 TX10/2906Z TN02/2921Z TX10/0105Z \n BECMG 2914/2915 07005KT 4200 BR \n BECMG 2922/2923 7000 NSW"
"taf	RKSI	2020-02-28 03:25:00	TAF \n AMD RKSI 280325Z 2803/2906 20005KT 4200 -RASN FEW010 BKN025 OVC080 TX06/2804Z TN03/2822Z TX11/2906Z \n BECMG 2805/2806 -RA \n BECMG 2810/2811 01005KT 2500 \n BECMG 2817/2818 4200 BR \n BECMG 2820/2821 34008KT 6000 NSW"
"taf	RKSI	2020-02-28 03:27:00	TAF \n AMD TAF \n AMD RKSI 280325Z 2803/2906 20005KT 4200 -RASN FEW010 BKN025 OVC080 TX06/2804Z TN03/2822Z TX11/2906Z \n BECMG 2805/2806 -RA \n BECMG 2810/2811 01005KT 2500 \n BECMG 2817/2818 4200 BR \n BECMG 2820/2821 34008KT 6000 NSW"
"taf	RKSI	2020-02-28 06:00:00	TAF RKSI 280500Z 2806/2912 07005KT 4200 -RA SCT005 BKN025 OVC080 TN03/2821Z TX10/2906Z \n BECMG 2813/2814 2500 BR \n TEMPO 2815/2818 1400 -DZ \n BECMG 2819/2821 34006KT 3500 \n BECMG 2822/2823 6000 NSW SCT025"
"taf	RKSI	2020-02-28 06:06:00	TAF RKSI 280500Z 2806/2912 07005KT 4200 -RA SCT005 BKN025 OVC080 TN03/2821Z TX10/2906Z \n BECMG 2813/2814 2500 BR \n TEMPO 2815/2818 1400 -DZ \n BECMG 2819/2821 34006KT 3500 \n BECMG 2822/2823 6000 NSW SCT025"
"taf	RKSI	2020-02-28 07:40:00	TAF \n AMD RKSI 280640Z 2807/2912 07005KT 4200 BR FEW010 BKN025 OVC080 TN03/2821Z TX10/2906Z \n TEMPO 2807/2812 -RA \n BECMG 2813/2814 2500 \n TEMPO 2815/2818 1400 -DZ \n BECMG 2819/2821 34006KT 3500 \n BECMG 2822/2823 6000 NSW SCT025"
"taf	RKSI	2020-02-28 07:42:00	TAF \n AMD TAF \n AMD RKSI 280640Z 2807/2912 07005KT 4200 BR FEW010 BKN025 OVC080 TN03/2821Z TX10/2906Z \n TEMPO 2807/2812 -RA \n BECMG 2813/2814 2500 \n TEMPO 2815/2818 1400 -DZ \n BECMG 2819/2821 34006KT 3500 \n BECMG 2822/2823 6000 NSW SCT025"
"taf	RKSI	2020-02-28 09:44:00	TAF \n AMD RKSI 280844Z 2809/2912 07005KT 2500 BR FEW010 BKN025 OVC080 TN03/2821Z TX10/2906Z \n TEMPO 2809/2812 -RA \n TEMPO 2815/2818 1400 -DZ \n BECMG 2819/2821 34006KT 3500 \n BECMG 2822/2823 6000 NSW SCT025"
"taf	RKSI	2020-02-28 09:45:00	TAF \n AMD TAF \n AMD RKSI 280844Z 2809/2912 07005KT 2500 BR FEW010 BKN025 OVC080 TN03/2821Z TX10/2906Z \n TEMPO 2809/2812 -RA \n TEMPO 2815/2818 1400 -DZ \n BECMG 2819/2821 34006KT 3500 \n BECMG 2822/2823 6000 NSW SCT025"
"taf	RKSI	2020-02-28 12:00:00	TAF RKSI 281100Z 2812/2918 04005KT 1400 -DZ SCT010 BKN025 TN03/2821Z TX10/2906Z \n BECMG 2813/2814 01005KT 2000 BR \n TEMPO 2815/2818 3500 \n BECMG 2819/2820 3500 \n BECMG 2823/2824 30006KT 6000 NSW SCT035"
"taf	RKSI	2020-02-28 12:06:00	TAF RKSI 281100Z 2812/2918 04005KT 1400 -DZ SCT010 BKN025 TN03/2821Z TX10/2906Z \n BECMG 2813/2814 01005KT 2000 BR \n TEMPO 2815/2818 3500 \n BECMG 2819/2820 3500 \n BECMG 2823/2824 30006KT 6000 NSW SCT035"
"taf	RKSI	2020-02-28 13:50:00	TAF \n AMD RKSI 281250Z 2813/2918 04005KT 1200 -DZ SCT010 BKN025 TN03/2821Z TX10/2906Z \n TEMPO 2813/2815 0800 FG BKN005 \n BECMG 2816/2817 2000 BR \n BECMG 2819/2820 3500 \n BECMG 2823/2824 30006KT 6000 NSW SCT035"
"taf	RKSI	2020-02-28 13:51:00	TAF \n AMD TAF \n AMD RKSI 281250Z 2813/2918 04005KT 1200 -DZ SCT010 BKN025 TN03/2821Z TX10/2906Z \n TEMPO 2813/2815 0800 FG BKN005 \n BECMG 2816/2817 2000 BR \n BECMG 2819/2820 3500 \n BECMG 2823/2824 30006KT 6000 NSW SCT035"
"taf	RKSI	2020-02-28 14:48:00	TAF \n AMD TAF \n AMD RKSI 281350Z 2814/2918 04005KT 1400 BR SCT010 BKN025 TN03/2821Z TX10/2906Z \n BECMG 2815/2816 2500 \n BECMG 2819/2820 3500 \n BECMG 2823/2824 30006KT 6000 NSW SCT035"
"taf	RKSI	2020-02-28 14:50:00	TAF \n AMD RKSI 281350Z 2814/2918 04005KT 1400 BR SCT010 BKN025 TN03/2821Z TX10/2906Z \n BECMG 2815/2816 2500 \n BECMG 2819/2820 3500 \n BECMG 2823/2824 30006KT 6000 NSW SCT035"
"taf	RKSI	2020-02-28 15:50:00	TAF \n AMD RKSI 281450Z 2815/2918 04005KT 2500 BR SCT010 BKN025 TN03/2821Z TX10/2906Z \n TEMPO 2815/2816 -DZ \n BECMG 2819/2820 3500 \n BECMG 2823/2824 30006KT 6000 NSW SCT035"
"taf	RKSI	2020-02-28 15:51:00	TAF \n AMD TAF \n AMD RKSI 281450Z 2815/2918 04005KT 2500 BR SCT010 BKN025 TN03/2821Z TX10/2906Z \n TEMPO 2815/2816 -DZ \n BECMG 2819/2820 3500 \n BECMG 2823/2824 30006KT 6000 NSW SCT035"
"taf	RKSI	2020-02-28 18:00:00	TAF \n AMD RKSI 281800Z 2818/2924 03005KT 1400 BR SCT010 BKN025 TN03/2821Z TX10/2906Z TN02/2921Z \n TEMPO 2818/2820 0800 FG BKN003 \n BECMG 2821/2822 3500 \n BECMG 2900/2901 30006KT 6000 NSW SCT030"
"taf	RKSI	2020-02-28 18:03:00	TAF \n AMD TAF \n AMD RKSI 281800Z 2818/2924 03005KT 1400 BR SCT010 BKN025 TN03/2821Z TX10/2906Z TN02/2921Z \n TEMPO 2818/2820 0800 FG BKN003 \n BECMG 2821/2822 3500 \n BECMG 2900/2901 30006KT 6000 NSW SCT030"
"taf	RKSI	2020-02-28 18:06:00	TAF RKSI 281700Z 2818/2924 03005KT 2000 BR SCT010 BKN025 TN03/2821Z TX10/2906Z TN02/2921Z \n BECMG 2820/2821 3500 \n BECMG 2823/2824 30006KT 6000 NSW SCT030"
"taf	RKSI	2020-02-28 21:45:00	TAF \n AMD TAF \n AMD RKSI 282045Z 2821/2924 03005KT 4200 BR BKN025 TN03/2821Z TX10/2906Z TN02/2921Z \n BECMG 2823/2824 6000 NSW SCT030"
"taf	RKSI	2020-02-29 00:00:00	TAF RKSI 292300Z 0100/0206 27005KT 4200 BR FEW010 BKN030 TX08/0106Z TN00/0121Z TX06/0205Z \n BECMG 0102/0103 18006KT 6000 NSW SCT030 \n BECMG 0110/0111 31016G28KT FEW010 BKN025 \n BECMG 0115/0116 SCT030"
"taf	RKSI	2020-02-29 00:06:00	TAF RKSI 292300Z 0100/0206 27005KT 4200 BR FEW010 BKN030 TX08/0106Z TN00/0121Z TX06/0205Z \n BECMG 0102/0103 18006KT 6000 NSW SCT030 \n BECMG 0110/0111 31016G28KT FEW010 BKN025 \n BECMG 0115/0116 SCT030"
"taf	RKSI	2020-02-29 06:00:00	TAF RKSI 290500Z 2906/0112 30006KT CAVOK TN01/2921Z TX09/0106Z \n BECMG 0103/0104 19005KT \n BECMG 0105/0106 29008KT"
"taf	RKSI	2020-02-29 06:06:00	TAF RKSI 290500Z 2906/0112 30006KT CAVOK TN01/2921Z TX09/0106Z \n BECMG 0103/0104 19005KT \n BECMG 0105/0106 29008KT"
"taf	RKSI	2020-02-29 12:00:00	TAF RKSI 291100Z 2912/0118 30006KT CAVOK TN01/2921Z TX08/0106Z \n BECMG 0102/0103 18006KT \n BECMG 0104/0105 29008KT \n BECMG 0112/0113 31016G28KT 6000 FEW010 BKN025 \n BECMG 0114/0115 SCT035"
"taf	RKSI	2020-02-29 12:09:00	TAF RKSI 291100Z 2912/0118 30006KT CAVOK TN01/2921Z TX08/0106Z \n BECMG 0102/0103 18006KT \n BECMG 0104/0105 29008KT \n BECMG 0112/0113 31016G28KT 6000 FEW010 BKN025 \n BECMG 0114/0115 SCT035"
"taf	RKSI	2020-02-29 18:00:00	TAF RKSI 291700Z 2918/0124 30005KT 4200 BR NSC TN01/2921Z TX08/0106Z TN00/0121Z \n BECMG 2922/2923 7000 NSW \n BECMG 0102/0103 18006KT \n BECMG 0110/0111 31016G28KT FEW010 BKN025 \n BECMG 0115/0116 SCT030"
"taf	RKSI	2020-02-29 18:06:00	TAF RKSI 291700Z 2918/0124 30005KT 4200 BR NSC TN01/2921Z TX08/0106Z TN00/0121Z \n BECMG 2922/2923 7000 NSW \n BECMG 0102/0103 18006KT \n BECMG 0110/0111 31016G28KT FEW010 BKN025 \n BECMG 0115/0116 SCT030"
"taf	RKSI	2020-02-29 20:40:00	TAF \n AMD RKSI 291940Z 2920/0124 30005KT 2800 BR NSC TN01/2921Z TX08/0106Z TN00/0121Z \n TEMPO 2920/2922 1200 \n BECMG 2923/2924 6000 NSW \n BECMG 0102/0103 18006KT \n BECMG 0110/0111 31016G28KT FEW010 BKN025 \n BECMG 0115/0116 SCT030"
"taf	RKSI	2020-02-29 20:42:00	TAF \n AMD TAF \n AMD RKSI 291940Z 2920/0124 30005KT 2800 BR NSC TN01/2921Z TX08/0106Z TN00/0121Z \n TEMPO 2920/2922 1200 \n BECMG 2923/2924 6000 NSW \n BECMG 0102/0103 18006KT \n BECMG 0110/0111 31016G28KT FEW010 BKN025 \n BECMG 0115/0116 SCT030"
"taf	RKSI	2020-03-01 00:00:00	TAF RKSI 012300Z 0200/0306 32012KT CAVOK TX08/0206Z TNM01/0221Z TX09/0306Z \n BECMG 0203/0204 32015G25KT \n BECMG 0205/0206 32010KT \n BECMG 0217/0218 08005KT 4200 BR NSC \n BECMG 0223/0224 17005KT 6000 NSW \n BECMG 0303/0304 25006KT"
"taf	RKSI	2020-03-01 00:06:00	TAF RKSI 012300Z 0200/0306 32012KT CAVOK TX08/0206Z TNM01/0221Z TX09/0306Z \n BECMG 0203/0204 32015G25KT \n BECMG 0205/0206 32010KT \n BECMG 0217/0218 08005KT 4200 BR NSC \n BECMG 0223/0224 17005KT 6000 NSW \n BECMG 0303/0304 25006KT"
"taf	RKSI	2020-03-01 06:00:00	TAF RKSI 010500Z 0106/0212 24007KT 6000 FEW010 BKN030 TN00/0121Z TX06/0205Z \n BECMG 0107/0108 30007KT SCT030 \n BECMG 0110/0111 31016G28KT FEW010 BKN030 \n BECMG 0116/0117 SCT030 \n BECMG 0208/0209 31012KT"
"taf	RKSI	2020-03-01 06:09:00	TAF RKSI 010500Z 0106/0212 24007KT 6000 FEW010 BKN030 TN00/0121Z TX06/0205Z \n BECMG 0107/0108 30007KT SCT030 \n BECMG 0110/0111 31016G28KT FEW010 BKN030 \n BECMG 0116/0117 SCT030 \n BECMG 0208/0209 31012KT"
"taf	RKSI	2020-03-01 12:00:00	TAF RKSI 011100Z 0112/0218 31010KT 7000 BKN030 TN00/0121Z TX07/0205Z \n BECMG 0113/0114 32016G28KT \n BECMG 0116/0117 SCT030 \n BECMG 0209/0210 34011KT"
"taf	RKSI	2020-03-01 12:09:00	TAF RKSI 011100Z 0112/0218 31010KT 7000 BKN030 TN00/0121Z TX07/0205Z \n BECMG 0113/0114 32016G28KT \n BECMG 0116/0117 SCT030 \n BECMG 0209/0210 34011KT"
"taf	RKSI	2020-03-01 13:52:00	TAF \n AMD RKSI 011252Z 0113/0218 31016G28KT 7000 FEW010 BKN040 TN00/0121Z TX07/0205Z \n TEMPO 0113/0116 -RA \n BECMG 0117/0118 SCT030 \n BECMG 0209/0210 34011KT"
"taf	RKSI	2020-03-01 13:54:00	TAF \n AMD TAF \n AMD RKSI 011252Z 0113/0218 31016G28KT 7000 FEW010 BKN040 TN00/0121Z TX07/0205Z \n TEMPO 0113/0116 -RA \n BECMG 0117/0118 SCT030 \n BECMG 0209/0210 34011KT"
"taf	RKSI	2020-03-01 18:00:00	TAF RKSI 011700Z 0118/0224 31016G28KT 6000 NSC TN00/0121Z TX08/0206Z TNM01/0221Z \n BECMG 0205/0206 32010KT \n BECMG 0217/0218 02005KT 4200 BR \n BECMG 0221/0222 08005KT"
"taf	RKSI	2020-03-01 18:09:00	TAF RKSI 011700Z 0118/0224 31016G28KT 6000 NSC TN00/0121Z TX08/0206Z TNM01/0221Z \n BECMG 0205/0206 32010KT \n BECMG 0217/0218 02005KT 4200 BR \n BECMG 0221/0222 08005KT"
"taf	RKSI	2020-03-02 00:00:00	TAF RKSI 022300Z 0300/0406 16005KT CAVOK TX09/0306Z TN00/0321Z TX04/0406Z \n BECMG 0305/0306 23010KT \n BECMG 0314/0315 29010KT 9999 FEW010 BKN040 \n TEMPO 0316/0318 4200 -SNRA \n BECMG 0321/0322 30015G25KT \n BECMG 0404/0405 31020G35KT SCT040"
"taf	RKSI	2020-03-02 00:06:00	TAF RKSI 022300Z 0300/0406 16005KT CAVOK TX09/0306Z TN00/0321Z TX04/0406Z \n BECMG 0305/0306 23010KT \n BECMG 0314/0315 29010KT 9999 FEW010 BKN040 \n TEMPO 0316/0318 4200 -SNRA \n BECMG 0321/0322 30015G25KT \n BECMG 0404/0405 31020G35KT SCT040"
"taf	RKSI	2020-03-02 06:00:00	TAF RKSI 020500Z 0206/0312 32010KT CAVOK TNM01/0221Z TX09/0306Z \n BECMG 0217/0218 08006KT 4200 BR NSC \n BECMG 0223/0224 17007KT 6000 NSW \n BECMG 0303/0304 25008KT 9999 SCT030 \n BECMG 0310/0311 18008KT 6000 BKN030"
"taf	RKSI	2020-03-02 06:06:00	TAF RKSI 020500Z 0206/0312 32010KT CAVOK TNM01/0221Z TX09/0306Z \n BECMG 0217/0218 08006KT 4200 BR NSC \n BECMG 0223/0224 17007KT 6000 NSW \n BECMG 0303/0304 25008KT 9999 SCT030 \n BECMG 0310/0311 18008KT 6000 BKN030"
"taf	RKSI	2020-03-02 12:00:00	TAF RKSI 021100Z 0212/0318 32010KT CAVOK TNM01/0221Z TX09/0306Z \n BECMG 0217/0218 08006KT 4200 BR NSC \n BECMG 0222/0223 13007KT 6000 NSW \n BECMG 0303/0304 25008KT 9999 SCT030 \n BECMG 0310/0311 18008KT 6000 BKN030 \n BECMG 0315/0316 27010KT"
"taf	RKSI	2020-03-02 12:06:00	TAF RKSI 021100Z 0212/0318 32010KT CAVOK TNM01/0221Z TX09/0306Z \n BECMG 0217/0218 08006KT 4200 BR NSC \n BECMG 0222/0223 13007KT 6000 NSW \n BECMG 0303/0304 25008KT 9999 SCT030 \n BECMG 0310/0311 18008KT 6000 BKN030 \n BECMG 0315/0316 27010KT"
"taf	RKSI	2020-03-02 18:00:00	TAF RKSI 021700Z 0218/0324 06005KT CAVOK TNM01/0221Z TX09/0306Z TN00/0321Z \n BECMG 0219/0220 15005KT \n BECMG 0221/0222 18005KT 4200 BR NSC \n BECMG 0223/0224 22005KT 6000 NSW \n BECMG 0301/0302 28008KT \n BECMG 0314/0315 29015G25KT FEW010 BKN040"
"taf	RKSI	2020-03-02 18:06:00	TAF RKSI 021700Z 0218/0324 06005KT CAVOK TNM01/0221Z TX09/0306Z TN00/0321Z \n BECMG 0219/0220 15005KT \n BECMG 0221/0222 18005KT 4200 BR NSC \n BECMG 0223/0224 22005KT 6000 NSW \n BECMG 0301/0302 28008KT \n BECMG 0314/0315 29015G25KT FEW010 BKN040"
"taf	RKSI	2020-03-03 00:00:00	TAF RKSI 032300Z 0400/0506 30015G25KT 7000 SCT030 TX04/0403Z TNM02/0421Z TX07/0506Z \n BECMG 0401/0402 32020G35KT BKN030 \n BECMG 0410/0411 SCT030 \n BECMG 0419/0420 32015G25KT NSC"
"taf	RKSI	2020-03-03 00:06:00	TAF RKSI 032300Z 0400/0506 30015G25KT 7000 SCT030 TX04/0403Z TNM02/0421Z TX07/0506Z \n BECMG 0401/0402 32020G35KT BKN030 \n BECMG 0410/0411 SCT030 \n BECMG 0419/0420 32015G25KT NSC"
"taf	RKSI	2020-03-03 06:00:00	TAF RKSI 030500Z 0306/0412 26010KT 7000 FEW030 BKN120 TN01/0320Z TX04/0404Z \n BECMG 0314/0315 FEW010 BKN030 \n TEMPO 0316/0319 4200 -SNRA \n BECMG 0322/0323 30015G25KT \n BECMG 0403/0404 31020G35KT \n BECMG 0410/0411 SCT030"
"taf	RKSI	2020-03-03 06:06:00	TAF RKSI 030500Z 0306/0412 26010KT 7000 FEW030 BKN120 TN01/0320Z TX04/0404Z \n BECMG 0314/0315 FEW010 BKN030 \n TEMPO 0316/0319 4200 -SNRA \n BECMG 0322/0323 30015G25KT \n BECMG 0403/0404 31020G35KT \n BECMG 0410/0411 SCT030"
"taf	RKSI	2020-03-03 12:00:00	TAF RKSI 031100Z 0312/0418 28010KT 7000 FEW030 BKN120 TN01/0320Z TX04/0403Z \n BECMG 0314/0315 FEW010 BKN030 \n BECMG 0323/0324 30015G25KT \n TEMPO 0402/0406 30020G35KT 4200 -SNRA \n BECMG 0406/0407 31020G35KT \n BECMG 0410/0411 SCT030"
"taf	RKSI	2020-03-03 12:09:00	TAF RKSI 031100Z 0312/0418 28010KT 7000 FEW030 BKN120 TN01/0320Z TX04/0403Z \n BECMG 0314/0315 FEW010 BKN030 \n BECMG 0323/0324 30015G25KT \n TEMPO 0402/0406 30020G35KT 4200 -SNRA \n BECMG 0406/0407 31020G35KT \n BECMG 0410/0411 SCT030"
"taf	RKSI	2020-03-03 18:00:00	TAF RKSI 031700Z 0318/0424 27010KT 7000 BKN030 TN01/0320Z TX04/0403Z TNM02/0421Z \n BECMG 0321/0322 SCT030 \n BECMG 0323/0324 30015G25KT BKN030 \n BECMG 0402/0403 32020G35KT \n BECMG 0410/0411 SCT030"
"taf	RKSI	2020-03-03 18:09:00	TAF RKSI 031700Z 0318/0424 27010KT 7000 BKN030 TN01/0320Z TX04/0403Z TNM02/0421Z \n BECMG 0321/0322 SCT030 \n BECMG 0323/0324 30015G25KT BKN030 \n BECMG 0402/0403 32020G35KT \n BECMG 0410/0411 SCT030"
"taf	RKSI	2020-03-04 00:00:00	TAF RKSI 042300Z 0500/0606 33012KT CAVOK TX07/0506Z TNM02/0521Z TX08/0606Z \n TEMPO 0505/0508 32015G25KT \n BECMG 0517/0518 03007KT \n BECMG 0519/0520 10007KT 9999 SCT030 \n BECMG 0603/0604 25007KT"
"taf	RKSI	2020-03-04 00:09:00	TAF RKSI 042300Z 0500/0606 33012KT CAVOK TX07/0506Z TNM02/0521Z TX08/0606Z \n TEMPO 0505/0508 32015G25KT \n BECMG 0517/0518 03007KT \n BECMG 0519/0520 10007KT 9999 SCT030 \n BECMG 0603/0604 25007KT"
"taf	RKSI	2020-03-04 06:00:00	TAF RKSI 040500Z 0406/0512 32020G35KT 7000 SCT030 TNM03/0417Z TX08/0507Z \n TEMPO 0406/0409 BKN030 \n BECMG 0418/0419 32015G25KT \n BECMG 0509/0510 32010KT"
"taf	RKSI	2020-03-04 06:09:00	TAF RKSI 040500Z 0406/0512 32020G35KT 7000 SCT030 TNM03/0417Z TX08/0507Z \n TEMPO 0406/0409 BKN030 \n BECMG 0418/0419 32015G25KT \n BECMG 0509/0510 32010KT"
"taf	RKSI	2020-03-04 07:00:00	TAF \n AMD TAF \n AMD RKSI 040700Z 0407/0512 32020G35KT 7000 SCT030 TNM03/0417Z TX08/0507Z \n TEMPO 0407/0410 -SN BKN030 \n BECMG 0418/0419 32015G25KT \n BECMG 0509/0510 32010KT"
"taf	RKSI	2020-03-04 12:00:00	TAF RKSI 041100Z 0412/0518 32015G25KT 7000 SCT030 TNM03/0420Z TX08/0507Z \n TEMPO 0412/0416 32020G35KT \n BECMG 0509/0510 34010KT \n BECMG 0515/0516 24005KT"
"taf	RKSI	2020-03-04 12:15:00	TAF RKSI 041100Z 0412/0518 32015G25KT 7000 SCT030 TNM03/0420Z TX08/0507Z \n TEMPO 0412/0416 32020G35KT \n BECMG 0509/0510 34010KT \n BECMG 0515/0516 24005KT"
"taf	RKSI	2020-03-04 18:00:00	TAF RKSI 041700Z 0418/0524 32012KT 7000 NSC TNM03/0420Z TX07/0506Z TNM02/0521Z \n BECMG 0515/0516 25006KT SCT030 \n BECMG 0521/0522 12006KT"
"taf	RKSI	2020-03-04 18:09:00	TAF RKSI 041700Z 0418/0524 32012KT 7000 NSC TNM03/0420Z TX07/0506Z TNM02/0521Z \n BECMG 0515/0516 25006KT SCT030 \n BECMG 0521/0522 12006KT"
"taf	RKSI	2020-03-05 00:00:00	TAF RKSI 052300Z 0600/0706 18006KT CAVOK TX08/0607Z TN00/0618Z TX11/0706Z \n BECMG 0604/0605 25006KT \n BECMG 0612/0613 17005KT \n BECMG 0616/0617 06005KT 6000 FEW030 BKN120 \n BECMG 0701/0702 15005KT SCT030 BKN100"
"taf	RKSI	2020-03-05 00:06:00	TAF RKSI 052300Z 0600/0706 18006KT CAVOK TX08/0607Z TN00/0618Z TX11/0706Z \n BECMG 0604/0605 25006KT \n BECMG 0612/0613 17005KT \n BECMG 0616/0617 06005KT 6000 FEW030 BKN120 \n BECMG 0701/0702 15005KT SCT030 BKN100"
"taf	RKSI	2020-03-05 06:00:00	TAF RKSI 050500Z 0506/0612 31012KT CAVOK TNM02/0521Z TX08/0606Z \n BECMG 0517/0518 04005KT \n BECMG 0521/0522 15007KT 9999 SCT030 \n BECMG 0603/0604 25006KT"
"taf	RKSI	2020-03-05 06:06:00	TAF RKSI 050500Z 0506/0612 31012KT CAVOK TNM02/0521Z TX08/0606Z \n BECMG 0517/0518 04005KT \n BECMG 0521/0522 15007KT 9999 SCT030 \n BECMG 0603/0604 25006KT"
"taf	RKSI	2020-03-05 09:40:00	TAF \n AMD RKSI 050840Z 0509/0612 24010KT CAVOK TNM02/0521Z TX08/0606Z \n BECMG 0517/0518 04005KT \n BECMG 0521/0522 15007KT 9999 SCT030 \n BECMG 0603/0604 25006KT"
"taf	RKSI	2020-03-05 09:42:00	TAF \n AMD TAF \n AMD RKSI 050840Z 0509/0612 24010KT CAVOK TNM02/0521Z TX08/0606Z \n BECMG 0517/0518 04005KT \n BECMG 0521/0522 15007KT 9999 SCT030 \n BECMG 0603/0604 25006KT"
"taf	RKSI	2020-03-05 09:55:00	TAF \n AMD RKSI 050855Z 0509/0612 27010KT CAVOK TNM02/0521Z TX08/0606Z \n BECMG 0512/0513 33010KT \n BECMG 0517/0518 04005KT \n BECMG 0521/0522 15007KT 9999 SCT030 \n BECMG 0603/0604 25006KT"
"taf	RKSI	2020-03-05 09:57:00	TAF \n AMD TAF \n AMD RKSI 050855Z 0509/0612 27010KT CAVOK TNM02/0521Z TX08/0606Z \n BECMG 0512/0513 33010KT \n BECMG 0517/0518 04005KT \n BECMG 0521/0522 15007KT 9999 SCT030 \n BECMG 0603/0604 25006KT"
"taf	RKSI	2020-03-05 12:00:00	TAF RKSI 051100Z 0512/0618 33010KT CAVOK TNM02/0521Z TX08/0606Z \n BECMG 0517/0518 04005KT \n BECMG 0521/0522 15007KT 9999 SCT030 \n BECMG 0603/0604 25006KT \n BECMG 0612/0613 07005KT 4200 BR"
"taf	RKSI	2020-03-05 12:06:00	TAF RKSI 051100Z 0512/0618 33010KT CAVOK TNM02/0521Z TX08/0606Z \n BECMG 0517/0518 04005KT \n BECMG 0521/0522 15007KT 9999 SCT030 \n BECMG 0603/0604 25006KT \n BECMG 0612/0613 07005KT 4200 BR"
"taf	RKSI	2020-03-05 18:00:00	TAF RKSI 051700Z 0518/0624 04005KT CAVOK TNM03/0522Z TX08/0607Z TN00/0618Z \n BECMG 0523/0524 16006KT 9999 SCT030 \n BECMG 0604/0605 25006KT \n BECMG 0612/0613 17005KT \n BECMG 0616/0617 06005KT 4200 BR"
"taf	RKSI	2020-03-05 18:09:00	TAF RKSI 051700Z 0518/0624 04005KT CAVOK TNM03/0522Z TX08/0607Z TN00/0618Z \n BECMG 0523/0524 16006KT 9999 SCT030 \n BECMG 0604/0605 25006KT \n BECMG 0612/0613 17005KT \n BECMG 0616/0617 06005KT 4200 BR"
"taf	RKSI	2020-03-06 00:00:00	TAF RKSI 062300Z 0700/0806 11005KT 9999 SCT030 BKN100 TX11/0705Z TN02/0722Z TX14/0805Z \n BECMG 0706/0707 33007KT FEW030 SCT150 \n BECMG 0716/0717 01005KT 4200 BR \n BECMG 0722/0723 04005KT 6000 NSW \n BECMG 0801/0802 16005KT \n BECMG 0804/0805 32006KT CAVOK"
"taf	RKSI	2020-03-06 00:06:00	TAF RKSI 062300Z 0700/0806 11005KT 9999 SCT030 BKN100 TX11/0705Z TN02/0722Z TX14/0805Z \n BECMG 0706/0707 33007KT FEW030 SCT150 \n BECMG 0716/0717 01005KT 4200 BR \n BECMG 0722/0723 04005KT 6000 NSW \n BECMG 0801/0802 16005KT \n BECMG 0804/0805 32006KT CAVOK"
"taf	RKSI	2020-03-06 03:30:00	TAF \n AMD RKSI 060230Z 0603/0706 31006KT CAVOK TX08/0607Z TN00/0618Z TX11/0706Z \n BECMG 0612/0613 17005KT \n BECMG 0616/0617 06005KT 6000 FEW030 BKN120 \n BECMG 0701/0702 15005KT SCT030 BKN100"
"taf	RKSI	2020-03-06 03:33:00	TAF \n AMD TAF \n AMD RKSI 060230Z 0603/0706 31006KT CAVOK TX08/0607Z TN00/0618Z TX11/0706Z \n BECMG 0612/0613 17005KT \n BECMG 0616/0617 06005KT 6000 FEW030 BKN120 \n BECMG 0701/0702 15005KT SCT030 BKN100"
"taf	RKSI	2020-03-06 06:00:00	TAF RKSI 060500Z 0606/0712 29006KT CAVOK TN00/0618Z TX11/0706Z \n BECMG 0612/0613 17005KT \n BECMG 0616/0617 06005KT 6000 FEW030 BKN120 \n BECMG 0700/0701 15005KT SCT030 BKN100 \n BECMG 0705/0706 33008KT"
"taf	RKSI	2020-03-06 06:06:00	TAF RKSI 060500Z 0606/0712 29006KT CAVOK TN00/0618Z TX11/0706Z \n BECMG 0612/0613 17005KT \n BECMG 0616/0617 06005KT 6000 FEW030 BKN120 \n BECMG 0700/0701 15005KT SCT030 BKN100 \n BECMG 0705/0706 33008KT"
"taf	RKSI	2020-03-06 12:00:00	TAF RKSI 061100Z 0612/0718 17005KT CAVOK TN00/0618Z TX11/0706Z \n BECMG 0616/0617 06005KT 6000 FEW030 BKN120 \n BECMG 0700/0701 15005KT SCT030 BKN100 \n BECMG 0705/0706 33008KT \n BECMG 0715/0716 4200 BR NSC"
"taf	RKSI	2020-03-06 12:06:00	TAF RKSI 061100Z 0612/0718 17005KT CAVOK TN00/0618Z TX11/0706Z \n BECMG 0616/0617 06005KT 6000 FEW030 BKN120 \n BECMG 0700/0701 15005KT SCT030 BKN100 \n BECMG 0705/0706 33008KT \n BECMG 0715/0716 4200 BR NSC"
"taf	RKSI	2020-03-06 18:00:00	TAF RKSI 061700Z 0618/0724 04005KT 9999 FEW030 BKN120 TN01/0619Z TX11/0705Z TN02/0722Z \n BECMG 0700/0701 11005KT SCT030 BKN100 \n BECMG 0706/0707 33007KT FEW030 SCT150 \n BECMG 0716/0717 01005KT 4200 BR \n BECMG 0722/0723 04005KT 6000 NSW"
"taf	RKSI	2020-03-06 18:09:00	TAF RKSI 061700Z 0618/0724 04005KT 9999 FEW030 BKN120 TN01/0619Z TX11/0705Z TN02/0722Z \n BECMG 0700/0701 11005KT SCT030 BKN100 \n BECMG 0706/0707 33007KT FEW030 SCT150 \n BECMG 0716/0717 01005KT 4200 BR \n BECMG 0722/0723 04005KT 6000 NSW"
"taf	RKSI	2020-03-07 00:00:00	TAF RKSI 072300Z 0800/0906 15005KT 6000 NSC TX13/0806Z TN05/0821Z TX15/0905Z \n BECMG 0803/0804 30006KT \n BECMG 0818/0819 07005KT 4200 BR \n BECMG 0900/0901 6000 NSW"
"taf	RKSI	2020-03-07 00:09:00	TAF RKSI 072300Z 0800/0906 15005KT 6000 NSC TX13/0806Z TN05/0821Z TX15/0905Z \n BECMG 0803/0804 30006KT \n BECMG 0818/0819 07005KT 4200 BR \n BECMG 0900/0901 6000 NSW"
"taf	RKSI	2020-03-07 06:00:00	TAF RKSI 070500Z 0706/0812 33006KT 6000 NSC TN03/0721Z TX13/0806Z \n BECMG 0717/0718 03005KT 4200 BR \n BECMG 0721/0722 07005KT 6000 NSW \n BECMG 0804/0805 34006KT"
"taf	RKSI	2020-03-07 06:09:00	TAF RKSI 070500Z 0706/0812 33006KT 6000 NSC TN03/0721Z TX13/0806Z \n BECMG 0717/0718 03005KT 4200 BR \n BECMG 0721/0722 07005KT 6000 NSW \n BECMG 0804/0805 34006KT"
"taf	RKSI	2020-03-07 12:00:00	TAF RKSI 071100Z 0712/0818 32005KT 4200 BR NSC TN02/0721Z TX13/0806Z \n TEMPO 0718/0721 35005KT 2800 \n BECMG 0722/0723 06006KT 6000 NSW \n BECMG 0801/0802 15006KT \n BECMG 0803/0804 30006KT \n BECMG 0816/0817 07005KT"
"taf	RKSI	2020-03-07 12:09:00	TAF RKSI 071100Z 0712/0818 32005KT 4200 BR NSC TN02/0721Z TX13/0806Z \n TEMPO 0718/0721 35005KT 2800 \n BECMG 0722/0723 06006KT 6000 NSW \n BECMG 0801/0802 15006KT \n BECMG 0803/0804 30006KT \n BECMG 0816/0817 07005KT"
"taf	RKSI	2020-03-07 18:00:00	TAF RKSI 071700Z 0718/0824 30005KT 2500 BR NSC TN02/0721Z TX13/0806Z TN05/0821Z \n BECMG 0800/0801 15005KT 6000 NSW \n BECMG 0803/0804 30006KT \n BECMG 0818/0819 07005KT"
"taf	RKSI	2020-03-07 18:06:00	TAF RKSI 071700Z 0718/0824 30005KT 2500 BR NSC TN02/0721Z TX13/0806Z TN05/0821Z \n BECMG 0800/0801 15005KT 6000 NSW \n BECMG 0803/0804 30006KT \n BECMG 0818/0819 07005KT"
"taf	RKSI	2020-03-08 00:00:00	TAF RKSI 082300Z 0900/1006 04005KT 6000 NSC TX14/0906Z TN05/0921Z TX08/1005Z \n BECMG 0903/0904 16006KT \n BECMG 0909/0910 33010KT \n BECMG 0915/0916 4200 -RA FEW010 BKN025 OVC080"
"taf	RKSI	2020-03-08 00:06:00	TAF RKSI 082300Z 0900/1006 04005KT 6000 NSC TX14/0906Z TN05/0921Z TX08/1005Z \n BECMG 0903/0904 16006KT \n BECMG 0909/0910 33010KT \n BECMG 0915/0916 4200 -RA FEW010 BKN025 OVC080"
"taf	RKSI	2020-03-08 06:00:00	TAF RKSI 080500Z 0806/0912 31006KT CAVOK TN04/0821Z TX14/0906Z \n BECMG 0816/0817 15006KT \n BECMG 0818/0819 06005KT \n TEMPO 0821/0823 03005KT 4200 BR NSC \n BECMG 0900/0901 15005KT \n BECMG 0904/0905 33008KT"
"taf	RKSI	2020-03-08 06:09:00	TAF RKSI 080500Z 0806/0912 31006KT CAVOK TN04/0821Z TX14/0906Z \n BECMG 0816/0817 15006KT \n BECMG 0818/0819 06005KT \n TEMPO 0821/0823 03005KT 4200 BR NSC \n BECMG 0900/0901 15005KT \n BECMG 0904/0905 33008KT"
"taf	RKSI	2020-03-08 12:00:00	TAF RKSI 081100Z 0812/0918 30006KT 6000 NSC TN03/0821Z TX14/0906Z \n TEMPO 0820/0823 13006KT 4200 BR \n BECMG 0903/0904 16006KT \n BECMG 0905/0906 30008KT \n BECMG 0915/0916 33010KT 4200 -RA FEW010 BKN025 OVC080"
"taf	RKSI	2020-03-08 12:06:00	TAF RKSI 081100Z 0812/0918 30006KT 6000 NSC TN03/0821Z TX14/0906Z \n TEMPO 0820/0823 13006KT 4200 BR \n BECMG 0903/0904 16006KT \n BECMG 0905/0906 30008KT \n BECMG 0915/0916 33010KT 4200 -RA FEW010 BKN025 OVC080"
"taf	RKSI	2020-03-08 18:00:00	TAF RKSI 081700Z 0818/0924 30005KT 6000 NSC TN03/0821Z TX14/0906Z TN04/0921Z \n TEMPO 0819/0822 4200 BR \n BECMG 0903/0904 16006KT \n BECMG 0909/0910 33010KT \n BECMG 0915/0916 4200 -RA FEW010 BKN025 OVC080"
"taf	RKSI	2020-03-08 18:06:00	TAF RKSI 081700Z 0818/0924 30005KT 6000 NSC TN03/0821Z TX14/0906Z TN04/0921Z \n TEMPO 0819/0822 4200 BR \n BECMG 0903/0904 16006KT \n BECMG 0909/0910 33010KT \n BECMG 0915/0916 4200 -RA FEW010 BKN025 OVC080"
"taf	RKSI	2020-03-08 22:30:00	TAF \n AMD TAF \n AMD RKSI 082130Z 0822/0924 04005KT 4200 BR NSC TN03/0821Z TX14/0906Z TN04/0921Z \n BECMG 0900/0901 6000 NSW \n BECMG 0903/0904 16006KT \n BECMG 0909/0910 33010KT \n BECMG 0915/0916 4200 -RA FEW010 BKN025 OVC080"
"taf	RKSI	2020-03-09 00:00:00	TAF RKSI 092300Z 1000/1106 32012KT 1400 -RA FEW008 BKN030 OVC080 TX09/1006Z TN00/1021Z TX08/1106Z \n BECMG 1001/1002 2500 \n BECMG 1003/1004 3500 \n BECMG 1005/1006 32015G25KT 6000 NSW SCT035 \n BECMG 1007/1008 32020G35KT \n BECMG 1020/1021 29015G25KT"
"taf	RKSI	2020-03-09 00:09:00	TAF RKSI 092300Z 1000/1106 32012KT 1400 -RA FEW008 BKN030 OVC080 TX09/1006Z TN00/1021Z TX08/1106Z \n BECMG 1001/1002 2500 \n BECMG 1003/1004 3500 \n BECMG 1005/1006 32015G25KT 6000 NSW SCT035 \n BECMG 1007/1008 32020G35KT \n BECMG 1020/1021 29015G25KT"
"taf	RKSI	2020-03-09 06:00:00	TAF RKSI 090500Z 0906/1012 32010KT 6000 SCT030 BKN120 TN06/0922Z TX08/1005Z \n BECMG 0907/0908 BKN030 BKN100 \n BECMG 0914/0915 4200 -RA SCT010 BKN025 OVC080 \n BECMG 1001/1002 30015G25KT 6000 \n BECMG 1004/1005 NSW SCT030 \n BECMG 1006/1007 30018G35KT"
"taf	RKSI	2020-03-09 06:06:00	TAF RKSI 090500Z 0906/1012 32010KT 6000 SCT030 BKN120 TN06/0922Z TX08/1005Z \n BECMG 0907/0908 BKN030 BKN100 \n BECMG 0914/0915 4200 -RA SCT010 BKN025 OVC080 \n BECMG 1001/1002 30015G25KT 6000 \n BECMG 1004/1005 NSW SCT030 \n BECMG 1006/1007 30018G35KT"
"taf	RKSI	2020-03-09 12:00:00	TAF RKSI 091100Z 0912/1018 32010KT 6000 BKN030 BKN100 TN06/0922Z TX08/1005Z \n TEMPO 0912/0913 -RA \n BECMG 0914/0915 4200 -RA SCT010 BKN025 OVC080 \n BECMG 1001/1002 30015G25KT \n BECMG 1004/1005 6000 NSW BKN030 \n BECMG 1006/1007 30018G35KT SCT030"
"taf	RKSI	2020-03-09 12:06:00	TAF RKSI 091100Z 0912/1018 32010KT 6000 BKN030 BKN100 TN06/0922Z TX08/1005Z \n TEMPO 0912/0913 -RA \n BECMG 0914/0915 4200 -RA SCT010 BKN025 OVC080 \n BECMG 1001/1002 30015G25KT \n BECMG 1004/1005 6000 NSW BKN030 \n BECMG 1006/1007 30018G35KT SCT030"
"taf	RKSI	2020-03-09 12:09:00	TAF RKSI 091100Z 0912/1018 32010KT 6000 BKN030 BKN100 TN06/0922Z TX08/1005Z \n TEMPO 0912/0913 -RA \n BECMG 0914/0915 4200 -RA SCT010 BKN025 OVC080 \n BECMG 1001/1002 30015G25KT \n BECMG 1004/1005 6000 NSW BKN030 \n BECMG 1006/1007 30018G35KT SCT030"
"taf	RKSI	2020-03-09 18:00:00	TAF RKSI 091700Z 0918/1024 31008KT 4200 -RA FEW010 BKN025 OVC080 TN05/0921Z TX08/1006Z TN00/1021Z \n BECMG 1005/1006 31015G25KT 6000 NSW SCT035 \n BECMG 1007/1008 32020G35KT \n BECMG 1017/1018 31015G25KT"
"taf	RKSI	2020-03-09 18:09:00	TAF RKSI 091700Z 0918/1024 31008KT 4200 -RA FEW010 BKN025 OVC080 TN05/0921Z TX08/1006Z TN00/1021Z \n BECMG 1005/1006 31015G25KT 6000 NSW SCT035 \n BECMG 1007/1008 32020G35KT \n BECMG 1017/1018 31015G25KT"
"taf	RKSI	2020-03-09 21:24:00	TAF \n AMD RKSI 092124Z 0921/1024 31008KT 2000 -RA FEW010 BKN025 OVC080 TN05/0921Z TX08/1006Z TN00/1021Z \n BECMG 1003/1004 4200 \n BECMG 1005/1006 31015G25KT 6000 NSW SCT035 \n BECMG 1007/1008 32020G35KT \n BECMG 1017/1018 31015G25KT"
"taf	RKSI	2020-03-09 21:27:00	TAF \n AMD TAF \n AMD RKSI 092124Z 0921/1024 31008KT 2000 -RA FEW010 BKN025 OVC080 TN05/0921Z TX08/1006Z TN00/1021Z \n BECMG 1003/1004 4200 \n BECMG 1005/1006 31015G25KT 6000 NSW SCT035 \n BECMG 1007/1008 32020G35KT \n BECMG 1017/1018 31015G25KT"
"taf	RKSI	2020-03-10 00:00:00	TAF RKSI 102300Z 1100/1206 31016G26KT CAVOK TX08/1106Z TN01/1121Z TX11/1206Z \n BECMG 1105/1106 29010KT \n BECMG 1113/1114 23008KT \n BECMG 1117/1118 17012KT"
"taf	RKSI	2020-03-10 00:09:00	TAF RKSI 102300Z 1100/1206 31016G26KT CAVOK TX08/1106Z TN01/1121Z TX11/1206Z \n BECMG 1105/1106 29010KT \n BECMG 1113/1114 23008KT \n BECMG 1117/1118 17012KT"
"taf	RKSI	2020-03-10 03:42:00	TAF \n AMD TAF \n AMD RKSI 100245Z 1003/1106 32012KT 6000 FEW008 BKN030 OVC080 TX09/1006Z TN00/1021Z TX08/1106Z \n BECMG 1005/1006 32015G25KT SCT035 \n BECMG 1007/1008 32020G35KT \n BECMG 1020/1021 29015G25KT"
"taf	RKSI	2020-03-10 03:45:00	TAF \n AMD RKSI 100245Z 1003/1106 32012KT 6000 FEW008 BKN030 OVC080 TX09/1006Z TN00/1021Z TX08/1106Z \n BECMG 1005/1006 32015G25KT SCT035 \n BECMG 1007/1008 32020G35KT \n BECMG 1020/1021 29015G25KT"
"taf	RKSI	2020-03-10 06:00:00	TAF RKSI 100500Z 1006/1112 32015G25KT 6000 SCT030 BKN080 TN00/1021Z TX08/1106Z \n BECMG 1007/1008 32020G35KT NSC \n BECMG 1101/1102 29015G25KT \n BECMG 1106/1107 28020G35KT \n BECMG 1110/1111 27010KT"
"taf	RKSI	2020-03-10 06:09:00	TAF RKSI 100500Z 1006/1112 32015G25KT 6000 SCT030 BKN080 TN00/1021Z TX08/1106Z \n BECMG 1007/1008 32020G35KT NSC \n BECMG 1101/1102 29015G25KT \n BECMG 1106/1107 28020G35KT \n BECMG 1110/1111 27010KT"
"taf	RKSI	2020-03-10 12:00:00	TAF RKSI 101100Z 1012/1118 32020G35KT 6000 NSC TN00/1021Z TX08/1106Z \n BECMG 1021/1022 30015G25KT \n BECMG 1106/1107 28017G35KT \n BECMG 1109/1110 25010KT \n BECMG 1116/1117 18009KT"
"taf	RKSI	2020-03-10 12:09:00	TAF RKSI 101100Z 1012/1118 32020G35KT 6000 NSC TN00/1021Z TX08/1106Z \n BECMG 1021/1022 30015G25KT \n BECMG 1106/1107 28017G35KT \n BECMG 1109/1110 25010KT \n BECMG 1116/1117 18009KT"
"taf	RKSI	2020-03-10 18:00:00	TAF RKSI 101700Z 1018/1124 31015G25KT CAVOK TNM00/1021Z TX08/1106Z TN01/1121Z \n BECMG 1105/1106 29010KT \n BECMG 1114/1115 23008KT \n BECMG 1117/1118 18015G25KT"
"taf	RKSI	2020-03-10 18:09:00	TAF RKSI 101700Z 1018/1124 31015G25KT CAVOK TNM00/1021Z TX08/1106Z TN01/1121Z \n BECMG 1105/1106 29010KT \n BECMG 1114/1115 23008KT \n BECMG 1117/1118 18015G25KT"
"taf	RKSI	2020-03-11 00:00:00	TAF RKSI 112300Z 1200/1306 16015G25KT CAVOK TX12/1205Z TN02/1221Z TX08/1306Z \n BECMG 1203/1204 19018G35KT 9999 FEW040 BKN120 \n BECMG 1209/1210 22010KT BKN040 \n TEMPO 1215/1218 31008KT 4500 -RA SCT010 BKN030 OVC100 \n BECMG 1218/1219 32015G25KT \n BECMG 1220/1221 CAVOK"
"taf	RKSI	2020-03-11 00:09:00	TAF RKSI 112300Z 1200/1306 16015G25KT CAVOK TX12/1205Z TN02/1221Z TX08/1306Z \n BECMG 1203/1204 19018G35KT 9999 FEW040 BKN120 \n BECMG 1209/1210 22010KT BKN040 \n TEMPO 1215/1218 31008KT 4500 -RA SCT010 BKN030 OVC100 \n BECMG 1218/1219 32015G25KT \n BECMG 1220/1221 CAVOK"
"taf	RKSI	2020-03-11 06:00:00	TAF RKSI 110500Z 1106/1212 28012KT CAVOK TN01/1122Z TX12/1204Z \n BECMG 1113/1114 22008KT \n BECMG 1118/1119 16011KT \n BECMG 1203/1204 21015G25KT \n BECMG 1209/1210 22010KT 9999 FEW030 BKN120"
"taf	RKSI	2020-03-11 06:09:00	TAF RKSI 110500Z 1106/1212 28012KT CAVOK TN01/1122Z TX12/1204Z \n BECMG 1113/1114 22008KT \n BECMG 1118/1119 16011KT \n BECMG 1203/1204 21015G25KT \n BECMG 1209/1210 22010KT 9999 FEW030 BKN120"
"taf	RKSI	2020-03-11 12:00:00	TAF RKSI 111100Z 1112/1218 22008KT CAVOK TN01/1115Z TX12/1204Z \n BECMG 1118/1119 16011KT \n BECMG 1202/1203 21015G25KT \n BECMG 1209/1210 22009KT 9999 FEW030 BKN120 \n TEMPO 1216/1218 30007KT -RA FEW010 BKN030 OVC100"
"taf	RKSI	2020-03-11 12:09:00	TAF RKSI 111100Z 1112/1218 22008KT CAVOK TN01/1115Z TX12/1204Z \n BECMG 1118/1119 16011KT \n BECMG 1202/1203 21015G25KT \n BECMG 1209/1210 22009KT 9999 FEW030 BKN120 \n TEMPO 1216/1218 30007KT -RA FEW010 BKN030 OVC100"
"taf	RKSI	2020-03-11 18:00:00	TAF RKSI 111700Z 1118/1224 18010KT CAVOK TN01/1121Z TX12/1205Z TN02/1221Z \n BECMG 1120/1121 16015G25KT \n BECMG 1202/1203 19018G35KT 9999 FEW040 \n BECMG 1209/1210 22010KT FEW030 BKN100 \n TEMPO 1215/1218 31010KT 4500 -RA SCT010 BKN030 OVC100 \n BECMG 1218/1219 32015G25KT 6000"
"taf	RKSI	2020-03-11 18:09:00	TAF RKSI 111700Z 1118/1224 18010KT CAVOK TN01/1121Z TX12/1205Z TN02/1221Z \n BECMG 1120/1121 16015G25KT \n BECMG 1202/1203 19018G35KT 9999 FEW040 \n BECMG 1209/1210 22010KT FEW030 BKN100 \n TEMPO 1215/1218 31010KT 4500 -RA SCT010 BKN030 OVC100 \n BECMG 1218/1219 32015G25KT 6000"
"taf	RKSI	2020-03-12 00:00:00	TAF RKSI 122300Z 1300/1406 34015G25KT CAVOK TX08/1306Z TNM01/1322Z TX10/1406Z \n BECMG 1313/1314 33010KT \n BECMG 1322/1323 27007KT \n BECMG 1403/1404 26015G25KT"
"taf	RKSI	2020-03-12 00:09:00	TAF RKSI 122300Z 1300/1406 34015G25KT CAVOK TX08/1306Z TNM01/1322Z TX10/1406Z \n BECMG 1313/1314 33010KT \n BECMG 1322/1323 27007KT \n BECMG 1403/1404 26015G25KT"
"taf	RKSI	2020-03-12 02:45:00	TAF \n AMD RKSI 120145Z 1202/1306 16015G25KT 9999 BKN040 TX12/1205Z TN02/1221Z TX08/1306Z \n TEMPO 1203/1208 19018G35KT \n BECMG 1209/1210 22010KT \n TEMPO 1215/1218 31008KT 4500 -RA SCT010 BKN030 OVC100 \n BECMG 1218/1219 32015G25KT \n BECMG 1220/1221 CAVOK"
"taf	RKSI	2020-03-12 02:51:00	TAF \n AMD TAF \n AMD RKSI 120145Z 1202/1306 16015G25KT 9999 BKN040 TX12/1205Z TN02/1221Z TX08/1306Z \n TEMPO 1203/1208 19018G35KT \n BECMG 1209/1210 22010KT \n TEMPO 1215/1218 31008KT 4500 -RA SCT010 BKN030 OVC100 \n BECMG 1218/1219 32015G25KT \n BECMG 1220/1221 CAVOK"
"taf	RKSI	2020-03-12 06:00:00	TAF RKSI 120500Z 1206/1312 20015G25KT 9999 FEW040 SCT180 TN02/1223Z TX08/1307Z \n BECMG 1209/1210 20010KT \n BECMG 1213/1214 26010KT BKN025 OVC080 \n TEMPO 1215/1219 32009KT 4200 -RA \n BECMG 1219/1220 33015G25KT \n BECMG 1221/1222 FEW030 SCT120"
"taf	RKSI	2020-03-12 06:09:00	TAF RKSI 120500Z 1206/1312 20015G25KT 9999 FEW040 SCT180 TN02/1223Z TX08/1307Z \n BECMG 1209/1210 20010KT \n BECMG 1213/1214 26010KT BKN025 OVC080 \n TEMPO 1215/1219 32009KT 4200 -RA \n BECMG 1219/1220 33015G25KT \n BECMG 1221/1222 FEW030 SCT120"
"taf	RKSI	2020-03-12 12:00:00	TAF RKSI 121100Z 1212/1318 25010KT 9999 FEW030 BKN180 TN02/1223Z TX08/1307Z \n BECMG 1213/1214 BKN025 OVC080 \n TEMPO 1216/1219 32009KT 4200 -RA \n BECMG 1219/1220 33015G25KT \n BECMG 1221/1222 FEW030 SCT120 \n BECMG 1310/1311 33010KT"
"taf	RKSI	2020-03-12 12:09:00	TAF RKSI 121100Z 1212/1318 25010KT 9999 FEW030 BKN180 TN02/1223Z TX08/1307Z \n BECMG 1213/1214 BKN025 OVC080 \n TEMPO 1216/1219 32009KT 4200 -RA \n BECMG 1219/1220 33015G25KT \n BECMG 1221/1222 FEW030 SCT120 \n BECMG 1310/1311 33010KT"
"taf	RKSI	2020-03-12 18:00:00	TAF RKSI 121700Z 1218/1324 33015G25KT 9999 SCT010 BKN030 OVC080 TN02/1223Z TX08/1307Z TNM01/1322Z \n TEMPO 1218/1219 32009KT 4500 -RA \n BECMG 1221/1222 FEW030 SCT120 \n BECMG 1313/1314 33010KT \n BECMG 1321/1322 27007KT"
"taf	RKSI	2020-03-12 18:09:00	TAF RKSI 121700Z 1218/1324 33015G25KT 9999 SCT010 BKN030 OVC080 TN02/1223Z TX08/1307Z TNM01/1322Z \n TEMPO 1218/1219 32009KT 4500 -RA \n BECMG 1221/1222 FEW030 SCT120 \n BECMG 1313/1314 33010KT \n BECMG 1321/1322 27007KT"
"taf	RKSI	2020-03-13 00:00:00	TAF RKSI 132300Z 1400/1506 24006KT CAVOK TX10/1406Z TN02/1421Z TX09/1504Z \n BECMG 1404/1405 27015G25KT \n BECMG 1411/1412 33015G25KT \n BECMG 1418/1419 27010KT 9999 SCT030 \n BECMG 1423/1424 33015G25KT \n TEMPO 1502/1506 32020G35KT"
"taf	RKSI	2020-03-13 00:09:00	TAF RKSI 132300Z 1400/1506 24006KT CAVOK TX10/1406Z TN02/1421Z TX09/1504Z \n BECMG 1404/1405 27015G25KT \n BECMG 1411/1412 33015G25KT \n BECMG 1418/1419 27010KT 9999 SCT030 \n BECMG 1423/1424 33015G25KT \n TEMPO 1502/1506 32020G35KT"
"taf	RKSI	2020-03-13 06:00:00	TAF RKSI 130500Z 1306/1412 34015G25KT CAVOK TNM01/1322Z TX10/1406Z \n BECMG 1315/1316 34010KT \n BECMG 1322/1323 26007KT \n BECMG 1403/1404 28015G25KT"
"taf	RKSI	2020-03-13 06:09:00	TAF RKSI 130500Z 1306/1412 34015G25KT CAVOK TNM01/1322Z TX10/1406Z \n BECMG 1315/1316 34010KT \n BECMG 1322/1323 26007KT \n BECMG 1403/1404 28015G25KT"
"taf	RKSI	2020-03-13 12:00:00	TAF RKSI 131100Z 1312/1418 33012KT CAVOK TNM01/1322Z TX10/1406Z \n BECMG 1322/1323 26007KT \n BECMG 1403/1404 27015G25KT \n BECMG 1409/1410 33015G25KT \n BECMG 1415/1416 27012KT"
"taf	RKSI	2020-03-13 12:09:00	TAF RKSI 131100Z 1312/1418 33012KT CAVOK TNM01/1322Z TX10/1406Z \n BECMG 1322/1323 26007KT \n BECMG 1403/1404 27015G25KT \n BECMG 1409/1410 33015G25KT \n BECMG 1415/1416 27012KT"
"taf	RKSI	2020-03-13 18:00:00	TAF RKSI 131700Z 1318/1424 33010KT CAVOK TNM02/1321Z TX10/1405Z TN02/1420Z \n BECMG 1321/1322 24006KT \n BECMG 1404/1405 27015G25KT \n BECMG 1411/1412 33015G25KT \n BECMG 1418/1419 27010KT 9999 SCT030 \n BECMG 1422/1423 33015G25KT"
"taf	RKSI	2020-03-13 18:09:00	TAF RKSI 131700Z 1318/1424 33010KT CAVOK TNM02/1321Z TX10/1405Z TN02/1420Z \n BECMG 1321/1322 24006KT \n BECMG 1404/1405 27015G25KT \n BECMG 1411/1412 33015G25KT \n BECMG 1418/1419 27010KT 9999 SCT030 \n BECMG 1422/1423 33015G25KT"
"taf	RKSI	2020-03-14 00:00:00	TAF RKSI 142300Z 1500/1606 33015G25KT 9999 FEW030 BKN100 TX10/1504Z TNM03/1521Z TX07/1605Z \n BECMG 1502/1503 32020G35KT SCT040 \n TEMPO 1506/1511 BKN030 \n BECMG 1514/1515 34015G25KT \n BECMG 1520/1521 02007KT \n BECMG 1602/1603 24010KT"
"taf	RKSI	2020-03-14 00:09:00	TAF RKSI 142300Z 1500/1606 33015G25KT 9999 FEW030 BKN100 TX10/1504Z TNM03/1521Z TX07/1605Z \n BECMG 1502/1503 32020G35KT SCT040 \n TEMPO 1506/1511 BKN030 \n BECMG 1514/1515 34015G25KT \n BECMG 1520/1521 02007KT \n BECMG 1602/1603 24010KT"
"taf	RKSI	2020-03-14 06:00:00	TAF RKSI 140500Z 1406/1512 26015G25KT CAVOK TN02/1421Z TX09/1504Z \n BECMG 1410/1411 32015G25KT \n BECMG 1418/1419 26010KT 9999 SCT030 \n BECMG 1423/1424 33015G25KT \n TEMPO 1506/1511 33020G35KT BKN030"
"taf	RKSI	2020-03-14 06:09:00	TAF RKSI 140500Z 1406/1512 26015G25KT CAVOK TN02/1421Z TX09/1504Z \n BECMG 1410/1411 32015G25KT \n BECMG 1418/1419 26010KT 9999 SCT030 \n BECMG 1423/1424 33015G25KT \n TEMPO 1506/1511 33020G35KT BKN030"
"taf	RKSI	2020-03-14 12:00:00	TAF RKSI 141100Z 1412/1518 32015G25KT 6000 SCT030 TN02/1421Z TX09/1504Z \n BECMG 1418/1419 26010KT \n BECMG 1423/1424 33015G25KT \n TEMPO 1506/1511 33020G35KT BKN030"
"taf	RKSI	2020-03-14 12:09:00	TAF RKSI 141100Z 1412/1518 32015G25KT 6000 SCT030 TN02/1421Z TX09/1504Z \n BECMG 1418/1419 26010KT \n BECMG 1423/1424 33015G25KT \n TEMPO 1506/1511 33020G35KT BKN030"
"taf	RKSI	2020-03-14 18:00:00	TAF RKSI 141700Z 1418/1524 27010KT 7000 SCT030 TN02/1420Z TX10/1504Z TNM03/1521Z \n BECMG 1423/1424 33015G25KT \n BECMG 1502/1503 32020G35KT \n TEMPO 1506/1511 BKN030 \n BECMG 1514/1515 34015G25KT \n BECMG 1520/1521 02007KT"
"taf	RKSI	2020-03-14 18:09:00	TAF RKSI 141700Z 1418/1524 27010KT 7000 SCT030 TN02/1420Z TX10/1504Z TNM03/1521Z \n BECMG 1423/1424 33015G25KT \n BECMG 1502/1503 32020G35KT \n TEMPO 1506/1511 BKN030 \n BECMG 1514/1515 34015G25KT \n BECMG 1520/1521 02007KT"
"taf	RKSI	2020-03-15 00:00:00	TAF COR RKSI 152300Z 1600/1706 04005KT CAVOK TX07/1606Z TN03/1621Z TX11/1705Z \n BECMG 1603/1604 24010KT \n BECMG 1618/1619 20015G25KT 6000 BKN020 \n TEMPO 1621/1624 4200 BR \n BECMG 1701/1702 26012KT SCT030"
"taf	RKSI	2020-03-15 00:09:00	TAF RKSI 152300Z 1600/1706 04005KT CAVOK TX07/1606Z TN03/1621Z TX11/1705Z \n BECMG 1603/1604 24010KT \n BECMG 1618/1619 20015G25KT 6000 BKN020 \n TEMPO 1621/1624 4200 BR \n BECMG 1701/1702 26012KT"
"taf	RKSI	2020-03-15 00:12:00	TAF COR TAF COR RKSI 152300Z 1600/1706 04005KT CAVOK TX07/1606Z TN03/1621Z TX11/1705Z \n BECMG 1603/1604 24010KT \n BECMG 1618/1619 20015G25KT 6000 BKN020 \n TEMPO 1621/1624 4200 BR \n BECMG 1701/1702 26012KT SCT030"
"taf	RKSI	2020-03-15 06:00:00	TAF RKSI 150500Z 1506/1612 32025G35KT CAVOK TNM03/1521Z TX06/1606Z \n TEMPO 1508/1510 9999 BKN045 \n BECMG 1514/1515 33015G25KT \n BECMG 1517/1518 35010KT \n BECMG 1520/1521 05006KT \n BECMG 1603/1604 24010KT"
"taf	RKSI	2020-03-15 06:09:00	TAF RKSI 150500Z 1506/1612 32025G35KT CAVOK TNM03/1521Z TX06/1606Z \n TEMPO 1508/1510 9999 BKN045 \n BECMG 1514/1515 33015G25KT \n BECMG 1517/1518 35010KT \n BECMG 1520/1521 05006KT \n BECMG 1603/1604 24010KT"
"taf	RKSI	2020-03-15 12:00:00	TAF RKSI 151100Z 1512/1618 33018G35KT CAVOK TNM03/1521Z TX07/1606Z \n BECMG 1514/1515 33015G25KT \n BECMG 1517/1518 34010KT \n BECMG 1520/1521 04005KT \n BECMG 1603/1604 24010KT"
"taf	RKSI	2020-03-15 12:09:00	TAF RKSI 151100Z 1512/1618 33018G35KT CAVOK TNM03/1521Z TX07/1606Z \n BECMG 1514/1515 33015G25KT \n BECMG 1517/1518 34010KT \n BECMG 1520/1521 04005KT \n BECMG 1603/1604 24010KT"
"taf	RKSI	2020-03-15 18:00:00	TAF RKSI 151700Z 1518/1624 34010KT CAVOK TNM03/1521Z TX07/1606Z TN03/1621Z \n BECMG 1521/1522 04005KT \n BECMG 1603/1604 24010KT \n BECMG 1618/1619 20015G25KT 6000 BKN020"
"taf	RKSI	2020-03-15 18:09:00	TAF RKSI 151700Z 1518/1624 34010KT CAVOK TNM03/1521Z TX07/1606Z TN03/1621Z \n BECMG 1521/1522 04005KT \n BECMG 1603/1604 24010KT \n BECMG 1618/1619 20015G25KT 6000 BKN020"
"taf	RKSI	2020-03-16 00:00:00	TAF RKSI 162300Z 1700/1806 26015G25KT 9999 BKN020 TX12/1706Z TN02/1721Z TX14/1805Z \n BECMG 1703/1704 25010KT SCT030 \n BECMG 1709/1710 31012KT \n BECMG 1718/1719 05005KT 4200 BR \n BECMG 1723/1724 18010KT 6000 NSW"
"taf	RKSI	2020-03-16 00:09:00	TAF RKSI 162300Z 1700/1806 26015G25KT 9999 BKN020 TX12/1706Z TN02/1721Z TX14/1805Z \n BECMG 1703/1704 25010KT SCT030 \n BECMG 1709/1710 31012KT \n BECMG 1718/1719 05005KT 4200 BR \n BECMG 1723/1724 18010KT 6000 NSW"
"taf	RKSI	2020-03-16 06:00:00	TAF RKSI 160500Z 1606/1712 27010KT CAVOK TN04/1621Z TX12/1706Z \n BECMG 1617/1618 24010KT 4200 BR NSC \n BECMG 1700/1701 21010KT 6000 NSW BKN035 \n BECMG 1702/1703 24015G25KT FEW045 \n BECMG 1706/1707 30015G25KT \n BECMG 1711/1712 32010KT"
"taf	RKSI	2020-03-16 06:09:00	TAF RKSI 160500Z 1606/1712 27010KT CAVOK TN04/1621Z TX12/1706Z \n BECMG 1617/1618 24010KT 4200 BR NSC \n BECMG 1700/1701 21010KT 6000 NSW BKN035 \n BECMG 1702/1703 24015G25KT FEW045 \n BECMG 1706/1707 30015G25KT \n BECMG 1711/1712 32010KT"
"taf	RKSI	2020-03-16 12:00:00	TAF RKSI 161100Z 1612/1718 25008KT CAVOK TN03/1621Z TX12/1706Z \n BECMG 1617/1618 19008KT 4200 BR NSC \n BECMG 1700/1701 25012KT 6000 NSW BKN045 \n BECMG 1702/1703 27015G25KT FEW045 \n BECMG 1711/1712 31010KT"
"taf	RKSI	2020-03-16 12:09:00	TAF RKSI 161100Z 1612/1718 25008KT CAVOK TN03/1621Z TX12/1706Z \n BECMG 1617/1618 19008KT 4200 BR NSC \n BECMG 1700/1701 25012KT 6000 NSW BKN045 \n BECMG 1702/1703 27015G25KT FEW045 \n BECMG 1711/1712 31010KT"
"taf	RKSI	2020-03-16 18:00:00	TAF RKSI 161700Z 1618/1724 19012KT 7000 BKN030 TN03/1621Z TX12/1706Z TN02/1721Z \n TEMPO 1621/1624 4200 BR \n BECMG 1701/1702 25010KT SCT030 \n BECMG 1709/1710 31012KT \n BECMG 1718/1719 05005KT 4200 BR"
"taf	RKSI	2020-03-16 18:09:00	TAF RKSI 161700Z 1618/1724 19012KT 7000 BKN030 TN03/1621Z TX12/1706Z TN02/1721Z \n TEMPO 1621/1624 4200 BR \n BECMG 1701/1702 25010KT SCT030 \n BECMG 1709/1710 31012KT \n BECMG 1718/1719 05005KT 4200 BR"
"taf	RKSI	2020-03-16 21:20:00	TAF \n AMD RKSI 162120Z 1621/1724 19012KT 9999 BKN030 TN03/1621Z TX12/1706Z TN02/1721Z \n BECMG 1701/1702 25010KT SCT030 \n BECMG 1709/1710 31012KT \n BECMG 1718/1719 05005KT 4200 BR"
"taf	RKSI	2020-03-16 21:21:00	TAF \n AMD TAF \n AMD RKSI 162120Z 1621/1724 19012KT 9999 BKN030 TN03/1621Z TX12/1706Z TN02/1721Z \n BECMG 1701/1702 25010KT SCT030 \n BECMG 1709/1710 31012KT \n BECMG 1718/1719 05005KT 4200 BR"
"taf	RKSI	2020-03-17 00:00:00	TAF RKSI 172300Z 1800/1906 16006KT 1800 BR SCT002 TX15/1806Z TN07/1821Z TX10/1906Z \n BECMG 1801/1802 19010KT 3500 \n BECMG 1803/1804 6000 NSW SCT035 \n BECMG 1811/1812 19015G25KT \n BECMG 1814/1815 21020G35KT BKN035 \n BECMG 1823/1824 28023G40KT CAVOK"
"taf	RKSI	2020-03-17 00:09:00	TAF RKSI 172300Z 1800/1906 16006KT 1800 BR SCT002 TX15/1806Z TN07/1821Z TX10/1906Z \n BECMG 1801/1802 19010KT 3500 \n BECMG 1803/1804 6000 NSW SCT035 \n BECMG 1811/1812 19015G25KT \n BECMG 1814/1815 21020G35KT BKN035 \n BECMG 1823/1824 28023G40KT CAVOK"
"taf	RKSI	2020-03-17 06:00:00	TAF RKSI 170500Z 1706/1812 25013KT 7000 SCT030 TN03/1721Z TX14/1805Z \n BECMG 1712/1713 31008KT \n BECMG 1718/1719 05005KT 4200 BR \n BECMG 1722/1723 18010KT 6000 NSW \n BECMG 1806/1807 19015G25KT"
"taf	RKSI	2020-03-17 06:09:00	TAF RKSI 170500Z 1706/1812 25013KT 7000 SCT030 TN03/1721Z TX14/1805Z \n BECMG 1712/1713 31008KT \n BECMG 1718/1719 05005KT 4200 BR \n BECMG 1722/1723 18010KT 6000 NSW \n BECMG 1806/1807 19015G25KT"
"taf	RKSI	2020-03-17 12:00:00	TAF RKSI 171100Z 1712/1818 31008KT 6000 NSC TN03/1721Z TX14/1805Z \n BECMG 1715/1716 28006KT 3500 BR SCT025 \n TEMPO 1718/1721 15007KT 2500 \n BECMG 1722/1723 20010KT 6000 NSW \n BECMG 1811/1812 20015G25KT \n BECMG 1813/1814 20020G35KT 4500 BR"
"taf	RKSI	2020-03-17 12:09:00	TAF RKSI 171100Z 1712/1818 31008KT 6000 NSC TN03/1721Z TX14/1805Z \n BECMG 1715/1716 28006KT 3500 BR SCT025 \n TEMPO 1718/1721 15007KT 2500 \n BECMG 1722/1723 20010KT 6000 NSW \n BECMG 1811/1812 20015G25KT \n BECMG 1813/1814 20020G35KT 4500 BR"
"taf	RKSI	2020-03-17 18:00:00	TAF RKSI 171700Z 1718/1824 25006KT 2500 BR NSC TN03/1721Z TX16/1806Z TN06/1821Z \n BECMG 1720/1721 21008KT 3500 \n BECMG 1723/1724 18010KT 6000 NSW \n BECMG 1811/1812 19015G25KT \n BECMG 1814/1815 21020G35KT BKN035 \n BECMG 1823/1824 28023G40KT CAVOK"
"taf	RKSI	2020-03-17 18:09:00	TAF RKSI 171700Z 1718/1824 25006KT 2500 BR NSC TN03/1721Z TX16/1806Z TN06/1821Z \n BECMG 1720/1721 21008KT 3500 \n BECMG 1723/1724 18010KT 6000 NSW \n BECMG 1811/1812 19015G25KT \n BECMG 1814/1815 21020G35KT BKN035 \n BECMG 1823/1824 28023G40KT CAVOK"
"taf	RKSI	2020-03-17 20:41:00	TAF \n AMD RKSI 171941Z 1720/1824 25006KT 1600 BR FEW002 TN03/1721Z TX16/1806Z TN06/1821Z \n TEMPO 1720/1722 21008KT 0800 FG BKN002 \n BECMG 1723/1724 18010KT 6000 NSW \n BECMG 1811/1812 19015G25KT \n BECMG 1814/1815 21020G35KT BKN035 \n BECMG 1823/1824 28023G40KT CAVOK"
"taf	RKSI	2020-03-17 20:45:00	TAF \n AMD TAF \n AMD RKSI 171941Z 1720/1824 25006KT 1600 BR FEW002 TN03/1721Z TX16/1806Z TN06/1821Z \n TEMPO 1720/1722 21008KT 0800 FG BKN002 \n BECMG 1723/1724 18010KT 6000 NSW \n BECMG 1811/1812 19015G25KT \n BECMG 1814/1815 21020G35KT BKN035 \n BECMG 1823/1824 28023G40KT CAVOK"
"taf	RKSI	2020-03-17 21:48:00	TAF \n AMD TAF \n AMD RKSI 171950Z 1721/1824 18006KT 1200 BR FEW002 TN03/1721Z TX16/1806Z TN06/1821Z \n TEMPO 1721/1723 0400 FG BKN002 \n BECMG 1800/1801 6000 NSW \n BECMG 1811/1812 19015G25KT \n BECMG 1814/1815 21020G35KT BKN035 \n BECMG 1823/1824 28023G40KT CAVOK"
"taf	RKSI	2020-03-17 21:50:00	TAF \n AMD RKSI 171950Z 1721/1824 18006KT 1200 BR FEW002 TN03/1721Z TX16/1806Z TN06/1821Z \n TEMPO 1721/1723 0400 FG BKN002 \n BECMG 1800/1801 6000 NSW \n BECMG 1811/1812 19015G25KT \n BECMG 1814/1815 21020G35KT BKN035 \n BECMG 1823/1824 28023G40KT CAVOK"
"taf	RKSI	2020-03-17 23:00:00	TAF \n AMD RKSI 172252Z 1723/1824 17006KT 1200 BR FEW002 TN03/1721Z TX16/1806Z TN06/1821Z \n TEMPO 1800/1801 0400 FG BKN002 \n BECMG 1802/1803 6000 NSW \n BECMG 1811/1812 19015G25KT \n BECMG 1814/1815 21020G35KT BKN035 \n BECMG 1823/1824 28023G40KT CAVOK"
"taf	RKSI	2020-03-17 23:52:00	TAF \n AMD RKSI 172252Z 1723/1824 17006KT 1200 BR FEW002 TN03/1721Z TX16/1806Z TN06/1821Z \n TEMPO 1800/1801 0400 FG BKN002 \n BECMG 1802/1803 6000 NSW \n BECMG 1811/1812 19015G25KT \n BECMG 1814/1815 21020G35KT BKN035 \n BECMG 1823/1824 28023G40KT CAVOK"
"taf	RKSI	2020-03-17 23:54:00	TAF \n AMD TAF \n AMD RKSI 172252Z 1723/1824 17006KT 1200 BR FEW002 TN03/1721Z TX16/1806Z TN06/1821Z \n TEMPO 1800/1801 0400 FG BKN002 \n BECMG 1802/1803 6000 NSW \n BECMG 1811/1812 19015G25KT \n BECMG 1814/1815 21020G35KT BKN035 \n BECMG 1823/1824 28023G40KT CAVOK"
"taf	RKSI	2020-03-18 00:00:00	TAF \n AMD RKSI 182325Z 1900/2006 24021G35KT 6000 NSC TX10/1906Z TN04/1921Z TX13/2006Z \n TEMPO 1900/1903 27025G45KT 2500 BR BKN008 \n BECMG 1912/1913 29020G35KT \n BECMG 1914/1915 28015G25KT \n BECMG 1919/1920 27010KT \n BECMG 2000/2001 21010KT"
"taf	RKSI	2020-03-18 00:09:00	TAF RKSI 182300Z 1900/2006 24021G35KT 3500 BR BKN025 TX10/1906Z TN04/1921Z TX13/2006Z \n BECMG 1901/1902 27025G45KT 6000 NSW NSC \n BECMG 1912/1913 29020G35KT \n BECMG 1914/1915 28015G25KT \n BECMG 1919/1920 27010KT \n BECMG 2000/2001 21010KT"
"taf	RKSI	2020-03-18 00:20:00	TAF COR RKSI 180020Z 1800/1906 16006KT 0400 FG BKN001 TX15/1806Z TN07/1821Z TX10/1906Z \n BECMG 1801/1802 19010KT 3500 BR SCT005 \n BECMG 1803/1804 6000 NSW SCT035 \n BECMG 1811/1812 19015G25KT \n BECMG 1814/1815 21020G35KT BKN035 \n BECMG 1823/1824 28023G40KT CAVOK"
"taf	RKSI	2020-03-18 00:21:00	TAF \n AMD TAF \n AMD RKSI 180020Z 1800/1906 16006KT 0400 FG BKN001 TX15/1806Z TN07/1821Z TX10/1906Z \n BECMG 1801/1802 19010KT 3500 SCT005 \n BECMG 1803/1804 6000 NSW SCT035 \n BECMG 1811/1812 19015G25KT \n BECMG 1814/1815 21020G35KT BKN035 \n BECMG 1823/1824 28023G40KT CAVOK"
"taf	RKSI	2020-03-18 00:25:00	TAF \n AMD RKSI 182325Z 1900/2006 24021G35KT 6000 NSC TX10/1906Z TN04/1921Z TX13/2006Z \n TEMPO 1900/1903 27025G45KT 2500 BR BKN008 \n BECMG 1912/1913 29020G35KT \n BECMG 1914/1915 28015G25KT \n BECMG 1919/1920 27010KT \n BECMG 2000/2001 21010KT"
"taf	RKSI	2020-03-18 00:27:00	TAF \n AMD TAF \n AMD RKSI 182325Z 1900/2006 24021G35KT 6000 NSC TX10/1906Z TN04/1921Z TX13/2006Z \n TEMPO 1900/1903 27025G45KT 2500 BR BKN008 \n BECMG 1912/1913 29020G35KT \n BECMG 1914/1915 28015G25KT \n BECMG 1919/1920 27010KT \n BECMG 2000/2001 21010KT"
"taf	RKSI	2020-03-18 06:00:00	TAF RKSI 180500Z 1806/1912 18010KT 6000 NSC TN07/1823Z TX11/1906Z \n BECMG 1811/1812 18015G25KT SCT035 \n BECMG 1814/1815 18020G35KT 4200 BR BKN025 \n BECMG 1819/1820 18025G45KT SCT025 \n BECMG 1822/1823 27025G40KT CAVOK \n BECMG 1911/1912 29020G30KT"
"taf	RKSI	2020-03-18 06:09:00	TAF RKSI 180500Z 1806/1912 18010KT 6000 NSC TN07/1823Z TX11/1906Z \n BECMG 1811/1812 18015G25KT SCT035 \n BECMG 1814/1815 18020G35KT 4200 BR BKN025 \n BECMG 1819/1820 18025G45KT SCT025 \n BECMG 1822/1823 27025G40KT CAVOK \n BECMG 1911/1912 29020G30KT"
"taf	RKSI	2020-03-18 12:00:00	TAF RKSI 181100Z 1812/1918 18015G25KT 6000 NSC TN07/1823Z TX11/1906Z \n BECMG 1814/1815 18020G35KT 4200 BR SCT025 \n BECMG 1819/1820 18025G45KT BKN025 \n BECMG 1822/1823 27025G40KT CAVOK \n BECMG 1911/1912 29020G30KT \n BECMG 1917/1918 29010KT"
"taf	RKSI	2020-03-18 12:09:00	TAF RKSI 181100Z 1812/1918 18015G25KT 6000 NSC TN07/1823Z TX11/1906Z \n BECMG 1814/1815 18020G35KT 4200 BR SCT025 \n BECMG 1819/1820 18025G45KT BKN025 \n BECMG 1822/1823 27025G40KT CAVOK \n BECMG 1911/1912 29020G30KT \n BECMG 1917/1918 29010KT"
"taf	RKSI	2020-03-18 18:00:00	TAF RKSI 181700Z 1818/1924 19020G35KT 2800 BR BKN007 TN07/1821Z TX11/1906Z TN04/1921Z \n BECMG 1820/1821 4200 SCT035 \n BECMG 1822/1823 27025G45KT CAVOK \n BECMG 1912/1913 29020G35KT \n BECMG 1917/1918 28015G25KT \n BECMG 1919/1920 27010KT"
"taf	RKSI	2020-03-18 18:09:00	TAF RKSI 181700Z 1818/1924 19020G35KT 2800 BR BKN007 TN07/1821Z TX11/1906Z TN04/1921Z \n BECMG 1820/1821 4200 SCT035 \n BECMG 1822/1823 27025G45KT CAVOK \n BECMG 1912/1913 29020G35KT \n BECMG 1917/1918 28015G25KT \n BECMG 1919/1920 27010KT"
"taf	RKSI	2020-03-18 19:00:00	TAF \n AMD RKSI 182255Z 1819/1924 19020G35KT 3500 BR BKN012 TN07/1821Z TX11/1906Z TN04/1921Z \n BECMG 1901/1902 27025G45KT 6000 NSW NSC \n BECMG 1912/1913 29020G35KT \n BECMG 1917/1918 28015G25KT \n BECMG 1919/1920 27010KT"
"taf	RKSI	2020-03-18 19:54:00	TAF \n AMD TAF \n AMD RKSI 182255Z 1819/1924 19020G35KT 3500 BR BKN012 TN07/1821Z TX11/1906Z TN04/1921Z \n BECMG 1901/1902 27025G45KT 6000 NSW NSC \n BECMG 1912/1913 29020G35KT \n BECMG 1917/1918 28015G25KT \n BECMG 1919/1920 27010KT"
"taf	RKSI	2020-03-18 19:55:00	TAF \n AMD RKSI 182255Z 1819/1924 19020G35KT 3500 BR BKN012 TN07/1821Z TX11/1906Z TN04/1921Z \n BECMG 1901/1902 27025G45KT 6000 NSW NSC \n BECMG 1912/1913 29020G35KT \n BECMG 1917/1918 28015G25KT \n BECMG 1919/1920 27010KT"
"taf	RKSI	2020-03-19 00:00:00	TAF RKSI 192300Z 2000/2106 27010KT CAVOK TX13/2005Z TN05/2021Z TX15/2104Z \n BECMG 2001/2002 21015G25KT 9999 FEW030 BKN120 \n BECMG 2015/2016 23012KT 4500 BR SCT010 BKN030 \n BECMG 2018/2019 22006KT 2400 \n BECMG 2023/2024 17007KT 1300 \n BECMG 2103/2104 25007KT 3500"
"taf	RKSI	2020-03-19 00:09:00	TAF RKSI 192300Z 2000/2106 27010KT CAVOK TX13/2005Z TN05/2021Z TX15/2104Z \n BECMG 2001/2002 21015G25KT 9999 FEW030 BKN120 \n BECMG 2015/2016 23012KT 4500 BR SCT010 BKN030 \n BECMG 2018/2019 22006KT 2400 \n BECMG 2023/2024 17007KT 1300 \n BECMG 2103/2104 25007KT 3500"
"taf	RKSI	2020-03-19 06:00:00	TAF RKSI 190500Z 1906/2012 27025G45KT 9999 FEW030 TN04/1922Z TX13/2005Z \n BECMG 1912/1913 29020G35KT \n BECMG 1915/1916 28015G25KT \n BECMG 1918/1919 26010KT 7000 NSC \n BECMG 2004/2005 20015G25KT FEW030 BKN120"
"taf	RKSI	2020-03-19 06:09:00	TAF RKSI 190500Z 1906/2012 27025G45KT 9999 FEW030 TN04/1922Z TX13/2005Z \n BECMG 1912/1913 29020G35KT \n BECMG 1915/1916 28015G25KT \n BECMG 1918/1919 26010KT 7000 NSC \n BECMG 2004/2005 20015G25KT FEW030 BKN120"
"taf	RKSI	2020-03-19 12:00:00	TAF RKSI 191100Z 1912/2018 28015G25KT CAVOK TN04/1921Z TX13/2005Z \n BECMG 1918/1919 26010KT \n BECMG 2004/2005 20015G25KT 9999 FEW030 BKN120 \n BECMG 2016/2017 22010KT"
"taf	RKSI	2020-03-19 12:09:00	TAF RKSI 191100Z 1912/2018 28015G25KT CAVOK TN04/1921Z TX13/2005Z \n BECMG 1918/1919 26010KT \n BECMG 2004/2005 20015G25KT 9999 FEW030 BKN120 \n BECMG 2016/2017 22010KT"
"taf	RKSI	2020-03-19 18:00:00	TAF RKSI 191700Z 1918/2024 27010KT CAVOK TN03/1921Z TX13/2005Z TN05/2021Z \n BECMG 2001/2002 21010KT \n BECMG 2004/2005 21015G25KT 9999 FEW030 \n BECMG 2015/2016 23012KT 4200 BR SCT010 BKN030 \n TEMPO 2018/2022 22006KT 2400 \n BECMG 2023/2024 17007KT"
"taf	RKSI	2020-03-19 18:09:00	TAF RKSI 191700Z 1918/2024 27010KT CAVOK TN03/1921Z TX13/2005Z TN05/2021Z \n BECMG 2001/2002 21010KT \n BECMG 2004/2005 21015G25KT 9999 FEW030 \n BECMG 2015/2016 23012KT 4200 BR SCT010 BKN030 \n TEMPO 2018/2022 22006KT 2400 \n BECMG 2023/2024 17007KT"
"taf	RKSI	2020-03-20 00:00:00	TAF RKSI 202300Z 2100/2206 17007KT 6000 SCT010 BKN030 TX15/2105Z TN05/2121Z TX15/2205Z \n BECMG 2105/2106 27006KT \n TEMPO 2107/2112 3500 -SHRA SCT010CB BKN025 OVC060 \n BECMG 2114/2115 34010KT 4500 BR SCT030 BKN120 \n BECMG 2121/2122 6000 NSW NSC \n TEMPO 2204/2206 34015G25KT"
"taf	RKSI	2020-03-20 00:09:00	TAF RKSI 202300Z 2100/2206 17007KT 6000 SCT010 BKN030 TX15/2105Z TN05/2121Z TX15/2205Z \n BECMG 2105/2106 27006KT \n TEMPO 2107/2112 3500 -SHRA SCT010CB BKN025 OVC060 \n BECMG 2114/2115 34010KT 4500 BR SCT030 BKN120 \n BECMG 2121/2122 6000 NSW NSC \n TEMPO 2204/2206 34015G25KT"
"taf	RKSI	2020-03-20 06:00:00	TAF RKSI 200500Z 2006/2112 21015G25KT 9999 FEW030 SCT120 TN05/2022Z TX15/2107Z \n BECMG 2015/2016 22012KT 4500 BR SCT010 BKN030 \n BECMG 2018/2019 25005KT 2500 \n TEMPO 2020/2101 1300 \n BECMG 2101/2102 20006KT 3500 SCT030 BKN120 \n TEMPO 2108/2112 30006KT -TSRA SCT015CB BKN025 OVC060"
"taf	RKSI	2020-03-20 06:09:00	TAF RKSI 200500Z 2006/2112 21015G25KT 9999 FEW030 SCT120 TN05/2022Z TX15/2107Z \n BECMG 2015/2016 22012KT 4500 BR SCT010 BKN030 \n BECMG 2018/2019 25005KT 2500 \n TEMPO 2020/2101 1300 \n BECMG 2101/2102 20006KT 3500 SCT030 BKN120 \n TEMPO 2108/2112 30006KT -TSRA SCT015CB BKN025 OVC060"
"taf	RKSI	2020-03-20 12:00:00	TAF RKSI 201100Z 2012/2118 20012KT 6000 FEW030 SCT120 TN05/2021Z TX15/2105Z \n BECMG 2018/2019 23008KT 2500 BR SCT010 BKN030 \n TEMPO 2020/2101 20005KT 1300 \n BECMG 2101/2102 3500 SCT030 BKN120 \n TEMPO 2108/2113 29006KT -TSRA SCT015CB BKN025 OVC060 \n BECMG 2115/2116 34006KT"
"taf	RKSI	2020-03-20 12:09:00	TAF RKSI 201100Z 2012/2118 20012KT 6000 FEW030 SCT120 TN05/2021Z TX15/2105Z \n BECMG 2018/2019 23008KT 2500 BR SCT010 BKN030 \n TEMPO 2020/2101 20005KT 1300 \n BECMG 2101/2102 3500 SCT030 BKN120 \n TEMPO 2108/2113 29006KT -TSRA SCT015CB BKN025 OVC060 \n BECMG 2115/2116 34006KT"
"taf	RKSI	2020-03-20 18:00:00	TAF RKSI 201700Z 2018/2124 15008KT 6000 FEW030 SCT120 TN05/2021Z TX15/2105Z TN05/2121Z \n BECMG 2019/2020 18005KT 3500 BR SCT010 BKN030 \n TEMPO 2022/2101 1300 \n BECMG 2103/2104 SCT030 BKN120 \n TEMPO 2108/2113 27006KT -RA SCT015CB BKN025 OVC060 \n BECMG 2115/2116 34008KT 6000 NSW NSC"
"taf	RKSI	2020-03-20 18:09:00	TAF RKSI 201700Z 2018/2124 15008KT 6000 FEW030 SCT120 TN05/2021Z TX15/2105Z TN05/2121Z \n BECMG 2019/2020 18005KT 3500 BR SCT010 BKN030 \n TEMPO 2022/2101 1300 \n BECMG 2103/2104 SCT030 BKN120 \n TEMPO 2108/2113 27006KT -RA SCT015CB BKN025 OVC060 \n BECMG 2115/2116 34008KT 6000 NSW NSC"
"taf	RKSI	2020-03-21 00:00:00	TAF RKSI 212300Z 2200/2306 35010KT CAVOK TX15/2206Z TN04/2221Z TX12/2306Z \n BECMG 2204/2205 32015G25KT \n BECMG 2206/2207 29008KT"
"taf	RKSI	2020-03-21 00:09:00	TAF RKSI 212300Z 2200/2306 35010KT CAVOK TX15/2206Z TN04/2221Z TX12/2306Z \n BECMG 2204/2205 32015G25KT \n BECMG 2206/2207 29008KT"
"taf	RKSI	2020-03-21 06:00:00	TAF RKSI 210500Z 2106/2212 28005KT 9999 SCT030 TN05/2121Z TX15/2205Z \n TEMPO 2109/2113 4200 -RA FEW010 BKN025 OVC080 \n BECMG 2115/2116 34012KT \n BECMG 2206/2207 28008KT"
"taf	RKSI	2020-03-21 06:09:00	TAF RKSI 210500Z 2106/2212 28005KT 9999 SCT030 TN05/2121Z TX15/2205Z \n TEMPO 2109/2113 4200 -RA FEW010 BKN025 OVC080 \n BECMG 2115/2116 34012KT \n BECMG 2206/2207 28008KT"
"taf	RKSI	2020-03-21 06:18:00	TAF \n AMD TAF \n AMD RKSI 210620Z 2106/2212 25007KT 9999 SCT030 TN05/2121Z TX15/2205Z \n TEMPO 2109/2113 4200 -RA FEW010 BKN025 OVC080 \n BECMG 2115/2116 34012KT \n BECMG 2206/2207 28008KT"
"taf	RKSI	2020-03-21 06:20:00	TAF \n AMD RKSI 210620Z 2106/2212 25007KT 9999 SCT030 TN05/2121Z TX15/2205Z \n TEMPO 2109/2113 4200 -RA FEW010 BKN025 OVC080 \n BECMG 2115/2116 34012KT \n BECMG 2206/2207 28008KT"
"taf	RKSI	2020-03-21 08:05:00	TAF \n AMD RKSI 210805Z 2108/2212 28007KT 9999 SCT030 TN05/2121Z TX15/2205Z \n TEMPO 2109/2113 4200 -RA FEW010 BKN025 OVC080 \n BECMG 2115/2116 34012KT \n BECMG 2206/2207 28008KT"
"taf	RKSI	2020-03-21 08:06:00	TAF \n AMD TAF \n AMD RKSI 210805Z 2108/2212 28007KT 9999 SCT030 TN05/2121Z TX15/2205Z \n TEMPO 2109/2113 4200 -RA FEW010 BKN025 OVC080 \n BECMG 2115/2116 34012KT \n BECMG 2206/2207 28008KT"
"taf	RKSI	2020-03-21 12:00:00	TAF RKSI 211100Z 2112/2218 23005KT 6000 FEW010 SCT030 TN05/2121Z TX15/2205Z \n BECMG 2118/2119 34012KT \n BECMG 2206/2207 28008KT \n BECMG 2214/2215 4200 BR"
"taf	RKSI	2020-03-21 12:09:00	TAF RKSI 211100Z 2112/2218 23005KT 6000 FEW010 SCT030 TN05/2121Z TX15/2205Z \n BECMG 2118/2119 34012KT \n BECMG 2206/2207 28008KT \n BECMG 2214/2215 4200 BR"
"taf	RKSI	2020-03-21 14:28:00	TAF \n AMD RKSI 211428Z 2114/2218 31007KT 1200 BR BKN002 TN05/2121Z TX15/2205Z \n TEMPO 2115/2118 0400 FG \n BECMG 2119/2120 34012KT 3500 SCT035 \n BECMG 2121/2122 6000 NSW \n BECMG 2206/2207 28008KT \n BECMG 2214/2215 4200 BR"
"taf	RKSI	2020-03-21 14:30:00	TAF \n AMD TAF \n AMD RKSI 211428Z 2114/2218 31007KT 1200 BR BKN002 TN05/2121Z TX15/2205Z \n TEMPO 2115/2118 0400 FG \n BECMG 2119/2120 34012KT 3500 SCT035 \n BECMG 2121/2122 6000 NSW \n BECMG 2206/2207 28008KT \n BECMG 2214/2215 4200 BR"
"taf	RKSI	2020-03-21 14:39:00	TAF \n AMD TAF \n AMD RKSI 211340Z 2114/2218 23005KT 4200 BR BKN004 TN05/2121Z TX15/2205Z \n BECMG 2118/2119 34012KT 6000 NSW SCT035 \n BECMG 2206/2207 28008KT \n BECMG 2214/2215 4200 BR"
"taf	RKSI	2020-03-21 14:40:00	TAF \n AMD RKSI 211340Z 2114/2218 23005KT 4200 BR BKN004 TN05/2121Z TX15/2205Z \n BECMG 2118/2119 34012KT 6000 NSW SCT035 \n BECMG 2206/2207 28008KT \n BECMG 2214/2215 4200 BR"
"taf	RKSI	2020-03-21 18:00:00	TAF RKSI 211700Z 2118/2224 30010KT 1400 BR SCT004 BKN025 TN04/2121Z TX15/2206Z TN04/2221Z \n BECMG 2119/2120 33010KT 2500 SCT035 \n BECMG 2121/2122 36010KT 6000 NSW \n BECMG 2205/2206 30010KT"
"taf	RKSI	2020-03-21 18:09:00	TAF RKSI 211700Z 2118/2224 30010KT 1400 BR SCT004 BKN025 TN04/2121Z TX15/2206Z TN04/2221Z \n BECMG 2119/2120 33010KT 2500 SCT035 \n BECMG 2121/2122 36010KT 6000 NSW \n BECMG 2205/2206 30010KT"
"taf	RKSI	2020-03-22 00:00:00	TAF RKSI 222300Z 2300/2406 31010KT CAVOK TX13/2305Z TN04/2321Z TX14/2405Z \n TEMPO 2305/2308 25010KT \n BECMG 2308/2309 32015G25KT \n BECMG 2313/2314 35006KT \n BECMG 2401/2402 18005KT \n BECMG 2404/2405 27007KT"
"taf	RKSI	2020-03-22 00:09:00	TAF RKSI 222300Z 2300/2406 31010KT CAVOK TX13/2305Z TN04/2321Z TX14/2405Z \n TEMPO 2305/2308 25010KT \n BECMG 2308/2309 32015G25KT \n BECMG 2313/2314 35006KT \n BECMG 2401/2402 18005KT \n BECMG 2404/2405 27007KT"
"taf	RKSI	2020-03-22 01:55:00	TAF \n AMD RKSI 220155Z 2201/2306 05010KT CAVOK TX15/2206Z TN04/2221Z TX12/2306Z \n BECMG 2204/2205 32015G25KT \n BECMG 2206/2207 29008KT"
"taf	RKSI	2020-03-22 01:57:00	TAF \n AMD TAF \n AMD RKSI 220155Z 2201/2306 05010KT CAVOK TX15/2206Z TN04/2221Z TX12/2306Z \n BECMG 2204/2205 32015G25KT \n BECMG 2206/2207 29008KT"
"taf	RKSI	2020-03-22 03:30:00	TAF \n AMD RKSI 220230Z 2203/2306 33010KT CAVOK TX15/2206Z TN04/2221Z TX12/2306Z \n BECMG 2204/2205 32015G25KT \n BECMG 2206/2207 29008KT"
"taf	RKSI	2020-03-22 03:33:00	TAF \n AMD TAF \n AMD RKSI 220230Z 2203/2306 33010KT CAVOK TX15/2206Z TN04/2221Z TX12/2306Z \n BECMG 2204/2205 32015G25KT \n BECMG 2206/2207 29008KT"
"taf	RKSI	2020-03-22 06:00:00	TAF RKSI 220500Z 2206/2312 32015G25KT CAVOK TN04/2221Z TX12/2306Z \n BECMG 2211/2212 33010KT \n BECMG 2217/2218 27005KT \n BECMG 2309/2310 33015G25KT"
"taf	RKSI	2020-03-22 06:09:00	TAF RKSI 220500Z 2206/2312 32015G25KT CAVOK TN04/2221Z TX12/2306Z \n BECMG 2211/2212 33010KT \n BECMG 2217/2218 27005KT \n BECMG 2309/2310 33015G25KT"
"taf	RKSI	2020-03-22 12:00:00	TAF RKSI 221100Z 2212/2318 33010KT CAVOK TN04/2221Z TX12/2306Z \n BECMG 2217/2218 27005KT 6000 SCT030 \n BECMG 2309/2310 33010G25KT"
"taf	RKSI	2020-03-22 12:09:00	TAF RKSI 221100Z 2212/2318 33010KT CAVOK TN04/2221Z TX12/2306Z \n BECMG 2217/2218 27005KT 6000 SCT030 \n BECMG 2309/2310 33010G25KT"
"taf	RKSI	2020-03-22 18:00:00	TAF RKSI 221700Z 2218/2324 25005KT 6000 NSC TN04/2220Z TX13/2305Z TN04/2321Z \n BECMG 2300/2301 31010KT CAVOK \n TEMPO 2304/2307 25010KT \n BECMG 2307/2308 32015G25KT \n BECMG 2313/2314 35006KT"
"taf	RKSI	2020-03-22 18:09:00	TAF RKSI 221700Z 2218/2324 25005KT 6000 NSC TN04/2220Z TX13/2305Z TN04/2321Z \n BECMG 2300/2301 31010KT CAVOK \n TEMPO 2304/2307 25010KT \n BECMG 2307/2308 32015G25KT \n BECMG 2313/2314 35006KT"
"taf	RKSI	2020-03-23 00:00:00	TAF RKSI 232300Z 2400/2506 07005KT CAVOK TX14/2406Z TN06/2421Z TX15/2505Z \n BECMG 2402/2403 27006KT \n BECMG 2415/2416 15005KT 4200 BR NSC \n BECMG 2421/2422 6000 NSW \n BECMG 2503/2504 31006KT"
"taf	RKSI	2020-03-23 00:42:00	TAF TAF RKSI 232300Z 2400/2506 07005KT CAVOK TX14/2406Z TN06/2421Z TX15/2505Z \n BECMG 2402/2403 27006KT \n BECMG 2415/2416 15005KT 4200 BR NSC \n BECMG 2421/2422 6000 NSW \n BECMG 2503/2504 31006KT"
"taf	RKSI	2020-03-23 06:00:00	TAF RKSI 230500Z 2306/2412 30010KT CAVOK TN04/2321Z TX14/2406Z \n BECMG 2322/2323 07005KT \n BECMG 2403/2404 28006KT"
"taf	RKSI	2020-03-23 06:09:00	TAF RKSI 230500Z 2306/2412 30010KT CAVOK TN04/2321Z TX14/2406Z \n BECMG 2322/2323 07005KT \n BECMG 2403/2404 28006KT"
"taf	RKSI	2020-03-23 12:00:00	TAF RKSI 231100Z 2312/2418 33007KT 6000 FEW004 TN04/2321Z TX14/2406Z \n BECMG 2321/2322 03005KT 4200 BR NSC \n BECMG 2323/2324 07006KT CAVOK \n BECMG 2402/2403 27006KT \n BECMG 2415/2416 15006KT"
"taf	RKSI	2020-03-23 12:09:00	TAF RKSI 231100Z 2312/2418 33007KT 6000 FEW004 TN04/2321Z TX14/2406Z \n BECMG 2321/2322 03005KT 4200 BR NSC \n BECMG 2323/2324 07006KT CAVOK \n BECMG 2402/2403 27006KT \n BECMG 2415/2416 15006KT"
"taf	RKSI	2020-03-23 18:00:00	TAF RKSI 231700Z 2318/2424 01006KT 8000 NSC TN04/2321Z TX14/2406Z TN06/2421Z \n BECMG 2321/2322 07005KT \n BECMG 2402/2403 27006KT \n BECMG 2415/2416 15005KT 4200 BR \n BECMG 2421/2422 6000 NSW"
"taf	RKSI	2020-03-23 18:09:00	TAF RKSI 231700Z 2318/2424 01006KT 8000 NSC TN04/2321Z TX14/2406Z TN06/2421Z \n BECMG 2321/2322 07005KT \n BECMG 2402/2403 27006KT \n BECMG 2415/2416 15005KT 4200 BR \n BECMG 2421/2422 6000 NSW"
"taf	RKSI	2020-03-24 00:00:00	TAF RKSI 242300Z 2500/2606 06005KT 7000 NSC TX16/2506Z TN06/2521Z TX18/2603Z \n BECMG 2514/2515 4200 BR \n BECMG 2517/2518 14008KT \n BECMG 2521/2522 6000 NSW SCT030 \n BECMG 2603/2604 BKN025 OVC080"
"taf	RKSI	2020-03-24 00:09:00	TAF TAF RKSI 242300Z 2500/2606 06005KT 7000 NSC TX16/2506Z TN06/2521Z TX18/2603Z \n BECMG 2514/2515 4200 BR \n BECMG 2517/2518 14008KT \n BECMG 2521/2522 6000 NSW SCT030 \n BECMG 2603/2604 BKN025 OVC080"
"taf	RKSI	2020-03-24 06:00:00	TAF RKSI 240500Z 2406/2512 28006KT CAVOK TN05/2421Z TX16/2506Z \n BECMG 2413/2414 15005KT \n BECMG 2504/2505 29010KT \n BECMG 2506/2507 03008KT"
"taf	RKSI	2020-03-24 06:09:00	TAF RKSI 240500Z 2406/2512 28006KT CAVOK TN05/2421Z TX16/2506Z \n BECMG 2413/2414 15005KT \n BECMG 2504/2505 29010KT \n BECMG 2506/2507 03008KT"
"taf	RKSI	2020-03-24 12:00:00	TAF RKSI 241100Z 2412/2518 30005KT CAVOK TN04/2421Z TX16/2506Z \n BECMG 2414/2415 16006KT \n BECMG 2504/2505 28010KT \n BECMG 2506/2507 03007KT \n BECMG 2514/2515 06007KT 4200 BR NSC \n BECMG 2517/2518 13008KT"
"taf	RKSI	2020-03-24 12:09:00	TAF RKSI 241100Z 2412/2518 30005KT CAVOK TN04/2421Z TX16/2506Z \n BECMG 2414/2415 16006KT \n BECMG 2504/2505 28010KT \n BECMG 2506/2507 03007KT \n BECMG 2514/2515 06007KT 4200 BR NSC \n BECMG 2517/2518 13008KT"
"taf	RKSI	2020-03-24 18:00:00	TAF RKSI 241700Z 2418/2524 16005KT 7000 NSC TN04/2421Z TX16/2506Z TN06/2521Z \n BECMG 2506/2507 03006KT \n BECMG 2514/2515 4200 BR \n BECMG 2517/2518 14008KT \n BECMG 2521/2522 6000 NSW"
"taf	RKSI	2020-03-24 18:09:00	TAF RKSI 241700Z 2418/2524 16005KT 7000 NSC TN04/2421Z TX16/2506Z TN06/2521Z \n BECMG 2506/2507 03006KT \n BECMG 2514/2515 4200 BR \n BECMG 2517/2518 14008KT \n BECMG 2521/2522 6000 NSW"
"taf	RKSI	2020-03-24 21:50:00	TAF \n AMD RKSI 242050Z 2421/2524 16005KT 4200 BR NSC TN04/2421Z TX16/2506Z TN06/2521Z \n BECMG 2423/2424 7000 NSW \n BECMG 2506/2507 03006KT \n BECMG 2514/2515 4200 BR \n BECMG 2517/2518 14008KT \n BECMG 2521/2522 6000 NSW"
"taf	RKSI	2020-03-24 21:54:00	TAF \n AMD TAF \n AMD RKSI 242050Z 2421/2524 16005KT 4200 BR NSC TN04/2421Z TX16/2506Z TN06/2521Z \n BECMG 2423/2424 7000 NSW \n BECMG 2506/2507 03006KT \n BECMG 2514/2515 4200 BR \n BECMG 2517/2518 14008KT \n BECMG 2521/2522 6000 NSW"
"taf	RKSI	2020-03-25 00:00:00	TAF RKSI 252300Z 2600/2706 12007KT 6000 NSC TX16/2606Z TN09/2621Z TX16/2706Z \n BECMG 2604/2605 15007KT 3500 -RA FEW010 BKN030 OVC100 \n BECMG 2611/2612 20007KT 1800 \n TEMPO 2615/2617 29008KT 1000 BKN004 BKN020 OVC080 \n BECMG 2618/2619 32010KT 3200 \n BECMG 2620/2621 34016G26KT 6000 NSW SCT035"
"taf	RKSI	2020-03-25 00:06:00	TAF RKSI 252300Z 2600/2706 12007KT 6000 NSC TX16/2606Z TN09/2621Z TX16/2706Z \n BECMG 2604/2605 15007KT 3500 -RA FEW010 BKN030 OVC100 \n BECMG 2611/2612 20007KT 1800 \n TEMPO 2615/2617 29008KT 1000 BKN004 BKN020 OVC080 \n BECMG 2618/2619 32010KT 3200 \n BECMG 2620/2621 34016G26KT 6000 NSW SCT035"
"taf	RKSI	2020-03-25 01:05:00	TAF \n AMD RKSI 250055Z 2501/2606 15007KT 7000 NSC TX16/2506Z TN06/2521Z TX18/2603Z \n BECMG 2504/2505 25010KT \n BECMG 2511/2512 07008KT \n BECMG 2514/2515 12010KT 4200 BR \n BECMG 2521/2522 6000 NSW SCT030 \n BECMG 2603/2604 BKN025 OVC080"
"taf	RKSI	2020-03-25 01:06:00	TAF \n AMD TAF \n AMD RKSI 250055Z 2501/2606 15007KT 7000 NSC TX16/2506Z TN06/2521Z TX18/2603Z \n BECMG 2504/2505 25010KT \n BECMG 2511/2512 07008KT \n BECMG 2514/2515 12010KT 4200 BR \n BECMG 2521/2522 6000 NSW SCT030 \n BECMG 2603/2604 BKN025 OVC080"
"taf	RKSI	2020-03-25 06:00:00	TAF RKSI 250500Z 2506/2612 25007KT CAVOK TN07/2521Z TX20/2605Z \n BECMG 2511/2512 07008KT 6000 NSC \n BECMG 2517/2518 12010KT 4200 BR \n BECMG 2521/2522 6000 NSW SCT030 \n BECMG 2602/2603 BKN025 OVC100 \n BECMG 2605/2606 16008KT 3500 -RA SCT010 BKN030 OVC080"
"taf	RKSI	2020-03-25 06:06:00	TAF RKSI 250500Z 2506/2612 25007KT CAVOK TN07/2521Z TX20/2605Z \n BECMG 2511/2512 07008KT 6000 NSC \n BECMG 2517/2518 12010KT 4200 BR \n BECMG 2521/2522 6000 NSW SCT030 \n BECMG 2602/2603 BKN025 OVC100 \n BECMG 2605/2606 16008KT 3500 -RA SCT010 BKN030 OVC080"
"taf	RKSI	2020-03-25 12:00:00	TAF RKSI 251100Z 2512/2618 07008KT 6000 SCT030 BKN120 TN07/2521Z TX20/2604Z \n BECMG 2516/2517 12010KT 3500 BR SCT010 \n BECMG 2523/2524 6000 NSW BKN025 OVC100 \n BECMG 2604/2605 3500 -RA SCT010 BKN030 OVC080 \n BECMG 2610/2611 2500 \n BECMG 2615/2616 34010KT 1300 BKN005 OVC020"
"taf	RKSI	2020-03-25 12:09:00	TAF RKSI 251100Z 2512/2618 07008KT 6000 SCT030 BKN120 TN07/2521Z TX20/2604Z \n BECMG 2516/2517 12010KT 3500 BR SCT010 \n BECMG 2523/2524 6000 NSW BKN025 OVC100 \n BECMG 2604/2605 3500 -RA SCT010 BKN030 OVC080 \n BECMG 2610/2611 2500 \n BECMG 2615/2616 34010KT 1300 BKN005 OVC020"
"taf	RKSI	2020-03-25 18:00:00	TAF RKSI 251700Z 2518/2624 12006KT 6000 NSC TN07/2521Z TX16/2606Z TN09/2621Z \n BECMG 2604/2605 15007KT 3500 -RA FEW010 BKN030 OVC100 \n BECMG 2611/2612 20007KT 2500 \n BECMG 2614/2615 1400 BKN004 BKN020 OVC080 \n BECMG 2617/2618 33010KT 3500 FEW004 BKN025 OVC080 \n BECMG 2620/2621 34015G25KT 6000 NSW SCT035"
"taf	RKSI	2020-03-25 18:06:00	TAF RKSI 251700Z 2518/2624 12006KT 6000 NSC TN07/2521Z TX16/2606Z TN09/2621Z \n BECMG 2604/2605 15007KT 3500 -RA FEW010 BKN030 OVC100 \n BECMG 2611/2612 20007KT 2500 \n BECMG 2614/2615 1400 BKN004 BKN020 OVC080 \n BECMG 2617/2618 33010KT 3500 FEW004 BKN025 OVC080 \n BECMG 2620/2621 34015G25KT 6000 NSW SCT035"
"taf	RKSI	2020-03-26 00:00:00	TAF RKSI 262300Z 2700/2806 33017KT 6000 FEW010 BKN045 BKN150 TX15/2706Z TN03/2721Z TX12/2806Z \n BECMG 2701/2702 FEW035 \n BECMG 2711/2712 33023G35KT \n BECMG 2719/2720 34015G25KT"
"taf	RKSI	2020-03-26 00:06:00	TAF RKSI 262300Z 2700/2806 33017KT 6000 FEW010 BKN045 BKN150 TX15/2706Z TN03/2721Z TX12/2806Z \n BECMG 2701/2702 FEW035 \n BECMG 2711/2712 33023G35KT \n BECMG 2719/2720 34015G25KT"
"taf	RKSI	2020-03-26 06:00:00	TAF RKSI 260500Z 2606/2712 15008KT 6000 -RA FEW010 BKN030 OVC100 TN09/2622Z TX16/2706Z \n BECMG 2607/2608 3500 \n BECMG 2611/2612 20007KT 1800 \n TEMPO 2615/2617 27008KT 1000 BKN004 BKN020 OVC080 \n BECMG 2617/2618 32010KT 3200 \n BECMG 2620/2621 34017G30KT 6000 NSW SCT035"
"taf	RKSI	2020-03-26 06:06:00	TAF RKSI 260500Z 2606/2712 15008KT 6000 -RA FEW010 BKN030 OVC100 TN09/2622Z TX16/2706Z \n BECMG 2607/2608 3500 \n BECMG 2611/2612 20007KT 1800 \n TEMPO 2615/2617 27008KT 1000 BKN004 BKN020 OVC080 \n BECMG 2617/2618 32010KT 3200 \n BECMG 2620/2621 34017G30KT 6000 NSW SCT035"
"taf	RKSI	2020-03-26 12:00:00	TAF RKSI 261100Z 2612/2718 04006KT 1800 -RA SCT010 BKN030 OVC090 TN09/2622Z TX16/2706Z \n TEMPO 2615/2618 35008KT 1000 BKN004 BKN020 OVC080 \n BECMG 2618/2619 32010KT 3200 \n BECMG 2620/2621 34017G30KT 6000 NSW BKN030 OVC080 \n BECMG 2623/2624 SCT035"
"taf	RKSI	2020-03-26 12:09:00	TAF RKSI 261100Z 2612/2718 04006KT 1800 -RA SCT010 BKN030 OVC090 TN09/2622Z TX16/2706Z \n TEMPO 2615/2618 35008KT 1000 BKN004 BKN020 OVC080 \n BECMG 2618/2619 32010KT 3200 \n BECMG 2620/2621 34017G30KT 6000 NSW BKN030 OVC080 \n BECMG 2623/2624 SCT035"
"taf	RKSI	2020-03-26 13:09:00	TAF \n AMD TAF \n AMD RKSI 261310Z 2613/2718 04006KT 1400 -RA FEW008 BKN030 OVC090 TN09/2622Z TX16/2706Z \n TEMPO 2614/2617 35008KT 0400 BKN002 BKN020 OVC080 \n BECMG 2618/2619 32010KT 3200 \n BECMG 2620/2621 34017G30KT 6000 NSW BKN030 OVC080 \n BECMG 2623/2624 SCT035"
"taf	RKSI	2020-03-26 13:10:00	TAF \n AMD RKSI 261310Z 2613/2718 04006KT 1400 -RA FEW008 BKN030 OVC090 TN09/2622Z TX16/2706Z \n TEMPO 2614/2617 35008KT 0400 BKN002 BKN020 OVC080 \n BECMG 2618/2619 32010KT 3200 \n BECMG 2620/2621 34017G30KT 6000 NSW BKN030 OVC080 \n BECMG 2623/2624 SCT035"
"taf	RKSI	2020-03-26 18:00:00	TAF RKSI 261700Z 2618/2724 34010KT 1400 -RA FEW008 BKN025 OVC080 TN09/2621Z TX15/2706Z TN03/2721Z \n TEMPO 2618/2620 0400 -DZ BKN002 BKN020 OVC080 \n BECMG 2621/2622 34016G26KT 2500 BR \n BECMG 2623/2624 4200 SCT035 \n BECMG 2701/2702 6000 NSW \n TEMPO 2712/2720 34022G36KT"
"taf	RKSI	2020-03-26 18:06:00	TAF RKSI 261700Z 2618/2724 34010KT 1400 -RA FEW008 BKN025 OVC080 TN09/2621Z TX15/2706Z TN03/2721Z \n TEMPO 2618/2620 0400 -DZ BKN002 BKN020 OVC080 \n BECMG 2621/2622 34016G26KT 2500 BR \n BECMG 2623/2624 4200 SCT035 \n BECMG 2701/2702 6000 NSW \n TEMPO 2712/2720 34022G36KT"
"taf	RKSI	2020-03-26 19:40:00	TAF \n AMD RKSI 261840Z 2619/2724 34010KT 1400 -RA FEW008 BKN025 OVC080 TN09/2621Z TX15/2706Z TN03/2721Z \n BECMG 2621/2622 34016G26KT 2500 BR \n BECMG 2623/2624 4200 SCT035 \n BECMG 2701/2702 6000 NSW \n TEMPO 2712/2720 34022G36KT"
"taf	RKSI	2020-03-26 19:42:00	TAF \n AMD TAF \n AMD RKSI 261840Z 2619/2724 34010KT 1400 -RA FEW008 BKN025 OVC080 TN09/2621Z TX15/2706Z TN03/2721Z \n BECMG 2621/2622 34016G26KT 2500 BR \n BECMG 2623/2624 4200 SCT035 \n BECMG 2701/2702 6000 NSW \n TEMPO 2712/2720 34022G36KT"
"taf	RKSI	2020-03-27 00:00:00	TAF RKSI 272300Z 2800/2906 34015G25KT CAVOK TX12/2806Z TN01/2821Z TX12/2906Z \n BECMG 2808/2809 35010KT \n TEMPO 2811/2813 35015G25KT \n BECMG 2821/2822 06006KT \n BECMG 2901/2902 18005KT \n BECMG 2905/2906 28008KT"
"taf	RKSI	2020-03-27 00:09:00	TAF RKSI 272300Z 2800/2906 34015G25KT CAVOK TX12/2806Z TN01/2821Z TX12/2906Z \n BECMG 2808/2809 35010KT \n TEMPO 2811/2813 35015G25KT \n BECMG 2821/2822 06006KT \n BECMG 2901/2902 18005KT \n BECMG 2905/2906 28008KT"
"taf	RKSI	2020-03-27 06:00:00	TAF \n AMD RKSI 270515Z 2706/2812 32015G25KT CAVOK TN03/2721Z TX12/2807Z \n TEMPO 2706/2710 32025G35KT \n BECMG 2710/2711 34022G35KT 9999 FEW030 SCT150 \n BECMG 2718/2719 35015G25KT \n BECMG 2808/2809 34010KT"
"taf	RKSI	2020-03-27 06:09:00	TAF RKSI 270500Z 2706/2812 32018KT CAVOK TN03/2721Z TX12/2807Z \n BECMG 2710/2711 34022G35KT 9999 FEW030 SCT150 \n BECMG 2718/2719 35015G25KT \n BECMG 2808/2809 34010KT"
"taf	RKSI	2020-03-27 06:15:00	TAF \n AMD RKSI 270515Z 2706/2812 32015G25KT CAVOK TN03/2721Z TX12/2807Z \n TEMPO 2706/2710 32025G35KT \n BECMG 2710/2711 34022G35KT 9999 FEW030 SCT150 \n BECMG 2718/2719 35015G25KT \n BECMG 2808/2809 34010KT"
"taf	RKSI	2020-03-27 06:18:00	TAF \n AMD TAF \n AMD RKSI 270515Z 2706/2812 32015G25KT CAVOK TN03/2721Z TX12/2807Z \n TEMPO 2706/2710 32025G35KT \n BECMG 2710/2711 34022G35KT 9999 FEW030 SCT150 \n BECMG 2718/2719 35015G25KT \n BECMG 2808/2809 34010KT"
"taf	RKSI	2020-03-27 12:00:00	TAF RKSI 271100Z 2712/2818 34020G35KT 9999 FEW030 SCT160 TN03/2721Z TX12/2807Z \n BECMG 2719/2720 35015G25KT \n BECMG 2808/2809 34010KT"
"taf	RKSI	2020-03-27 12:09:00	TAF RKSI 271100Z 2712/2818 34020G35KT 9999 FEW030 SCT160 TN03/2721Z TX12/2807Z \n BECMG 2719/2720 35015G25KT \n BECMG 2808/2809 34010KT"
"taf	RKSI	2020-03-27 18:00:00	TAF RKSI 271700Z 2718/2824 34015G25KT CAVOK TN03/2721Z TX12/2806Z TN01/2821Z \n BECMG 2808/2809 35010KT \n BECMG 2821/2822 06006KT"
"taf	RKSI	2020-03-27 18:09:00	TAF RKSI 271700Z 2718/2824 34015G25KT CAVOK TN03/2721Z TX12/2806Z TN01/2821Z \n BECMG 2808/2809 35010KT \n BECMG 2821/2822 06006KT"
"taf	RKSI	2020-03-28 00:00:00	TAF RKSI 282300Z 2900/3006 06006KT CAVOK TX12/2905Z TN03/2921Z TX14/3006Z \n BECMG 2902/2903 18005KT \n BECMG 2905/2906 29008KT \n BECMG 2914/2915 20005KT 6000 NSC \n BECMG 3003/3004 26007KT CAVOK"
"taf	RKSI	2020-03-28 00:09:00	TAF RKSI 282300Z 2900/3006 06006KT CAVOK TX12/2905Z TN03/2921Z TX14/3006Z \n BECMG 2902/2903 18005KT \n BECMG 2905/2906 29008KT \n BECMG 2914/2915 20005KT 6000 NSC \n BECMG 3003/3004 26007KT CAVOK"
"taf	RKSI	2020-03-28 06:00:00	TAF RKSI 280500Z 2806/2912 34015G25KT 9999 FEW030 BKN160 TN01/2821Z TX12/2905Z \n BECMG 2811/2812 35010KT \n BECMG 2821/2822 05006KT \n BECMG 2901/2902 17005KT \n BECMG 2905/2906 29008KT"
"taf	RKSI	2020-03-28 06:09:00	TAF RKSI 280500Z 2806/2912 34015G25KT 9999 FEW030 BKN160 TN01/2821Z TX12/2905Z \n BECMG 2811/2812 35010KT \n BECMG 2821/2822 05006KT \n BECMG 2901/2902 17005KT \n BECMG 2905/2906 29008KT"
"taf	RKSI	2020-03-28 12:00:00	TAF RKSI 281100Z 2812/2918 35010KT CAVOK TN01/2821Z TX12/2905Z \n BECMG 2821/2822 05006KT \n BECMG 2901/2902 17005KT 9999 FEW030 SCT180 \n BECMG 2905/2906 29008KT \n BECMG 2912/2913 18005KT"
"taf	RKSI	2020-03-28 12:09:00	TAF RKSI 281100Z 2812/2918 35010KT CAVOK TN01/2821Z TX12/2905Z \n BECMG 2821/2822 05006KT \n BECMG 2901/2902 17005KT 9999 FEW030 SCT180 \n BECMG 2905/2906 29008KT \n BECMG 2912/2913 18005KT"
"taf	RKSI	2020-03-28 18:00:00	TAF RKSI 281700Z 2818/2924 05005KT CAVOK TN01/2821Z TX12/2905Z TN03/2921Z \n BECMG 2901/2902 17005KT 9999 FEW030 SCT180 \n BECMG 2905/2906 29008KT \n BECMG 2914/2915 18005KT 6000"
"taf	RKSI	2020-03-28 18:09:00	TAF RKSI 281700Z 2818/2924 05005KT CAVOK TN01/2821Z TX12/2905Z TN03/2921Z \n BECMG 2901/2902 17005KT 9999 FEW030 SCT180 \n BECMG 2905/2906 29008KT \n BECMG 2914/2915 18005KT 6000"
"taf	RKSI	2020-03-29 00:00:00	TAF RKSI 292300Z 3000/3106 18006KT CAVOK TX14/3005Z TN04/3021Z TX15/3106Z \n BECMG 3006/3007 29007KT \n BECMG 3016/3017 18005KT 6000 FEW030 SCT160 \n TEMPO 3020/3022 4200 BR \n BECMG 3102/3103 29007KT"
"taf	RKSI	2020-03-29 00:09:00	TAF RKSI 292300Z 3000/3106 18006KT CAVOK TX14/3005Z TN04/3021Z TX15/3106Z \n BECMG 3006/3007 29007KT \n BECMG 3016/3017 18005KT 6000 FEW030 SCT160 \n TEMPO 3020/3022 4200 BR \n BECMG 3102/3103 29007KT"
"taf	RKSI	2020-03-29 06:00:00	TAF RKSI 290500Z 2906/3012 30008KT CAVOK TN03/2921Z TX14/3006Z \n BECMG 2914/2915 20005KT 6000 NSC \n BECMG 3003/3004 27006KT CAVOK"
"taf	RKSI	2020-03-29 06:09:00	TAF RKSI 290500Z 2906/3012 30008KT CAVOK TN03/2921Z TX14/3006Z \n BECMG 2914/2915 20005KT 6000 NSC \n BECMG 3003/3004 27006KT CAVOK"
"taf	RKSI	2020-03-29 12:00:00	TAF RKSI 291100Z 2912/3018 29006KT CAVOK TN03/2921Z TX14/3006Z \n BECMG 2914/2915 20005KT 6000 NSC \n BECMG 3003/3004 27006KT CAVOK \n BECMG 3014/3015 18005KT 6000 NSC"
"taf	RKSI	2020-03-29 12:09:00	TAF RKSI 291100Z 2912/3018 29006KT CAVOK TN03/2921Z TX14/3006Z \n BECMG 2914/2915 20005KT 6000 NSC \n BECMG 3003/3004 27006KT CAVOK \n BECMG 3014/3015 18005KT 6000 NSC"
"taf	RKSI	2020-03-29 18:00:00	TAF RKSI 291700Z 2918/3024 25005KT 6000 NSC TN03/2921Z TX14/3005Z TN04/3021Z \n BECMG 3000/3001 18006KT CAVOK \n BECMG 3006/3007 29007KT \n BECMG 3015/3016 18005KT 6000 FEW030 SCT160 \n TEMPO 3020/3022 4200 BR"
"taf	RKSI	2020-03-29 18:09:00	TAF RKSI 291700Z 2918/3024 25005KT 6000 NSC TN03/2921Z TX14/3005Z TN04/3021Z \n BECMG 3000/3001 18006KT CAVOK \n BECMG 3006/3007 29007KT \n BECMG 3015/3016 18005KT 6000 FEW030 SCT160 \n TEMPO 3020/3022 4200 BR"
"taf	RKSI	2020-03-30 00:00:00	TAF RKSI 302300Z 3100/0106 18005KT CAVOK TX15/3105Z TN07/3121Z TX17/0105Z \n BECMG 3102/3103 28007KT 9999 FEW030 BKN150 \n BECMG 3114/3115 34010KT \n TEMPO 0103/0106 32015G25KT"
"taf	RKSI	2020-03-30 00:09:00	TAF RKSI 302300Z 3100/0106 18005KT CAVOK TX15/3105Z TN07/3121Z TX17/0105Z \n BECMG 3102/3103 28007KT 9999 FEW030 BKN150 \n BECMG 3114/3115 34010KT \n TEMPO 0103/0106 32015G25KT"
"taf	RKSI	2020-03-30 03:20:00	TAF \n AMD RKSI 300320Z 3003/3106 29007KT CAVOK TX14/3005Z TN04/3021Z TX15/3106Z \n BECMG 3016/3017 18005KT 6000 FEW030 SCT160 \n TEMPO 3020/3022 4200 BR \n BECMG 3102/3103 29007KT"
"taf	RKSI	2020-03-30 03:21:00	TAF \n AMD TAF \n AMD RKSI 300320Z 3003/3106 29007KT CAVOK TX14/3005Z TN04/3021Z TX15/3106Z \n BECMG 3016/3017 18005KT 6000 FEW030 SCT160 \n TEMPO 3020/3022 4200 BR \n BECMG 3102/3103 29007KT"
"taf	RKSI	2020-03-30 06:00:00	TAF RKSI 300500Z 3006/3112 29007KT CAVOK TN04/3021Z TX15/3106Z \n BECMG 3015/3016 18005KT 6000 FEW030 SCT150 \n TEMPO 3019/3023 4200 BR \n BECMG 3102/3103 27007KT"
"taf	RKSI	2020-03-30 06:09:00	TAF RKSI 300500Z 3006/3112 29007KT CAVOK TN04/3021Z TX15/3106Z \n BECMG 3015/3016 18005KT 6000 FEW030 SCT150 \n TEMPO 3019/3023 4200 BR \n BECMG 3102/3103 27007KT"
"taf	RKSI	2020-03-30 12:00:00	TAF RKSI 301100Z 3012/3118 29007KT CAVOK TN04/3021Z TX15/3106Z \n BECMG 3015/3016 18005KT 6000 FEW030 SCT150 \n TEMPO 3019/3023 4200 BR \n BECMG 3102/3103 27007KT \n BECMG 3112/3113 33010KT"
"taf	RKSI	2020-03-30 12:09:00	TAF RKSI 301100Z 3012/3118 29007KT CAVOK TN04/3021Z TX15/3106Z \n BECMG 3015/3016 18005KT 6000 FEW030 SCT150 \n TEMPO 3019/3023 4200 BR \n BECMG 3102/3103 27007KT \n BECMG 3112/3113 33010KT"
"taf	RKSI	2020-03-30 18:00:00	TAF RKSI 301700Z 3018/3124 18005KT 6000 NSC TN04/3022Z TX15/3105Z TN07/3121Z \n TEMPO 3020/3022 4200 BR \n BECMG 3102/3103 27007KT 9999 FEW030 BKN150 \n BECMG 3114/3115 34010KT"
"taf	RKSI	2020-03-30 18:09:00	TAF RKSI 301700Z 3018/3124 18005KT 6000 NSC TN04/3022Z TX15/3105Z TN07/3121Z \n TEMPO 3020/3022 4200 BR \n BECMG 3102/3103 27007KT 9999 FEW030 BKN150 \n BECMG 3114/3115 34010KT"
"taf	RKSI	2020-03-31 00:00:00	TAF COR RKSI 312300Z 0100/0206 30015G28KT 9999 SCT040 BKN150 TX15/0106Z TN05/0121Z TX14/0205Z \n BECMG 0109/0110 36015G25KT CAVOK \n BECMG 0112/0113 36010KT \n BECMG 0118/0119 29005KT \n TEMPO 0120/0123 4200 BR NSC"
"taf	RKSI	2020-03-31 00:09:00	TAF RKSI 312300Z 0100/0206 30015G28KT 9999 SCT040 BKN150 TX15/0106Z TN05/0121Z TX14/0205Z \n BECMG 0109/0110 36015G25KT CAVOK \n BECMG 0112/0113 36010KT \n BECMG 0118/0119 29005KT \n TEMPO 0120/0123 4200 NSC"
"taf	RKSI	2020-03-31 00:27:00	TAF COR TAF COR RKSI 312300Z 0100/0206 30015G28KT 9999 SCT040 BKN150 TX15/0106Z TN05/0121Z TX14/0205Z \n BECMG 0109/0110 36015G25KT CAVOK \n BECMG 0112/0113 36010KT \n BECMG 0118/0119 29005KT \n TEMPO 0120/0123 4200 BR NSC"
"taf	RKSI	2020-03-31 06:00:00	TAF RKSI 310500Z 3106/0112 29008KT CAVOK TN07/3121Z TX16/0106Z \n BECMG 3115/3116 35010KT \n BECMG 0102/0103 32015G25KT \n BECMG 0110/0111 36010KT"
"taf	RKSI	2020-03-31 06:09:00	TAF RKSI 310500Z 3106/0112 29008KT CAVOK TN07/3121Z TX16/0106Z \n BECMG 3115/3116 35010KT \n BECMG 0102/0103 32015G25KT \n BECMG 0110/0111 36010KT"
"taf	RKSI	2020-03-31 12:00:00	TAF RKSI 311100Z 3112/0118 29008KT CAVOK TN07/3121Z TX16/0106Z \n TEMPO 3116/3120 35010KT \n TEMPO 0101/0109 32015G28KT \n BECMG 0110/0111 35015G25KT \n BECMG 0112/0113 36010KT"
"taf	RKSI	2020-03-31 12:09:00	TAF RKSI 311100Z 3112/0118 29008KT CAVOK TN07/3121Z TX16/0106Z \n TEMPO 3116/3120 35010KT \n TEMPO 0101/0109 32015G28KT \n BECMG 0110/0111 35015G25KT \n BECMG 0112/0113 36010KT"
"taf	RKSI	2020-03-31 18:00:00	TAF RKSI 311700Z 3118/0124 35010KT CAVOK TN07/3121Z TX16/0106Z TN05/0121Z \n BECMG 0101/0102 30015G28KT \n BECMG 0109/0110 36015G25KT \n BECMG 0112/0113 01010KT \n BECMG 0118/0119 29005KT \n TEMPO 0120/0123 4200 BR NSC"
"taf	RKSI	2020-03-31 18:09:00	TAF RKSI 311700Z 3118/0124 35010KT CAVOK TN07/3121Z TX16/0106Z TN05/0121Z \n BECMG 0101/0102 30015G28KT \n BECMG 0109/0110 36015G25KT \n BECMG 0112/0113 01010KT \n BECMG 0118/0119 29005KT \n TEMPO 0120/0123 4200 BR NSC"
"taf	RKSI	2020-04-01 00:00:00	TAF RKSI 012300Z 0200/0306 26010KT 9999 FEW030 BKN150 TX14/0206Z TN05/0221Z TX14/0305Z \n BECMG 0209/0210 29015G25KT \n BECMG 0213/0214 30008KT 4200 BR NSC \n BECMG 0221/0222 22007KT 6000 NSW"
"taf	RKSI	2020-04-01 00:09:00	TAF RKSI 012300Z 0200/0306 26010KT 9999 FEW030 BKN150 TX14/0206Z TN05/0221Z TX14/0305Z \n BECMG 0209/0210 29015G25KT \n BECMG 0213/0214 30008KT 4200 BR NSC \n BECMG 0221/0222 22007KT 6000 NSW"
"taf	RKSI	2020-04-01 04:05:00	TAF \n AMD RKSI 010405Z 0104/0206 30015G25KT 9999 NSC TX15/0106Z TN05/0121Z TX14/0205Z \n TEMPO 0106/0113 31020G35KT \n BECMG 0114/0115 36010KT \n BECMG 0118/0119 29005KT \n TEMPO 0120/0123 4200 BR"
"taf	RKSI	2020-04-01 04:06:00	TAF \n AMD TAF \n AMD RKSI 010405Z 0104/0206 30015G25KT 9999 NSC TX15/0106Z TN05/0121Z TX14/0205Z \n TEMPO 0106/0113 31020G35KT \n BECMG 0114/0115 36010KT \n BECMG 0118/0119 29005KT \n TEMPO 0120/0123 4200 BR"
"taf	RKSI	2020-04-01 06:00:00	TAF RKSI 010500Z 0106/0212 31020G35KT CAVOK TN04/0121Z TX14/0206Z \n BECMG 0112/0113 33015G25KT \n BECMG 0114/0115 34010KT \n TEMPO 0119/0122 04007KT \n BECMG 0201/0202 27010KT \n BECMG 0205/0206 29015G25KT"
"taf	RKSI	2020-04-01 06:09:00	TAF RKSI 010500Z 0106/0212 31020G35KT CAVOK TN04/0121Z TX14/0206Z \n BECMG 0112/0113 33015G25KT \n BECMG 0114/0115 34010KT \n TEMPO 0119/0122 04007KT \n BECMG 0201/0202 27010KT \n BECMG 0205/0206 29015G25KT"
"taf	RKSI	2020-04-01 10:50:00	TAF \n AMD RKSI 010950Z 0110/0212 32015G25KT CAVOK TN04/0121Z TX14/0206Z \n BECMG 0114/0115 34010KT \n TEMPO 0119/0122 04007KT \n BECMG 0201/0202 27010KT \n BECMG 0205/0206 29015G25KT"
"taf	RKSI	2020-04-01 10:51:00	TAF \n AMD TAF \n AMD RKSI 010950Z 0110/0212 32015G25KT CAVOK TN04/0121Z TX14/0206Z \n BECMG 0114/0115 34010KT \n TEMPO 0119/0122 04007KT \n BECMG 0201/0202 27010KT \n BECMG 0205/0206 29015G25KT"
"taf	RKSI	2020-04-01 11:35:00	TAF \n AMD RKSI 011035Z 0111/0212 32025G35KT CAVOK TN04/0121Z TX14/0206Z \n BECMG 0114/0115 34010KT \n TEMPO 0119/0122 04007KT \n BECMG 0201/0202 27010KT \n BECMG 0205/0206 29015G25KT"
"taf	RKSI	2020-04-01 11:36:00	TAF \n AMD TAF \n AMD RKSI 011035Z 0111/0212 32025G35KT CAVOK TN04/0121Z TX14/0206Z \n BECMG 0114/0115 34010KT \n TEMPO 0119/0122 04007KT \n BECMG 0201/0202 27010KT \n BECMG 0205/0206 29015G25KT"
"taf	RKSI	2020-04-01 11:40:00	TAF \n AMD RKSI 011040Z 0111/0212 01025G40KT CAVOK TN04/0121Z TX14/0206Z \n BECMG 0114/0115 03015G25KT \n BECMG 0116/0117 33010KT \n BECMG 0201/0202 27010KT \n BECMG 0205/0206 29015G25KT"
"taf	RKSI	2020-04-01 11:42:00	TAF \n AMD TAF \n AMD RKSI 011040Z 0111/0212 01025G40KT CAVOK TN04/0121Z TX14/0206Z \n BECMG 0114/0115 03015G25KT \n BECMG 0116/0117 33010KT \n BECMG 0201/0202 27010KT \n BECMG 0205/0206 29015G25KT"
"taf	RKSI	2020-04-01 12:00:00	TAF RKSI 011100Z 0112/0218 03020G35KT CAVOK TN04/0121Z TX14/0206Z \n BECMG 0114/0115 36015G25KT \n BECMG 0116/0117 35010KT \n BECMG 0201/0202 27010KT \n BECMG 0205/0206 29015G25KT"
"taf	RKSI	2020-04-01 12:09:00	TAF RKSI 011100Z 0112/0218 03020G35KT CAVOK TN04/0121Z TX14/0206Z \n BECMG 0114/0115 36015G25KT \n BECMG 0116/0117 35010KT \n BECMG 0201/0202 27010KT \n BECMG 0205/0206 29015G25KT"
"taf	RKSI	2020-04-01 15:45:00	TAF \n AMD RKSI 011445Z 0115/0218 05010KT CAVOK TN04/0121Z TX14/0206Z \n BECMG 0116/0117 35010KT \n BECMG 0201/0202 27010KT \n BECMG 0205/0206 29015G25KT"
"taf	RKSI	2020-04-01 15:48:00	TAF \n AMD TAF \n AMD RKSI 011445Z 0115/0218 05010KT CAVOK TN04/0121Z TX14/0206Z \n BECMG 0116/0117 35010KT \n BECMG 0201/0202 27010KT \n BECMG 0205/0206 29015G25KT"
"taf	RKSI	2020-04-01 18:00:00	TAF RKSI 011700Z 0118/0224 34007KT CAVOK TN04/0121Z TX14/0206Z TN05/0221Z \n BECMG 0121/0122 19005KT \n BECMG 0200/0201 27010KT 9999 FEW030 BKN150 \n BECMG 0209/0210 29015G25KT \n BECMG 0214/0215 30010KT 4200 BR NSC \n BECMG 0221/0222 6000 NSW"
"taf	RKSI	2020-04-01 18:09:00	TAF RKSI 011700Z 0118/0224 34007KT CAVOK TN04/0121Z TX14/0206Z TN05/0221Z \n BECMG 0121/0122 19005KT \n BECMG 0200/0201 27010KT 9999 FEW030 BKN150 \n BECMG 0209/0210 29015G25KT \n BECMG 0214/0215 30010KT 4200 BR NSC \n BECMG 0221/0222 6000 NSW"
"taf	RKSI	2020-04-02 00:00:00	TAF RKSI 022300Z 0300/0406 29006KT 6000 SCT025 TX14/0306Z TN06/0321Z TX11/0406Z \n BECMG 0301/0302 23010KT \n BECMG 0316/0317 30012KT CAVOK \n BECMG 0319/0320 34020G30KT"
"taf	RKSI	2020-04-02 00:09:00	TAF RKSI 022300Z 0300/0406 29006KT 6000 SCT025 TX14/0306Z TN06/0321Z TX11/0406Z \n BECMG 0301/0302 23010KT \n BECMG 0316/0317 30012KT CAVOK \n BECMG 0319/0320 34020G30KT"
"taf	RKSI	2020-04-02 06:00:00	TAF RKSI 020500Z 0206/0312 26011KT 9999 FEW030 BKN150 TN05/0221Z TX14/0305Z \n BECMG 0209/0210 28015G25KT CAVOK \n BECMG 0213/0214 30008KT 6000 NSC \n BECMG 0215/0216 4200 BR \n BECMG 0221/0222 6000 NSW \n BECMG 0301/0302 24012KT CAVOK"
"taf	RKSI	2020-04-02 06:09:00	TAF RKSI 020500Z 0206/0312 26011KT 9999 FEW030 BKN150 TN05/0221Z TX14/0305Z \n BECMG 0209/0210 28015G25KT CAVOK \n BECMG 0213/0214 30008KT 6000 NSC \n BECMG 0215/0216 4200 BR \n BECMG 0221/0222 6000 NSW \n BECMG 0301/0302 24012KT CAVOK"
"taf	RKSI	2020-04-02 12:00:00	TAF RKSI 021100Z 0212/0318 28015G25KT 9999 FEW030 BKN150 TN05/0221Z TX14/0305Z \n BECMG 0213/0214 30008KT 6000 NSC \n BECMG 0215/0216 4200 BR \n BECMG 0221/0222 6000 NSW \n BECMG 0301/0302 24010KT CAVOK \n BECMG 0305/0306 24015G25KT"
"taf	RKSI	2020-04-02 12:09:00	TAF RKSI 021100Z 0212/0318 28015G25KT 9999 FEW030 BKN150 TN05/0221Z TX14/0305Z \n BECMG 0213/0214 30008KT 6000 NSC \n BECMG 0215/0216 4200 BR \n BECMG 0221/0222 6000 NSW \n BECMG 0301/0302 24010KT CAVOK \n BECMG 0305/0306 24015G25KT"
"taf	RKSI	2020-04-02 18:00:00	TAF RKSI 021700Z 0218/0324 26006KT 6000 NSC TN04/0221Z TX14/0306Z TN06/0321Z \n BECMG 0221/0222 4200 BR \n BECMG 0223/0224 23010KT CAVOK \n BECMG 0313/0314 24015G25KT \n BECMG 0315/0316 30015G25KT \n BECMG 0319/0320 34020G35KT"
"taf	RKSI	2020-04-02 18:09:00	TAF RKSI 021700Z 0218/0324 26006KT 6000 NSC TN04/0221Z TX14/0306Z TN06/0321Z \n BECMG 0221/0222 4200 BR \n BECMG 0223/0224 23010KT CAVOK \n BECMG 0313/0314 24015G25KT \n BECMG 0315/0316 30015G25KT \n BECMG 0319/0320 34020G35KT"
"taf	RKSI	2020-04-03 00:00:00	TAF RKSI 032300Z 0400/0506 34021G35KT 6000 FEW035 TX11/0406Z TN01/0421Z TX12/0506Z \n BECMG 0412/0413 33015G25KT"
"taf	RKSI	2020-04-03 00:06:00	TAF RKSI 032300Z 0400/0506 34021G35KT 6000 FEW035 TX11/0406Z TN01/0421Z TX12/0506Z \n BECMG 0412/0413 33015G25KT"
"taf	RKSI	2020-04-03 06:00:00	TAF RKSI 030500Z 0306/0412 23012KT CAVOK TN06/0321Z TX11/0406Z \n BECMG 0317/0318 30012KT \n BECMG 0320/0321 34020G30KT"
"taf	RKSI	2020-04-03 06:06:00	TAF RKSI 030500Z 0306/0412 23012KT CAVOK TN06/0321Z TX11/0406Z \n BECMG 0317/0318 30012KT \n BECMG 0320/0321 34020G30KT"
"taf	RKSI	2020-04-03 12:00:00	TAF RKSI 031100Z 0312/0418 24012KT CAVOK TN06/0321Z TX11/0406Z \n BECMG 0317/0318 30013KT 6000 NSC \n BECMG 0320/0321 34020G30KT CAVOK \n BECMG 0412/0413 34015KT"
"taf	RKSI	2020-04-03 12:09:00	TAF RKSI 031100Z 0312/0418 24012KT CAVOK TN06/0321Z TX11/0406Z \n BECMG 0317/0318 30013KT 6000 NSC \n BECMG 0320/0321 34020G30KT CAVOK \n BECMG 0412/0413 34015KT"
"taf	RKSI	2020-04-03 15:31:00	TAF \n AMD RKSI 031431Z 0315/0418 24012KT 3500 BR NSC TN06/0321Z TX11/0406Z \n BECMG 0317/0318 30013KT \n BECMG 0320/0321 34020G30KT CAVOK \n BECMG 0412/0413 34015KT"
"taf	RKSI	2020-04-03 15:33:00	TAF \n AMD TAF \n AMD RKSI 031431Z 0315/0418 24012KT 3500 BR NSC TN06/0321Z TX11/0406Z \n BECMG 0317/0318 30013KT \n BECMG 0320/0321 34020G30KT CAVOK \n BECMG 0412/0413 34015KT"
"taf	RKSI	2020-04-03 18:00:00	TAF RKSI 031700Z 0318/0424 27010KT 3500 BR NSC TN06/0321Z TX11/0406Z TN01/0421Z \n BECMG 0319/0320 30015G25KT CAVOK \n BECMG 0321/0322 34020G35KT \n BECMG 0412/0413 35015G25KT"
"taf	RKSI	2020-04-03 18:06:00	TAF RKSI 031700Z 0318/0424 27010KT 3500 BR NSC TN06/0321Z TX11/0406Z TN01/0421Z \n BECMG 0319/0320 30015G25KT CAVOK \n BECMG 0321/0322 34020G35KT \n BECMG 0412/0413 35015G25KT"
"taf	RKSI	2020-04-03 21:15:00	TAF \n AMD TAF \n AMD RKSI 032115Z 0321/0424 29015G25KT 3500 BR NSC TN06/0321Z TX11/0406Z TN01/0421Z \n BECMG 0322/0323 34020G35KT CAVOK \n BECMG 0412/0413 35015G25KT"
"taf	RKSI	2020-04-04 00:00:00	TAF RKSI 042300Z 0500/0606 34010KT CAVOK TX13/0506Z TN03/0521Z TX14/0606Z \n BECMG 0505/0506 30015G25KT \n BECMG 0510/0511 32010KT \n BECMG 0523/0524 26008KT"
"taf	RKSI	2020-04-04 00:06:00	TAF RKSI 042300Z 0500/0606 34010KT CAVOK TX13/0506Z TN03/0521Z TX14/0606Z \n BECMG 0505/0506 30015G25KT \n BECMG 0510/0511 32010KT \n BECMG 0523/0524 26008KT"
"taf	RKSI	2020-04-04 06:00:00	TAF RKSI 040500Z 0406/0512 34022G35KT CAVOK TN01/0421Z TX13/0507Z \n BECMG 0412/0413 33015G25KT \n TEMPO 0507/0508 31020G35KT"
"taf	RKSI	2020-04-04 06:09:00	TAF RKSI 040500Z 0406/0512 34022G35KT CAVOK TN01/0421Z TX13/0507Z \n BECMG 0412/0413 33015G25KT \n TEMPO 0507/0508 31020G35KT"
"taf	RKSI	2020-04-04 12:00:00	TAF RKSI 041100Z 0412/0518 33015G25KT CAVOK TN01/0421Z TX13/0506Z \n TEMPO 0507/0509 31020G35KT \n BECMG 0511/0512 32010KT"
"taf	RKSI	2020-04-04 12:09:00	TAF RKSI 041100Z 0412/0518 33015G25KT CAVOK TN01/0421Z TX13/0506Z \n TEMPO 0507/0509 31020G35KT \n BECMG 0511/0512 32010KT"
"taf	RKSI	2020-04-04 18:00:00	TAF RKSI 041700Z 0418/0524 33015G25KT CAVOK TN01/0421Z TX13/0506Z TN03/0521Z \n BECMG 0502/0503 33012KT \n BECMG 0505/0506 31016G30KT \n BECMG 0510/0511 32010KT \n BECMG 0523/0524 26005KT"
"taf	RKSI	2020-04-04 18:09:00	TAF RKSI 041700Z 0418/0524 33015G25KT CAVOK TN01/0421Z TX13/0506Z TN03/0521Z \n BECMG 0502/0503 33012KT \n BECMG 0505/0506 31016G30KT \n BECMG 0510/0511 32010KT \n BECMG 0523/0524 26005KT"
"taf	RKSI	2020-04-05 00:00:00	TAF RKSI 052300Z 0600/0706 25008KT CAVOK TX14/0606Z TN06/0621Z TX14/0706Z \n BECMG 0614/0615 22006KT 4200 BR NSC \n BECMG 0617/0618 2800 SCT010 SCT030 \n TEMPO 0620/0623 0800 FG BKN005 \n BECMG 0700/0701 19010KT 3500 \n BECMG 0702/0703 25010KT 6000 NSW SCT030"
"taf	RKSI	2020-04-05 00:09:00	TAF RKSI 052300Z 0600/0706 25008KT CAVOK TX14/0606Z TN06/0621Z TX14/0706Z \n BECMG 0614/0615 22006KT 4200 BR NSC \n BECMG 0617/0618 2800 SCT010 SCT030 \n TEMPO 0620/0623 0800 FG BKN005 \n BECMG 0700/0701 19010KT 3500 \n BECMG 0702/0703 25010KT 6000 NSW SCT030"
"taf	RKSI	2020-04-05 06:00:00	TAF RKSI 050500Z 0506/0612 30015G25KT CAVOK TN03/0521Z TX14/0606Z \n BECMG 0515/0516 32012KT \n BECMG 0523/0524 26010KT"
"taf	RKSI	2020-04-05 06:06:00	TAF RKSI 050500Z 0506/0612 30015G25KT CAVOK TN03/0521Z TX14/0606Z \n BECMG 0515/0516 32012KT \n BECMG 0523/0524 26010KT"
"taf	RKSI	2020-04-05 06:55:00	TAF \n AMD RKSI 050555Z 0506/0612 26015G25KT CAVOK TN03/0521Z TX14/0606Z \n BECMG 0509/0510 32015G25KT \n BECMG 0518/0519 32010KT \n BECMG 0523/0524 26010KT"
"taf	RKSI	2020-04-05 06:57:00	TAF \n AMD TAF \n AMD RKSI 050555Z 0506/0612 26015G25KT CAVOK TN03/0521Z TX14/0606Z \n BECMG 0509/0510 32015G25KT \n BECMG 0518/0519 32010KT \n BECMG 0523/0524 26010KT"
"taf	RKSI	2020-04-05 12:00:00	TAF RKSI 051100Z 0512/0618 32010KT CAVOK TN03/0521Z TX14/0606Z \n BECMG 0602/0603 26012KT \n BECMG 0614/0615 20006KT 4200 BR SCT030"
"taf	RKSI	2020-04-05 12:06:00	TAF RKSI 051100Z 0512/0618 32010KT CAVOK TN03/0521Z TX14/0606Z \n BECMG 0602/0603 26012KT \n BECMG 0614/0615 20006KT 4200 BR SCT030"
"taf	RKSI	2020-04-05 18:00:00	TAF RKSI 051700Z 0518/0624 31007KT CAVOK TN03/0521Z TX14/0606Z TN06/0621Z \n BECMG 0602/0603 25012KT \n BECMG 0614/0615 24006KT 4200 BR SCT030 \n TEMPO 0620/0623 2000 SCT010 BKN030"
"taf	RKSI	2020-04-05 18:06:00	TAF RKSI 051700Z 0518/0624 31007KT CAVOK TN03/0521Z TX14/0606Z TN06/0621Z \n BECMG 0602/0603 25012KT \n BECMG 0614/0615 24006KT 4200 BR SCT030 \n TEMPO 0620/0623 2000 SCT010 BKN030"
"taf	RKSI	2020-04-06 00:00:00	TAF RKSI 062300Z 0700/0806 20005KT 8000 FEW010 TX14/0705Z TN04/0720Z TX12/0805Z \n BECMG 0702/0703 27010KT \n BECMG 0708/0709 32015G25KT \n BECMG 0718/0719 33012KT \n BECMG 0723/0724 27010KT"
"taf	RKSI	2020-04-06 00:06:00	TAF RKSI 062300Z 0700/0806 20005KT 8000 FEW010 TX14/0705Z TN04/0720Z TX12/0805Z \n BECMG 0702/0703 27010KT \n BECMG 0708/0709 32015G25KT \n BECMG 0718/0719 33012KT \n BECMG 0723/0724 27010KT"
"taf	RKSI	2020-04-06 06:00:00	TAF RKSI 060500Z 0606/0712 25008KT CAVOK TN06/0616Z TX15/0705Z \n BECMG 0614/0615 20006KT 4200 BR NSC \n BECMG 0618/0619 2800 SCT010 \n TEMPO 0620/0623 0800 FG BKN005 \n BECMG 0701/0702 25010KT 5000 \n BECMG 0708/0709 32015G25KT CAVOK"
"taf	RKSI	2020-04-06 06:06:00	TAF RKSI 060500Z 0606/0712 25008KT CAVOK TN06/0616Z TX15/0705Z \n BECMG 0614/0615 20006KT 4200 BR NSC \n BECMG 0618/0619 2800 SCT010 \n TEMPO 0620/0623 0800 FG BKN005 \n BECMG 0701/0702 25010KT 5000 \n BECMG 0708/0709 32015G25KT CAVOK"
"taf	RKSI	2020-04-06 12:00:00	TAF RKSI 061100Z 0612/0718 24006KT 6000 NSC TN06/0619Z TX15/0705Z \n BECMG 0617/0618 21006KT 2800 BR SCT010 \n TEMPO 0620/0623 18005KT 0800 FG BKN005 \n BECMG 0701/0702 27010KT 5000 \n BECMG 0708/0709 32015G25KT CAVOK \n BECMG 0711/0712 33010KT"
"taf	RKSI	2020-04-06 12:06:00	TAF RKSI 061100Z 0612/0718 24006KT 6000 NSC TN06/0619Z TX15/0705Z \n BECMG 0617/0618 21006KT 2800 BR SCT010 \n TEMPO 0620/0623 18005KT 0800 FG BKN005 \n BECMG 0701/0702 27010KT 5000 \n BECMG 0708/0709 32015G25KT CAVOK \n BECMG 0711/0712 33010KT"
"taf	RKSI	2020-04-06 18:00:00	TAF RKSI 061700Z 0618/0724 21006KT 7000 NSC TN06/0619Z TX15/0705Z TN04/0720Z \n TEMPO 0619/0623 18005KT 2800 BR SCT010 \n BECMG 0702/0703 27010KT \n BECMG 0708/0709 32015G25KT \n BECMG 0718/0719 33010KT"
"taf	RKSI	2020-04-06 18:09:00	TAF RKSI 061700Z 0618/0724 21006KT 7000 NSC TN06/0619Z TX15/0705Z TN04/0720Z \n TEMPO 0619/0623 18005KT 2800 BR SCT010 \n BECMG 0702/0703 27010KT \n BECMG 0708/0709 32015G25KT \n BECMG 0718/0719 33010KT"
"taf	RKSI	2020-04-06 21:55:00	TAF \n AMD RKSI 062055Z 0621/0724 18005KT 7000 NSC TN06/0619Z TX15/0705Z TN04/0720Z \n TEMPO 0621/0623 4200 BR \n BECMG 0702/0703 27010KT \n BECMG 0708/0709 32015G25KT \n BECMG 0718/0719 33010KT"
"taf	RKSI	2020-04-06 21:57:00	TAF \n AMD TAF \n AMD RKSI 062055Z 0621/0724 18005KT 7000 NSC TN06/0619Z TX15/0705Z TN04/0720Z \n TEMPO 0621/0623 4200 BR \n BECMG 0702/0703 27010KT \n BECMG 0708/0709 32015G25KT \n BECMG 0718/0719 33010KT"
"taf	RKSI	2020-04-07 00:00:00	TAF RKSI 072300Z 0800/0906 32017G30KT CAVOK TX12/0806Z TN04/0821Z TX12/0905Z \n BECMG 0811/0812 32010KT \n BECMG 0902/0903 27015G25KT"
"taf	RKSI	2020-04-07 00:06:00	TAF RKSI 072300Z 0800/0906 32017G30KT CAVOK TX12/0806Z TN04/0821Z TX12/0905Z \n BECMG 0811/0812 32010KT \n BECMG 0902/0903 27015G25KT"
"taf	RKSI	2020-04-07 06:00:00	TAF RKSI 070500Z 0706/0812 27010KT 9999 FEW030 TN04/0721Z TX13/0806Z \n BECMG 0708/0709 31015G25KT CAVOK \n BECMG 0714/0715 33012KT \n BECMG 0803/0804 31015G25KT \n TEMPO 0805/0809 29017G35KT"
"taf	RKSI	2020-04-07 06:06:00	TAF RKSI 070500Z 0706/0812 27010KT 9999 FEW030 TN04/0721Z TX13/0806Z \n BECMG 0708/0709 31015G25KT CAVOK \n BECMG 0714/0715 33012KT \n BECMG 0803/0804 31015G25KT \n TEMPO 0805/0809 29017G35KT"
"taf	RKSI	2020-04-07 12:00:00	TAF RKSI 071100Z 0712/0818 31015G25KT CAVOK TN04/0721Z TX13/0806Z \n BECMG 0714/0715 33012KT \n BECMG 0800/0801 31015G30KT \n BECMG 0813/0814 32010KT"
"taf	RKSI	2020-04-07 12:06:00	TAF RKSI 071100Z 0712/0818 31015G25KT CAVOK TN04/0721Z TX13/0806Z \n BECMG 0714/0715 33012KT \n BECMG 0800/0801 31015G30KT \n BECMG 0813/0814 32010KT"
"taf	RKSI	2020-04-07 18:00:00	TAF RKSI 071700Z 0718/0824 30012KT CAVOK TN05/0721Z TX13/0806Z TN04/0821Z \n BECMG 0721/0722 32017G30KT \n BECMG 0805/0806 28012KT \n BECMG 0811/0812 32015G25KT \n BECMG 0818/0819 33010KT"
"taf	RKSI	2020-04-07 18:06:00	TAF RKSI 071700Z 0718/0824 30012KT CAVOK TN05/0721Z TX13/0806Z TN04/0821Z \n BECMG 0721/0722 32017G30KT \n BECMG 0805/0806 28012KT \n BECMG 0811/0812 32015G25KT \n BECMG 0818/0819 33010KT"
"taf	RKSI	2020-04-08 00:00:00	TAF RKSI 082300Z 0900/1006 33012KT CAVOK TX13/0906Z TN04/0921Z TX13/1005Z \n BECMG 0903/0904 27015G25KT \n BECMG 0910/0911 34012KT \n BECMG 0915/0916 05007KT 6000 NSC \n BECMG 0922/0923 11006KT CAVOK \n BECMG 1001/1002 30010KT"
"taf	RKSI	2020-04-08 00:06:00	TAF RKSI 082300Z 0900/1006 33012KT CAVOK TX13/0906Z TN04/0921Z TX13/1005Z \n BECMG 0903/0904 27015G25KT \n BECMG 0910/0911 34012KT \n BECMG 0915/0916 05007KT 6000 NSC \n BECMG 0922/0923 11006KT CAVOK \n BECMG 1001/1002 30010KT"
"taf	RKSI	2020-04-08 06:00:00	TAF RKSI 080500Z 0806/0912 29015G25KT CAVOK TN04/0821Z TX12/0906Z \n BECMG 0810/0811 32012KT \n BECMG 0901/0902 26012KT \n BECMG 0905/0906 29015G25KT"
"taf	RKSI	2020-04-08 06:06:00	TAF RKSI 080500Z 0806/0912 29015G25KT CAVOK TN04/0821Z TX12/0906Z \n BECMG 0810/0811 32012KT \n BECMG 0901/0902 26012KT \n BECMG 0905/0906 29015G25KT"
"taf	RKSI	2020-04-08 12:00:00	TAF RKSI 081100Z 0812/0918 31012KT CAVOK TN04/0821Z TX13/0906Z \n BECMG 0904/0905 25012KT \n BECMG 0906/0907 31013KT \n BECMG 0908/0909 33015G25KT \n BECMG 0914/0915 34010KT \n BECMG 0917/0918 04007KT"
"taf	RKSI	2020-04-08 12:06:00	TAF RKSI 081100Z 0812/0918 31012KT CAVOK TN04/0821Z TX13/0906Z \n BECMG 0904/0905 25012KT \n BECMG 0906/0907 31013KT \n BECMG 0908/0909 33015G25KT \n BECMG 0914/0915 34010KT \n BECMG 0917/0918 04007KT"
"taf	RKSI	2020-04-08 18:00:00	TAF RKSI 081700Z 0818/0924 33012KT CAVOK TN04/0821Z TX13/0906Z TN04/0921Z \n BECMG 0903/0904 27013KT \n BECMG 0908/0909 27015G25KT \n BECMG 0910/0911 34012KT \n BECMG 0915/0916 04007KT 6000 NSC \n BECMG 0922/0923 11006KT CAVOK"
"taf	RKSI	2020-04-08 18:09:00	TAF RKSI 081700Z 0818/0924 33012KT CAVOK TN04/0821Z TX13/0906Z TN04/0921Z \n BECMG 0903/0904 27013KT \n BECMG 0908/0909 27015G25KT \n BECMG 0910/0911 34012KT \n BECMG 0915/0916 04007KT 6000 NSC \n BECMG 0922/0923 11006KT CAVOK"
"taf	RKSI	2020-04-09 00:00:00	TAF RKSI 092300Z 1000/1106 16008KT 9999 FEW030 SCT160 TX14/1005Z TN06/1020Z TX15/1105Z \n BECMG 1004/1005 27010KT \n BECMG 1015/1016 24005KT 4200 BR \n BECMG 1020/1021 19007KT 6000 NSW \n BECMG 1103/1104 25010KT"
"taf	RKSI	2020-04-09 00:09:00	TAF RKSI 092300Z 1000/1106 16008KT 9999 FEW030 SCT160 TX14/1005Z TN06/1020Z TX15/1105Z \n BECMG 1004/1005 27010KT \n BECMG 1015/1016 24005KT 4200 BR \n BECMG 1020/1021 19007KT 6000 NSW \n BECMG 1103/1104 25010KT"
"taf	RKSI	2020-04-09 06:00:00	TAF RKSI 090500Z 0906/1012 28015G25KT CAVOK TN04/0921Z TX13/1006Z \n BECMG 0911/0912 33010KT \n BECMG 0915/0916 05008KT \n BECMG 0919/0920 15010KT \n BECMG 1002/1003 21008KT \n BECMG 1005/1006 27008KT"
"taf	RKSI	2020-04-09 06:06:00	TAF RKSI 090500Z 0906/1012 28015G25KT CAVOK TN04/0921Z TX13/1006Z \n BECMG 0911/0912 33010KT \n BECMG 0915/0916 05008KT \n BECMG 0919/0920 15010KT \n BECMG 1002/1003 21008KT \n BECMG 1005/1006 27008KT"
"taf	RKSI	2020-04-09 12:00:00	TAF RKSI 091100Z 0912/1018 29010KT CAVOK TN04/0921Z TX14/1006Z \n BECMG 0915/0916 35006KT \n BECMG 0917/0918 11007KT \n BECMG 1000/1001 17010KT \n BECMG 1006/1007 27010KT \n BECMG 1015/1016 24006KT 4200 BR NSC"
"taf	RKSI	2020-04-09 12:06:00	TAF RKSI 091100Z 0912/1018 29010KT CAVOK TN04/0921Z TX14/1006Z \n BECMG 0915/0916 35006KT \n BECMG 0917/0918 11007KT \n BECMG 1000/1001 17010KT \n BECMG 1006/1007 27010KT \n BECMG 1015/1016 24006KT 4200 BR NSC"
"taf	RKSI	2020-04-09 18:00:00	TAF RKSI 091700Z 0918/1024 15007KT 9999 FEW030 SCT150 TN04/0921Z TX14/1005Z TN06/1020Z \n BECMG 1004/1005 27010KT \n BECMG 1015/1016 24005KT 4200 BR \n BECMG 1020/1021 19007KT 6000 NSW"
"taf	RKSI	2020-04-09 18:09:00	TAF RKSI 091700Z 0918/1024 15007KT 9999 FEW030 SCT150 TN04/0921Z TX14/1005Z TN06/1020Z \n BECMG 1004/1005 27010KT \n BECMG 1015/1016 24005KT 4200 BR \n BECMG 1020/1021 19007KT 6000 NSW"
"taf	RKSI	2020-04-10 00:00:00	TAF RKSI 102300Z 1100/1206 22008KT 6000 FEW035 BKN180 TX14/1106Z TN05/1121Z TX18/1206Z \n BECMG 1117/1118 35008KT \n BECMG 1119/1120 07008KT \n BECMG 1203/1204 BKN035 \n BECMG 1205/1206 05015G25KT SCT040"
"taf	RKSI	2020-04-10 00:09:00	TAF RKSI 102300Z 1100/1206 22008KT 6000 FEW035 BKN180 TX14/1106Z TN05/1121Z TX18/1206Z \n BECMG 1117/1118 35008KT \n BECMG 1119/1120 07008KT \n BECMG 1203/1204 BKN035 \n BECMG 1205/1206 05015G25KT SCT040"
"taf	RKSI	2020-04-10 06:00:00	TAF RKSI 100500Z 1006/1112 27010KT 9999 FEW030 SCT160 TN06/1020Z TX15/1105Z \n BECMG 1015/1016 32005KT 4200 BR \n BECMG 1021/1022 05005KT 6000 NSW \n BECMG 1102/1103 25010KT CAVOK"
"taf	RKSI	2020-04-10 06:09:00	TAF RKSI 100500Z 1006/1112 27010KT 9999 FEW030 SCT160 TN06/1020Z TX15/1105Z \n BECMG 1015/1016 32005KT 4200 BR \n BECMG 1021/1022 05005KT 6000 NSW \n BECMG 1102/1103 25010KT CAVOK"
"taf	RKSI	2020-04-10 12:00:00	TAF RKSI 101100Z 1012/1118 28008KT 9999 FEW030 BKN160 TN06/1020Z TX15/1105Z \n BECMG 1016/1017 33005KT 4200 BR \n BECMG 1021/1022 05005KT 6000 NSW \n BECMG 1102/1103 25010KT CAVOK \n BECMG 1112/1113 33009KT 6000 FEW030 SCT120"
"taf	RKSI	2020-04-10 12:09:00	TAF RKSI 101100Z 1012/1118 28008KT 9999 FEW030 BKN160 TN06/1020Z TX15/1105Z \n BECMG 1016/1017 33005KT 4200 BR \n BECMG 1021/1022 05005KT 6000 NSW \n BECMG 1102/1103 25010KT CAVOK \n BECMG 1112/1113 33009KT 6000 FEW030 SCT120"
"taf	RKSI	2020-04-10 18:00:00	TAF RKSI 101700Z 1018/1124 26006KT 6000 NSC TN06/1021Z TX14/1106Z TN05/1121Z \n BECMG 1021/1022 29006KT 4200 BR \n BECMG 1023/1024 23008KT 6000 NSW \n BECMG 1117/1118 35008KT \n BECMG 1119/1120 05010KT \n TEMPO 1121/1124 BKN045"
"taf	RKSI	2020-04-10 18:09:00	TAF RKSI 101700Z 1018/1124 26006KT 6000 NSC TN06/1021Z TX14/1106Z TN05/1121Z \n BECMG 1021/1022 29006KT 4200 BR \n BECMG 1023/1024 23008KT 6000 NSW \n BECMG 1117/1118 35008KT \n BECMG 1119/1120 05010KT \n TEMPO 1121/1124 BKN045"
"taf	RKSI	2020-04-11 00:00:00	TAF RKSI 112300Z 1200/1306 05010KT 6000 FEW035 TX18/1206Z TN04/1221Z TX16/1306Z \n TEMPO 1204/1206 -SHRA BKN035 \n BECMG 1207/1208 03015G25KT \n BECMG 1303/1304 34010KT"
"taf	RKSI	2020-04-11 00:09:00	TAF RKSI 112300Z 1200/1306 05010KT 6000 FEW035 TX18/1206Z TN04/1221Z TX16/1306Z \n TEMPO 1204/1206 -SHRA BKN035 \n BECMG 1207/1208 03015G25KT \n BECMG 1303/1304 34010KT"
"taf	RKSI	2020-04-11 06:00:00	TAF RKSI 110500Z 1106/1212 24010KT 9999 FEW030 BKN180 TN05/1121Z TX18/1206Z \n BECMG 1117/1118 35006KT 6000 \n BECMG 1119/1120 07009KT 4500 BR \n BECMG 1122/1123 6000 NSW \n BECMG 1202/1203 05015G25KT 9999 BKN030 \n BECMG 1208/1209 SCT030"
"taf	RKSI	2020-04-11 06:09:00	TAF TAF RKSI 110500Z 1106/1212 24010KT 9999 FEW030 BKN180 TN05/1121Z TX18/1206Z \n BECMG 1117/1118 35006KT 6000 \n BECMG 1119/1120 07009KT 4500 BR \n BECMG 1122/1123 6000 NSW \n BECMG 1202/1203 05015G25KT 9999 BKN030 \n BECMG 1208/1209 SCT030"
"taf	RKSI	2020-04-11 12:00:00	TAF RKSI 111100Z 1112/1218 22010KT 6000 FEW030 SCT180 TN05/1121Z TX18/1206Z \n BECMG 1117/1118 35006KT 4200 BR \n TEMPO 1119/1122 07009KT 2500 \n BECMG 1123/1124 6000 NSW \n BECMG 1201/1202 05015G25KT 9999 BKN030 \n BECMG 1208/1209 SCT030"
"taf	RKSI	2020-04-11 12:09:00	TAF TAF RKSI 111100Z 1112/1218 22010KT 6000 FEW030 SCT180 TN05/1121Z TX18/1206Z \n BECMG 1117/1118 35006KT 4200 BR \n TEMPO 1119/1122 07009KT 2500 \n BECMG 1123/1124 6000 NSW \n BECMG 1201/1202 05015G25KT 9999 BKN030 \n BECMG 1208/1209 SCT030"
"taf	RKSI	2020-04-11 18:00:00	TAF RKSI 111700Z 1118/1224 15006KT 6000 NSC TN05/1121Z TX17/1206Z TN04/1221Z \n BECMG 1119/1120 09007KT 3500 BR \n BECMG 1122/1123 06010KT 6000 NSW \n TEMPO 1203/1205 06015G25KT BKN035 \n BECMG 1210/1211 03015G25KT"
"taf	RKSI	2020-04-11 18:09:00	TAF RKSI 111700Z 1118/1224 15006KT 6000 NSC TN05/1121Z TX17/1206Z TN04/1221Z \n BECMG 1119/1120 09007KT 3500 BR \n BECMG 1122/1123 06010KT 6000 NSW \n TEMPO 1203/1205 06015G25KT BKN035 \n BECMG 1210/1211 03015G25KT"
"taf	RKSI	2020-04-12 00:00:00	TAF RKSI 122300Z 1300/1406 36007KT 9999 FEW030 SCT150 TX17/1306Z TN06/1321Z TX16/1406Z \n BECMG 1302/1303 30010KT CAVOK \n BECMG 1305/1306 28015G25KT \n BECMG 1311/1312 30007KT \n BECMG 1321/1322 24008KT"
"taf	RKSI	2020-04-12 00:09:00	TAF RKSI 122300Z 1300/1406 36007KT 9999 FEW030 SCT150 TX17/1306Z TN06/1321Z TX16/1406Z \n BECMG 1302/1303 30010KT CAVOK \n BECMG 1305/1306 28015G25KT \n BECMG 1311/1312 30007KT \n BECMG 1321/1322 24008KT"
"taf	RKSI	2020-04-12 06:00:00	TAF RKSI 120500Z 1206/1312 05015G25KT 9999 SCT030 TN04/1221Z TX16/1306Z \n TEMPO 1206/1209 6000 -SHRA BKN025 \n BECMG 1217/1218 01010KT \n BECMG 1303/1304 31008KT \n BECMG 1306/1307 32015G25KT"
"taf	RKSI	2020-04-12 06:09:00	TAF RKSI 120500Z 1206/1312 05015G25KT 9999 SCT030 TN04/1221Z TX16/1306Z \n TEMPO 1206/1209 6000 -SHRA BKN025 \n BECMG 1217/1218 01010KT \n BECMG 1303/1304 31008KT \n BECMG 1306/1307 32015G25KT"
"taf	RKSI	2020-04-12 12:00:00	TAF RKSI 121100Z 1212/1318 03015G25KT 9999 FEW030 SCT150 TN04/1221Z TX16/1306Z \n BECMG 1217/1218 01010KT \n BECMG 1303/1304 31008KT \n BECMG 1306/1307 32015G25KT \n BECMG 1312/1313 30006KT"
"taf	RKSI	2020-04-12 12:09:00	TAF RKSI 121100Z 1212/1318 03015G25KT 9999 FEW030 SCT150 TN04/1221Z TX16/1306Z \n BECMG 1217/1218 01010KT \n BECMG 1303/1304 31008KT \n BECMG 1306/1307 32015G25KT \n BECMG 1312/1313 30006KT"
"taf	RKSI	2020-04-12 18:00:00	TAF RKSI 121700Z 1218/1324 01010KT CAVOK TN04/1221Z TX17/1306Z TN06/1321Z \n BECMG 1302/1303 31008KT \n BECMG 1305/1306 30015G25KT \n BECMG 1311/1312 30007KT \n BECMG 1321/1322 24008KT"
"taf	RKSI	2020-04-12 18:09:00	TAF RKSI 121700Z 1218/1324 01010KT CAVOK TN04/1221Z TX17/1306Z TN06/1321Z \n BECMG 1302/1303 31008KT \n BECMG 1305/1306 30015G25KT \n BECMG 1311/1312 30007KT \n BECMG 1321/1322 24008KT"
"taf	RKSI	2020-04-13 00:00:00	TAF RKSI 132300Z 1400/1506 24008KT CAVOK TX16/1406Z TN06/1421Z TX17/1506Z \n BECMG 1415/1416 18005KT 4200 BR NSC \n BECMG 1418/1419 15005KT 2500 \n BECMG 1422/1423 18006KT 6000 NSW \n BECMG 1503/1504 25006KT CAVOK"
"taf	RKSI	2020-04-13 00:09:00	TAF RKSI 132300Z 1400/1506 24008KT CAVOK TX16/1406Z TN06/1421Z TX17/1506Z \n BECMG 1415/1416 18005KT 4200 BR NSC \n BECMG 1418/1419 15005KT 2500 \n BECMG 1422/1423 18006KT 6000 NSW \n BECMG 1503/1504 25006KT CAVOK"
"taf	RKSI	2020-04-13 06:00:00	TAF RKSI 130500Z 1306/1412 27015G25KT CAVOK TN06/1321Z TX16/1406Z \n BECMG 1310/1311 30010KT \n BECMG 1323/1324 24007KT \n BECMG 1403/1404 24015G25KT"
"taf	RKSI	2020-04-13 06:09:00	TAF RKSI 130500Z 1306/1412 27015G25KT CAVOK TN06/1321Z TX16/1406Z \n BECMG 1310/1311 30010KT \n BECMG 1323/1324 24007KT \n BECMG 1403/1404 24015G25KT"
"taf	RKSI	2020-04-13 12:00:00	TAF RKSI 131100Z 1312/1418 30010KT CAVOK TN06/1321Z TX16/1406Z \n BECMG 1323/1324 24007KT \n BECMG 1403/1404 24015G25KT \n BECMG 1412/1413 20007KT \n BECMG 1415/1416 4200 BR NSC"
"taf	RKSI	2020-04-13 12:09:00	TAF RKSI 131100Z 1312/1418 30010KT CAVOK TN06/1321Z TX16/1406Z \n BECMG 1323/1324 24007KT \n BECMG 1403/1404 24015G25KT \n BECMG 1412/1413 20007KT \n BECMG 1415/1416 4200 BR NSC"
"taf	RKSI	2020-04-13 18:00:00	TAF RKSI 131700Z 1318/1424 30008KT 6000 NSC TN06/1321Z TX16/1406Z TN06/1421Z \n BECMG 1323/1324 24009KT CAVOK \n BECMG 1415/1416 18005KT 4200 BR NSC \n BECMG 1418/1419 15005KT 2500 \n BECMG 1422/1423 6000 NSW"
"taf	RKSI	2020-04-13 18:09:00	TAF RKSI 131700Z 1318/1424 30008KT 6000 NSC TN06/1321Z TX16/1406Z TN06/1421Z \n BECMG 1323/1324 24009KT CAVOK \n BECMG 1415/1416 18005KT 4200 BR NSC \n BECMG 1418/1419 15005KT 2500 \n BECMG 1422/1423 6000 NSW"
"taf	RKSI	2020-04-14 00:00:00	TAF RKSI 142300Z 1500/1606 15005KT 7000 NSC TX16/1506Z TN08/1521Z TX21/1605Z \n BECMG 1503/1504 26006KT \n BECMG 1515/1516 07005KT 4200 BR \n BECMG 1521/1522 6000 NSW \n BECMG 1603/1604 20010KT"
"taf	RKSI	2020-04-14 00:09:00	TAF RKSI 142300Z 1500/1606 15005KT 7000 NSC TX16/1506Z TN08/1521Z TX21/1605Z \n BECMG 1503/1504 26006KT \n BECMG 1515/1516 07005KT 4200 BR \n BECMG 1521/1522 6000 NSW \n BECMG 1603/1604 20010KT"
"taf	RKSI	2020-04-14 06:00:00	TAF RKSI 140500Z 1406/1512 27008KT 6000 NSC TN07/1421Z TX17/1506Z \n BECMG 1411/1412 21006KT \n BECMG 1419/1420 17006KT 3500 BR \n BECMG 1422/1423 6000 NSW \n BECMG 1502/1503 27007KT"
"taf	RKSI	2020-04-14 06:09:00	TAF RKSI 140500Z 1406/1512 27008KT 6000 NSC TN07/1421Z TX17/1506Z \n BECMG 1411/1412 21006KT \n BECMG 1419/1420 17006KT 3500 BR \n BECMG 1422/1423 6000 NSW \n BECMG 1502/1503 27007KT"
"taf	RKSI	2020-04-14 12:00:00	TAF RKSI 141100Z 1412/1518 23006KT 6000 NSC TN07/1421Z TX16/1506Z \n BECMG 1419/1420 17006KT 3500 BR \n BECMG 1422/1423 6000 NSW \n BECMG 1503/1504 27006KT \n BECMG 1517/1518 05006KT 4200 BR"
"taf	RKSI	2020-04-14 12:09:00	TAF RKSI 141100Z 1412/1518 23006KT 6000 NSC TN07/1421Z TX16/1506Z \n BECMG 1419/1420 17006KT 3500 BR \n BECMG 1422/1423 6000 NSW \n BECMG 1503/1504 27006KT \n BECMG 1517/1518 05006KT 4200 BR"
"taf	RKSI	2020-04-14 18:00:00	TAF RKSI 141700Z 1418/1524 15005KT 6000 NSC TN07/1421Z TX16/1506Z TN08/1521Z \n BECMG 1419/1420 4200 BR \n BECMG 1422/1423 6000 NSW \n BECMG 1503/1504 26006KT \n BECMG 1515/1516 07005KT 4200 BR \n BECMG 1521/1522 6000 NSW"
"taf	RKSI	2020-04-14 18:09:00	TAF RKSI 141700Z 1418/1524 15005KT 6000 NSC TN07/1421Z TX16/1506Z TN08/1521Z \n BECMG 1419/1420 4200 BR \n BECMG 1422/1423 6000 NSW \n BECMG 1503/1504 26006KT \n BECMG 1515/1516 07005KT 4200 BR \n BECMG 1521/1522 6000 NSW"
"taf	RKSI	2020-04-15 00:00:00	TAF RKSI 152300Z 1600/1706 14007KT CAVOK TX20/1605Z TN11/1621Z TX15/1703Z \n BECMG 1603/1604 28007KT 9999 FEW030 BKN150 \n BECMG 1614/1615 15015G25KT \n BECMG 1618/1619 4200 -RA FEW010 BKN025 OVC080 \n TEMPO 1700/1703 14020G35KT 2800 \n BECMG 1704/1705 21015G25KT"
"taf	RKSI	2020-04-15 00:09:00	TAF RKSI 152300Z 1600/1706 14007KT CAVOK TX20/1605Z TN11/1621Z TX15/1703Z \n BECMG 1603/1604 28007KT 9999 FEW030 BKN150 \n BECMG 1614/1615 15015G25KT \n BECMG 1618/1619 4200 -RA FEW010 BKN025 OVC080 \n TEMPO 1700/1703 14020G35KT 2800 \n BECMG 1704/1705 21015G25KT"
"taf	RKSI	2020-04-15 06:00:00	TAF RKSI 150500Z 1506/1612 27006KT 8000 NSC TN07/1518Z TX20/1606Z \n BECMG 1514/1515 07005KT 4200 BR \n BECMG 1523/1524 14007KT 6000 NSW \n BECMG 1605/1606 22010KT SCT030 BKN120"
"taf	RKSI	2020-04-15 06:09:00	TAF RKSI 150500Z 1506/1612 27006KT 8000 NSC TN07/1518Z TX20/1606Z \n BECMG 1514/1515 07005KT 4200 BR \n BECMG 1523/1524 14007KT 6000 NSW \n BECMG 1605/1606 22010KT SCT030 BKN120"
"taf	RKSI	2020-04-15 12:00:00	TAF RKSI 151100Z 1512/1618 31005KT 7000 NSC TN07/1518Z TX20/1605Z \n BECMG 1518/1519 07005KT 4200 BR \n BECMG 1523/1524 14007KT 6000 NSW \n BECMG 1605/1606 22010KT FEW030 BKN120 \n BECMG 1612/1613 12008KT \n BECMG 1617/1618 13015G25KT BKN025 OVC100"
"taf	RKSI	2020-04-15 12:09:00	TAF RKSI 151100Z 1512/1618 31005KT 7000 NSC TN07/1518Z TX20/1605Z \n BECMG 1518/1519 07005KT 4200 BR \n BECMG 1523/1524 14007KT 6000 NSW \n BECMG 1605/1606 22010KT FEW030 BKN120 \n BECMG 1612/1613 12008KT \n BECMG 1617/1618 13015G25KT BKN025 OVC100"
"taf	RKSI	2020-04-15 18:00:00	TAF RKSI 151700Z 1518/1624 06005KT 7000 NSC TN07/1518Z TX20/1605Z TN08/1621Z \n TEMPO 1518/1522 4200 BR \n BECMG 1523/1524 14007KT \n BECMG 1605/1606 28006KT SCT030 BKN150 \n BECMG 1614/1615 15015G25KT \n BECMG 1618/1619 4200 -RA FEW010 BKN025 OVC080"
"taf	RKSI	2020-04-15 18:09:00	TAF RKSI 151700Z 1518/1624 06005KT 7000 NSC TN07/1518Z TX20/1605Z TN08/1621Z \n TEMPO 1518/1522 4200 BR \n BECMG 1523/1524 14007KT \n BECMG 1605/1606 28006KT SCT030 BKN150 \n BECMG 1614/1615 15015G25KT \n BECMG 1618/1619 4200 -RA FEW010 BKN025 OVC080"
"taf	RKSI	2020-04-16 00:00:00	TAF RKSI 162300Z 1700/1806 16017G28KT 6000 -RA BKN025 OVC080 TX16/1706Z TN08/1721Z TX17/1804Z \n BECMG 1701/1702 20010KT 4200 \n BECMG 1704/1705 27008KT 2800 BR SCT010 BKN025 \n BECMG 1716/1717 33010KT 4200 SCT030 \n BECMG 1802/1803 25010KT 6000 NSW"
"taf	RKSI	2020-04-16 00:09:00	TAF RKSI 162300Z 1700/1806 16017G28KT 6000 -RA BKN025 OVC080 TX16/1706Z TN08/1721Z TX17/1804Z \n BECMG 1701/1702 20010KT 4200 \n BECMG 1704/1705 27008KT 2800 BR SCT010 BKN025 \n BECMG 1716/1717 33010KT 4200 SCT030 \n BECMG 1802/1803 25010KT 6000 NSW"
"taf	RKSI	2020-04-16 06:00:00	TAF RKSI 160500Z 1606/1712 23010KT CAVOK TN09/1621Z TX17/1706Z \n BECMG 1611/1612 17012KT \n TEMPO 1615/1616 15015G25KT \n BECMG 1617/1618 3500 -RA BKN035 OVC100 \n TEMPO 1623/1706 18017G30KT 2500 SCT010 BKN030 OVC080 \n BECMG 1707/1708 26008KT 1400 BR SCT004 BKN025"
"taf	RKSI	2020-04-16 06:09:00	TAF RKSI 160500Z 1606/1712 23010KT CAVOK TN09/1621Z TX17/1706Z \n BECMG 1611/1612 17012KT \n TEMPO 1615/1616 15015G25KT \n BECMG 1617/1618 3500 -RA BKN035 OVC100 \n TEMPO 1623/1706 18017G30KT 2500 SCT010 BKN030 OVC080 \n BECMG 1707/1708 26008KT 1400 BR SCT004 BKN025"
"taf	RKSI	2020-04-16 09:14:00	TAF \n AMD RKSI 160914Z 1609/1712 31008KT 6000 NSC TN09/1621Z TX17/1706Z \n BECMG 1611/1612 17010KT \n TEMPO 1615/1616 15015G25KT \n BECMG 1617/1618 3500 -RA BKN035 OVC100 \n TEMPO 1623/1706 18017G30KT 2500 SCT010 BKN030 OVC080 \n BECMG 1707/1708 26008KT 1400 BR SCT004 BKN025"
"taf	RKSI	2020-04-16 09:15:00	TAF \n AMD TAF \n AMD RKSI 160914Z 1609/1712 31008KT 6000 NSC TN09/1621Z TX17/1706Z \n BECMG 1611/1612 17010KT \n TEMPO 1615/1616 15015G25KT \n BECMG 1617/1618 3500 -RA BKN035 OVC100 \n TEMPO 1623/1706 18017G30KT 2500 SCT010 BKN030 OVC080 \n BECMG 1707/1708 26008KT 1400 BR SCT004 BKN025"
"taf	RKSI	2020-04-16 12:00:00	TAF RKSI 161100Z 1612/1718 17006KT 6000 NSC TN09/1621Z TX17/1706Z \n BECMG 1615/1616 15015G25KT \n BECMG 1617/1618 3500 -RA BKN035 OVC100 \n TEMPO 1623/1706 18017G30KT 2500 SCT010 BKN030 OVC080 \n BECMG 1707/1708 26008KT 1400 BR SCT004 BKN025 \n BECMG 1714/1715 34008KT"
"taf	RKSI	2020-04-16 12:09:00	TAF RKSI 161100Z 1612/1718 17006KT 6000 NSC TN09/1621Z TX17/1706Z \n BECMG 1615/1616 15015G25KT \n BECMG 1617/1618 3500 -RA BKN035 OVC100 \n TEMPO 1623/1706 18017G30KT 2500 SCT010 BKN030 OVC080 \n BECMG 1707/1708 26008KT 1400 BR SCT004 BKN025 \n BECMG 1714/1715 34008KT"
"taf	RKSI	2020-04-16 18:00:00	TAF RKSI 161700Z 1618/1724 14012G20KT 3500 -RA BKN030 OVC100 TN09/1621Z TX16/1706Z TN08/1721Z \n TEMPO 1621/1703 17017G30KT 2800 RA SCT010 BKN025 OVC080 \n BECMG 1703/1704 20010KT 2500 \n BECMG 1707/1708 27008KT 1400 BR SCT004 BKN025 \n BECMG 1716/1717 33008KT 2800 \n BECMG 1721/1722 36010KT 4200 SCT030"
"taf	RKSI	2020-04-16 18:09:00	TAF RKSI 161700Z 1618/1724 14012G20KT 3500 -RA BKN030 OVC100 TN09/1621Z TX16/1706Z TN08/1721Z \n TEMPO 1621/1703 17017G30KT 2800 RA SCT010 BKN025 OVC080 \n BECMG 1703/1704 20010KT 2500 \n BECMG 1707/1708 27008KT 1400 BR SCT004 BKN025 \n BECMG 1716/1717 33008KT 2800 \n BECMG 1721/1722 36010KT 4200 SCT030"
"taf	RKSI	2020-04-16 21:00:00	TAF \n AMD RKSI 162100Z 1621/1724 17015G25KT 7000 -RA BKN030 OVC100 TN09/1621Z TX16/1706Z TN08/1721Z \n BECMG 1704/1705 27008KT 4200 BR SCT010 BKN025 \n BECMG 1712/1713 2800 \n BECMG 1716/1717 33010KT \n BECMG 1721/1722 36010KT 4200 SCT030"
"taf	RKSI	2020-04-16 21:09:00	TAF \n AMD TAF \n AMD RKSI 162100Z 1621/1724 17015G25KT 7000 -RA BKN030 OVC100 TN09/1621Z TX16/1706Z TN08/1721Z \n BECMG 1704/1705 27008KT 4200 BR SCT010 BKN025 \n BECMG 1712/1713 2800 \n BECMG 1716/1717 33010KT \n BECMG 1721/1722 36010KT 4200 SCT030"
"taf	RKSI	2020-04-17 00:00:00	TAF RKSI 172300Z 1800/1906 33009KT 9999 FEW030 TX17/1804Z TN09/1820Z TX18/1903Z \n BECMG 1803/1804 26012KT \n BECMG 1813/1814 18005KT 4200 BR \n TEMPO 1817/1822 15007KT 2500 SCT010 \n BECMG 1822/1823 13010KT 6000 NSW \n BECMG 1904/1905 19006KT BKN030 OVC100"
"taf	RKSI	2020-04-17 00:06:00	TAF RKSI 172300Z 1800/1906 33009KT 9999 FEW030 TX17/1804Z TN09/1820Z TX18/1903Z \n BECMG 1803/1804 26012KT \n BECMG 1813/1814 18005KT 4200 BR \n TEMPO 1817/1822 15007KT 2500 SCT010 \n BECMG 1822/1823 13010KT 6000 NSW \n BECMG 1904/1905 19006KT BKN030 OVC100"
"taf	RKSI	2020-04-17 03:05:00	TAF \n AMD RKSI 170305Z 1703/1806 16017G28KT 6000 BKN025 OVC080 TX16/1706Z TN08/1721Z TX17/1804Z \n TEMPO 1703/1705 3500 -TSRA SCT022CB BKN040 OVC080 \n BECMG 1706/1707 27008KT 2800 BR SCT010 BKN025 \n BECMG 1716/1717 33010KT 4200 SCT030 \n BECMG 1802/1803 25010KT 6000 NSW"
"taf	RKSI	2020-04-17 03:09:00	TAF \n AMD TAF \n AMD RKSI 170305Z 1703/1806 16017G28KT 6000 BKN025 OVC080 TX16/1706Z TN08/1721Z TX17/1804Z \n TEMPO 1703/1705 3500 -TSRA SCT022CB BKN040 OVC080 \n BECMG 1706/1707 27008KT 2800 BR SCT010 BKN025 \n BECMG 1716/1717 33010KT 4200 SCT030 \n BECMG 1802/1803 25010KT 6000 NSW"
"taf	RKSI	2020-04-17 04:00:00	TAF \n AMD RKSI 170400Z 1704/1806 16017G28KT 6000 BKN025 OVC080 TX16/1706Z TN08/1721Z TX17/1804Z \n TEMPO 1704/1705 -RA \n BECMG 1706/1707 27008KT 2800 BR SCT010 BKN025 \n BECMG 1716/1717 33010KT 4200 SCT030 \n BECMG 1802/1803 25010KT 6000 NSW"
"taf	RKSI	2020-04-17 04:03:00	TAF \n AMD TAF \n AMD RKSI 170400Z 1704/1806 16017G28KT 6000 BKN025 OVC080 TX16/1706Z TN08/1721Z TX17/1804Z \n TEMPO 1704/1705 -RA \n BECMG 1706/1707 27008KT 2800 BR SCT010 BKN025 \n BECMG 1716/1717 33010KT 4200 SCT030 \n BECMG 1802/1803 25010KT 6000 NSW"
"taf	RKSI	2020-04-17 06:00:00	TAF RKSI 170500Z 1706/1812 22016G26KT 6000 FEW010 BKN025 TN07/1721Z TX17/1806Z \n BECMG 1709/1710 25012KT 3500 BR SCT035 \n BECMG 1711/1712 30010KT 2500 SCT008 \n BECMG 1713/1714 27008KT 1400 \n BECMG 1715/1716 31012KT 2800 SCT035 \n BECMG 1720/1721 28008KT 6000 NSW"
"taf	RKSI	2020-04-17 06:06:00	TAF RKSI 170500Z 1706/1812 22016G26KT 6000 FEW010 BKN025 TN07/1721Z TX17/1806Z \n BECMG 1709/1710 25012KT 3500 BR SCT035 \n BECMG 1711/1712 30010KT 2500 SCT008 \n BECMG 1713/1714 27008KT 1400 \n BECMG 1715/1716 31012KT 2800 SCT035 \n BECMG 1720/1721 28008KT 6000 NSW"
"taf	RKSI	2020-04-17 07:53:00	TAF \n AMD RKSI 170653Z 1707/1812 26010KT 6000 SCT008 BKN025 TN07/1721Z TX17/1806Z \n TEMPO 1707/1708 3500 -RA SCT035 \n BECMG 1709/1710 30010KT 2500 BR \n BECMG 1713/1714 27008KT 1400 \n BECMG 1715/1716 31012KT 2800 SCT035 \n BECMG 1720/1721 28008KT 6000 NSW"
"taf	RKSI	2020-04-17 07:55:00	TAF \n AMD RKSI 170655Z 1707/1812 26010KT 6000 SCT008 BKN025 TN07/1721Z TX17/1806Z \n TEMPO 1707/1708 3500 -RA \n BECMG 1709/1710 30010KT 2500 BR \n BECMG 1713/1714 27008KT 1400 \n BECMG 1715/1716 31012KT 2800 SCT035 \n BECMG 1720/1721 28008KT 6000 NSW"
"taf	RKSI	2020-04-17 07:57:00	TAF \n AMD RKSI 170653Z 1707/1812 26010KT 6000 SCT008 BKN025 TN07/1721Z TX17/1806Z \n TEMPO 1707/1708 3500 -RA SCT035 \n BECMG 1709/1710 30010KT 2500 BR \n BECMG 1713/1714 27008KT 1400 \n BECMG 1715/1716 31012KT 2800 SCT035 \n BECMG 1720/1721 28008KT 6000 NSW"
"taf	RKSI	2020-04-17 12:00:00	TAF RKSI 171100Z 1712/1818 29008KT 2500 BR BKN004 TN08/1721Z TX17/1806Z \n BECMG 1718/1719 32010KT 4200 FEW010 \n BECMG 1722/1723 26010KT 6000 NSW \n BECMG 1810/1811 23008KT 4200 BR \n BECMG 1812/1813 33008KT 6000 NSW \n BECMG 1816/1817 13008KT 4200 BR"
"taf	RKSI	2020-04-17 12:06:00	TAF RKSI 171100Z 1712/1818 29008KT 2500 BR BKN004 TN08/1721Z TX17/1806Z \n BECMG 1718/1719 32010KT 4200 FEW010 \n BECMG 1722/1723 26010KT 6000 NSW \n BECMG 1810/1811 23008KT 4200 BR \n BECMG 1812/1813 33008KT 6000 NSW \n BECMG 1816/1817 13008KT 4200 BR"
"taf	RKSI	2020-04-17 18:00:00	TAF RKSI 171700Z 1718/1824 33009KT 3000 BR SCT005 BKN025 TN08/1721Z TX17/1805Z TN09/1819Z \n BECMG 1722/1723 6000 NSW SCT030 \n BECMG 1803/1804 26012KT \n BECMG 1813/1814 18005KT 4200 BR SCT010 \n BECMG 1817/1818 15007KT 2500 \n BECMG 1822/1823 12006KT 4200"
"taf	RKSI	2020-04-17 18:06:00	TAF RKSI 171700Z 1718/1824 33009KT 3000 BR SCT005 BKN025 TN08/1721Z TX17/1805Z TN09/1819Z \n BECMG 1722/1723 6000 NSW SCT030 \n BECMG 1803/1804 26012KT \n BECMG 1813/1814 18005KT 4200 BR SCT010 \n BECMG 1817/1818 15007KT 2500 \n BECMG 1822/1823 12006KT 4200"
"taf	RKSI	2020-04-18 00:00:00	TAF RKSI 182300Z 1900/2006 07007KT 6000 FEW010 BKN180 TX16/1906Z TN08/1921Z TX14/2006Z \n BECMG 1904/1905 04007KT 3500 -RA FEW010 BKN030 OVC100 \n BECMG 1911/1912 01006KT 2800 BKN008 BKN025 OVC080 \n BECMG 1915/1916 3500 BR FEW010 BKN030 \n BECMG 2003/2004 24010KT 6000 NSW SCT035 \n BECMG 2005/2006 30015G25KT"
"taf	RKSI	2020-04-18 00:09:00	TAF RKSI 182300Z 1900/2006 07007KT 6000 FEW010 BKN180 TX16/1906Z TN08/1921Z TX14/2006Z \n BECMG 1904/1905 04007KT 3500 -RA FEW010 BKN030 OVC100 \n BECMG 1911/1912 01006KT 2800 BKN008 BKN025 OVC080 \n BECMG 1915/1916 3500 BR FEW010 BKN030 \n BECMG 2003/2004 24010KT 6000 NSW SCT035 \n BECMG 2005/2006 30015G25KT"
"taf	RKSI	2020-04-18 06:00:00	TAF RKSI 180500Z 1806/1912 26012KT 9999 FEW030 TN09/1820Z TX18/1903Z \n BECMG 1813/1814 18005KT 4200 BR \n TEMPO 1817/1822 15007KT 2500 SCT010 \n BECMG 1822/1823 13010KT 6000 NSW \n BECMG 1903/1904 20006KT BKN030 OVC120 \n BECMG 1905/1906 34007KT 4200 -RA SCT010 BKN030 OVC100"
"taf	RKSI	2020-04-18 06:06:00	TAF RKSI 180500Z 1806/1912 26012KT 9999 FEW030 TN09/1820Z TX18/1903Z \n BECMG 1813/1814 18005KT 4200 BR \n TEMPO 1817/1822 15007KT 2500 SCT010 \n BECMG 1822/1823 13010KT 6000 NSW \n BECMG 1903/1904 20006KT BKN030 OVC120 \n BECMG 1905/1906 34007KT 4200 -RA SCT010 BKN030 OVC100"
"taf	RKSI	2020-04-18 12:00:00	TAF RKSI 181100Z 1812/1918 28007KT 6000 FEW030 TN09/1820Z TX18/1903Z \n TEMPO 1813/1817 18005KT 2500 BR SCT010 \n BECMG 1817/1818 13007KT 4200 BR \n BECMG 1822/1823 6000 NSW BKN030 BKN120 \n BECMG 1905/1906 03007KT 4200 -RA SCT010 BKN030 OVC100 \n BECMG 1915/1916 2800 BR"
"taf	RKSI	2020-04-18 12:06:00	TAF RKSI 181100Z 1812/1918 28007KT 6000 FEW030 TN09/1820Z TX18/1903Z \n TEMPO 1813/1817 18005KT 2500 BR SCT010 \n BECMG 1817/1818 13007KT 4200 BR \n BECMG 1822/1823 6000 NSW BKN030 BKN120 \n BECMG 1905/1906 03007KT 4200 -RA SCT010 BKN030 OVC100 \n BECMG 1915/1916 2800 BR"
"taf	RKSI	2020-04-18 18:00:00	TAF RKSI 181700Z 1818/1924 15008KT 4200 BR FEW010 BKN180 TN08/1821Z TX16/1906Z TN08/1921Z \n BECMG 1821/1822 12008KT 6000 NSW \n BECMG 1904/1905 15008KT 4200 -RA FEW010 BKN035 OVC080 \n BECMG 1908/1909 10007KT 2800 \n BECMG 1912/1913 07007KT 3500 \n BECMG 1915/1916 04008KT 6000 NSW"
"taf	RKSI	2020-04-18 18:06:00	TAF RKSI 181700Z 1818/1924 15008KT 4200 BR FEW010 BKN180 TN08/1821Z TX16/1906Z TN08/1921Z \n BECMG 1821/1822 12008KT 6000 NSW \n BECMG 1904/1905 15008KT 4200 -RA FEW010 BKN035 OVC080 \n BECMG 1908/1909 10007KT 2800 \n BECMG 1912/1913 07007KT 3500 \n BECMG 1915/1916 04008KT 6000 NSW"
"taf	RKSI	2020-04-18 22:45:00	TAF \n AMD RKSI 182145Z 1822/1924 07006KT 3500 BR FEW010 BKN180 TN08/1821Z TX16/1906Z TN08/1921Z \n BECMG 1900/1901 12008KT 6000 NSW \n BECMG 1904/1905 15008KT 4200 -RA FEW010 BKN035 OVC080 \n BECMG 1908/1909 10007KT 2800 \n BECMG 1912/1913 07007KT 3500 \n BECMG 1915/1916 04008KT 6000 NSW"
"taf	RKSI	2020-04-18 22:48:00	TAF \n AMD TAF \n AMD RKSI 182145Z 1822/1924 07006KT 3500 BR FEW010 BKN180 TN08/1821Z TX16/1906Z TN08/1921Z \n BECMG 1900/1901 12008KT 6000 NSW \n BECMG 1904/1905 15008KT 4200 -RA FEW010 BKN035 OVC080 \n BECMG 1908/1909 10007KT 2800 \n BECMG 1912/1913 07007KT 3500 \n BECMG 1915/1916 04008KT 6000 NSW"
"taf	RKSI	2020-04-19 00:00:00	TAF RKSI 192300Z 2000/2106 17008KT 6000 BKN045 TX14/2006Z TN06/2021Z TX11/2106Z \n BECMG 2002/2003 23012KT \n TEMPO 2005/2006 24015G25KT -RA \n BECMG 2007/2008 29018G35KT FEW035 \n BECMG 2018/2019 28015G25KT \n BECMG 2104/2105 30025G37KT"
"taf	RKSI	2020-04-19 00:06:00	TAF RKSI 192300Z 2000/2106 17008KT 6000 BKN045 TX14/2006Z TN06/2021Z TX11/2106Z \n BECMG 2002/2003 23012KT \n TEMPO 2005/2006 24015G25KT -RA \n BECMG 2007/2008 29018G35KT FEW035 \n BECMG 2018/2019 28015G25KT \n BECMG 2104/2105 30025G37KT"
"taf	RKSI	2020-04-19 03:54:00	TAF \n AMD TAF \n AMD RKSI 190255Z 1903/2006 13010KT 6000 -RA FEW010 BKN030 OVC100 TX16/1906Z TN08/1921Z TX14/2006Z \n BECMG 1904/1905 04007KT 3500 \n BECMG 1911/1912 01006KT 2800 BKN008 BKN025 OVC080 \n BECMG 1915/1916 3500 BR FEW010 BKN030 \n BECMG 2003/2004 24010KT 6000 NSW SCT035 \n BECMG 2005/2006 30015G25KT"
"taf	RKSI	2020-04-19 03:55:00	TAF \n AMD RKSI 190255Z 1903/2006 13010KT 6000 -RA FEW010 BKN030 OVC100 TX16/1906Z TN08/1921Z TX14/2006Z \n BECMG 1904/1905 04007KT 3500 \n BECMG 1911/1912 01006KT 2800 BKN008 BKN025 OVC080 \n BECMG 1915/1916 3500 BR FEW010 BKN030 \n BECMG 2003/2004 24010KT 6000 NSW SCT035 \n BECMG 2005/2006 30015G25KT"
"taf	RKSI	2020-04-19 06:00:00	TAF RKSI 190500Z 1906/2012 09008KT 6000 -RA FEW010 BKN030 OVC100 TN08/1921Z TX14/2005Z \n BECMG 1908/1909 3500 \n BECMG 1915/1916 01006KT BR \n BECMG 1923/1924 24007KT 6000 NSW SCT030 \n BECMG 2003/2004 23015G25KT BKN030 \n BECMG 2008/2009 29015G25KT NSC"
"taf	RKSI	2020-04-19 06:06:00	TAF RKSI 190500Z 1906/2012 09008KT 6000 -RA FEW010 BKN030 OVC100 TN08/1921Z TX14/2005Z \n BECMG 1908/1909 3500 \n BECMG 1915/1916 01006KT BR \n BECMG 1923/1924 24007KT 6000 NSW SCT030 \n BECMG 2003/2004 23015G25KT BKN030 \n BECMG 2008/2009 29015G25KT NSC"
"taf	RKSI	2020-04-19 12:00:00	TAF RKSI 191100Z 1912/2018 03008KT 4200 -RA SCT010 BKN030 OVC080 TN08/1921Z TX14/2004Z \n BECMG 1914/1915 BR BKN030 \n BECMG 1923/1924 24006KT 6000 NSW \n BECMG 2003/2004 23015G25KT \n TEMPO 2005/2009 27018G30KT -RA \n BECMG 2009/2010 29016G27KT NSC"
"taf	RKSI	2020-04-19 12:06:00	TAF RKSI 191100Z 1912/2018 03008KT 4200 -RA SCT010 BKN030 OVC080 TN08/1921Z TX14/2004Z \n BECMG 1914/1915 BR BKN030 \n BECMG 1923/1924 24006KT 6000 NSW \n BECMG 2003/2004 23015G25KT \n TEMPO 2005/2009 27018G30KT -RA \n BECMG 2009/2010 29016G27KT NSC"
"taf	RKSI	2020-04-19 18:00:00	TAF RKSI 191700Z 1918/2024 35006KT 6000 BKN045 TN07/1921Z TX14/2006Z TN06/2021Z \n BECMG 1923/1924 23010KT \n BECMG 2005/2006 29020G35KT \n BECMG 2007/2008 NSC \n BECMG 2012/2013 30015G25KT"
"taf	RKSI	2020-04-19 18:09:00	TAF RKSI 191700Z 1918/2024 35006KT 6000 BKN045 TN07/1921Z TX14/2006Z TN06/2021Z \n BECMG 1923/1924 23010KT \n BECMG 2005/2006 29020G35KT \n BECMG 2007/2008 NSC \n BECMG 2012/2013 30015G25KT"
"taf	RKSI	2020-04-20 00:00:00	TAF RKSI 202300Z 2100/2206 29015G25KT 9999 FEW030 SCT180 TX11/2104Z TN04/2121Z TX11/2204Z \n BECMG 2101/2102 30023G35KT \n BECMG 2118/2119 30015G25KT \n BECMG 2202/2203 30023G35KT BKN035"
"taf	RKSI	2020-04-20 00:09:00	TAF RKSI 202300Z 2100/2206 29015G25KT 9999 FEW030 SCT180 TX11/2104Z TN04/2121Z TX11/2204Z \n BECMG 2101/2102 30023G35KT \n BECMG 2118/2119 30015G25KT \n BECMG 2202/2203 30023G35KT BKN035"
"taf	RKSI	2020-04-20 01:15:00	TAF \n AMD TAF \n AMD RKSI 200115Z 2001/2106 23012KT 9999 SCT035 TX14/2006Z TN06/2021Z TX11/2106Z \n TEMPO 2003/2005 24015G25KT 4200 -RA BKN030 \n BECMG 2007/2008 29018G35KT \n BECMG 2018/2019 28015G25KT \n BECMG 2104/2105 30025G37KT"
"taf	RKSI	2020-04-20 03:20:00	TAF \n AMD RKSI 200320Z 2003/2106 23012KT 4200 -RA BKN008 TX14/2006Z TN06/2021Z TX11/2106Z \n BECMG 2004/2005 24015G25KT 6000 NSW SCT030 \n BECMG 2007/2008 29018G35KT \n BECMG 2018/2019 28015G25KT \n BECMG 2104/2105 30025G37KT"
"taf	RKSI	2020-04-20 03:24:00	TAF \n AMD TAF \n AMD RKSI 200320Z 2003/2106 23012KT 4200 -RA BKN008 TX14/2006Z TN06/2021Z TX11/2106Z \n BECMG 2004/2005 24015G25KT 6000 NSW SCT030 \n BECMG 2007/2008 29018G35KT \n BECMG 2018/2019 28015G25KT \n BECMG 2104/2105 30025G37KT"
"taf	RKSI	2020-04-20 06:00:00	TAF \n AMD RKSI 200540Z 2006/2112 24025G35KT 9999 SCT030 TN06/2021Z TX11/2106Z \n BECMG 2007/2008 30025G35KT \n BECMG 2010/2011 30015G25KT \n BECMG 2105/2106 30025G35KT"
"taf	RKSI	2020-04-20 06:06:00	TAF RKSI 200500Z 2006/2112 29018G30KT 9999 SCT030 TN06/2021Z TX11/2106Z \n BECMG 2012/2013 30012KT \n BECMG 2105/2106 30025G35KT"
"taf	RKSI	2020-04-20 06:40:00	TAF \n AMD RKSI 200540Z 2006/2112 24025G35KT 9999 SCT030 TN06/2021Z TX11/2106Z \n BECMG 2007/2008 30025G35KT \n BECMG 2010/2011 30015G25KT \n BECMG 2105/2106 30025G35KT"
"taf	RKSI	2020-04-20 06:42:00	TAF \n AMD TAF \n AMD RKSI 200540Z 2006/2112 24025G35KT 9999 SCT030 TN06/2021Z TX11/2106Z \n BECMG 2007/2008 30025G35KT \n BECMG 2010/2011 30015G25KT \n BECMG 2105/2106 30025G35KT"
"taf	RKSI	2020-04-20 12:00:00	TAF RKSI 201100Z 2012/2118 30015G25KT 9999 FEW030 TN06/2021Z TX11/2106Z \n BECMG 2105/2106 30025G35KT"
"taf	RKSI	2020-04-20 12:09:00	TAF RKSI 201100Z 2012/2118 30015G25KT 9999 FEW030 TN06/2021Z TX11/2106Z \n BECMG 2105/2106 30025G35KT"
"taf	RKSI	2020-04-20 18:00:00	TAF RKSI 201700Z 2018/2124 29012KT CAVOK TN06/2021Z TX11/2104Z TN04/2121Z \n BECMG 2023/2024 29015G25KT 9999 BKN035 \n BECMG 2102/2103 30023G35KT \n BECMG 2108/2109 SCT035"
"taf	RKSI	2020-04-20 18:09:00	TAF RKSI 201700Z 2018/2124 29012KT CAVOK TN06/2021Z TX11/2104Z TN04/2121Z \n BECMG 2023/2024 29015G25KT 9999 BKN035 \n BECMG 2102/2103 30023G35KT \n BECMG 2108/2109 SCT035"
"taf	RKSI	2020-04-21 00:00:00	TAF RKSI 212300Z 2200/2306 29022G35KT 9999 SCT035 TX11/2204Z TN05/2219Z TX13/2306Z \n BECMG 2201/2202 BKN035 \n BECMG 2211/2212 32015G25KT SCT035 \n TEMPO 2302/2304 BKN035 \n BECMG 2305/2306 26018G30KT"
"taf	RKSI	2020-04-21 00:06:00	TAF RKSI 212300Z 2200/2306 29022G35KT 9999 SCT035 TX11/2204Z TN05/2219Z TX13/2306Z \n BECMG 2201/2202 BKN035 \n BECMG 2211/2212 32015G25KT SCT035 \n TEMPO 2302/2304 BKN035 \n BECMG 2305/2306 26018G30KT"
"taf	RKSI	2020-04-21 06:00:00	TAF RKSI 210500Z 2106/2212 29025G35KT 9999 SCT030 TN04/2121Z TX11/2204Z \n BECMG 2117/2118 30015G25KT \n BECMG 2202/2203 28022G35KT BKN035"
"taf	RKSI	2020-04-21 06:09:00	TAF RKSI 210500Z 2106/2212 29025G35KT 9999 SCT030 TN04/2121Z TX11/2204Z \n BECMG 2117/2118 30015G25KT \n BECMG 2202/2203 28022G35KT BKN035"
"taf	RKSI	2020-04-21 12:00:00	TAF RKSI 211100Z 2112/2218 29023G35KT 9999 SCT030 TN04/2121Z TX11/2204Z \n BECMG 2117/2118 30015G25KT \n BECMG 2202/2203 28022G35KT BKN035 \n BECMG 2212/2213 30015G25KT"
"taf	RKSI	2020-04-21 12:06:00	TAF RKSI 211100Z 2112/2218 29023G35KT 9999 SCT030 TN04/2121Z TX11/2204Z \n BECMG 2117/2118 30015G25KT \n BECMG 2202/2203 28022G35KT BKN035 \n BECMG 2212/2213 30015G25KT"
"taf	RKSI	2020-04-21 18:00:00	TAF RKSI 211700Z 2118/2224 30017KT 9999 SCT040 TN04/2121Z TX11/2204Z TN05/2219Z \n BECMG 2123/2124 BKN040 \n BECMG 2202/2203 29022G35KT \n BECMG 2211/2212 31015G25KT SCT040"
"taf	RKSI	2020-04-21 18:06:00	TAF RKSI 211700Z 2118/2224 30017KT 9999 SCT040 TN04/2121Z TX11/2204Z TN05/2219Z \n BECMG 2123/2124 BKN040 \n BECMG 2202/2203 29022G35KT \n BECMG 2211/2212 31015G25KT SCT040"
"taf	RKSI	2020-04-22 00:00:00	TAF RKSI 222300Z 2300/2406 30015G25KT CAVOK TX12/2306Z TN06/2321Z TX14/2405Z \n BECMG 2303/2304 28020G35KT \n BECMG 2309/2310 29015G25KT \n BECMG 2318/2319 24010KT \n BECMG 2321/2322 25015G25KT"
"taf	RKSI	2020-04-22 00:09:00	TAF RKSI 222300Z 2300/2406 30015G25KT CAVOK TX12/2306Z TN06/2321Z TX14/2405Z \n BECMG 2303/2304 28020G35KT \n BECMG 2309/2310 29015G25KT \n BECMG 2318/2319 24010KT \n BECMG 2321/2322 25015G25KT"
"taf	RKSI	2020-04-22 03:20:00	TAF \n AMD RKSI 220320Z 2203/2306 29022G35KT 9999 BKN030 TX11/2204Z TN05/2219Z TX13/2306Z \n TEMPO 2203/2206 -RA \n BECMG 2211/2212 32015G25KT SCT035 \n TEMPO 2302/2304 BKN035 \n BECMG 2305/2306 26018G30KT"
"taf	RKSI	2020-04-22 03:24:00	TAF \n AMD TAF \n AMD RKSI 220320Z 2203/2306 29022G35KT 9999 BKN030 TX11/2204Z TN05/2219Z TX13/2306Z \n TEMPO 2203/2206 -RA \n BECMG 2211/2212 32015G25KT SCT035 \n TEMPO 2302/2304 BKN035 \n BECMG 2305/2306 26018G30KT"
"taf	RKSI	2020-04-22 06:00:00	TAF RKSI 220500Z 2206/2312 29022G35KT 9999 SCT030 TN05/2220Z TX13/2306Z \n TEMPO 2207/2208 -RA BKN030 \n BECMG 2211/2212 31015G25KT \n BECMG 2301/2302 28020G35KT \n BECMG 2310/2311 30015G25KT"
"taf	RKSI	2020-04-22 06:06:00	TAF RKSI 220500Z 2206/2312 29022G35KT 9999 SCT030 TN05/2220Z TX13/2306Z \n TEMPO 2207/2208 -RA BKN030 \n BECMG 2211/2212 31015G25KT \n BECMG 2301/2302 28020G35KT \n BECMG 2310/2311 30015G25KT"
"taf	RKSI	2020-04-22 12:00:00	TAF RKSI 221100Z 2212/2318 31015G25KT 9999 SCT030 TN05/2220Z TX13/2306Z \n BECMG 2301/2302 28020G35KT \n TEMPO 2309/2311 BKN030 \n BECMG 2311/2312 30015G25KT \n BECMG 2317/2318 28010KT"
"taf	RKSI	2020-04-22 12:06:00	TAF RKSI 221100Z 2212/2318 31015G25KT 9999 SCT030 TN05/2220Z TX13/2306Z \n BECMG 2301/2302 28020G35KT \n TEMPO 2309/2311 BKN030 \n BECMG 2311/2312 30015G25KT \n BECMG 2317/2318 28010KT"
"taf	RKSI	2020-04-22 18:00:00	TAF RKSI 221700Z 2218/2324 31012KT 9999 FEW030 TN05/2220Z TX12/2306Z TN06/2321Z \n BECMG 2300/2301 30015G25KT \n BECMG 2303/2304 28020G35KT \n BECMG 2311/2312 30015G25KT \n BECMG 2318/2319 24010KT \n BECMG 2321/2322 24015G25KT"
"taf	RKSI	2020-04-22 18:06:00	TAF RKSI 221700Z 2218/2324 31012KT 9999 FEW030 TN05/2220Z TX12/2306Z TN06/2321Z \n BECMG 2300/2301 30015G25KT \n BECMG 2303/2304 28020G35KT \n BECMG 2311/2312 30015G25KT \n BECMG 2318/2319 24010KT \n BECMG 2321/2322 24015G25KT"
"taf	RKSI	2020-04-23 04:00:00	TAF \n AMD RKSI 230400Z 2304/2406 29015G25KT CAVOK TX12/2306Z TN06/2321Z TX14/2405Z \n BECMG 2318/2319 24010KT \n BECMG 2321/2322 25015G25KT"
"taf	RKSI	2020-04-23 04:09:00	TAF \n AMD TAF \n AMD RKSI 230400Z 2304/2406 29015G25KT CAVOK TX12/2306Z TN06/2321Z TX14/2405Z \n BECMG 2318/2319 24010KT \n BECMG 2321/2322 25015G25KT"
"taf	RKSI	2020-04-23 06:00:00	TAF RKSI 230500Z 2306/2412 28015G27KT CAVOK TN05/2321Z TX14/2405Z \n BECMG 2319/2320 23010KT 9999 SCT030 \n BECMG 2400/2401 25015G25KT \n BECMG 2409/2410 21012KT"
"taf	RKSI	2020-04-23 06:06:00	TAF RKSI 230500Z 2306/2412 28015G27KT CAVOK TN05/2321Z TX14/2405Z \n BECMG 2319/2320 23010KT 9999 SCT030 \n BECMG 2400/2401 25015G25KT \n BECMG 2409/2410 21012KT"
"taf	RKSI	2020-04-23 09:40:00	TAF \n AMD RKSI 230840Z 2309/2412 28015G25KT CAVOK TN05/2321Z TX14/2405Z \n TEMPO 2309/2311 28020G35KT \n BECMG 2319/2320 23010KT 9999 SCT030 \n BECMG 2400/2401 25015G25KT \n BECMG 2409/2410 21012KT"
"taf	RKSI	2020-04-23 09:48:00	TAF \n AMD TAF \n AMD RKSI 230840Z 2309/2412 28015G25KT CAVOK TN05/2321Z TX14/2405Z \n TEMPO 2309/2311 28020G35KT \n BECMG 2319/2320 23010KT 9999 SCT030 \n BECMG 2400/2401 25015G25KT \n BECMG 2409/2410 21012KT"
"taf	RKSI	2020-04-23 12:00:00	TAF RKSI 231100Z 2312/2418 30015G25KT CAVOK TN05/2321Z TX14/2405Z \n BECMG 2319/2320 23010KT 9999 SCT030 \n BECMG 2400/2401 25015G27KT CAVOK \n BECMG 2409/2410 21012KT \n BECMG 2415/2416 23015G30KT 9999 FEW030 SCT120"
"taf	RKSI	2020-04-23 12:15:00	TAF RKSI 231100Z 2312/2418 30015G25KT CAVOK TN05/2321Z TX14/2405Z \n BECMG 2319/2320 23010KT 9999 SCT030 \n BECMG 2400/2401 25015G27KT CAVOK \n BECMG 2409/2410 21012KT \n BECMG 2415/2416 23015G30KT 9999 FEW030 SCT120"
"taf	RKSI	2020-04-23 16:35:00	TAF \n AMD RKSI 231535Z 2316/2418 30010KT CAVOK TN05/2321Z TX14/2405Z \n BECMG 2319/2320 23010KT 9999 SCT030 \n BECMG 2400/2401 25015G27KT CAVOK \n BECMG 2409/2410 21012KT \n BECMG 2415/2416 23015G30KT 9999 FEW030 SCT120"
"taf	RKSI	2020-04-23 16:36:00	TAF \n AMD TAF \n AMD RKSI 231535Z 2316/2418 30010KT CAVOK TN05/2321Z TX14/2405Z \n BECMG 2319/2320 23010KT 9999 SCT030 \n BECMG 2400/2401 25015G27KT CAVOK \n BECMG 2409/2410 21012KT \n BECMG 2415/2416 23015G30KT 9999 FEW030 SCT120"
"taf	RKSI	2020-04-23 18:00:00	TAF RKSI 231700Z 2318/2424 30010KT CAVOK TN05/2321Z TX14/2405Z TN07/2421Z \n BECMG 2320/2321 23010KT 9999 SCT030 \n BECMG 2400/2401 25015G25KT CAVOK \n BECMG 2409/2410 21012KT \n BECMG 2412/2413 22020G35KT 9999 FEW030 SCT120"
"taf	RKSI	2020-04-23 18:09:00	TAF RKSI 231700Z 2318/2424 30010KT CAVOK TN05/2321Z TX14/2405Z TN07/2421Z \n BECMG 2320/2321 23010KT 9999 SCT030 \n BECMG 2400/2401 25015G25KT CAVOK \n BECMG 2409/2410 21012KT \n BECMG 2412/2413 22020G35KT 9999 FEW030 SCT120"
"taf	RKSI	2020-04-24 00:00:00	TAF RKSI 242300Z 2500/2606 23015G25KT 9999 FEW030 SCT120 TX16/2506Z TN07/2521Z TX17/2604Z \n TEMPO 2500/2501 21020G35KT \n BECMG 2505/2506 29015G30KT \n BECMG 2515/2516 32012KT \n BECMG 2523/2524 32015G25KT"
"taf	RKSI	2020-04-24 00:06:00	TAF RKSI 242300Z 2500/2606 23015G25KT 9999 FEW030 SCT120 TX16/2506Z TN07/2521Z TX17/2604Z \n TEMPO 2500/2501 21020G35KT \n BECMG 2505/2506 29015G30KT \n BECMG 2515/2516 32012KT \n BECMG 2523/2524 32015G25KT"
"taf	RKSI	2020-04-24 06:00:00	TAF RKSI 240500Z 2406/2512 23021G36KT 9999 FEW035 TN09/2421Z TX16/2506Z \n BECMG 2410/2411 22015G25KT \n BECMG 2412/2413 23020G35KT \n TEMPO 2416/2419 23024G45KT \n BECMG 2502/2503 25015G25KT \n BECMG 2504/2505 31015G28KT"
"taf	RKSI	2020-04-24 06:06:00	TAF RKSI 240500Z 2406/2512 23021G36KT 9999 FEW035 TN09/2421Z TX16/2506Z \n BECMG 2410/2411 22015G25KT \n BECMG 2412/2413 23020G35KT \n TEMPO 2416/2419 23024G45KT \n BECMG 2502/2503 25015G25KT \n BECMG 2504/2505 31015G28KT"
"taf	RKSI	2020-04-24 12:00:00	TAF RKSI 241100Z 2412/2518 23016G26KT 9999 FEW035 BKN150 TN09/2421Z TX16/2506Z \n BECMG 2413/2414 23022G40KT \n BECMG 2421/2422 23016G30KT \n BECMG 2502/2503 29015G25KT \n BECMG 2515/2516 33012KT"
"taf	RKSI	2020-04-24 12:09:00	TAF RKSI 241100Z 2412/2518 23016G26KT 9999 FEW035 BKN150 TN09/2421Z TX16/2506Z \n BECMG 2413/2414 23022G40KT \n BECMG 2421/2422 23016G30KT \n BECMG 2502/2503 29015G25KT \n BECMG 2515/2516 33012KT"
"taf	RKSI	2020-04-24 18:00:00	TAF RKSI 241700Z 2418/2524 22022G35KT 9999 FEW030 SCT120 TN09/2420Z TX16/2505Z TN07/2520Z \n BECMG 2421/2422 23015G25KT \n BECMG 2502/2503 29015G30KT \n BECMG 2515/2516 32012KT"
"taf	RKSI	2020-04-24 18:09:00	TAF RKSI 241700Z 2418/2524 22022G35KT 9999 FEW030 SCT120 TN09/2420Z TX16/2505Z TN07/2520Z \n BECMG 2421/2422 23015G25KT \n BECMG 2502/2503 29015G30KT \n BECMG 2515/2516 32012KT"
"taf	RKSI	2020-04-25 00:00:00	TAF RKSI 252300Z 2600/2706 32015G25KT CAVOK TX16/2605Z TN07/2621Z TX16/2706Z \n TEMPO 2606/2611 26015G25KT \n BECMG 2611/2612 32008KT 9999 FEW030 \n TEMPO 2612/2617 26010KT \n BECMG 2702/2703 27015G25KT"
"taf	RKSI	2020-04-25 00:06:00	TAF RKSI 252300Z 2600/2706 32015G25KT CAVOK TX16/2605Z TN07/2621Z TX16/2706Z \n TEMPO 2606/2611 26015G25KT \n BECMG 2611/2612 32008KT 9999 FEW030 \n TEMPO 2612/2617 26010KT \n BECMG 2702/2703 27015G25KT"
"taf	RKSI	2020-04-25 01:23:00	TAF \n AMD RKSI 250123Z 2501/2606 22016G26KT 9999 FEW030 SCT120 TX16/2506Z TN07/2521Z TX17/2604Z \n TEMPO 2502/2506 24020G36KT \n TEMPO 2507/2511 29018G35KT \n BECMG 2512/2513 32012KT \n BECMG 2523/2524 32015G25KT"
"taf	RKSI	2020-04-25 01:27:00	TAF \n AMD TAF \n AMD RKSI 250123Z 2501/2606 22016G26KT 9999 FEW030 SCT120 TX16/2506Z TN07/2521Z TX17/2604Z \n TEMPO 2502/2506 24020G36KT \n TEMPO 2507/2511 29018G35KT \n BECMG 2512/2513 32012KT \n BECMG 2523/2524 32015G25KT"
"taf	RKSI	2020-04-25 04:39:00	TAF \n AMD TAF \n AMD RKSI 250340Z 2504/2606 23015G25KT 9999 FEW030 SCT120 TX16/2506Z TN07/2521Z TX17/2604Z \n TEMPO 2507/2511 29015G25KT \n BECMG 2512/2513 32012KT \n BECMG 2523/2524 32015G25KT"
"taf	RKSI	2020-04-25 04:40:00	TAF \n AMD RKSI 250340Z 2504/2606 23015G25KT 9999 FEW030 SCT120 TX16/2506Z TN07/2521Z TX17/2604Z \n TEMPO 2507/2511 29015G25KT \n BECMG 2512/2513 32012KT \n BECMG 2523/2524 32015G25KT"
"taf	RKSI	2020-04-25 06:00:00	TAF RKSI 250500Z 2506/2612 27012KT 7000 FEW020 BKN180 TN07/2521Z TX16/2606Z \n TEMPO 2507/2509 29015G25KT \n TEMPO 2510/2513 31015G25KT \n BECMG 2514/2515 33010KT \n BECMG 2601/2602 27010KT \n BECMG 2604/2605 28015G25KT"
"taf	RKSI	2020-04-25 06:06:00	TAF RKSI 250500Z 2506/2612 27012KT 7000 FEW020 BKN180 TN07/2521Z TX16/2606Z \n TEMPO 2507/2509 29015G25KT \n TEMPO 2510/2513 31015G25KT \n BECMG 2514/2515 33010KT \n BECMG 2601/2602 27010KT \n BECMG 2604/2605 28015G25KT"
"taf	RKSI	2020-04-25 12:00:00	TAF RKSI 251100Z 2512/2618 31010KT 7000 FEW030 TN07/2521Z TX16/2606Z \n TEMPO 2523/2601 32015G25KT \n TEMPO 2603/2605 25010KT \n BECMG 2606/2607 30015G25KT \n BECMG 2611/2612 32010KT"
"taf	RKSI	2020-04-25 12:06:00	TAF RKSI 251100Z 2512/2618 31010KT 7000 FEW030 TN07/2521Z TX16/2606Z \n TEMPO 2523/2601 32015G25KT \n TEMPO 2603/2605 25010KT \n BECMG 2606/2607 30015G25KT \n BECMG 2611/2612 32010KT"
"taf	RKSI	2020-04-25 18:00:00	TAF RKSI 251700Z 2518/2624 32010KT CAVOK TN07/2521Z TX16/2605Z TN07/2621Z \n BECMG 2600/2601 32015G25KT 9999 SCT030 \n TEMPO 2605/2612 26015G25KT \n BECMG 2612/2613 32008KT"
"taf	RKSI	2020-04-25 18:06:00	TAF RKSI 251700Z 2518/2624 32010KT CAVOK TN07/2521Z TX16/2605Z TN07/2621Z \n BECMG 2600/2601 32015G25KT 9999 SCT030 \n TEMPO 2605/2612 26015G25KT \n BECMG 2612/2613 32008KT"
"taf	RKSI	2020-04-26 00:00:00	TAF RKSI 262300Z 2700/2806 26010KT CAVOK TX16/2706Z TN07/2721Z TX16/2806Z \n TEMPO 2706/2711 29015G25KT \n BECMG 2712/2713 31015G25KT \n BECMG 2715/2716 32010KT \n TEMPO 2718/2722 26007KT \n BECMG 2723/2724 22010KT"
"taf	RKSI	2020-04-26 00:09:00	TAF RKSI 262300Z 2700/2806 26010KT CAVOK TX16/2706Z TN07/2721Z TX16/2806Z \n TEMPO 2706/2711 29015G25KT \n BECMG 2712/2713 31015G25KT \n BECMG 2715/2716 32010KT \n TEMPO 2718/2722 26007KT \n BECMG 2723/2724 22010KT"
"taf	RKSI	2020-04-26 06:00:00	TAF RKSI 260500Z 2606/2712 26015G25KT CAVOK TN07/2621Z TX16/2706Z \n BECMG 2611/2612 32008KT 9999 FEW030 \n BECMG 2618/2619 26010KT \n BECMG 2703/2704 27015G25KT \n BECMG 2711/2712 33012KT"
"taf	RKSI	2020-04-26 06:09:00	TAF RKSI 260500Z 2606/2712 26015G25KT CAVOK TN07/2621Z TX16/2706Z \n BECMG 2611/2612 32008KT 9999 FEW030 \n BECMG 2618/2619 26010KT \n BECMG 2703/2704 27015G25KT \n BECMG 2711/2712 33012KT"
"taf	RKSI	2020-04-26 12:00:00	TAF RKSI 261100Z 2612/2718 27010KT 9999 FEW030 TN07/2621Z TX16/2706Z \n BECMG 2620/2621 33008KT \n BECMG 2703/2704 27015G25KT \n BECMG 2711/2712 33012KT"
"taf	RKSI	2020-04-26 12:06:00	TAF RKSI 261100Z 2612/2718 27010KT 9999 FEW030 TN07/2621Z TX16/2706Z \n BECMG 2620/2621 33008KT \n BECMG 2703/2704 27015G25KT \n BECMG 2711/2712 33012KT"
"taf	RKSI	2020-04-26 18:00:00	TAF RKSI 261700Z 2618/2724 28007KT 9999 FEW035 TN08/2621Z TX15/2706Z TN09/2721Z \n TEMPO 2622/2701 34010KT \n BECMG 2702/2703 28015G25KT \n BECMG 2710/2711 29010KT \n TEMPO 2712/2717 31015G25KT \n BECMG 2722/2723 23010KT"
"taf	RKSI	2020-04-26 18:06:00	TAF RKSI 261700Z 2618/2724 28007KT 9999 FEW035 TN08/2621Z TX15/2706Z TN09/2721Z \n TEMPO 2622/2701 34010KT \n BECMG 2702/2703 28015G25KT \n BECMG 2710/2711 29010KT \n TEMPO 2712/2717 31015G25KT \n BECMG 2722/2723 23010KT"
"taf	RKSI	2020-04-27 00:00:00	TAF RKSI 272300Z 2800/2906 20008KT CAVOK TX17/2806Z TN09/2821Z TX18/2906Z \n BECMG 2804/2805 21015G25KT \n BECMG 2813/2814 19010KT 6000 NSC \n BECMG 2902/2903 21015G25KT"
"taf	RKSI	2020-04-27 00:06:00	TAF RKSI 272300Z 2800/2906 20008KT CAVOK TX17/2806Z TN09/2821Z TX18/2906Z \n BECMG 2804/2805 21015G25KT \n BECMG 2813/2814 19010KT 6000 NSC \n BECMG 2902/2903 21015G25KT"
"taf	RKSI	2020-04-27 06:00:00	TAF RKSI 270500Z 2706/2812 26015G25KT CAVOK TN07/2721Z TX16/2806Z \n BECMG 2710/2711 32015G25KT \n BECMG 2712/2713 32010KT \n TEMPO 2720/2722 26007KT \n BECMG 2723/2724 22010KT \n BECMG 2803/2804 22015G25KT"
"taf	RKSI	2020-04-27 06:09:00	TAF RKSI 270500Z 2706/2812 26015G25KT CAVOK TN07/2721Z TX16/2806Z \n BECMG 2710/2711 32015G25KT \n BECMG 2712/2713 32010KT \n TEMPO 2720/2722 26007KT \n BECMG 2723/2724 22010KT \n BECMG 2803/2804 22015G25KT"
"taf	RKSI	2020-04-27 12:00:00	TAF RKSI 271100Z 2712/2818 32015G25KT CAVOK TN07/2721Z TX16/2806Z \n BECMG 2713/2714 32010KT \n TEMPO 2720/2721 26007KT \n BECMG 2722/2723 22010KT \n BECMG 2803/2804 22015G25KT \n BECMG 2813/2814 18010KT 4200 BR NSC"
"taf	RKSI	2020-04-27 12:06:00	TAF RKSI 271100Z 2712/2818 32015G25KT CAVOK TN07/2721Z TX16/2806Z \n BECMG 2713/2714 32010KT \n TEMPO 2720/2721 26007KT \n BECMG 2722/2723 22010KT \n BECMG 2803/2804 22015G25KT \n BECMG 2813/2814 18010KT 4200 BR NSC"
"taf	RKSI	2020-04-27 18:00:00	TAF RKSI 271700Z 2718/2824 29007KT CAVOK TN07/2721Z TX17/2806Z TN09/2821Z \n TEMPO 2720/2723 23007KT \n BECMG 2800/2801 21008KT \n BECMG 2804/2805 22015G25KT \n BECMG 2813/2814 19010KT \n BECMG 2817/2818 20015G25KT"
"taf	RKSI	2020-04-27 18:09:00	TAF RKSI 271700Z 2718/2824 29007KT CAVOK TN07/2721Z TX17/2806Z TN09/2821Z \n TEMPO 2720/2723 23007KT \n BECMG 2800/2801 21008KT \n BECMG 2804/2805 22015G25KT \n BECMG 2813/2814 19010KT \n BECMG 2817/2818 20015G25KT"
"taf	RKSI	2020-04-28 00:00:00	TAF RKSI 282300Z 2900/3006 15010KT 6000 NSC TX18/2906Z TN09/2921Z TX19/3006Z \n BECMG 2902/2903 21012KT CAVOK \n BECMG 2917/2918 15010KT 6000 NSC \n TEMPO 2919/2921 4200 BR \n BECMG 3002/3003 21013KT SCT030"
"taf	RKSI	2020-04-28 00:09:00	TAF RKSI 282300Z 2900/3006 15010KT 6000 NSC TX18/2906Z TN09/2921Z TX19/3006Z \n BECMG 2902/2903 21012KT CAVOK \n BECMG 2917/2918 15010KT 6000 NSC \n TEMPO 2919/2921 4200 BR \n BECMG 3002/3003 21013KT SCT030"
"taf	RKSI	2020-04-28 06:00:00	TAF RKSI 280500Z 2806/2912 23015G25KT CAVOK TN09/2821Z TX18/2906Z \n BECMG 2813/2814 20010KT 6000 NSC"
"taf	RKSI	2020-04-28 06:06:00	TAF RKSI 280500Z 2806/2912 23015G25KT CAVOK TN09/2821Z TX18/2906Z \n BECMG 2813/2814 20010KT 6000 NSC"
"taf	RKSI	2020-04-28 12:00:00	TAF RKSI 281100Z 2812/2918 20010KT CAVOK TN09/2821Z TX18/2906Z \n BECMG 2813/2814 4200 BR NSC \n BECMG 2821/2822 6000 NSW"
"taf	RKSI	2020-04-28 12:09:00	TAF RKSI 281100Z 2812/2918 20010KT CAVOK TN09/2821Z TX18/2906Z \n BECMG 2813/2814 4200 BR NSC \n BECMG 2821/2822 6000 NSW"
"taf	RKSI	2020-04-28 18:00:00	TAF RKSI 281700Z 2818/2924 18010KT 4200 BR NSC TN09/2821Z TX18/2906Z TN09/2921Z \n BECMG 2821/2822 6000 NSW"
"taf	RKSI	2020-04-28 18:09:00	TAF RKSI 281700Z 2818/2924 18010KT 4200 BR NSC TN09/2821Z TX18/2906Z TN09/2921Z \n BECMG 2821/2822 6000 NSW"
"taf	RKSI	2020-04-29 00:00:00	TAF RKSI 292300Z 3000/0106 15010KT 6000 SCT025 TX19/3006Z TN12/3021Z TX21/0106Z \n BECMG 3002/3003 21015G25KT \n BECMG 3009/3010 4200 BR BKN025 \n BECMG 3011/3012 18010KT 0800 FG BKN001 \n BECMG 3023/3024 15008KT 1600 BR BKN005 \n BECMG 0101/0102 19012KT 3500 SCT025"
"taf	RKSI	2020-04-29 00:09:00	TAF RKSI 292300Z 3000/0106 15010KT 6000 SCT025 TX19/3006Z TN12/3021Z TX21/0106Z \n BECMG 3002/3003 21015G25KT \n BECMG 3009/3010 4200 BR BKN025 \n BECMG 3011/3012 18010KT 0800 FG BKN001 \n BECMG 3023/3024 15008KT 1600 BR BKN005 \n BECMG 0101/0102 19012KT 3500 SCT025"
"taf	RKSI	2020-04-29 06:00:00	TAF RKSI 290500Z 2906/3012 21010KT CAVOK TN09/2921Z TX19/3006Z \n BECMG 2917/2918 15010KT 6000 NSC \n TEMPO 2919/2921 4200 BR \n BECMG 3002/3003 21012KT SCT030 \n BECMG 3009/3010 4200 BR"
"taf	RKSI	2020-04-29 06:06:00	TAF RKSI 290500Z 2906/3012 21010KT CAVOK TN09/2921Z TX19/3006Z \n BECMG 2917/2918 15010KT 6000 NSC \n TEMPO 2919/2921 4200 BR \n BECMG 3002/3003 21012KT SCT030 \n BECMG 3009/3010 4200 BR"
"taf	RKSI	2020-04-29 12:00:00	TAF RKSI 291100Z 2912/3018 23005KT CAVOK TN09/2921Z TX19/3006Z \n BECMG 2917/2918 15010KT 6000 NSC \n TEMPO 2919/2921 4200 BR \n BECMG 3002/3003 21012KT SCT030 \n BECMG 3009/3010 4200 BR \n BECMG 3015/3016 15008KT 2000 BKN005"
"taf	RKSI	2020-04-29 12:06:00	TAF RKSI 291100Z 2912/3018 23005KT CAVOK TN09/2921Z TX19/3006Z \n BECMG 2917/2918 15010KT 6000 NSC \n TEMPO 2919/2921 4200 BR \n BECMG 3002/3003 21012KT SCT030 \n BECMG 3009/3010 4200 BR \n BECMG 3015/3016 15008KT 2000 BKN005"
"taf	RKSI	2020-04-29 18:00:00	TAF RKSI 291700Z 2918/3024 15008KT 6000 NSC TN09/2921Z TX19/3006Z TN12/3021Z \n BECMG 3002/3003 21012KT SCT030 \n BECMG 3009/3010 4200 BR \n BECMG 3011/3012 0800 FG BKN001 \n BECMG 3015/3016 15008KT \n BECMG 3022/3023 2500 BR BKN005"
"taf	RKSI	2020-04-29 18:06:00	TAF RKSI 291700Z 2918/3024 15008KT 6000 NSC TN09/2921Z TX19/3006Z TN12/3021Z \n BECMG 3002/3003 21012KT SCT030 \n BECMG 3009/3010 4200 BR \n BECMG 3011/3012 0800 FG BKN001 \n BECMG 3015/3016 15008KT \n BECMG 3022/3023 2500 BR BKN005"
"taf	RKSI	2020-04-30 00:00:00	TAF RKSI 302300Z 0100/0206 21010KT 7000 BKN010 TX20/0104Z TN14/0121Z TX19/0205Z \n BECMG 0102/0103 SCT020 \n BECMG 0111/0112 18007KT 2500 BR SCT005 BKN010 \n TEMPO 0113/0118 0800 FG BKN001 \n BECMG 0122/0123 4200 \n BECMG 0202/0203 6000 NSW SCT020"
"taf	RKSI	2020-04-30 00:06:00	TAF RKSI 302300Z 0100/0206 21010KT 7000 BKN010 TX20/0104Z TN14/0121Z TX19/0205Z \n BECMG 0102/0103 SCT020 \n BECMG 0111/0112 18007KT 2500 BR SCT005 BKN010 \n TEMPO 0113/0118 0800 FG BKN001 \n BECMG 0122/0123 4200 \n BECMG 0202/0203 6000 NSW SCT020"
"taf	RKSI	2020-04-30 06:00:00	TAF RKSI 300500Z 3006/0112 21015G25KT 9999 SCT025 TN13/3017Z TX20/0104Z \n BECMG 3010/3011 4200 BR SCT010 BKN020 \n BECMG 3012/3013 17009KT 1600 BKN004 \n BECMG 3014/3015 0800 FG BKN001 \n BECMG 3022/3023 2000 BR SCT005 BKN010 \n BECMG 0101/0102 20012KT 4200 FEW010 SCT020"
"taf	RKSI	2020-04-30 06:06:00	TAF RKSI 300500Z 3006/0112 21015G25KT 9999 SCT025 TN13/3017Z TX20/0104Z \n BECMG 3010/3011 4200 BR SCT010 BKN020 \n BECMG 3012/3013 17009KT 1600 BKN004 \n BECMG 3014/3015 0800 FG BKN001 \n BECMG 3022/3023 2000 BR SCT005 BKN010 \n BECMG 0101/0102 20012KT 4200 FEW010 SCT020"
"taf	RKSI	2020-04-30 12:00:00	TAF RKSI 301100Z 3012/0118 17007KT 2000 BR BKN010 TN13/3017Z TX20/0104Z \n BECMG 3014/3015 0800 FG BKN001 \n BECMG 3022/3023 2000 BR SCT005 BKN010 \n BECMG 0101/0102 21012KT 4200 FEW010 SCT020 \n BECMG 0111/0112 18007KT 2500 SCT005 BKN010 \n BECMG 0114/0115 1000 BKN004"
"taf	RKSI	2020-04-30 12:06:00	TAF RKSI 301100Z 3012/0118 17007KT 2000 BR BKN010 TN13/3017Z TX20/0104Z \n BECMG 3014/3015 0800 FG BKN001 \n BECMG 3022/3023 2000 BR SCT005 BKN010 \n BECMG 0101/0102 21012KT 4200 FEW010 SCT020 \n BECMG 0111/0112 18007KT 2500 SCT005 BKN010 \n BECMG 0114/0115 1000 BKN004"
"taf	RKSI	2020-04-30 12:09:00	TAF \n AMD TAF \n AMD RKSI 301210Z 3012/0118 17007KT 7000 BKN010 TN13/3017Z TX20/0104Z \n BECMG 3014/3015 0800 FG BKN001 \n BECMG 3022/3023 2000 BR SCT005 BKN010 \n BECMG 0101/0102 21012KT 4200 FEW010 SCT020 \n BECMG 0111/0112 18007KT 2500 SCT005 BKN010 \n BECMG 0114/0115 1000 BKN004"
"taf	RKSI	2020-04-30 12:10:00	TAF \n AMD RKSI 301210Z 3012/0118 17007KT 7000 BKN010 TN13/3017Z TX20/0104Z \n BECMG 3014/3015 0800 FG BKN001 \n BECMG 3022/3023 2000 BR SCT005 BKN010 \n BECMG 0101/0102 21012KT 4200 FEW010 SCT020 \n BECMG 0111/0112 18007KT 2500 SCT005 BKN010 \n BECMG 0114/0115 1000 BKN004"
"taf	RKSI	2020-04-30 15:50:00	TAF \n AMD RKSI 301450Z 3015/0118 19010KT 7000 BKN010 TN13/3017Z TX20/0104Z \n BECMG 3017/3018 0800 FG BKN001 \n BECMG 3022/3023 2000 BR SCT005 BKN010 \n BECMG 0101/0102 21012KT 4200 FEW010 SCT020 \n BECMG 0111/0112 18007KT 2500 SCT005 BKN010 \n BECMG 0114/0115 1000 BKN004"
"taf	RKSI	2020-04-30 15:51:00	TAF \n AMD TAF \n AMD RKSI 301450Z 3015/0118 19010KT 7000 BKN010 TN13/3017Z TX20/0104Z \n BECMG 3017/3018 0800 FG BKN001 \n BECMG 3022/3023 2000 BR SCT005 BKN010 \n BECMG 0101/0102 21012KT 4200 FEW010 SCT020 \n BECMG 0111/0112 18007KT 2500 SCT005 BKN010 \n BECMG 0114/0115 1000 BKN004"
"taf	RKSI	2020-04-30 18:00:00	TAF RKSI 301700Z 3018/0124 19010KT 7000 BKN010 TN14/3020Z TX20/0104Z TN14/0121Z \n TEMPO 3018/3021 0800 FG BKN001 \n BECMG 3022/3023 4200 BR FEW010 SCT020 \n BECMG 0101/0102 6000 NSW \n BECMG 0111/0112 2500 BR SCT005 BKN010 \n TEMPO 0115/0119 0800 FG BKN001"
"taf	RKSI	2020-04-30 18:06:00	TAF RKSI 301700Z 3018/0124 19010KT 7000 BKN010 TN14/3020Z TX20/0104Z TN14/0121Z \n TEMPO 3018/3021 0800 FG BKN001 \n BECMG 3022/3023 4200 BR FEW010 SCT020 \n BECMG 0101/0102 6000 NSW \n BECMG 0111/0112 2500 BR SCT005 BKN010 \n TEMPO 0115/0119 0800 FG BKN001"
"taf	RKSI	2020-04-30 21:00:00	TAF \n AMD TAF \n AMD RKSI 302100Z 3021/0124 19010KT 6000 BKN010 TN14/3020Z TX20/0104Z TN14/0121Z \n BECMG 0111/0112 2500 BR \n TEMPO 0115/0119 0800 FG BKN001"
"taf	RKSI	2020-05-01 00:00:00	TAF RKSI 012300Z 0200/0306 20005KT 0600 FG BKN005 TX19/0208Z TN16/0219Z TX20/0306Z \n BECMG 0201/0202 2000 BR SCT020 BKN120 \n BECMG 0203/0204 6000 NSW \n BECMG 0209/0210 07005KT \n BECMG 0218/0219 BKN025 OVC100 \n TEMPO 0222/0301 13010KT 4200 -RA"
"taf	RKSI	2020-05-01 00:06:00	TAF RKSI 012300Z 0200/0306 20005KT 0600 FG BKN005 TX19/0208Z TN16/0219Z TX20/0306Z \n BECMG 0201/0202 2000 BR SCT020 BKN120 \n BECMG 0203/0204 6000 NSW \n BECMG 0209/0210 07005KT \n BECMG 0218/0219 BKN025 OVC100 \n TEMPO 0222/0301 13010KT 4200 -RA"
"taf	RKSI	2020-05-01 06:00:00	TAF RKSI 010500Z 0106/0212 21012KT 7000 BKN016 TN14/0119Z TX19/0209Z \n BECMG 0110/0111 18007KT 2500 BR SCT005 BKN010 \n TEMPO 0113/0119 0800 FG BKN001 \n BECMG 0123/0124 4200 \n BECMG 0203/0204 21005KT 6000 NSW FEW010 SCT020 BKN120 \n BECMG 0209/0210 03005KT"
"taf	RKSI	2020-05-01 06:06:00	TAF RKSI 010500Z 0106/0212 21012KT 7000 BKN016 TN14/0119Z TX19/0209Z \n BECMG 0110/0111 18007KT 2500 BR SCT005 BKN010 \n TEMPO 0113/0119 0800 FG BKN001 \n BECMG 0123/0124 4200 \n BECMG 0203/0204 21005KT 6000 NSW FEW010 SCT020 BKN120 \n BECMG 0209/0210 03005KT"
"taf	RKSI	2020-05-01 10:45:00	TAF \n AMD RKSI 010945Z 0110/0212 22008KT 6000 BKN005 TN14/0119Z TX19/0209Z \n BECMG 0110/0111 18007KT 2500 BR \n TEMPO 0113/0119 0800 FG BKN001 \n BECMG 0123/0124 4200 SCT005 BKN010 \n BECMG 0203/0204 21005KT 6000 NSW FEW010 SCT020 BKN120 \n BECMG 0209/0210 03005KT"
"taf	RKSI	2020-05-01 10:48:00	TAF \n AMD TAF \n AMD RKSI 010945Z 0110/0212 22008KT 6000 BKN005 TN14/0119Z TX19/0209Z \n BECMG 0110/0111 18007KT 2500 BR \n TEMPO 0113/0119 0800 FG BKN001 \n BECMG 0123/0124 4200 SCT005 BKN010 \n BECMG 0203/0204 21005KT 6000 NSW FEW010 SCT020 BKN120 \n BECMG 0209/0210 03005KT"
"taf	RKSI	2020-05-01 12:00:00	TAF RKSI 011100Z 0112/0218 18006KT 1800 BR BKN001 TN14/0119Z TX19/0208Z \n BECMG 0113/0114 0800 FG \n BECMG 0119/0120 1500 BR \n BECMG 0123/0124 3500 SCT005 BKN010 \n BECMG 0203/0204 21005KT 6000 NSW FEW010 SCT020 BKN120 \n BECMG 0209/0210 06005KT"
"taf	RKSI	2020-05-01 12:09:00	TAF RKSI 011100Z 0112/0218 18006KT 1800 BR BKN001 TN14/0119Z TX19/0208Z \n BECMG 0113/0114 0800 FG \n BECMG 0119/0120 1500 BR \n BECMG 0123/0124 3500 SCT005 BKN010 \n BECMG 0203/0204 21005KT 6000 NSW FEW010 SCT020 BKN120 \n BECMG 0209/0210 06005KT"
"taf	RKSI	2020-05-01 12:15:00	TAF \n AMD RKSI 011215Z 0112/0218 18006KT 1000 BR BKN001 TN14/0119Z TX19/0208Z \n BECMG 0112/0113 0400 FG \n BECMG 0119/0120 1500 BR \n BECMG 0123/0124 3500 SCT005 BKN010 \n BECMG 0203/0204 21005KT 6000 NSW FEW010 SCT020 BKN120 \n BECMG 0209/0210 06005KT"
"taf	RKSI	2020-05-01 12:18:00	TAF \n AMD TAF \n AMD RKSI 011215Z 0112/0218 18006KT 1000 BR BKN001 TN14/0119Z TX19/0208Z \n BECMG 0112/0113 0400 FG \n BECMG 0119/0120 1500 BR \n BECMG 0123/0124 3500 SCT005 BKN010 \n BECMG 0203/0204 21005KT 6000 NSW FEW010 SCT020 BKN120 \n BECMG 0209/0210 06005KT"
"taf	RKSI	2020-05-01 15:05:00	TAF \n AMD RKSI 011505Z 0115/0218 18006KT 3000 BR BKN005 TN14/0119Z TX19/0208Z \n BECMG 0123/0124 21005KT 6000 NSW FEW010 SCT020 BKN120 \n BECMG 0209/0210 06005KT"
"taf	RKSI	2020-05-01 15:06:00	TAF \n AMD TAF \n AMD RKSI 011505Z 0115/0218 18006KT 3000 BR BKN005 TN14/0119Z TX19/0208Z \n BECMG 0123/0124 21005KT 6000 NSW FEW010 SCT020 BKN120 \n BECMG 0209/0210 06005KT"
"taf	RKSI	2020-05-01 18:00:00	TAF \n AMD TAF \n AMD RKSI 011800Z 0118/0224 21005KT 0600 FG BKN005 TN14/0119Z TX19/0208Z TN16/0219Z \n BECMG 0120/0121 2500 BR \n BECMG 0200/0201 6000 NSW SCT020 BKN120 \n BECMG 0209/0210 07005KT \n BECMG 0218/0219 BKN025 OVC100 \n TEMPO 0221/0224 4200 -RA"
"taf	RKSI	2020-05-01 18:06:00	TAF RKSI 011700Z 0118/0224 21005KT 3000 BR BKN005 TN14/0119Z TX19/0208Z TN16/0219Z \n TEMPO 0118/0121 1200 \n BECMG 0200/0201 6000 NSW SCT020 BKN120 \n BECMG 0209/0210 07005KT \n BECMG 0218/0219 BKN025 OVC100 \n TEMPO 0221/0224 4200 -RA"
"taf	RKSI	2020-05-01 21:10:00	TAF \n AMD RKSI 012110Z 0121/0224 21005KT 0600 FG BKN005 TN14/0119Z TX19/0208Z TN16/0219Z \n BECMG 0123/0124 2500 BR \n BECMG 0202/0203 6000 NSW SCT020 BKN120 \n BECMG 0209/0210 07005KT \n BECMG 0218/0219 BKN025 OVC100 \n TEMPO 0221/0224 4200 -RA"
"taf	RKSI	2020-05-01 21:12:00	TAF \n AMD TAF \n AMD RKSI 012110Z 0121/0224 21005KT 0600 FG BKN005 TN14/0119Z TX19/0208Z TN16/0219Z \n BECMG 0123/0124 2500 BR \n BECMG 0202/0203 6000 NSW SCT020 BKN120 \n BECMG 0209/0210 07005KT \n BECMG 0218/0219 BKN025 OVC100 \n TEMPO 0221/0224 4200 -RA"
"taf	RKSI	2020-05-02 00:00:00	TAF RKSI 022300Z 0300/0406 15008KT 6000 BKN030 OVC100 TX22/0306Z TN13/0320Z TX19/0405Z \n TEMPO 0300/0302 09005KT 4200 -RA \n BECMG 0304/0305 SCT030 BKN120 \n BECMG 0314/0315 34006KT 4200 BR \n BECMG 0400/0401 27010G25KT 6000 NSW"
"taf	RKSI	2020-05-02 00:03:00	TAF COR TAF COR RKSI 012359Z 0200/0306 20005KT 0400 FG BKN005 TX19/0208Z TN16/0219Z TX20/0306Z \n BECMG 0201/0202 2000 BR SCT020 BKN120 \n BECMG 0203/0204 6000 NSW \n BECMG 0209/0210 07005KT \n BECMG 0218/0219 BKN025 OVC100 \n TEMPO 0222/0301 13010KT 4200 -RA"
"taf	RKSI	2020-05-02 00:09:00	TAF RKSI 022300Z 0300/0406 15008KT 6000 BKN030 OVC100 TX22/0306Z TN13/0320Z TX19/0405Z \n TEMPO 0300/0302 09005KT 4200 -RA \n BECMG 0304/0305 SCT030 BKN120 \n BECMG 0314/0315 34006KT 4200 BR \n BECMG 0400/0401 27010G25KT 6000 NSW"
"taf	RKSI	2020-05-02 00:59:00	TAF COR RKSI 012359Z 0200/0306 20005KT 0400 FG BKN005 TX19/0208Z TN16/0219Z TX20/0306Z \n BECMG 0201/0202 2000 BR SCT020 BKN120 \n BECMG 0203/0204 6000 NSW \n BECMG 0209/0210 07005KT \n BECMG 0218/0219 BKN025 OVC100 \n TEMPO 0222/0301 13010KT 4200 -RA"
"taf	RKSI	2020-05-02 01:00:00	TAF \n AMD TAF \n AMD RKSI 020100Z 0201/0306 20005KT 2500 BR FEW005 BKN020 TX19/0208Z TN16/0219Z TX20/0306Z \n TEMPO 0201/0202 1400 BKN003 \n BECMG 0203/0204 6000 NSW SCT035 \n BECMG 0209/0210 07005KT \n BECMG 0218/0219 BKN025 OVC100 \n TEMPO 0222/0301 13010KT 4200 -RA"
"taf	RKSI	2020-05-02 01:52:00	TAF \n AMD RKSI 010052Z 0201/0306 25005KT 2500 BR BKN005 TX19/0208Z TN16/0219Z TX20/0306Z \n TEMPO 0201/0202 27005KT 1400 SCT020 BKN120 \n BECMG 0205/0206 28007KT 6000 NSW \n BECMG 0209/0210 07005KT \n BECMG 0218/0219 BKN025 OVC100 \n TEMPO 0222/0301 13010KT 4200 -RA"
"taf	RKSI	2020-05-02 01:54:00	TAF \n AMD TAF \n AMD RKSI 010052Z 0201/0306 25005KT 2500 BR BKN005 TX19/0208Z TN16/0219Z TX20/0306Z \n TEMPO 0201/0202 27005KT 1400 SCT020 BKN120 \n BECMG 0205/0206 28007KT 6000 NSW \n BECMG 0209/0210 07005KT \n BECMG 0218/0219 BKN025 OVC100 \n TEMPO 0222/0301 13010KT 4200 -RA"
"taf	RKSI	2020-05-02 01:55:00	TAF \n AMD RKSI 010055Z 0201/0306 25005KT 2500 BR FEW005 BKN020 TX19/0208Z TN16/0219Z TX20/0306Z \n TEMPO 0201/0202 27005KT 1400 BKN003 \n BECMG 0205/0206 28007KT 6000 NSW SCT035 \n BECMG 0209/0210 07005KT \n BECMG 0218/0219 BKN025 OVC100 \n TEMPO 0222/0301 13010KT 4200 -RA"
"taf	RKSI	2020-05-02 01:57:00	TAF \n AMD TAF \n AMD RKSI 010055Z 0201/0306 25005KT 2500 BR FEW005 BKN020 TX19/0208Z TN16/0219Z TX20/0306Z \n TEMPO 0201/0202 27005KT 1400 BKN003 \n BECMG 0205/0206 28007KT 6000 NSW SCT035 \n BECMG 0209/0210 07005KT \n BECMG 0218/0219 BKN025 OVC100 \n TEMPO 0222/0301 13010KT 4200 -RA"
"taf	RKSI	2020-05-02 03:37:00	TAF \n AMD RKSI 020237Z 0203/0306 20005KT 6000 SCT010 BKN030 OVC120 TX19/0208Z TN16/0219Z TX20/0306Z \n BECMG 0207/0208 26008KT \n BECMG 0213/0214 07005KT \n BECMG 0218/0219 BKN025 OVC100 \n TEMPO 0222/0301 13010KT 4200 -RA"
"taf	RKSI	2020-05-02 03:38:00	TAF \n AMD RKSI 020238Z 0203/0306 20005KT 6000 SCT010 BKN030 OVC120 TX19/0208Z TN16/0219Z TX20/0306Z \n BECMG 0207/0208 26008KT \n BECMG 0213/0214 07005KT SCT035 BKN150 \n BECMG 0218/0219 BKN025 OVC100 \n TEMPO 0222/0301 13010KT 4200 -RA"
"taf	RKSI	2020-05-02 03:39:00	TAF \n AMD RKSI 020239Z 0203/0306 20005KT 6000 SCT010 BKN030 OVC120 TX19/0208Z TN16/0219Z TX20/0306Z \n BECMG 0207/0208 26008KT \n BECMG 0213/0214 07005KT SCT035 BKN150 \n BECMG 0218/0219 BKN025 OVC100 \n TEMPO 0222/0301 13010KT 4200 -RA"
"taf	RKSI	2020-05-02 03:40:00	TAF \n AMD RKSI 020240Z 0203/0306 20005KT 6000 SCT010 BKN030 OVC120 TX19/0208Z TN16/0219Z TX20/0306Z \n BECMG 0207/0208 26008KT \n BECMG 0213/0214 07005KT SCT035 BKN150 \n BECMG 0218/0219 BKN025 OVC100 \n TEMPO 0222/0301 13010KT 4200 -RA"
"taf	RKSI	2020-05-02 03:42:00	TAF \n AMD RKSI 020239Z 0203/0306 20005KT 6000 SCT010 BKN030 OVC120 TX19/0208Z TN16/0219Z TX20/0306Z \n BECMG 0207/0208 26008KT \n BECMG 0213/0214 07005KT SCT035 BKN150 \n BECMG 0218/0219 BKN025 OVC100 \n TEMPO 0222/0301 13010KT 4200 -RA"
"taf	RKSI	2020-05-02 06:00:00	TAF \n AMD RKSI 020535Z 0206/0312 28008KT 6000 FEW003 BKN017 BKN120 TN13/0221Z TX22/0306Z \n BECMG 0211/0212 21006KT 3500 BR \n TEMPO 0219/0222 07005KT -RA \n BECMG 0223/0224 14008KT 2500 \n TEMPO 0301/0304 11008KT 3500 -RA \n BECMG 0305/0306 35006KT 6000 NSW SCT035"
"taf	RKSI	2020-05-02 06:06:00	TAF RKSI 020500Z 0206/0312 22008KT 6000 FEW003 BKN017 BKN120 TN13/0221Z TX22/0306Z \n BECMG 0211/0212 28006KT 3500 BR \n TEMPO 0219/0222 07005KT -RA \n BECMG 0223/0224 14008KT 2500 \n TEMPO 0301/0304 11008KT 3500 -RA \n BECMG 0305/0306 35006KT 6000 NSW SCT035"
"taf	RKSI	2020-05-02 06:35:00	TAF \n AMD RKSI 020535Z 0206/0312 28008KT 6000 FEW003 BKN017 BKN120 TN13/0221Z TX22/0306Z \n BECMG 0211/0212 21006KT 3500 BR \n TEMPO 0219/0222 07005KT -RA \n BECMG 0223/0224 14008KT 2500 \n TEMPO 0301/0304 11008KT 3500 -RA \n BECMG 0305/0306 35006KT 6000 NSW SCT035"
"taf	RKSI	2020-05-02 06:36:00	TAF \n AMD TAF \n AMD RKSI 020535Z 0206/0312 28008KT 6000 FEW003 BKN017 BKN120 TN13/0221Z TX22/0306Z \n BECMG 0211/0212 21006KT 3500 BR \n TEMPO 0219/0222 07005KT -RA \n BECMG 0223/0224 14008KT 2500 \n TEMPO 0301/0304 11008KT 3500 -RA \n BECMG 0305/0306 35006KT 6000 NSW SCT035"
"taf	RKSI	2020-05-02 12:00:00	TAF RKSI 021100Z 0212/0318 03006KT 3500 BR FEW010 BKN025 BKN150 TN13/0221Z TX22/0306Z \n TEMPO 0213/0215 07006KT 2500 -RA \n TEMPO 0219/0222 12006KT 1400 -RA \n BECMG 0223/0224 14008KT SCT035 BKN120 \n BECMG 0305/0306 23006KT 6000 NSW \n BECMG 0310/0311 34006KT 2500 BR SCT004 BKN020"
"taf	RKSI	2020-05-02 12:06:00	TAF RKSI 021100Z 0212/0318 03006KT 3500 BR FEW010 BKN025 BKN150 TN13/0221Z TX22/0306Z \n TEMPO 0213/0215 07006KT 2500 -RA \n TEMPO 0219/0222 12006KT 1400 -RA \n BECMG 0223/0224 14008KT SCT035 BKN120 \n BECMG 0305/0306 23006KT 6000 NSW \n BECMG 0310/0311 34006KT 2500 BR SCT004 BKN020"
"taf	RKSI	2020-05-02 18:00:00	TAF RKSI 021700Z 0218/0324 11006KT 6000 FEW010 BKN025 OVC100 TN14/0221Z TX21/0306Z TN13/0320Z \n TEMPO 0219/0224 4200 -RA \n BECMG 0300/0301 15008KT 4200 BR \n TEMPO 0301/0303 -RA \n BECMG 0303/0304 6000 NSW SCT030 BKN120 \n BECMG 0314/0315 34006KT 4200 BR"
"taf	RKSI	2020-05-02 18:09:00	TAF RKSI 021700Z 0218/0324 11006KT 6000 FEW010 BKN025 OVC100 TN14/0221Z TX21/0306Z TN13/0320Z \n TEMPO 0219/0224 4200 -RA \n BECMG 0300/0301 15008KT 4200 BR \n TEMPO 0301/0303 -RA \n BECMG 0303/0304 6000 NSW SCT030 BKN120 \n BECMG 0314/0315 34006KT 4200 BR"
"taf	RKSI	2020-05-03 00:00:00	TAF RKSI 032300Z 0400/0506 32007KT 9999 FEW030 TX19/0403Z TN12/0420Z TX17/0503Z \n TEMPO 0405/0409 26012KT \n BECMG 0414/0415 15006KT \n BECMG 0502/0503 22010KT BKN030 OVC100"
"taf	RKSI	2020-05-03 00:09:00	TAF RKSI 032300Z 0400/0506 32007KT 9999 FEW030 TX19/0403Z TN12/0420Z TX17/0503Z \n TEMPO 0405/0409 26012KT \n BECMG 0414/0415 15006KT \n BECMG 0502/0503 22010KT BKN030 OVC100"
"taf	RKSI	2020-05-03 06:00:00	TAF RKSI 030500Z 0306/0412 18010KT 9999 FEW035 BKN170 TN12/0321Z TX19/0406Z \n BECMG 0312/0313 34008KT \n BECMG 0323/0324 28010KT"
"taf	RKSI	2020-05-03 06:06:00	TAF RKSI 030500Z 0306/0412 18010KT 9999 FEW035 BKN170 TN12/0321Z TX19/0406Z \n BECMG 0312/0313 34008KT \n BECMG 0323/0324 28010KT"
"taf	RKSI	2020-05-03 08:25:00	TAF \n AMD RKSI 030825Z 0308/0412 32010KT 9999 FEW035 TN12/0321Z TX19/0406Z"
"taf	RKSI	2020-05-03 08:27:00	TAF \n AMD TAF \n AMD RKSI 030825Z 0308/0412 32010KT 9999 FEW035 TN12/0321Z TX19/0406Z"
"taf	RKSI	2020-05-03 12:00:00	TAF COR RKSI 031100Z 0312/0418 32008KT 6000 FEW010 TN13/0321Z TX19/0406Z \n BECMG 0317/0318 4200 BR \n BECMG 0322/0323 CAVOK \n BECMG 0417/0418 13006KT 4200 BR FEW004 BKN170"
"taf	RKSI	2020-05-03 12:06:00	TAF RKSI 031100Z 0312/0418 32008KT 6000 FEW010 TN13/0321Z TX19/0421Z \n BECMG 0317/0318 4200 BR \n BECMG 0322/0323 CAVOK \n BECMG 0417/0418 13006KT 4200 BR FEW004 BKN170"
"taf	RKSI	2020-05-03 12:21:00	TAF COR TAF COR RKSI 031100Z 0312/0418 32008KT 6000 FEW010 TN13/0321Z TX19/0406Z \n BECMG 0317/0318 4200 BR \n BECMG 0322/0323 CAVOK \n BECMG 0417/0418 13006KT 4200 BR FEW004 BKN170"
"taf	RKSI	2020-05-03 18:00:00	TAF RKSI 031700Z 0318/0424 32006KT 6000 BKN030 TN13/0321Z TX19/0403Z TN12/0420Z \n BECMG 0322/0323 SCT030 BKN120 \n TEMPO 0404/0409 26010KT \n BECMG 0414/0415 15006KT"
"taf	RKSI	2020-05-03 18:06:00	TAF RKSI 031700Z 0318/0424 32006KT 6000 BKN030 TN13/0321Z TX19/0403Z TN12/0420Z \n BECMG 0322/0323 SCT030 BKN120 \n TEMPO 0404/0409 26010KT \n BECMG 0414/0415 15006KT"
"taf	RKSI	2020-05-04 00:00:00	TAF RKSI 042300Z 0500/0606 15006KT 6000 FEW025 BKN120 TX18/0506Z TN10/0521Z TX22/0606Z \n TEMPO 0503/0505 4200 -RA FEW010 BKN025 BKN100 \n BECMG 0506/0507 28007KT \n BECMG 0511/0512 34006KT 2500 BR FEW010 \n TEMPO 0520/0523 22006KT 0800 FG BKN004 \n BECMG 0600/0601 28010KT 6000 NSW"
"taf	RKSI	2020-05-04 00:09:00	TAF RKSI 042300Z 0500/0606 15006KT 6000 FEW025 BKN120 TX18/0506Z TN10/0521Z TX22/0606Z \n TEMPO 0503/0505 4200 -RA FEW010 BKN025 BKN100 \n BECMG 0506/0507 28007KT \n BECMG 0511/0512 34006KT 2500 BR FEW010 \n TEMPO 0520/0523 22006KT 0800 FG BKN004 \n BECMG 0600/0601 28010KT 6000 NSW"
"taf	RKSI	2020-05-04 00:50:00	TAF COR RKSI 042350Z 0500/0606 15006KT 6000 FEW025 BKN120 TX18/0506Z TN10/0521Z TX22/0606Z \n TEMPO 0503/0505 4200 -RA FEW010 BKN025 BKN100 \n BECMG 0506/0507 28007KT \n BECMG 0511/0512 34006KT 2500 BR \n TEMPO 0520/0523 22006KT 0800 FG BKN004 \n BECMG 0600/0601 28010KT 6000 NSW"
"taf	RKSI	2020-05-04 00:51:00	TAF COR TAF COR RKSI 042350Z 0500/0606 15006KT 6000 FEW025 BKN120 TX18/0506Z TN10/0521Z TX22/0606Z \n TEMPO 0503/0505 4200 -RA FEW010 BKN025 BKN100 \n BECMG 0506/0507 28007KT \n BECMG 0511/0512 34006KT 2500 BR \n TEMPO 0520/0523 22006KT 0800 FG BKN004 \n BECMG 0600/0601 28010KT 6000 NSW"
"taf	RKSI	2020-05-04 06:00:00	TAF RKSI 040500Z 0406/0512 26012KT 9999 FEW030 TN12/0420Z TX18/0504Z \n BECMG 0409/0410 32008KT \n BECMG 0414/0415 15006KT 6000 \n BECMG 0501/0502 21010KT 9999 BKN030 BKN100 \n BECMG 0508/0509 SCT030"
"taf	RKSI	2020-05-04 06:06:00	TAF RKSI 040500Z 0406/0512 26012KT 9999 FEW030 TN12/0420Z TX18/0504Z \n BECMG 0409/0410 32008KT \n BECMG 0414/0415 15006KT 6000 \n BECMG 0501/0502 21010KT 9999 BKN030 BKN100 \n BECMG 0508/0509 SCT030"
"taf	RKSI	2020-05-04 12:00:00	TAF RKSI 041100Z 0412/0518 25007KT 9999 FEW030 BKN120 TN12/0420Z TX18/0504Z \n BECMG 0414/0415 15006KT 6000 \n BECMG 0423/0424 BKN030 BKN100 \n BECMG 0501/0502 21010KT \n BECMG 0506/0507 SCT030 \n BECMG 0513/0514 35007KT 4200 BR"
"taf	RKSI	2020-05-04 12:06:00	TAF RKSI 041100Z 0412/0518 25007KT 9999 FEW030 BKN120 TN12/0420Z TX18/0504Z \n BECMG 0414/0415 15006KT 6000 \n BECMG 0423/0424 BKN030 BKN100 \n BECMG 0501/0502 21010KT \n BECMG 0506/0507 SCT030 \n BECMG 0513/0514 35007KT 4200 BR"
"taf	RKSI	2020-05-04 18:00:00	TAF RKSI 041700Z 0418/0524 15006KT CAVOK TN10/0421Z TX17/0506Z TN10/0521Z \n BECMG 0420/0421 06005KT \n BECMG 0500/0501 16010KT \n TEMPO 0502/0505 22006KT 4200 -RA FEW010 BKN025 OVC100 \n BECMG 0506/0507 34007KT 3500 BR BKN014 \n BECMG 0515/0516 18005KT 1400"
"taf	RKSI	2020-05-04 18:06:00	TAF RKSI 041700Z 0418/0524 15006KT CAVOK TN10/0421Z TX17/0506Z TN10/0521Z \n BECMG 0420/0421 06005KT \n BECMG 0500/0501 16010KT \n TEMPO 0502/0505 22006KT 4200 -RA FEW010 BKN025 OVC100 \n BECMG 0506/0507 34007KT 3500 BR BKN014 \n BECMG 0515/0516 18005KT 1400"
"taf	RKSI	2020-05-05 00:00:00	TAF RKSI 052300Z 0600/0706 07005KT CAVOK TX23/0606Z TN12/0621Z TX24/0706Z \n BECMG 0602/0603 29008KT \n BECMG 0611/0612 12008KT"
"taf	RKSI	2020-05-05 00:06:00	TAF RKSI 052300Z 0600/0706 07005KT CAVOK TX23/0606Z TN12/0621Z TX24/0706Z \n BECMG 0602/0603 29008KT \n BECMG 0611/0612 12008KT"
"taf	RKSI	2020-05-05 01:35:00	TAF \n AMD RKSI 050035Z 0501/0606 15006KT 6000 FEW025 BKN120 TX18/0506Z TN10/0521Z TX22/0606Z \n TEMPO 0501/0505 4200 -RA FEW010 BKN025 BKN100 \n BECMG 0506/0507 28007KT \n BECMG 0511/0512 34006KT 2500 BR \n TEMPO 0520/0523 22006KT 0800 FG BKN004 \n BECMG 0600/0601 28010KT 6000 NSW"
"taf	RKSI	2020-05-05 01:36:00	TAF \n AMD TAF \n AMD RKSI 050035Z 0501/0606 15006KT 6000 FEW025 BKN120 TX18/0506Z TN10/0521Z TX22/0606Z \n TEMPO 0501/0505 4200 -RA FEW010 BKN025 BKN100 \n BECMG 0506/0507 28007KT \n BECMG 0511/0512 34006KT 2500 BR \n TEMPO 0520/0523 22006KT 0800 FG BKN004 \n BECMG 0600/0601 28010KT 6000 NSW"
"taf	RKSI	2020-05-05 06:00:00	TAF RKSI 050500Z 0506/0612 25007KT 6000 SCT025 TN10/0521Z TX22/0606Z \n TEMPO 0506/0507 BKN025 BKN100 \n BECMG 0512/0513 05005KT 4200 BR \n TEMPO 0520/0523 0800 FG BKN004 \n BECMG 0600/0601 28010KT 6000 NSW NSC"
"taf	RKSI	2020-05-05 06:06:00	TAF RKSI 050500Z 0506/0612 25007KT 6000 SCT025 TN10/0521Z TX22/0606Z \n TEMPO 0506/0507 BKN025 BKN100 \n BECMG 0512/0513 05005KT 4200 BR \n TEMPO 0520/0523 0800 FG BKN004 \n BECMG 0600/0601 28010KT 6000 NSW NSC"
"taf	RKSI	2020-05-05 12:00:00	TAF RKSI 051100Z 0512/0618 36007KT 6000 NSC TN10/0521Z TX22/0606Z \n BECMG 0513/0514 4200 BR SCT030 \n TEMPO 0520/0523 0800 FG BKN004 \n BECMG 0600/0601 28010KT 6000 NSW NSC \n BECMG 0611/0612 36006KT CAVOK \n BECMG 0613/0614 12010KT"
"taf	RKSI	2020-05-05 12:06:00	TAF RKSI 051100Z 0512/0618 36007KT 6000 NSC TN10/0521Z TX22/0606Z \n BECMG 0513/0514 4200 BR SCT030 \n TEMPO 0520/0523 0800 FG BKN004 \n BECMG 0600/0601 28010KT 6000 NSW NSC \n BECMG 0611/0612 36006KT CAVOK \n BECMG 0613/0614 12010KT"
"taf	RKSI	2020-05-05 18:00:00	TAF RKSI 051700Z 0518/0624 34005KT 4200 BR NSC TN10/0521Z TX21/0606Z TN12/0621Z \n BECMG 0519/0520 2500 \n BECMG 0521/0522 3500 \n BECMG 0523/0524 6000 NSW \n BECMG 0606/0607 28010KT \n BECMG 0614/0615 12008KT"
"taf	RKSI	2020-05-05 18:06:00	TAF RKSI 051700Z 0518/0624 34005KT 4200 BR NSC TN10/0521Z TX21/0606Z TN12/0621Z \n BECMG 0519/0520 2500 \n BECMG 0521/0522 3500 \n BECMG 0523/0524 6000 NSW \n BECMG 0606/0607 28010KT \n BECMG 0614/0615 12008KT"
"taf	RKSI	2020-05-06 00:00:00	TAF RKSI 062300Z 0700/0806 13007KT CAVOK TX24/0706Z TN12/0721Z TX20/0805Z \n BECMG 0706/0707 33005KT \n BECMG 0711/0712 15010KT 9999 SCT030 BKN140 \n BECMG 0803/0804 21007KT \n BECMG 0805/0806 27006KT"
"taf	RKSI	2020-05-06 00:09:00	TAF RKSI 062300Z 0700/0806 13007KT CAVOK TX24/0706Z TN12/0721Z TX20/0805Z \n BECMG 0706/0707 33005KT \n BECMG 0711/0712 15010KT 9999 SCT030 BKN140 \n BECMG 0803/0804 21007KT \n BECMG 0805/0806 27006KT"
"taf	RKSI	2020-05-06 06:00:00	TAF RKSI 060500Z 0606/0712 30008KT CAVOK TN12/0621Z TX24/0706Z \n BECMG 0611/0612 12006KT \n BECMG 0706/0707 30005KT"
"taf	RKSI	2020-05-06 06:09:00	TAF RKSI 060500Z 0606/0712 30008KT CAVOK TN12/0621Z TX24/0706Z \n BECMG 0611/0612 12006KT \n BECMG 0706/0707 30005KT"
"taf	RKSI	2020-05-06 12:00:00	TAF RKSI 061100Z 0612/0718 12006KT CAVOK TN12/0621Z TX24/0706Z \n BECMG 0706/0707 30005KT \n BECMG 0711/0712 12007KT"
"taf	RKSI	2020-05-06 12:06:00	TAF RKSI 061100Z 0612/0718 12006KT CAVOK TN12/0621Z TX24/0706Z \n BECMG 0706/0707 30005KT \n BECMG 0711/0712 12007KT"
"taf	RKSI	2020-05-06 18:00:00	TAF RKSI 061700Z 0618/0724 13006KT CAVOK TN12/0621Z TX24/0706Z TN12/0721Z \n BECMG 0706/0707 30005KT \n BECMG 0711/0712 15010KT 9999 FEW030 BKN140"
"taf	RKSI	2020-05-06 18:09:00	TAF RKSI 061700Z 0618/0724 13006KT CAVOK TN12/0621Z TX24/0706Z TN12/0721Z \n BECMG 0706/0707 30005KT \n BECMG 0711/0712 15010KT 9999 FEW030 BKN140"
"taf	RKSI	2020-05-07 00:00:00	TAF RKSI 072300Z 0800/0906 15012KT 9999 SCT030 BKN140 TX20/0805Z TN14/0821Z TX19/0906Z \n BECMG 0805/0806 31007KT \n BECMG 0811/0812 06008KT 6000 -RA BKN030 OVC080 \n BECMG 0814/0815 09014KT 4200 SCT010 BKN025 OVC080 \n BECMG 0818/0819 13020G30KT 2500 RA \n BECMG 0903/0904 19020G30KT 3500 -RA"
"taf	RKSI	2020-05-07 00:09:00	TAF TAF RKSI 072300Z 0800/0906 15012KT 9999 SCT030 BKN140 TX20/0805Z TN14/0821Z TX19/0906Z \n BECMG 0805/0806 31007KT \n BECMG 0811/0812 06008KT 6000 -RA BKN030 OVC080 \n BECMG 0814/0815 09014KT 4200 SCT010 BKN025 OVC080 \n BECMG 0818/0819 13020G30KT 2500 RA \n BECMG 0903/0904 19020G30KT 3500 -RA"
"taf	RKSI	2020-05-07 06:00:00	TAF RKSI 070500Z 0706/0812 33005KT CAVOK TN12/0721Z TX20/0805Z \n BECMG 0714/0715 15010KT 9999 SCT030 BKN140 \n BECMG 0803/0804 21007KT \n BECMG 0805/0806 29005KT \n BECMG 0810/0811 6000 -RA BKN030 OVC100"
"taf	RKSI	2020-05-07 06:09:00	TAF RKSI 070500Z 0706/0812 33005KT CAVOK TN12/0721Z TX20/0805Z \n BECMG 0714/0715 15010KT 9999 SCT030 BKN140 \n BECMG 0803/0804 21007KT \n BECMG 0805/0806 29005KT \n BECMG 0810/0811 6000 -RA BKN030 OVC100"
"taf	RKSI	2020-05-07 12:00:00	TAF RKSI 071100Z 0712/0818 33007KT CAVOK TN12/0721Z TX20/0805Z \n BECMG 0714/0715 15010KT 9999 SCT030 BKN140 \n BECMG 0803/0804 21007KT \n BECMG 0805/0806 29005KT \n BECMG 0812/0813 07010KT 6000 -RA BKN030 OVC080"
"taf	RKSI	2020-05-07 12:09:00	TAF RKSI 071100Z 0712/0818 33007KT CAVOK TN12/0721Z TX20/0805Z \n BECMG 0714/0715 15010KT 9999 SCT030 BKN140 \n BECMG 0803/0804 21007KT \n BECMG 0805/0806 29005KT \n BECMG 0812/0813 07010KT 6000 -RA BKN030 OVC080"
"taf	RKSI	2020-05-07 18:00:00	TAF RKSI 071700Z 0718/0824 15007KT 9999 SCT030 BKN140 TN12/0721Z TX20/0805Z TN14/0821Z \n BECMG 0805/0806 31005KT \n BECMG 0812/0813 05008KT 6000 -RA BKN030 OVC080 \n BECMG 0814/0815 08014KT 4500 SCT010 BKN025 OVC080 \n BECMG 0821/0822 11020G30KT 2500 RA"
"taf	RKSI	2020-05-07 18:09:00	TAF RKSI 071700Z 0718/0824 15007KT 9999 SCT030 BKN140 TN12/0721Z TX20/0805Z TN14/0821Z \n BECMG 0805/0806 31005KT \n BECMG 0812/0813 05008KT 6000 -RA BKN030 OVC080 \n BECMG 0814/0815 08014KT 4500 SCT010 BKN025 OVC080 \n BECMG 0821/0822 11020G30KT 2500 RA"
"taf	RKSI	2020-05-08 00:00:00	TAF \n AMD RKSI 082340Z 0900/1006 10015G25KT 2000 -RA SCT005 BKN025 OVC080 TX18/0906Z TN12/0921Z TX18/1005Z \n BECMG 0901/0902 18015G25KT 3500 \n BECMG 0907/0908 BR BKN020 \n TEMPO 0912/0917 19010KT 2000 -RA SCT005 BKN020 \n BECMG 0920/0921 32007KT \n BECMG 1002/1003 26010KT 6000 NSW SCT030"
"taf	RKSI	2020-05-08 00:06:00	TAF RKSI 082300Z 0900/1006 10015G25KT 4200 -RA SCT010 BKN025 OVC080 TX18/0906Z TN12/0921Z TX18/1005Z \n BECMG 0901/0902 18015G25KT \n BECMG 0907/0908 BR BKN020 \n TEMPO 0912/0917 19010KT 2000 -RA SCT005 BKN020 \n BECMG 0920/0921 32007KT \n BECMG 1002/1003 26010KT 6000 NSW SCT030"
"taf	RKSI	2020-05-08 00:40:00	TAF \n AMD RKSI 082340Z 0900/1006 10015G25KT 2000 -RA SCT005 BKN025 OVC080 TX18/0906Z TN12/0921Z TX18/1005Z \n BECMG 0901/0902 18015G25KT 3500 \n BECMG 0907/0908 BR BKN020 \n TEMPO 0912/0917 19010KT 2000 -RA SCT005 BKN020 \n BECMG 0920/0921 32007KT \n BECMG 1002/1003 26010KT 6000 NSW SCT030"
"taf	RKSI	2020-05-08 00:42:00	TAF \n AMD TAF \n AMD RKSI 082340Z 0900/1006 10015G25KT 2000 -RA SCT005 BKN025 OVC080 TX18/0906Z TN12/0921Z TX18/1005Z \n BECMG 0901/0902 18015G25KT 3500 \n BECMG 0907/0908 BR BKN020 \n TEMPO 0912/0917 19010KT 2000 -RA SCT005 BKN020 \n BECMG 0920/0921 32007KT \n BECMG 1002/1003 26010KT 6000 NSW SCT030"
"taf	RKSI	2020-05-08 06:00:00	TAF RKSI 080500Z 0806/0912 29008KT CAVOK TN14/0821Z TX19/0906Z \n BECMG 0808/0809 35010KT \n BECMG 0810/0811 07008KT 3500 -RA BKN025 OVC080 \n BECMG 0820/0821 13015G25KT 2500 RA SCT004 BKN020 OVC080 \n TEMPO 0901/0905 17020G35KT 1400 -RA \n BECMG 0906/0907 19018G30KT 1200"
"taf	RKSI	2020-05-08 06:09:00	TAF RKSI 080500Z 0806/0912 29008KT CAVOK TN14/0821Z TX19/0906Z \n BECMG 0808/0809 35010KT \n BECMG 0810/0811 07008KT 3500 -RA BKN025 OVC080 \n BECMG 0820/0821 13015G25KT 2500 RA SCT004 BKN020 OVC080 \n TEMPO 0901/0905 17020G35KT 1400 -RA \n BECMG 0906/0907 19018G30KT 1200"
"taf	RKSI	2020-05-08 08:00:00	TAF \n AMD TAF \n AMD RKSI 080800Z 0808/0912 35008KT 6000 -RA BKN025 OVC100 TN14/0821Z TX19/0906Z \n BECMG 0810/0811 07008KT 3500 \n BECMG 0820/0821 13015G25KT 2500 RA SCT004 BKN020 OVC080 \n TEMPO 0901/0905 17020G35KT 1400 -RA \n BECMG 0906/0907 19018G30KT 1200"
"taf	RKSI	2020-05-08 12:00:00	TAF RKSI 081100Z 0812/0918 06008KT 6000 -RA BKN035 OVC100 TN15/0821Z TX18/0906Z \n BECMG 0817/0818 09015G25KT 3500 RA SCT004 BKN025 OVC080 \n BECMG 0820/0821 12020G35KT 2500 -RA \n BECMG 0907/0908 18015G25KT 4200 BR BKN020 \n TEMPO 0911/0916 19012KT 2000 -RA SCT004 BKN025"
"taf	RKSI	2020-05-08 12:06:00	TAF RKSI 081100Z 0812/0918 06008KT 6000 -RA BKN035 OVC100 TN15/0821Z TX18/0906Z \n BECMG 0817/0818 09015G25KT 3500 RA SCT004 BKN025 OVC080 \n BECMG 0820/0821 12020G35KT 2500 -RA \n BECMG 0907/0908 18015G25KT 4200 BR BKN020 \n TEMPO 0911/0916 19012KT 2000 -RA SCT004 BKN025"
"taf	RKSI	2020-05-08 18:00:00	TAF RKSI 081700Z 0818/0924 10015G25KT 3500 -RA SCT010 BKN025 OVC080 TN14/0821Z TX18/0906Z TN12/0921Z \n TEMPO 0820/0824 11020G35KT 2500 RA \n BECMG 0901/0902 18015G25KT 2000 \n BECMG 0907/0908 3500 BR BKN020 \n TEMPO 0912/0917 09010KT 2000 -RA SCT005 BKN020 \n BECMG 0920/0921 32007KT"
"taf	RKSI	2020-05-08 18:06:00	TAF RKSI 081700Z 0818/0924 10015G25KT 3500 -RA SCT010 BKN025 OVC080 TN14/0821Z TX18/0906Z TN12/0921Z \n TEMPO 0820/0824 11020G35KT 2500 RA \n BECMG 0901/0902 18015G25KT 2000 \n BECMG 0907/0908 3500 BR BKN020 \n TEMPO 0912/0917 09010KT 2000 -RA SCT005 BKN020 \n BECMG 0920/0921 32007KT"
"taf	RKSI	2020-05-08 20:20:00	TAF \n AMD RKSI 082020Z 0820/0924 10015G25KT 3500 -RA SCT010 BKN025 OVC080 TN14/0821Z TX18/0906Z TN12/0921Z \n TEMPO 0820/0824 2500 RA \n BECMG 0901/0902 18015G25KT 2000 \n BECMG 0907/0908 3500 BR BKN020 \n TEMPO 0912/0917 09010KT 2000 -RA SCT005 BKN020 \n BECMG 0920/0921 32007KT"
"taf	RKSI	2020-05-08 20:21:00	TAF \n AMD TAF \n AMD RKSI 082020Z 0820/0924 10015G25KT 3500 -RA SCT010 BKN025 OVC080 TN14/0821Z TX18/0906Z TN12/0921Z \n TEMPO 0820/0824 2500 RA \n BECMG 0901/0902 18015G25KT 2000 \n BECMG 0907/0908 3500 BR BKN020 \n TEMPO 0912/0917 09010KT 2000 -RA SCT005 BKN020 \n BECMG 0920/0921 32007KT"
"taf	RKSI	2020-05-09 00:00:00	TAF \n AMD RKSI 092335Z 1000/1106 29005KT 7000 BKN005 BKN025 TX18/1005Z TN11/1021Z TX17/1105Z \n BECMG 1003/1004 25015G25KT SCT030 \n BECMG 1011/1012 28010KT \n BECMG 1101/1102 22006KT"
"taf	RKSI	2020-05-09 00:09:00	TAF RKSI 092300Z 1000/1106 29005KT 4200 BR BKN003 BKN025 TX18/1005Z TN11/1021Z TX17/1105Z \n BECMG 1003/1004 25015G25KT 6000 NSW SCT030 \n BECMG 1011/1012 28010KT \n BECMG 1101/1102 22006KT"
"taf	RKSI	2020-05-09 00:35:00	TAF \n AMD RKSI 092335Z 1000/1106 29005KT 7000 BKN005 BKN025 TX18/1005Z TN11/1021Z TX17/1105Z \n BECMG 1003/1004 25015G25KT SCT030 \n BECMG 1011/1012 28010KT \n BECMG 1101/1102 22006KT"
"taf	RKSI	2020-05-09 00:36:00	TAF \n AMD TAF \n AMD RKSI 092335Z 1000/1106 29005KT 7000 BKN005 BKN025 TX18/1005Z TN11/1021Z TX17/1105Z \n BECMG 1003/1004 25015G25KT SCT030 \n BECMG 1011/1012 28010KT \n BECMG 1101/1102 22006KT"
"taf	RKSI	2020-05-09 06:00:00	TAF RKSI 090500Z 0906/1012 18010KT 3500 BR SCT005 BKN025 OVC070 TN12/0920Z TX18/1006Z \n TEMPO 0906/0607 15015G25KT -RA \n TEMPO 0915/0917 21009KT 2500 -RA \n BECMG 0920/0921 30007KT BKN020 OVC100 \n BECMG 1001/1002 26010KT 6000 NSW SCT030 \n TEMPO 1004/1009 27015G25KT"
"taf	RKSI	2020-05-09 06:06:00	TAF RKSI 090500Z 0906/1012 18010KT 3500 BR SCT005 BKN025 OVC070 TN12/0920Z TX18/1006Z \n TEMPO 0906/0607 15015G25KT -RA \n TEMPO 0915/0917 21009KT 2500 -RA \n BECMG 0920/0921 30007KT BKN020 OVC100 \n BECMG 1001/1002 26010KT 6000 NSW SCT030 \n TEMPO 1004/1009 27015G25KT"
"taf	RKSI	2020-05-09 07:10:00	TAF \n AMD RKSI 090710Z 0907/1012 18010KT 3200 BR SCT005 BKN025 TN12/0920Z TX18/1006Z \n TEMPO 0907/0910 21007KT 1500 BKN003 BKN020 \n TEMPO 0915/0917 21009KT 2500 -RA \n BECMG 0920/0921 30007KT BKN020 OVC100 \n BECMG 1001/1002 26010KT 6000 NSW SCT030 \n TEMPO 1004/1009 27015G25KT"
"taf	RKSI	2020-05-09 07:12:00	TAF \n AMD TAF \n AMD RKSI 090710Z 0907/1012 18010KT 3200 BR SCT005 BKN025 TN12/0920Z TX18/1006Z \n TEMPO 0907/0910 21007KT 1500 BKN003 BKN020 \n TEMPO 0915/0917 21009KT 2500 -RA \n BECMG 0920/0921 30007KT BKN020 OVC100 \n BECMG 1001/1002 26010KT 6000 NSW SCT030 \n TEMPO 1004/1009 27015G25KT"
"taf	RKSI	2020-05-09 10:30:00	TAF \n AMD RKSI 091030Z 0910/1012 18010KT 3200 BR SCT005 BKN025 TN12/0920Z TX18/1006Z \n TEMPO 0910/0912 21007KT 2000 -RA BKN003 BKN020 \n TEMPO 0915/0917 21009KT 2500 -RA \n BECMG 0920/0921 30007KT BKN020 OVC100 \n BECMG 1001/1002 26010KT 6000 NSW SCT030 \n TEMPO 1004/1009 27015G25KT"
"taf	RKSI	2020-05-09 10:36:00	TAF \n AMD TAF \n AMD RKSI 091030Z 0910/1012 18010KT 3200 BR SCT005 BKN025 TN12/0920Z TX18/1006Z \n TEMPO 0910/0912 21007KT 2000 -RA BKN003 BKN020 \n TEMPO 0915/0917 21009KT 2500 -RA \n BECMG 0920/0921 30007KT BKN020 OVC100 \n BECMG 1001/1002 26010KT 6000 NSW SCT030 \n TEMPO 1004/1009 27015G25KT"
"taf	RKSI	2020-05-09 12:00:00	TAF RKSI 091100Z 0912/1018 20008KT 3500 BR SCT005 BKN025 TN12/0920Z TX18/1005Z \n TEMPO 0915/0917 2000 -RA \n BECMG 0920/0921 30007KT BKN020 \n BECMG 1001/1002 25010KT 6000 NSW SCT030 \n TEMPO 1004/1009 27015G25KT"
"taf	RKSI	2020-05-09 12:06:00	TAF RKSI 091100Z 0912/1018 20008KT 3500 BR SCT005 BKN025 TN12/0920Z TX18/1005Z \n TEMPO 0915/0917 2000 -RA \n BECMG 0920/0921 30007KT BKN020 \n BECMG 1001/1002 25010KT 6000 NSW SCT030 \n TEMPO 1004/1009 27015G25KT"
"taf	RKSI	2020-05-09 12:15:00	TAF \n AMD RKSI 091215Z 0912/1018 20008KT 7000 SCT005 BKN025 TN12/0920Z TX18/1005Z \n TEMPO 0915/0917 2000 -RA \n BECMG 0918/0919 3500 BR \n BECMG 0920/0921 30007KT 6000 NSW BKN020 \n BECMG 1001/1002 25010KT SCT030 \n TEMPO 1004/1009 27015G25KT"
"taf	RKSI	2020-05-09 12:18:00	TAF \n AMD TAF \n AMD RKSI 091215Z 0912/1018 20008KT 7000 SCT005 BKN025 TN12/0920Z TX18/1005Z \n TEMPO 0915/0917 2000 -RA \n BECMG 0918/0919 3500 BR \n BECMG 0920/0921 30007KT 6000 NSW BKN020 \n BECMG 1001/1002 25010KT SCT030 \n TEMPO 1004/1009 27015G25KT"
"taf	RKSI	2020-05-09 13:05:00	TAF \n AMD RKSI 091305Z 0913/1018 20008KT 6000 SCT005 BKN025 TN12/0920Z TX18/1005Z \n TEMPO 0913/0917 2500 -RA \n BECMG 0918/0919 3500 BR \n BECMG 0920/0921 30007KT 6000 NSW BKN020 \n BECMG 1001/1002 25010KT SCT030 \n TEMPO 1004/1009 27015G25KT"
"taf	RKSI	2020-05-09 13:06:00	TAF \n AMD TAF \n AMD RKSI 091305Z 0913/1018 20008KT 6000 SCT005 BKN025 TN12/0920Z TX18/1005Z \n TEMPO 0913/0917 2500 -RA \n BECMG 0918/0919 3500 BR \n BECMG 0920/0921 30007KT 6000 NSW BKN020 \n BECMG 1001/1002 25010KT SCT030 \n TEMPO 1004/1009 27015G25KT"
"taf	RKSI	2020-05-09 18:00:00	TAF RKSI 091700Z 0918/1024 21006KT 6000 BKN005 BKN025 TN12/0920Z TX18/1005Z TN11/1021Z \n TEMPO 0918/0920 3500 -DZ \n BECMG 0921/0922 30005KT \n BECMG 1000/1001 24010KT SCT030 \n TEMPO 1003/1007 25015G25KT"
"taf	RKSI	2020-05-09 18:06:00	TAF RKSI 091700Z 0918/1024 21006KT 6000 BKN005 BKN025 TN12/0920Z TX18/1005Z TN11/1021Z \n TEMPO 0918/0920 3500 -DZ \n BECMG 0921/0922 30005KT \n BECMG 1000/1001 24010KT SCT030 \n TEMPO 1003/1007 25015G25KT"
"taf	RKSI	2020-05-09 21:20:00	TAF \n AMD RKSI 092120Z 0921/1024 27006KT 2500 BR BKN005 BKN025 TN12/0920Z TX18/1005Z TN11/1021Z \n TEMPO 0921/0924 1400 \n BECMG 1001/1002 24010KT 3500 SCT030 \n TEMPO 1003/1007 25015G25KT"
"taf	RKSI	2020-05-09 21:21:00	TAF \n AMD TAF \n AMD RKSI 092120Z 0921/1024 27006KT 2500 BR BKN005 BKN025 TN12/0920Z TX18/1005Z TN11/1021Z \n TEMPO 0921/0924 1400 \n BECMG 1001/1002 24010KT 3500 SCT030 \n TEMPO 1003/1007 25015G25KT"
"taf	RKSI	2020-05-10 00:00:00	TAF RKSI 102300Z 1100/1206 25010KT 6000 FEW030 SCT120 TX18/1106Z TN11/1120Z TX19/1205Z \n TEMPO 1114/1117 22008KT 4200 -RA BKN025 OVC100 \n BECMG 1117/1118 19010KT \n BECMG 1123/1124 21015G25KT \n BECMG 1204/1205 27015G25KT"
"taf	RKSI	2020-05-10 00:09:00	TAF RKSI 102300Z 1100/1206 25010KT 6000 FEW030 SCT120 TX18/1106Z TN11/1120Z TX19/1205Z \n TEMPO 1114/1117 22008KT 4200 -RA BKN025 OVC100 \n BECMG 1117/1118 19010KT \n BECMG 1123/1124 21015G25KT \n BECMG 1204/1205 27015G25KT"
"taf	RKSI	2020-05-10 06:00:00	TAF RKSI 100500Z 1006/1112 25010KT 6000 FEW010 SCT025 TN12/1021Z TX19/1106Z \n BECMG 1017/1018 21008KT 4200 BR \n BECMG 1021/1022 25008KT 6000 NSW \n BECMG 1111/1112 22010KT 4200 -RA BKN025 BKN100"
"taf	RKSI	2020-05-10 06:06:00	TAF RKSI 100500Z 1006/1112 25010KT 6000 FEW010 SCT025 TN12/1021Z TX19/1106Z \n BECMG 1017/1018 21008KT 4200 BR \n BECMG 1021/1022 25008KT 6000 NSW \n BECMG 1111/1112 22010KT 4200 -RA BKN025 BKN100"
"taf	RKSI	2020-05-10 06:20:00	TAF \n AMD RKSI 100620Z 1006/1112 25010KT 3500 BR SCT007 TN12/1021Z TX19/1106Z \n BECMG 1017/1018 21008KT 2800 \n BECMG 1021/1022 25008KT 6000 NSW \n BECMG 1111/1112 22010KT 4200 -RA BKN025 BKN100"
"taf	RKSI	2020-05-10 06:21:00	TAF \n AMD TAF \n AMD RKSI 100620Z 1006/1112 25010KT 3500 BR SCT007 TN12/1021Z TX19/1106Z \n BECMG 1017/1018 21008KT 2800 \n BECMG 1021/1022 25008KT 6000 NSW \n BECMG 1111/1112 22010KT 4200 -RA BKN025 BKN100"
"taf	RKSI	2020-05-10 12:00:00	TAF RKSI 101100Z 1012/1118 22008KT 2500 BR FEW004 TN12/1021Z TX18/1106Z \n BECMG 1016/1017 19007KT 1400 \n BECMG 1021/1022 22007KT 2800 \n BECMG 1023/1024 25010KT 6000 NSW \n BECMG 1111/1112 22010KT 4200 -RA BKN025 BKN100 \n BECMG 1117/1118 16010KT 6000 NSW SCT035"
"taf	RKSI	2020-05-10 12:09:00	TAF RKSI 101100Z 1012/1118 22008KT 2500 BR FEW004 TN12/1021Z TX18/1106Z \n BECMG 1016/1017 19007KT 1400 \n BECMG 1021/1022 22007KT 2800 \n BECMG 1023/1024 25010KT 6000 NSW \n BECMG 1111/1112 22010KT 4200 -RA BKN025 BKN100 \n BECMG 1117/1118 16010KT 6000 NSW SCT035"
"taf	RKSI	2020-05-10 16:35:00	TAF \n AMD RKSI 101535Z 1016/1118 22008KT 3000 BR FEW004 TN12/1021Z TX18/1106Z \n BECMG 1023/1024 25010KT 6000 NSW \n BECMG 1111/1112 22010KT 4200 -RA BKN025 BKN100 \n BECMG 1117/1118 16010KT 6000 NSW SCT035"
"taf	RKSI	2020-05-10 16:36:00	TAF \n AMD TAF \n AMD RKSI 101535Z 1016/1118 22008KT 3000 BR FEW004 TN12/1021Z TX18/1106Z \n BECMG 1023/1024 25010KT 6000 NSW \n BECMG 1111/1112 22010KT 4200 -RA BKN025 BKN100 \n BECMG 1117/1118 16010KT 6000 NSW SCT035"
"taf	RKSI	2020-05-10 18:00:00	TAF RKSI 101700Z 1018/1124 22007KT 2800 BR FEW020 TN12/1021Z TX18/1106Z TN11/1120Z \n BECMG 1023/1024 25010KT 6000 NSW \n BECMG 1113/1114 22008KT 4200 -RA BKN025 OVC100 \n BECMG 1117/1118 19010KT 6000 NSW SCT030 \n TEMPO 1122/1124 19015G25KT"
"taf	RKSI	2020-05-10 18:06:00	TAF RKSI 101700Z 1018/1124 22007KT 2800 BR FEW020 TN12/1021Z TX18/1106Z TN11/1120Z \n BECMG 1023/1024 25010KT 6000 NSW \n BECMG 1113/1114 22008KT 4200 -RA BKN025 OVC100 \n BECMG 1117/1118 19010KT 6000 NSW SCT030 \n TEMPO 1122/1124 19015G25KT"
"taf	RKSI	2020-05-11 00:00:00	TAF RKSI 112300Z 1200/1306 18010KT 9999 FEW030 SCT120 TX18/1206Z TN10/1220Z TX19/1305Z \n BECMG 1203/1204 24012KT \n BECMG 1205/1206 29018G30KT CAVOK \n BECMG 1212/1213 27012KT \n TEMPO 1303/1306 26015G25KT"
"taf	RKSI	2020-05-11 00:06:00	TAF RKSI 112300Z 1200/1306 18010KT 9999 FEW030 SCT120 TX18/1206Z TN10/1220Z TX19/1305Z \n BECMG 1203/1204 24012KT \n BECMG 1205/1206 29018G30KT CAVOK \n BECMG 1212/1213 27012KT \n TEMPO 1303/1306 26015G25KT"
"taf	RKSI	2020-05-11 06:00:00	TAF RKSI 110500Z 1106/1212 24010KT 7000 NSC TN11/1121Z TX18/1206Z \n BECMG 1113/1114 32007KT -RA FEW010 BKN025 BKN120 \n BECMG 1115/1116 22008KT 4200 BR FEW004 \n BECMG 1121/1122 19010KT 6000 NSW \n BECMG 1123/1124 27012KT \n BECMG 1203/1204 32020G30KT"
"taf	RKSI	2020-05-11 06:06:00	TAF RKSI 110500Z 1106/1212 24010KT 7000 NSC TN11/1121Z TX18/1206Z \n BECMG 1113/1114 32007KT -RA FEW010 BKN025 BKN120 \n BECMG 1115/1116 22008KT 4200 BR FEW004 \n BECMG 1121/1122 19010KT 6000 NSW \n BECMG 1123/1124 27012KT \n BECMG 1203/1204 32020G30KT"
"taf	RKSI	2020-05-11 08:09:00	TAF \n AMD TAF \n AMD RKSI 110810Z 1108/1212 24010KT 7000 FEW010 OVC150 TN11/1121Z TX18/1206Z \n BECMG 1111/1112 32007KT -RA FEW010 BKN025 BKN120 \n BECMG 1113/1114 22008KT 4200 BR FEW004 \n BECMG 1121/1122 19010KT 6000 NSW \n BECMG 1123/1124 27012KT \n BECMG 1203/1204 32020G30KT"
"taf	RKSI	2020-05-11 08:10:00	TAF \n AMD RKSI 110810Z 1108/1212 24010KT 7000 FEW010 OVC150 TN11/1121Z TX18/1206Z \n BECMG 1111/1112 32007KT -RA FEW010 BKN025 BKN120 \n BECMG 1113/1114 22008KT 4200 BR FEW004 \n BECMG 1121/1122 19010KT 6000 NSW \n BECMG 1123/1124 27012KT \n BECMG 1203/1204 32020G30KT"
"taf	RKSI	2020-05-11 12:00:00	TAF RKSI 111100Z 1112/1218 31015G25KT 6000 -RA FEW010 BKN045 BKN120 TN10/1121Z TX18/1206Z \n BECMG 1114/1115 22008KT 4200 BR FEW004 \n BECMG 1121/1122 19010KT 6000 NSW \n BECMG 1123/1124 27012KT \n BECMG 1203/1204 32018G30KT \n BECMG 1211/1212 29012KT"
"taf	RKSI	2020-05-11 12:06:00	TAF RKSI 111100Z 1112/1218 31015G25KT 6000 -RA FEW010 BKN045 BKN120 TN10/1121Z TX18/1206Z \n BECMG 1114/1115 22008KT 4200 BR FEW004 \n BECMG 1121/1122 19010KT 6000 NSW \n BECMG 1123/1124 27012KT \n BECMG 1203/1204 32018G30KT \n BECMG 1211/1212 29012KT"
"taf	RKSI	2020-05-11 18:00:00	TAF RKSI 111700Z 1118/1224 24008KT 6000 FEW030 SCT120 TN10/1120Z TX18/1206Z TN10/1221Z \n BECMG 1122/1123 18010KT \n BECMG 1203/1204 24012KT CAVOK \n BECMG 1205/1206 29018G30KT \n BECMG 1212/1213 28012KT \n BECMG 1220/1221 22007KT 9999 FEW030"
"taf	RKSI	2020-05-11 18:06:00	TAF RKSI 111700Z 1118/1224 24008KT 6000 FEW030 SCT120 TN10/1120Z TX18/1206Z TN10/1221Z \n BECMG 1122/1123 18010KT \n BECMG 1203/1204 24012KT CAVOK \n BECMG 1205/1206 29018G30KT \n BECMG 1212/1213 28012KT \n BECMG 1220/1221 22007KT 9999 FEW030"
"taf	RKSI	2020-05-12 00:00:00	TAF RKSI 122300Z 1300/1406 24010KT CAVOK TX19/1306Z TN12/1321Z TX22/1406Z \n BECMG 1311/1312 17008KT \n BECMG 1404/1405 25006KT"
"taf	RKSI	2020-05-12 00:09:00	TAF RKSI 122300Z 1300/1406 24010KT CAVOK TX19/1306Z TN12/1321Z TX22/1406Z \n BECMG 1311/1312 17008KT \n BECMG 1404/1405 25006KT"
"taf	RKSI	2020-05-12 06:00:00	TAF RKSI 120500Z 1206/1312 29012KT 9999 FEW030 TN10/1220Z TX19/1305Z \n BECMG 1207/1208 29018G30KT \n BECMG 1212/1213 27012KT CAVOK \n BECMG 1303/1304 25015G25KT \n BECMG 1306/1307 22010KT"
"taf	RKSI	2020-05-12 06:06:00	TAF RKSI 120500Z 1206/1312 29012KT 9999 FEW030 TN10/1220Z TX19/1305Z \n BECMG 1207/1208 29018G30KT \n BECMG 1212/1213 27012KT CAVOK \n BECMG 1303/1304 25015G25KT \n BECMG 1306/1307 22010KT"
"taf	RKSI	2020-05-12 12:00:00	TAF RKSI 121100Z 1212/1318 29015G25KT CAVOK TN10/1220Z TX19/1305Z \n BECMG 1214/1215 29012KT \n BECMG 1220/1221 23008KT \n BECMG 1303/1304 25015G25KT \n BECMG 1306/1307 23010KT \n BECMG 1311/1312 17007KT"
"taf	RKSI	2020-05-12 12:06:00	TAF RKSI 121100Z 1212/1318 29015G25KT CAVOK TN10/1220Z TX19/1305Z \n BECMG 1214/1215 29012KT \n BECMG 1220/1221 23008KT \n BECMG 1303/1304 25015G25KT \n BECMG 1306/1307 23010KT \n BECMG 1311/1312 17007KT"
"taf	RKSI	2020-05-12 18:00:00	TAF RKSI 121700Z 1218/1324 29008KT CAVOK TN11/1221Z TX18/1306Z TN13/1321Z \n BECMG 1220/1221 23010KT \n BECMG 1312/1313 17008KT"
"taf	RKSI	2020-05-12 18:09:00	TAF RKSI 121700Z 1218/1324 29008KT CAVOK TN11/1221Z TX18/1306Z TN13/1321Z \n BECMG 1220/1221 23010KT \n BECMG 1312/1313 17008KT"
"taf	RKSI	2020-05-13 00:00:00	TAF RKSI 132300Z 1400/1506 16010KT CAVOK TX22/1406Z TN15/1421Z TX19/1506Z \n BECMG 1406/1407 22008KT \n BECMG 1408/1409 28006KT \n BECMG 1410/1411 11007KT \n BECMG 1418/1419 14010KT 3500 -RA FEW010 BKN025 OVC080 \n BECMG 1500/1501 13015G25KT"
"taf	RKSI	2020-05-13 00:09:00	TAF RKSI 132300Z 1400/1506 16010KT CAVOK TX22/1406Z TN15/1421Z TX19/1506Z \n BECMG 1406/1407 22008KT \n BECMG 1408/1409 28006KT \n BECMG 1410/1411 11007KT \n BECMG 1418/1419 14010KT 3500 -RA FEW010 BKN025 OVC080 \n BECMG 1500/1501 13015G25KT"
"taf	RKSI	2020-05-13 06:00:00	TAF RKSI 130500Z 1306/1412 23010KT CAVOK TN12/1321Z TX22/1406Z \n TEMPO 1306/1307 25015G25KT \n BECMG 1311/1312 17010KT \n BECMG 1404/1405 24006KT 9999 SCT030 BKN140 \n BECMG 1411/1412 03005KT"
"taf	RKSI	2020-05-13 06:09:00	TAF RKSI 130500Z 1306/1412 23010KT CAVOK TN12/1321Z TX22/1406Z \n TEMPO 1306/1307 25015G25KT \n BECMG 1311/1312 17010KT \n BECMG 1404/1405 24006KT 9999 SCT030 BKN140 \n BECMG 1411/1412 03005KT"
"taf	RKSI	2020-05-13 12:00:00	TAF RKSI 131100Z 1312/1418 17010KT CAVOK TN12/1321Z TX22/1406Z \n BECMG 1404/1405 24006KT 9999 SCT030 BKN140 \n BECMG 1411/1412 03005KT 6000 \n BECMG 1413/1414 SCT030 BKN090"
"taf	RKSI	2020-05-13 12:09:00	TAF RKSI 131100Z 1312/1418 17010KT CAVOK TN12/1321Z TX22/1406Z \n BECMG 1404/1405 24006KT 9999 SCT030 BKN140 \n BECMG 1411/1412 03005KT 6000 \n BECMG 1413/1414 SCT030 BKN090"
"taf	RKSI	2020-05-13 18:00:00	TAF RKSI 131700Z 1318/1424 16010KT CAVOK TN13/1321Z TX22/1406Z TN15/1421Z \n BECMG 1405/1406 22008KT \n BECMG 1408/1409 28006KT \n BECMG 1410/1411 10006KT \n BECMG 1418/1419 15008KT 3500 -RA FEW010 BKN025 OVC080"
"taf	RKSI	2020-05-13 18:06:00	TAF RKSI 131700Z 1318/1424 16010KT CAVOK TN13/1321Z TX22/1406Z TN15/1421Z \n BECMG 1405/1406 22008KT \n BECMG 1408/1409 28006KT \n BECMG 1410/1411 10006KT \n BECMG 1418/1419 15008KT 3500 -RA FEW010 BKN025 OVC080"
"taf	RKSI	2020-05-14 00:00:00	TAF RKSI 142300Z 1500/1606 11010KT 2800 RA FEW010 BKN025 OVC080 TX20/1506Z TN13/1521Z TX19/1606Z \n BECMG 1504/1505 12015G25KT 4200 -RA \n BECMG 1512/1513 15010KT 2800 \n BECMG 1515/1516 22007KT \n BECMG 1518/1519 0800 FG BKN005 BKN025 \n BECMG 1601/1602 4200 BR FEW010 BKN025"
"taf	RKSI	2020-05-14 00:06:00	TAF RKSI 142300Z 1500/1606 11010KT 2800 RA FEW010 BKN025 OVC080 TX20/1506Z TN13/1521Z TX19/1606Z \n BECMG 1504/1505 12015G25KT 4200 -RA \n BECMG 1512/1513 15010KT 2800 \n BECMG 1515/1516 22007KT \n BECMG 1518/1519 0800 FG BKN005 BKN025 \n BECMG 1601/1602 4200 BR FEW010 BKN025"
"taf	RKSI	2020-05-14 06:00:00	TAF RKSI 140500Z 1406/1512 22006KT CAVOK TN15/1421Z TX19/1506Z \n BECMG 1408/1409 28005KT \n BECMG 1412/1413 11005KT \n BECMG 1418/1419 14010KT 4200 -RA FEW010 BKN025 OVC080 \n TEMPO 1500/1503 2500 RA \n BECMG 1504/1505 12015G25KT"
"taf	RKSI	2020-05-14 06:06:00	TAF RKSI 140500Z 1406/1512 22006KT CAVOK TN15/1421Z TX19/1506Z \n BECMG 1408/1409 28005KT \n BECMG 1412/1413 11005KT \n BECMG 1418/1419 14010KT 4200 -RA FEW010 BKN025 OVC080 \n TEMPO 1500/1503 2500 RA \n BECMG 1504/1505 12015G25KT"
"taf	RKSI	2020-05-14 12:00:00	TAF RKSI 141100Z 1412/1518 11005KT 9999 SCT040 BKN150 TN15/1421Z TX19/1506Z \n BECMG 1418/1419 14010KT 4200 -RA FEW010 BKN025 OVC080 \n TEMPO 1500/1503 2500 RA \n BECMG 1504/1505 12015G25KT \n BECMG 1512/1513 15010KT \n TEMPO 1515/1518 2000"
"taf	RKSI	2020-05-14 12:06:00	TAF RKSI 141100Z 1412/1518 11005KT 9999 SCT040 BKN150 TN15/1421Z TX19/1506Z \n BECMG 1418/1419 14010KT 4200 -RA FEW010 BKN025 OVC080 \n TEMPO 1500/1503 2500 RA \n BECMG 1504/1505 12015G25KT \n BECMG 1512/1513 15010KT \n TEMPO 1515/1518 2000"
"taf	RKSI	2020-05-14 16:33:00	TAF \n AMD TAF \n AMD RKSI 141535Z 1416/1518 05005KT 9999 SCT040 BKN150 TN15/1421Z TX19/1506Z \n BECMG 1418/1419 14010KT 4200 -RA FEW010 BKN025 OVC080 \n TEMPO 1500/1503 2500 RA \n BECMG 1504/1505 12015G25KT \n BECMG 1512/1513 15010KT \n TEMPO 1515/1518 2000"
"taf	RKSI	2020-05-14 16:35:00	TAF \n AMD RKSI 141535Z 1416/1518 05005KT 9999 SCT040 BKN150 TN15/1421Z TX19/1506Z \n BECMG 1418/1419 14010KT 4200 -RA FEW010 BKN025 OVC080 \n TEMPO 1500/1503 2500 RA \n BECMG 1504/1505 12015G25KT \n BECMG 1512/1513 15010KT \n TEMPO 1515/1518 2000"
"taf	RKSI	2020-05-14 18:00:00	TAF RKSI 141700Z 1418/1524 11010KT 4200 -RA FEW010 BKN025 OVC080 TN15/1421Z TX20/1506Z TN13/1521Z \n TEMPO 1500/1503 2500 RA \n BECMG 1504/1505 12015G25KT \n BECMG 1512/1513 15010KT \n BECMG 1515/1516 2500 BKN005 BKN025 \n BECMG 1518/1519 20007KT 1300 BR"
"taf	RKSI	2020-05-14 18:06:00	TAF RKSI 141700Z 1418/1524 11010KT 4200 -RA FEW010 BKN025 OVC080 TN15/1421Z TX20/1506Z TN13/1521Z \n TEMPO 1500/1503 2500 RA \n BECMG 1504/1505 12015G25KT \n BECMG 1512/1513 15010KT \n BECMG 1515/1516 2500 BKN005 BKN025 \n BECMG 1518/1519 20007KT 1300 BR"
"taf	RKSI	2020-05-15 00:00:00	TAF RKSI 152300Z 1600/1706 20007KT 6000 BKN005 OVC020 TX17/1606Z TN13/1621Z TX20/1704Z \n BECMG 1603/1604 26006KT FEW010 BKN025 \n BECMG 1611/1612 20006KT 2000 BR BKN010 BKN025 \n TEMPO 1615/1617 1300 \n BECMG 1619/1620 16006KT 4500 SCT030 \n BECMG 1700/1701 6000 NSW"
"taf	RKSI	2020-05-15 00:09:00	TAF RKSI 152300Z 1600/1706 20007KT 6000 BKN005 OVC020 TX17/1606Z TN13/1621Z TX20/1704Z \n BECMG 1603/1604 26006KT FEW010 BKN025 \n BECMG 1611/1612 20006KT 2000 BR BKN010 BKN025 \n TEMPO 1615/1617 1300 \n BECMG 1619/1620 16006KT 4500 SCT030 \n BECMG 1700/1701 6000 NSW"
"taf	RKSI	2020-05-15 00:20:00	TAF \n AMD RKSI 150020Z 1500/1606 11010KT 6000 -RA FEW010 BKN025 OVC080 TX20/1506Z TN13/1521Z TX19/1606Z \n BECMG 1504/1505 12015G25KT 4200 \n BECMG 1512/1513 15010KT 2800 \n BECMG 1515/1516 22007KT \n BECMG 1518/1519 0800 FG BKN005 BKN025 \n BECMG 1601/1602 4200 BR FEW010 BKN025"
"taf	RKSI	2020-05-15 00:24:00	TAF \n AMD TAF \n AMD RKSI 150020Z 1500/1606 11010KT 6000 -RA FEW010 BKN025 OVC080 TX20/1506Z TN13/1521Z TX19/1606Z \n BECMG 1504/1505 12015G25KT 4200 \n BECMG 1512/1513 15010KT 2800 \n BECMG 1515/1516 22007KT \n BECMG 1518/1519 0800 FG BKN005 BKN025 \n BECMG 1601/1602 4200 BR FEW010 BKN025"
"taf	RKSI	2020-05-15 06:00:00	TAF RKSI 150500Z 1506/1612 10010KT 4200 -RA SCT010 BKN020 OVC080 TN13/1521Z TX19/1606Z \n BECMG 1511/1512 18010KT 2800 BKN008 OVC020 \n BECMG 1518/1519 BR \n BECMG 1600/1601 4200 SCT030 \n BECMG 1602/1603 6000 NSW \n BECMG 1606/1607 4200 BR FEW010 BKN025"
"taf	RKSI	2020-05-15 06:09:00	TAF TAF RKSI 150500Z 1506/1612 10010KT 4200 -RA SCT010 BKN020 OVC080 TN13/1521Z TX19/1606Z \n BECMG 1511/1512 18010KT 2800 BKN008 OVC020 \n BECMG 1518/1519 BR \n BECMG 1600/1601 4200 SCT030 \n BECMG 1602/1603 6000 NSW \n BECMG 1606/1607 4200 BR FEW010 BKN025"
"taf	RKSI	2020-05-15 10:35:00	TAF \n AMD RKSI 150935Z 1510/1612 10010KT 2800 -RA SCT004 BKN020 OVC080 TN13/1521Z TX19/1606Z \n BECMG 1511/1512 18010KT BKN008 OVC020 \n BECMG 1518/1519 BR \n BECMG 1600/1601 4200 SCT030 \n BECMG 1602/1603 6000 NSW \n BECMG 1606/1607 4200 BR FEW010 BKN025"
"taf	RKSI	2020-05-15 10:39:00	TAF \n AMD TAF \n AMD RKSI 150935Z 1510/1612 10010KT 2800 -RA SCT004 BKN020 OVC080 TN13/1521Z TX19/1606Z \n BECMG 1511/1512 18010KT BKN008 OVC020 \n BECMG 1518/1519 BR \n BECMG 1600/1601 4200 SCT030 \n BECMG 1602/1603 6000 NSW \n BECMG 1606/1607 4200 BR FEW010 BKN025"
"taf	RKSI	2020-05-15 12:00:00	TAF RKSI 151100Z 1512/1618 18010KT 2500 -DZ BKN005 OVC020 TN13/1521Z TX19/1606Z \n TEMPO 1513/1517 1000 \n BECMG 1518/1519 BR \n BECMG 1600/1601 4200 SCT030 \n BECMG 1606/1607 24006KT FEW010 BKN025 \n BECMG 1611/1612 2000"
"taf	RKSI	2020-05-15 12:09:00	TAF RKSI 151100Z 1512/1618 18010KT 2500 -DZ BKN005 OVC020 TN13/1521Z TX19/1606Z \n TEMPO 1513/1517 1000 \n BECMG 1518/1519 BR \n BECMG 1600/1601 4200 SCT030 \n BECMG 1606/1607 24006KT FEW010 BKN025 \n BECMG 1611/1612 2000"
"taf	RKSI	2020-05-15 18:00:00	TAF RKSI 151700Z 1518/1624 20007KT 2800 BR BKN005 OVC020 TN13/1521Z TX17/1606Z TN13/1621Z \n TEMPO 1518/1521 1300 -DZ \n BECMG 1600/1601 4500 SCT025 \n BECMG 1611/1612 25006KT 2000 FEW010 BKN025 \n TEMPO 1613/1615 1300 BKN010 BKN025 \n BECMG 1618/1619 18008KT 4500 SCT030"
"taf	RKSI	2020-05-15 18:06:00	TAF RKSI 151700Z 1518/1624 20007KT 2800 BR BKN005 OVC020 TN13/1521Z TX17/1606Z TN13/1621Z \n TEMPO 1518/1521 1300 -DZ \n BECMG 1600/1601 4500 SCT025 \n BECMG 1611/1612 25006KT 2000 FEW010 BKN025 \n TEMPO 1613/1615 1300 BKN010 BKN025 \n BECMG 1618/1619 18008KT 4500 SCT030"
"taf	RKSI	2020-05-16 00:00:00	TAF RKSI 162300Z 1700/1806 17008KT 4200 BR BKN004 BKN020 TX20/1706Z TN15/1721Z TX22/1802Z \n BECMG 1702/1703 6000 NSW SCT010 BKN025 \n TEMPO 1706/1709 -RA \n BECMG 1711/1712 06005KT 4200 BR FEW010 SCT035 \n BECMG 1721/1722 14012KT 6000 -RA SCT010 BKN025 OVC080 \n TEMPO 1803/1806 21015G25KT 2000 TSRA SCT010CB BKN020 OVC080"
"taf	RKSI	2020-05-16 00:09:00	TAF RKSI 162300Z 1700/1806 17008KT 4200 BR BKN004 BKN020 TX20/1706Z TN15/1721Z TX22/1802Z \n BECMG 1702/1703 6000 NSW SCT010 BKN025 \n TEMPO 1706/1709 -RA \n BECMG 1711/1712 06005KT 4200 BR FEW010 SCT035 \n BECMG 1721/1722 14012KT 6000 -RA SCT010 BKN025 OVC080 \n TEMPO 1803/1806 21015G25KT 2000 TSRA SCT010CB BKN020 OVC080"
"taf	RKSI	2020-05-16 00:52:00	TAF \n AMD RKSI 162352Z 1700/1806 17008KT 4200 -RA BKN004 BKN020 TX20/1706Z TN15/1721Z TX22/1802Z \n BECMG 1702/1703 6000 NSW SCT010 BKN025 \n TEMPO 1706/1709 -RA \n BECMG 1711/1712 06005KT 4200 BR FEW010 SCT035 \n BECMG 1721/1722 14012KT 6000 -RA SCT010 BKN025 OVC080 \n TEMPO 1803/1806 21015G25KT 2000 TSRA SCT010CB BKN020 OVC080"
"taf	RKSI	2020-05-16 00:54:00	TAF \n AMD TAF \n AMD RKSI 162352Z 1700/1806 17008KT 4200 -RA BKN004 BKN020 TX20/1706Z TN15/1721Z TX22/1802Z \n BECMG 1702/1703 6000 NSW SCT010 BKN025 \n TEMPO 1706/1709 -RA \n BECMG 1711/1712 06005KT 4200 BR FEW010 SCT035 \n BECMG 1721/1722 14012KT 6000 -RA SCT010 BKN025 OVC080 \n TEMPO 1803/1806 21015G25KT 2000 TSRA SCT010CB BKN020 OVC080"
"taf	RKSI	2020-05-16 06:00:00	TAF RKSI 160500Z 1606/1712 29006KT 6000 SCT005 BKN025 TN13/1617Z TX20/1706Z \n BECMG 1611/1612 23005KT 2500 BR BKN008 BKN020 \n TEMPO 1616/1617 1300 \n BECMG 1619/1620 17008KT 4500 SCT010 BKN025 \n BECMG 1702/1703 24006KT 6000 NSW FEW010 SCT030 \n BECMG 1708/1709 30005KT SCT010 BKN030"
"taf	RKSI	2020-05-16 06:06:00	TAF RKSI 160500Z 1606/1712 29006KT 6000 SCT005 BKN025 TN13/1617Z TX20/1706Z \n BECMG 1611/1612 23005KT 2500 BR BKN008 BKN020 \n TEMPO 1616/1617 1300 \n BECMG 1619/1620 17008KT 4500 SCT010 BKN025 \n BECMG 1702/1703 24006KT 6000 NSW FEW010 SCT030 \n BECMG 1708/1709 30005KT SCT010 BKN030"
"taf	RKSI	2020-05-16 12:00:00	TAF RKSI 161100Z 1612/1718 22005KT 6000 FEW010 BKN020 TN13/1617Z TX20/1706Z \n BECMG 1614/1615 25005KT 2800 BR BKN008 BKN020 \n TEMPO 1616/1617 1300 \n BECMG 1619/1620 17008KT 3500 SCT010 BKN025 \n BECMG 1702/1703 24006KT 6000 NSW FEW010 SCT030 \n BECMG 1707/1708 30005KT SCT010 BKN030 OVC120"
"taf	RKSI	2020-05-16 12:06:00	TAF RKSI 161100Z 1612/1718 22005KT 6000 FEW010 BKN020 TN13/1617Z TX20/1706Z \n BECMG 1614/1615 25005KT 2800 BR BKN008 BKN020 \n TEMPO 1616/1617 1300 \n BECMG 1619/1620 17008KT 3500 SCT010 BKN025 \n BECMG 1702/1703 24006KT 6000 NSW FEW010 SCT030 \n BECMG 1707/1708 30005KT SCT010 BKN030 OVC120"
"taf	RKSI	2020-05-16 15:45:00	TAF \n AMD RKSI 161445Z 1615/1718 22005KT 6000 BKN007 BKN020 TN13/1617Z TX20/1706Z \n BECMG 1617/1618 25005KT 2800 BR \n BECMG 1619/1620 17008KT 3500 SCT010 BKN025 \n BECMG 1702/1703 24006KT 6000 NSW FEW010 SCT030 \n BECMG 1707/1708 30005KT SCT010 BKN030 OVC120"
"taf	RKSI	2020-05-16 15:48:00	TAF \n AMD RKSI 161445Z 1615/1718 22005KT 6000 BKN007 BKN020 TN13/1617Z TX20/1706Z \n BECMG 1617/1618 25005KT 2800 BR \n BECMG 1619/1620 17008KT 3500 SCT010 BKN025 \n BECMG 1702/1703 24006KT 6000 NSW FEW010 SCT030 \n BECMG 1707/1708 30005KT SCT010 BKN030 OVC120"
"taf	RKSI	2020-05-16 18:00:00	TAF RKSI 161700Z 1618/1724 17007KT 4200 BR BKN005 BKN020 TN13/1617Z TX20/1706Z TN15/1721Z \n TEMPO 1619/1622 2000 -TSRA FEW010CB BKN005 BKN020 \n BECMG 1623/1624 6000 NSW SCT010 BKN025 \n BECMG 1702/1703 25006KT FEW010 SCT030 \n BECMG 1711/1712 07005KT 4200 BR SCT010 BKN030 OVC120 \n BECMG 1720/1721 14010KT 6000 NSW"
"taf	RKSI	2020-05-16 18:06:00	TAF RKSI 161700Z 1618/1724 17007KT 4200 BR BKN005 BKN020 TN13/1617Z TX20/1706Z TN15/1721Z \n TEMPO 1619/1622 2000 -TSRA FEW010CB BKN005 BKN020 \n BECMG 1623/1624 6000 NSW SCT010 BKN025 \n BECMG 1702/1703 25006KT FEW010 SCT030 \n BECMG 1711/1712 07005KT 4200 BR SCT010 BKN030 OVC120 \n BECMG 1720/1721 14010KT 6000 NSW"
"taf	RKSI	2020-05-16 20:33:00	TAF \n AMD RKSI 161933Z 1620/1724 30007KT 1600 BR BKN005 TN13/1617Z TX20/1706Z TN15/1721Z \n BECMG 1623/1624 17006KT 6000 NSW SCT010 BKN025 \n BECMG 1702/1703 25006KT FEW010 SCT030 \n BECMG 1711/1712 07005KT 4200 BR SCT010 BKN030 OVC120 \n BECMG 1720/1721 14010KT 6000 NSW"
"taf	RKSI	2020-05-16 20:36:00	TAF \n AMD TAF \n AMD RKSI 161933Z 1620/1724 30007KT 1600 BR BKN005 TN13/1617Z TX20/1706Z TN15/1721Z \n BECMG 1623/1624 17006KT 6000 NSW SCT010 BKN025 \n BECMG 1702/1703 25006KT FEW010 SCT030 \n BECMG 1711/1712 07005KT 4200 BR SCT010 BKN030 OVC120 \n BECMG 1720/1721 14010KT 6000 NSW"
"taf	RKSI	2020-05-16 21:09:00	TAF \n AMD RKSI 162109Z 1621/1724 30007KT 6000 BKN005 TN13/1617Z TX20/1706Z TN15/1721Z \n BECMG 1623/1624 17006KT SCT010 BKN025 \n BECMG 1702/1703 25006KT FEW010 SCT030 \n BECMG 1711/1712 07005KT 4200 BR SCT010 BKN030 OVC120 \n BECMG 1720/1721 14010KT 6000 NSW"
"taf	RKSI	2020-05-16 21:12:00	TAF \n AMD TAF \n AMD RKSI 162109Z 1621/1724 30007KT 6000 BKN005 TN13/1617Z TX20/1706Z TN15/1721Z \n BECMG 1623/1624 17006KT SCT010 BKN025 \n BECMG 1702/1703 25006KT FEW010 SCT030 \n BECMG 1711/1712 07005KT 4200 BR SCT010 BKN030 OVC120 \n BECMG 1720/1721 14010KT 6000 NSW"
"taf	RKSI	2020-05-16 21:15:00	TAF \n AMD RKSI 162115Z 1621/1724 16008KT 6000 BKN005 TN13/1617Z TX20/1706Z TN15/1721Z \n BECMG 1623/1624 SCT010 BKN025 \n BECMG 1702/1703 25006KT FEW010 SCT030 \n BECMG 1711/1712 07005KT 4200 BR SCT010 BKN030 OVC120 \n BECMG 1720/1721 14010KT 6000 NSW"
"taf	RKSI	2020-05-16 21:18:00	TAF \n AMD TAF \n AMD RKSI 162115Z 1621/1724 16008KT 6000 BKN005 TN13/1617Z TX20/1706Z TN15/1721Z \n BECMG 1623/1624 SCT010 BKN025 \n BECMG 1702/1703 25006KT FEW010 SCT030 \n BECMG 1711/1712 07005KT 4200 BR SCT010 BKN030 OVC120 \n BECMG 1720/1721 14010KT 6000 NSW"
"taf	RKSI	2020-05-17 00:00:00	TAF RKSI 172300Z 1800/1906 14015G25KT 2500 -RA SCT010 BKN025 OVC080 TX23/1802Z TN12/1821Z TX18/1905Z \n BECMG 1804/1805 4200 \n TEMPO 1806/1809 20015G30KT 2000 -TSRA SCT010CB BKN025 OVC070 \n BECMG 1810/1811 22015G25KT 6000 NSW SCT030 BKN120 \n BECMG 1819/1820 14015G25KT 4200 -RA FEW010 BKN025 OVC100 \n BECMG 1904/1905 36015G25KT 6000 NSW SCT030 BKN120"
"taf	RKSI	2020-05-17 00:03:00	TAF \n AMD RKSI 170003Z 1700/1806 17008KT 2000 -DZ BKN004 BKN020 TX20/1706Z TN15/1721Z TX22/1802Z \n BECMG 1703/1704 6000 NSW SCT010 BKN025 \n TEMPO 1706/1709 -RA \n BECMG 1711/1712 06005KT 4200 BR FEW010 SCT035 \n BECMG 1721/1722 14012KT 6000 -RA SCT010 BKN025 OVC080 \n TEMPO 1803/1806 21015G25KT 2000 TSRA SCT010CB BKN020 OVC080"
"taf	RKSI	2020-05-17 00:06:00	TAF RKSI 172300Z 1800/1906 14015G25KT 2500 -RA SCT010 BKN025 OVC080 TX23/1802Z TN12/1821Z TX18/1905Z \n BECMG 1804/1805 4200 \n TEMPO 1806/1809 20015G30KT 2000 -TSRA SCT010CB BKN025 OVC070 \n BECMG 1810/1811 22015G25KT 6000 NSW SCT030 BKN120 \n BECMG 1819/1820 14015G25KT 4200 -RA FEW010 BKN025 OVC100 \n BECMG 1904/1905 36015G25KT 6000 NSW SCT030 BKN120"
"taf	RKSI	2020-05-17 01:10:00	TAF \n AMD RKSI 170110Z 1701/1806 17008KT 6000 SCT008 BKN020 TX20/1706Z TN15/1721Z TX22/1802Z \n TEMPO 1701/1703 3500 -DZ BKN004 BKN025 \n TEMPO 1706/1709 -RA \n BECMG 1711/1712 06005KT 4200 BR FEW010 SCT035 \n BECMG 1721/1722 14012KT 6000 -RA SCT010 BKN025 OVC080 \n TEMPO 1803/1806 21015G25KT 2000 TSRA SCT010CB BKN020 OVC080"
"taf	RKSI	2020-05-17 01:12:00	TAF \n AMD RKSI 170110Z 1701/1806 17008KT 6000 SCT008 BKN020 TX20/1706Z TN15/1721Z TX22/1802Z \n TEMPO 1701/1703 3500 -DZ BKN004 BKN025 \n TEMPO 1706/1709 -RA \n BECMG 1711/1712 06005KT 4200 BR FEW010 SCT035 \n BECMG 1721/1722 14012KT 6000 -RA SCT010 BKN025 OVC080 \n TEMPO 1803/1806 21015G25KT 2000 TSRA SCT010CB BKN020 OVC080"
"taf	RKSI	2020-05-17 06:00:00	TAF RKSI 170500Z 1706/1812 29006KT 6000 SCT016 BKN025 TN15/1723Z TX21/1802Z \n BECMG 1713/1714 14009KT SCT010 BKN025 OVC100 \n TEMPO 1723/1801 22007KT 4200 -RA \n BECMG 1802/1803 4200 -RA \n TEMPO 1806/1809 21015G25KT 2500 -TSRA SCT015CB BKN025 OVC070 \n BECMG 1809/1810 23010KT"
"taf	RKSI	2020-05-17 06:09:00	TAF RKSI 170500Z 1706/1812 29006KT 6000 SCT016 BKN025 TN15/1723Z TX21/1802Z \n BECMG 1713/1714 14009KT SCT010 BKN025 OVC100 \n TEMPO 1723/1801 22007KT 4200 -RA \n BECMG 1802/1803 4200 -RA \n TEMPO 1806/1809 21015G25KT 2500 -TSRA SCT015CB BKN025 OVC070 \n BECMG 1809/1810 23010KT"
"taf	RKSI	2020-05-17 12:00:00	TAF RKSI 171100Z 1712/1818 25005KT 4200 BR FEW015 SCT030 TN15/1717Z TX21/1802Z \n BECMG 1714/1715 15008KT SCT010 BKN025 OVC100 \n BECMG 1803/1804 14015G25KT -RA \n TEMPO 1807/1810 20015G25KT 2500 TSRA SCT015CB BKN025 OVC070 \n BECMG 1810/1811 22015G30KT \n BECMG 1813/1814 16010KT 6000 NSW"
"taf	RKSI	2020-05-17 12:06:00	TAF RKSI 171100Z 1712/1818 25005KT 4200 BR FEW015 SCT030 TN15/1717Z TX21/1802Z \n BECMG 1714/1715 15008KT SCT010 BKN025 OVC100 \n BECMG 1803/1804 14015G25KT -RA \n TEMPO 1807/1810 20015G25KT 2500 TSRA SCT015CB BKN025 OVC070 \n BECMG 1810/1811 22015G30KT \n BECMG 1813/1814 16010KT 6000 NSW"
"taf	RKSI	2020-05-17 18:00:00	TAF RKSI 171700Z 1718/1824 14005KT 3500 BR FEW010 BKN025 OVC100 TN15/1719Z TX21/1802Z TN12/1821Z \n BECMG 1803/1804 14015G25KT -RA \n TEMPO 1806/1810 20015G30KT 2000 TSRA SCT010CB BKN025 OVC070 \n BECMG 1810/1811 22015G25KT \n BECMG 1813/1814 16012KT 6000 NSW SCT030 BKN120 \n BECMG 1818/1819 14015G25KT"
"taf	RKSI	2020-05-17 18:06:00	TAF RKSI 171700Z 1718/1824 14005KT 3500 BR FEW010 BKN025 OVC100 TN15/1719Z TX21/1802Z TN12/1821Z \n BECMG 1803/1804 14015G25KT -RA \n TEMPO 1806/1810 20015G30KT 2000 TSRA SCT010CB BKN025 OVC070 \n BECMG 1810/1811 22015G25KT \n BECMG 1813/1814 16012KT 6000 NSW SCT030 BKN120 \n BECMG 1818/1819 14015G25KT"
"taf	RKSI	2020-05-17 22:05:00	TAF \n AMD RKSI 172205Z 1722/1824 14005KT 2000 -RA FEW010 BKN025 OVC100 TN15/1719Z TX21/1802Z TN12/1821Z \n TEMPO 1723/1802 20015G30KT -TSRA SCT010CB BKN025 OVC070 \n BECMG 1810/1811 20015G25KT 6000 NSW SCT030CB BKN120 \n BECMG 1819/1820 14015G25KT 4200 -RA FEW010 BKN025 OVC100 \n BECMG 1903/1904 36020G30KT 6000 NSW SCT030 BKN120"
"taf	RKSI	2020-05-17 22:09:00	TAF \n AMD TAF \n AMD RKSI 172205Z 1722/1824 14005KT 2000 -RA FEW010 BKN025 OVC100 TN15/1719Z TX21/1802Z TN12/1821Z \n TEMPO 1723/1802 20015G30KT -TSRA SCT010CB BKN025 OVC070 \n BECMG 1810/1811 20015G25KT 6000 NSW SCT030CB BKN120 \n BECMG 1819/1820 14015G25KT 4200 -RA FEW010 BKN025 OVC100 \n BECMG 1903/1904 36020G30KT 6000 NSW SCT030 BKN120"
"taf	RKSI	2020-05-18 00:00:00	TAF RKSI 182300Z 1900/2006 12010KT 4200 -RA SCT008 BKN025 OVC080 TX18/1905Z TN11/1920Z TX18/2006Z \n BECMG 1901/1902 02015G25KT 6000 \n BECMG 1903/1904 34015G30KT NSW BKN030 OVC100 \n BECMG 1911/1912 01009KT SCT035 \n BECMG 1923/1924 BKN030 OVC100"
"taf	RKSI	2020-05-18 00:06:00	TAF RKSI 182300Z 1900/2006 12010KT 4200 -RA SCT008 BKN025 OVC080 TX18/1905Z TN11/1920Z TX18/2006Z \n BECMG 1901/1902 02015G25KT 6000 \n BECMG 1903/1904 34015G30KT NSW BKN030 OVC100 \n BECMG 1911/1912 01009KT SCT035 \n BECMG 1923/1924 BKN030 OVC100"
"taf	RKSI	2020-05-18 02:32:00	TAF \n AMD RKSI 180132Z 1802/1906 14015G25KT 3500 -RA SCT010 BKN025 OVC080 TX23/1802Z TN12/1821Z TX18/1905Z \n TEMPO 1802/1803 2000 -TSRA SCT004 BKN025CB OVC080 \n TEMPO 1806/1809 20015G30KT 2000 -TSRA SCT010CB BKN025 OVC070 \n BECMG 1810/1811 22015G25KT 6000 NSW SCT030 BKN120 \n BECMG 1819/1820 14015G25KT 4200 -RA FEW010 BKN025 OVC100 \n BECMG 1904/1905 36015G25KT 6000 NSW SCT030 BKN120"
"taf	RKSI	2020-05-18 02:33:00	TAF \n AMD TAF \n AMD RKSI 180132Z 1802/1906 14015G25KT 3500 -RA SCT010 BKN025 OVC080 TX23/1802Z TN12/1821Z TX18/1905Z \n TEMPO 1802/1803 2000 -TSRA SCT004 BKN025CB OVC080 \n TEMPO 1806/1809 20015G30KT 2000 -TSRA SCT010CB BKN025 OVC070 \n BECMG 1810/1811 22015G25KT 6000 NSW SCT030 BKN120 \n BECMG 1819/1820 14015G25KT 4200 -RA FEW010 BKN025 OVC100 \n BECMG 1904/1905 36015G25KT 6000 NSW SCT030 BKN120"
"taf	RKSI	2020-05-18 03:05:00	TAF \n AMD RKSI 180305Z 1803/1906 14015G25KT 3200 BR SCT010 BKN025 OVC080 TX25/1805Z TN12/1821Z TX18/1905Z \n BECMG 1805/1806 20015G30KT -RA \n BECMG 1811/1812 22015G25KT 6000 NSW SCT030 BKN120 \n BECMG 1819/1820 14015G25KT 4200 -RA FEW010 BKN025 OVC100 \n BECMG 1904/1905 36015G25KT 6000 NSW SCT030 BKN120"
"taf	RKSI	2020-05-18 03:06:00	TAF \n AMD TAF \n AMD RKSI 180305Z 1803/1906 14015G25KT 3200 BR SCT010 BKN025 OVC080 TX25/1805Z TN12/1821Z TX18/1905Z \n BECMG 1805/1806 20015G30KT -RA \n BECMG 1811/1812 22015G25KT 6000 NSW SCT030 BKN120 \n BECMG 1819/1820 14015G25KT 4200 -RA FEW010 BKN025 OVC100 \n BECMG 1904/1905 36015G25KT 6000 NSW SCT030 BKN120"
"taf	RKSI	2020-05-18 06:00:00	TAF RKSI 180500Z 1806/1912 17020G35KT 6000 -RA FEW010 BKN025 OVC100 TN12/1821Z TX18/1906Z \n TEMPO 1806/1808 21020G30KT 3500 -TSRA SCT010 BKN025CB OVC080 \n BECMG 1812/1813 14015G25KT 3500 BR \n TEMPO 1823/1901 05010KT \n BECMG 1902/1903 35015G25KT -RA \n BECMG 1905/1906 6000 NSW SCT035"
"taf	RKSI	2020-05-18 06:05:00	TAF \n AMD RKSI 180605Z 1806/1912 17020G35KT 2000 -RA FEW010 BKN025 OVC100 TN12/1821Z TX18/1906Z \n TEMPO 1806/1808 21020G30KT 1400 -TSRA SCT010 BKN025CB OVC080 \n BECMG 1812/1813 14015G25KT 3500 BR \n TEMPO 1823/1901 05010KT \n BECMG 1902/1903 35015G25KT -RA \n BECMG 1905/1906 6000 NSW SCT035"
"taf	RKSI	2020-05-18 06:06:00	TAF RKSI 180500Z 1806/1912 17020G35KT 6000 -RA FEW010 BKN025 OVC100 TN12/1821Z TX18/1906Z \n TEMPO 1806/1808 21020G30KT 3500 -TSRA SCT010 BKN025CB OVC080 \n BECMG 1812/1813 14015G25KT 3500 BR \n TEMPO 1823/1901 05010KT \n BECMG 1902/1903 35015G25KT -RA \n BECMG 1905/1906 6000 NSW SCT035"
"taf	RKSI	2020-05-18 06:09:00	TAF \n AMD TAF \n AMD RKSI 180605Z 1806/1912 17020G35KT 2000 -RA FEW010 BKN025 OVC100 TN12/1821Z TX18/1906Z \n TEMPO 1806/1808 21020G30KT 1400 -TSRA SCT010 BKN025CB OVC080 \n BECMG 1812/1813 14015G25KT 3500 BR \n TEMPO 1823/1901 05010KT \n BECMG 1902/1903 35015G25KT -RA \n BECMG 1905/1906 6000 NSW SCT035"
"taf	RKSI	2020-05-18 08:25:00	TAF \n AMD RKSI 180825Z 1808/1912 28010KT 2500 -RA FEW010 BKN025 OVC100 TN12/1821Z TX18/1906Z \n TEMPO 1808/1809 25015G25KT -TSRA SCT010 BKN025CB OVC080 \n BECMG 1812/1813 15015G25KT 3500 BR \n TEMPO 1823/1901 05010KT \n BECMG 1902/1903 35015G25KT -RA \n BECMG 1905/1906 6000 NSW SCT035"
"taf	RKSI	2020-05-18 08:27:00	TAF \n AMD TAF \n AMD RKSI 180825Z 1808/1912 28010KT 2500 -RA FEW010 BKN025 OVC100 TN12/1821Z TX18/1906Z \n TEMPO 1808/1809 25015G25KT -TSRA SCT010 BKN025CB OVC080 \n BECMG 1812/1813 15015G25KT 3500 BR \n TEMPO 1823/1901 05010KT \n BECMG 1902/1903 35015G25KT -RA \n BECMG 1905/1906 6000 NSW SCT035"
"taf	RKSI	2020-05-18 08:40:00	TAF \n AMD RKSI 180740Z 1808/1912 28015G25KT 2500 -RA FEW010 BKN025 OVC100 TN12/1821Z TX18/1906Z \n BECMG 1812/1813 15015G25KT 3500 BR \n TEMPO 1823/1901 05010KT \n BECMG 1902/1903 35015G25KT -RA \n BECMG 1905/1906 6000 NSW SCT035"
"taf	RKSI	2020-05-18 08:42:00	TAF \n AMD TAF \n AMD RKSI 180740Z 1808/1912 28015G25KT 2500 -RA FEW010 BKN025 OVC100 TN12/1821Z TX18/1906Z \n BECMG 1812/1813 15015G25KT 3500 BR \n TEMPO 1823/1901 05010KT \n BECMG 1902/1903 35015G25KT -RA \n BECMG 1905/1906 6000 NSW SCT035"
"taf	RKSI	2020-05-18 12:00:00	TAF RKSI 181100Z 1812/1918 21010KT 6000 FEW008 BKN025 TN12/1821Z TX18/1906Z \n BECMG 1814/1815 15015G25KT SCT035 \n BECMG 1822/1823 11012KT \n BECMG 1900/1901 01015G25KT -RA FEW010 BKN025 OVC080 \n BECMG 1904/1905 NSW SCT035 \n BECMG 1911/1912 02010KT"
"taf	RKSI	2020-05-18 12:06:00	TAF RKSI 181100Z 1812/1918 21010KT 6000 FEW008 BKN025 TN12/1821Z TX18/1906Z \n BECMG 1814/1815 15015G25KT SCT035 \n BECMG 1822/1823 11012KT \n BECMG 1900/1901 01015G25KT -RA FEW010 BKN025 OVC080 \n BECMG 1904/1905 NSW SCT035 \n BECMG 1911/1912 02010KT"
"taf	RKSI	2020-05-18 17:35:00	TAF \n AMD RKSI 181635Z 1817/1918 19010KT 6000 SCT030 BKN110 TN12/1821Z TX18/1906Z \n TEMPO 1817/1818 16015G25KT -RA BKN030 OVC100 \n BECMG 1822/1823 11012KT \n BECMG 1900/1901 01015G25KT -RA FEW010 BKN025 OVC080 \n BECMG 1904/1905 NSW SCT035 \n BECMG 1911/1912 02010KT"
"taf	RKSI	2020-05-18 17:39:00	TAF \n AMD TAF \n AMD RKSI 181635Z 1817/1918 19010KT 6000 SCT030 BKN110 TN12/1821Z TX18/1906Z \n TEMPO 1817/1818 16015G25KT -RA BKN030 OVC100 \n BECMG 1822/1823 11012KT \n BECMG 1900/1901 01015G25KT -RA FEW010 BKN025 OVC080 \n BECMG 1904/1905 NSW SCT035 \n BECMG 1911/1912 02010KT"
"taf	RKSI	2020-05-18 18:00:00	TAF RKSI 181700Z 1818/1924 18015G25KT 6000 SCT030 BKN100 TN11/1822Z TX18/1905Z TN11/1920Z \n BECMG 1821/1822 13012KT -RA SCT010 BKN025 OVC080 \n BECMG 1901/1902 01015G28KT \n BECMG 1904/1905 34015G30KT NSW BKN030 OVC100 \n BECMG 1911/1912 01009KT SCT035"
"taf	RKSI	2020-05-18 18:09:00	TAF RKSI 181700Z 1818/1924 18015G25KT 6000 SCT030 BKN100 TN11/1822Z TX18/1905Z TN11/1920Z \n BECMG 1821/1822 13012KT -RA SCT010 BKN025 OVC080 \n BECMG 1901/1902 01015G28KT \n BECMG 1904/1905 34015G30KT NSW BKN030 OVC100 \n BECMG 1911/1912 01009KT SCT035"
"taf	RKSI	2020-05-18 19:30:00	TAF \n AMD RKSI 181930Z 1819/1924 18015G25KT 6000 SCT030 BKN100 TN11/1822Z TX18/1905Z TN11/1920Z \n TEMPO 1820/1821 -RA BKN025 OVC100 \n BECMG 1821/1822 13012KT -RA SCT010 BKN025 OVC080 \n BECMG 1901/1902 01015G28KT \n BECMG 1904/1905 34015G30KT NSW BKN030 OVC100 \n BECMG 1911/1912 01009KT SCT035"
"taf	RKSI	2020-05-18 19:33:00	TAF \n AMD TAF \n AMD RKSI 181930Z 1819/1924 18015G25KT 6000 SCT030 BKN100 TN11/1822Z TX18/1905Z TN11/1920Z \n TEMPO 1820/1821 -RA BKN025 OVC100 \n BECMG 1821/1822 13012KT -RA SCT010 BKN025 OVC080 \n BECMG 1901/1902 01015G28KT \n BECMG 1904/1905 34015G30KT NSW BKN030 OVC100 \n BECMG 1911/1912 01009KT SCT035"
"taf	RKSI	2020-05-18 21:00:00	TAF \n AMD RKSI 182100Z 1821/1924 14012KT 4200 -RA SCT008 BKN025 OVC080 TN11/1822Z TX18/1905Z TN11/1920Z \n TEMPO 1821/1823 2800 \n BECMG 1901/1902 01015G28KT 6000 \n BECMG 1904/1905 34015G30KT NSW BKN030 OVC100 \n BECMG 1911/1912 01009KT SCT035"
"taf	RKSI	2020-05-18 21:03:00	TAF \n AMD TAF \n AMD RKSI 182100Z 1821/1924 14012KT 4200 -RA SCT008 BKN025 OVC080 TN11/1822Z TX18/1905Z TN11/1920Z \n TEMPO 1821/1823 2800 \n BECMG 1901/1902 01015G28KT 6000 \n BECMG 1904/1905 34015G30KT NSW BKN030 OVC100 \n BECMG 1911/1912 01009KT SCT035"
"taf	RKSI	2020-05-19 00:00:00	TAF RKSI 192300Z 2000/2106 05008KT 9999 SCT035 BKN070 TX19/2005Z TN11/2020Z TX20/2103Z \n BECMG 2002/2003 SCT030 \n TEMPO 2005/2009 33010KT \n BECMG 2021/2022 12005KT \n BECMG 2103/2104 34007KT"
"taf	RKSI	2020-05-19 00:06:00	TAF RKSI 192300Z 2000/2106 05008KT 9999 SCT035 BKN070 TX19/2005Z TN11/2020Z TX20/2103Z \n BECMG 2002/2003 SCT030 \n TEMPO 2005/2009 33010KT \n BECMG 2021/2022 12005KT \n BECMG 2103/2104 34007KT"
"taf	RKSI	2020-05-19 06:00:00	TAF RKSI 190500Z 1906/2012 35016G26KT 9999 SCT035 BKN150 TN11/1921Z TX18/2006Z \n BECMG 1917/1918 02010KT"
"taf	RKSI	2020-05-19 06:06:00	TAF RKSI 190500Z 1906/2012 35016G26KT 9999 SCT035 BKN150 TN11/1921Z TX18/2006Z \n BECMG 1917/1918 02010KT"
"taf	RKSI	2020-05-19 09:39:00	TAF \n AMD TAF \n AMD RKSI 190840Z 1909/2012 35016G26KT 9999 SCT035 BKN150 TN11/1921Z TX18/2006Z \n TEMPO 1909/1911 02010KT -RA FEW010 BKN025 \n BECMG 1917/1918 02010KT"
"taf	RKSI	2020-05-19 09:40:00	TAF \n AMD RKSI 190840Z 1909/2012 35016G26KT 9999 SCT035 BKN150 TN11/1921Z TX18/2006Z \n TEMPO 1909/1911 02010KT -RA FEW010 BKN025 \n BECMG 1917/1918 02010KT"
"taf	RKSI	2020-05-19 12:00:00	TAF RKSI 191100Z 1912/2018 01007KT 9999 SCT035 TN11/1921Z TX19/2006Z \n TEMPO 1912/1913 -RA FEW010 BKN025 \n BECMG 2001/2002 BKN035 \n BECMG 2003/2004 SCT040 \n BECMG 2011/2012 07007KT"
"taf	RKSI	2020-05-19 12:09:00	TAF RKSI 191100Z 1912/2018 01007KT 9999 SCT035 TN11/1921Z TX19/2006Z \n TEMPO 1912/1913 -RA FEW010 BKN025 \n BECMG 2001/2002 BKN035 \n BECMG 2003/2004 SCT040 \n BECMG 2011/2012 07007KT"
"taf	RKSI	2020-05-19 18:00:00	TAF RKSI 191700Z 1918/2024 05008KT 9999 SCT035 TN11/1920Z TX19/2005Z TN11/2020Z \n TEMPO 2005/2009 33010KT \n BECMG 2021/2022 11005KT"
"taf	RKSI	2020-05-19 18:06:00	TAF RKSI 191700Z 1918/2024 05008KT 9999 SCT035 TN11/1920Z TX19/2005Z TN11/2020Z \n TEMPO 2005/2009 33010KT \n BECMG 2021/2022 11005KT"
"taf	RKSI	2020-05-20 00:00:00	TAF RKSI 202300Z 2100/2206 19006KT CAVOK TX20/2106Z TN14/2121Z TX23/2206Z \n BECMG 2107/2108 27007KT \n BECMG 2114/2115 19006KT 9999 BKN035 \n BECMG 2121/2122 13010KT SCT035 \n BECMG 2203/2204 27007KT"
"taf	RKSI	2020-05-20 00:06:00	TAF RKSI 202300Z 2100/2206 19006KT CAVOK TX20/2106Z TN14/2121Z TX23/2206Z \n BECMG 2107/2108 27007KT \n BECMG 2114/2115 19006KT 9999 BKN035 \n BECMG 2121/2122 13010KT SCT035 \n BECMG 2203/2204 27007KT"
"taf	RKSI	2020-05-20 06:00:00	TAF RKSI 200500Z 2006/2112 33010KT 9999 SCT030 TN11/2020Z TX20/2103Z \n BECMG 2014/2015 05008KT \n BECMG 2017/2018 11006KT CAVOK \n BECMG 2104/2105 28006KT 9999 FEW030 BKN100"
"taf	RKSI	2020-05-20 06:06:00	TAF RKSI 200500Z 2006/2112 33010KT 9999 SCT030 TN11/2020Z TX20/2103Z \n BECMG 2014/2015 05008KT \n BECMG 2017/2018 11006KT CAVOK \n BECMG 2104/2105 28006KT 9999 FEW030 BKN100"
"taf	RKSI	2020-05-20 12:00:00	TAF RKSI 201100Z 2012/2118 33010KT 9999 FEW030 TN11/2020Z TX21/2104Z \n BECMG 2014/2015 05008KT \n BECMG 2021/2022 12006KT \n BECMG 2104/2105 28006KT \n BECMG 2110/2111 SCT030 BKN100 \n BECMG 2114/2115 18006KT"
"taf	RKSI	2020-05-20 12:06:00	TAF RKSI 201100Z 2012/2118 33010KT 9999 FEW030 TN11/2020Z TX21/2104Z \n BECMG 2014/2015 05008KT \n BECMG 2021/2022 12006KT \n BECMG 2104/2105 28006KT \n BECMG 2110/2111 SCT030 BKN100 \n BECMG 2114/2115 18006KT"
"taf	RKSI	2020-05-20 18:00:00	TAF RKSI 201700Z 2018/2124 19005KT CAVOK TN11/2021Z TX20/2106Z TN14/2121Z \n BECMG 2107/2108 25006KT \n BECMG 2111/2112 19005KT 9999 BKN035 BKN150 \n BECMG 2121/2122 13010KT SCT035 BKN180"
"taf	RKSI	2020-05-20 18:06:00	TAF RKSI 201700Z 2018/2124 19005KT CAVOK TN11/2021Z TX20/2106Z TN14/2121Z \n BECMG 2107/2108 25006KT \n BECMG 2111/2112 19005KT 9999 BKN035 BKN150 \n BECMG 2121/2122 13010KT SCT035 BKN180"
"taf	RKSI	2020-05-21 00:00:00	TAF RKSI 212300Z 2200/2306 14010KT 9999 SCT035 BKN180 TX22/2206Z TN14/2221Z TX21/2306Z \n BECMG 2205/2206 33010KT \n TEMPO 2212/2215 17007KT 6000 -RA FEW010 BKN025 OVC080 \n BECMG 2216/2217 22010KT \n BECMG 2218/2219 15007KT BKN035 \n BECMG 2304/2305 25007KT SCT035"
"taf	RKSI	2020-05-21 00:06:00	TAF RKSI 212300Z 2200/2306 14010KT 9999 SCT035 BKN180 TX22/2206Z TN14/2221Z TX21/2306Z \n BECMG 2205/2206 33010KT \n TEMPO 2212/2215 17007KT 6000 -RA FEW010 BKN025 OVC080 \n BECMG 2216/2217 22010KT \n BECMG 2218/2219 15007KT BKN035 \n BECMG 2304/2305 25007KT SCT035"
"taf	RKSI	2020-05-21 02:35:00	TAF \n AMD RKSI 210135Z 2102/2206 19006KT 9999 FEW030 BKN120 TX20/2106Z TN14/2121Z TX23/2206Z \n BECMG 2107/2108 27007KT \n BECMG 2114/2115 19006KT BKN035 \n BECMG 2121/2122 13010KT SCT035 \n BECMG 2203/2204 27007KT"
"taf	RKSI	2020-05-21 02:36:00	TAF \n AMD TAF \n AMD RKSI 210135Z 2102/2206 19006KT 9999 FEW030 BKN120 TX20/2106Z TN14/2121Z TX23/2206Z \n BECMG 2107/2108 27007KT \n BECMG 2114/2115 19006KT BKN035 \n BECMG 2121/2122 13010KT SCT035 \n BECMG 2203/2204 27007KT"
"taf	RKSI	2020-05-21 06:00:00	TAF \n AMD TAF \n AMD RKSI 210600Z 2106/2212 19006KT 9999 -RA FEW030 BKN120 TN14/2121Z TX23/2206Z \n BECMG 2107/2108 27007KT NSW \n BECMG 2114/2115 19006KT BKN035 \n BECMG 2121/2122 13010KT SCT030 \n BECMG 2203/2204 19006KT BKN025 BKN100 \n TEMPO 2209/2212 32005KT 6000 -RA"
"taf	RKSI	2020-05-21 06:06:00	TAF RKSI 210500Z 2106/2212 19006KT 9999 FEW030 BKN120 TN14/2121Z TX23/2206Z \n BECMG 2107/2108 27007KT \n BECMG 2114/2115 19006KT BKN035 \n BECMG 2121/2122 13010KT SCT030 \n BECMG 2203/2204 19006KT BKN025 BKN100 \n TEMPO 2209/2212 32005KT 6000 -RA"
"taf	RKSI	2020-05-21 12:00:00	TAF RKSI 211100Z 2112/2218 27007KT 9999 SCT030 BKN100 TN14/2121Z TX23/2206Z \n BECMG 2114/2115 19006KT \n BECMG 2121/2122 13010KT SCT030 \n BECMG 2204/2205 30007KT BKN025 BKN100 \n TEMPO 2209/2214 6000 -RA \n BECMG 2215/2216 07006KT"
"taf	RKSI	2020-05-21 12:06:00	TAF RKSI 211100Z 2112/2218 27007KT 9999 SCT030 BKN100 TN14/2121Z TX23/2206Z \n BECMG 2114/2115 19006KT \n BECMG 2121/2122 13010KT SCT030 \n BECMG 2204/2205 30007KT BKN025 BKN100 \n TEMPO 2209/2214 6000 -RA \n BECMG 2215/2216 07006KT"
"taf	RKSI	2020-05-21 15:40:00	TAF \n AMD RKSI 211440Z 2115/2218 27007KT 9999 SCT030 BKN100 TN14/2121Z TX23/2206Z \n TEMPO 2115/2116 19006KT -RA \n BECMG 2121/2122 13010KT SCT030 \n BECMG 2204/2205 30007KT BKN025 BKN100 \n TEMPO 2209/2214 6000 -RA \n BECMG 2215/2216 07006KT"
"taf	RKSI	2020-05-21 15:42:00	TAF \n AMD TAF \n AMD RKSI 211440Z 2115/2218 27007KT 9999 SCT030 BKN100 TN14/2121Z TX23/2206Z \n TEMPO 2115/2116 19006KT -RA \n BECMG 2121/2122 13010KT SCT030 \n BECMG 2204/2205 30007KT BKN025 BKN100 \n TEMPO 2209/2214 6000 -RA \n BECMG 2215/2216 07006KT"
"taf	RKSI	2020-05-21 18:00:00	TAF RKSI 211700Z 2118/2224 06006KT 9999 FEW035 BKN140 TN14/2121Z TX22/2206Z TN14/2221Z \n BECMG 2120/2121 13007KT \n TEMPO 2206/2208 19010KT \n BECMG 2211/2212 29010KT 6000 -RA BKN035 \n BECMG 2213/2214 21005KT NSW SCT040"
"taf	RKSI	2020-05-21 18:06:00	TAF RKSI 211700Z 2118/2224 06006KT 9999 FEW035 BKN140 TN14/2121Z TX22/2206Z TN14/2221Z \n BECMG 2120/2121 13007KT \n TEMPO 2206/2208 19010KT \n BECMG 2211/2212 29010KT 6000 -RA BKN035 \n BECMG 2213/2214 21005KT NSW SCT040"
"taf	RKSI	2020-05-22 00:00:00	TAF RKSI 222300Z 2300/2406 16006KT 9999 SCT030 BKN140 TX21/2305Z TN14/2321Z TX19/2406Z \n BECMG 2304/2305 25008KT SCT030 BKN100 \n BECMG 2311/2312 18008KT 6000 \n BECMG 2317/2318 20015G25KT 3500 -RA SCT010 BKN030 OVC100 \n BECMG 2323/2324 25015G25KT 6000 NSW BKN030 BKN100 \n BECMG 2402/2403 SCT030"
"taf	RKSI	2020-05-22 00:06:00	TAF RKSI 222300Z 2300/2406 16006KT 9999 SCT030 BKN140 TX21/2305Z TN14/2321Z TX19/2406Z \n BECMG 2304/2305 25008KT SCT030 BKN100 \n BECMG 2311/2312 18008KT 6000 \n BECMG 2317/2318 20015G25KT 3500 -RA SCT010 BKN030 OVC100 \n BECMG 2323/2324 25015G25KT 6000 NSW BKN030 BKN100 \n BECMG 2402/2403 SCT030"
"taf	RKSI	2020-05-22 06:00:00	TAF RKSI 220500Z 2206/2312 33008KT 7000 SCT035 BKN120 TN14/2221Z TX21/2306Z \n TEMPO 2209/2212 22010KT 4200 -RA FEW010 BKN025 OVC080 \n BECMG 2213/2214 15008KT BKN035 \n BECMG 2304/2305 25008KT SCT035"
"taf	RKSI	2020-05-22 06:06:00	TAF RKSI 220500Z 2206/2312 33008KT 7000 SCT035 BKN120 TN14/2221Z TX21/2306Z \n TEMPO 2209/2212 22010KT 4200 -RA FEW010 BKN025 OVC080 \n BECMG 2213/2214 15008KT BKN035 \n BECMG 2304/2305 25008KT SCT035"
"taf	RKSI	2020-05-22 12:00:00	TAF RKSI 221100Z 2212/2318 14007KT 7000 SCT030 BKN150 TN14/2221Z TX21/2306Z \n BECMG 2304/2305 25008KT \n BECMG 2309/2310 18010KT \n BECMG 2315/2316 BKN025 OVC100"
"taf	RKSI	2020-05-22 12:09:00	TAF RKSI 221100Z 2212/2318 14007KT 7000 SCT030 BKN150 TN14/2221Z TX21/2306Z \n BECMG 2304/2305 25008KT \n BECMG 2309/2310 18010KT \n BECMG 2315/2316 BKN025 OVC100"
"taf	RKSI	2020-05-22 14:09:00	TAF \n AMD TAF \n AMD RKSI 221410Z 2214/2318 14007KT 7000 SCT030 BKN150 TN14/2221Z TX21/2306Z \n TEMPO 2214/2215 30007KT BKN030 BKN120 \n BECMG 2304/2305 25008KT \n BECMG 2309/2310 18010KT \n BECMG 2315/2316 BKN025 OVC100"
"taf	RKSI	2020-05-22 14:10:00	TAF \n AMD RKSI 221410Z 2214/2318 14007KT 7000 SCT030 BKN150 TN14/2221Z TX21/2306Z \n TEMPO 2214/2215 30007KT BKN030 BKN120 \n BECMG 2304/2305 25008KT \n BECMG 2309/2310 18010KT \n BECMG 2315/2316 BKN025 OVC100"
"taf	RKSI	2020-05-22 18:00:00	TAF RKSI 221700Z 2218/2324 16006KT 6000 SCT030 BKN120 TN14/2221Z TX21/2305Z TN14/2321Z \n BECMG 2304/2305 24010KT 9999 \n BECMG 2311/2312 18010KT 6000 BKN030 BKN100 \n BECMG 2318/2319 20015G25KT 3500 -RA SCT010 BKN030 OVC100 \n BECMG 2322/2323 24015G25KT 6000"
"taf	RKSI	2020-05-22 18:09:00	TAF RKSI 221700Z 2218/2324 16006KT 6000 SCT030 BKN120 TN14/2221Z TX21/2305Z TN14/2321Z \n BECMG 2304/2305 24010KT 9999 \n BECMG 2311/2312 18010KT 6000 BKN030 BKN100 \n BECMG 2318/2319 20015G25KT 3500 -RA SCT010 BKN030 OVC100 \n BECMG 2322/2323 24015G25KT 6000"
"taf	RKSI	2020-05-23 00:00:00	TAF RKSI 232300Z 2400/2506 25015G25KT 6000 SCT030 TX19/2406Z TN13/2421Z TX21/2506Z \n TEMPO 2400/2401 1300 BR BKN005 BKN030 \n BECMG 2411/2412 27006KT \n BECMG 2414/2415 4500 BR \n TEMPO 2418/2421 2500 BKN005 \n BECMG 2423/2424 22006KT 6000 NSW NSC"
"taf	RKSI	2020-05-23 00:06:00	TAF RKSI 232300Z 2400/2506 25015G25KT 6000 SCT030 TX19/2406Z TN13/2421Z TX21/2506Z \n TEMPO 2400/2401 1300 BR BKN005 BKN030 \n BECMG 2411/2412 27006KT \n BECMG 2414/2415 4500 BR \n TEMPO 2418/2421 2500 BKN005 \n BECMG 2423/2424 22006KT 6000 NSW NSC"
"taf	RKSI	2020-05-23 06:00:00	TAF RKSI 230500Z 2306/2412 23010KT 9999 SCT030 BKN120 TN14/2321Z TX19/2406Z \n BECMG 2311/2312 17006KT \n BECMG 2314/2315 4200 -RA SCT010 BKN025 OVC100 \n TEMPO 2318/2322 20015G25KT 2500 -TSRA SCT010CB BKN020 OVC080 \n BECMG 2323/2324 25015G25KT 6000 NSW \n BECMG 2402/2403 25012KT SCT030"
"taf	RKSI	2020-05-23 06:06:00	TAF RKSI 230500Z 2306/2412 23010KT 9999 SCT030 BKN120 TN14/2321Z TX19/2406Z \n BECMG 2311/2312 17006KT \n BECMG 2314/2315 4200 -RA SCT010 BKN025 OVC100 \n TEMPO 2318/2322 20015G25KT 2500 -TSRA SCT010CB BKN020 OVC080 \n BECMG 2323/2324 25015G25KT 6000 NSW \n BECMG 2402/2403 25012KT SCT030"
"taf	RKSI	2020-05-23 12:00:00	TAF RKSI 231100Z 2312/2418 17005KT 7000 SCT040 BKN120 TN14/2321Z TX19/2406Z \n BECMG 2314/2315 4200 -RA SCT010 BKN025 OVC100 \n TEMPO 2318/2322 20015G25KT 2500 -TSRA SCT010CB BKN020 OVC080 \n BECMG 2323/2324 25015G25KT 6000 NSW \n BECMG 2402/2403 25012KT SCT030"
"taf	RKSI	2020-05-23 12:06:00	TAF RKSI 231100Z 2312/2418 17005KT 7000 SCT040 BKN120 TN14/2321Z TX19/2406Z \n BECMG 2314/2315 4200 -RA SCT010 BKN025 OVC100 \n TEMPO 2318/2322 20015G25KT 2500 -TSRA SCT010CB BKN020 OVC080 \n BECMG 2323/2324 25015G25KT 6000 NSW \n BECMG 2402/2403 25012KT SCT030"
"taf	RKSI	2020-05-23 14:00:00	TAF \n AMD TAF \n AMD RKSI 231400Z 2314/2418 31005KT 4200 -RA SCT010 BKN025 OVC100 TN14/2321Z TX19/2406Z \n BECMG 2315/2316 17005KT \n TEMPO 2317/2322 20015G25KT 2500 -TSRA SCT010CB BKN020 OVC080 \n BECMG 2323/2324 25015G25KT 6000 NSW \n BECMG 2402/2403 25012KT SCT030"
"taf	RKSI	2020-05-23 18:00:00	TAF RKSI 231700Z 2318/2424 20015G25KT 3500 -TSRA SCT010CB BKN025 OVC100 TN14/2321Z TX19/2406Z TN13/2421Z \n BECMG 2323/2324 25015G25KT 6000 NSW BKN030 BKN100 \n BECMG 2402/2403 26012KT SCT030 \n BECMG 2414/2415 26006KT 4500 BR \n TEMPO 2418/2421 2800 BKN005 \n BECMG 2422/2423 22006KT 6000 NSW NSC"
"taf	RKSI	2020-05-23 18:09:00	TAF RKSI 231700Z 2318/2424 20015G25KT 3500 -TSRA SCT010CB BKN025 OVC100 TN14/2321Z TX19/2406Z TN13/2421Z \n BECMG 2323/2324 25015G25KT 6000 NSW BKN030 BKN100 \n BECMG 2402/2403 26012KT SCT030 \n BECMG 2414/2415 26006KT 4500 BR \n TEMPO 2418/2421 2800 BKN005 \n BECMG 2422/2423 22006KT 6000 NSW NSC"
"taf	RKSI	2020-05-24 00:00:00	TAF RKSI 242300Z 2500/2606 24006KT 3500 BR BKN002 TX19/2506Z TN12/2521Z TX19/2605Z \n BECMG 2501/2502 6000 NSW SCT010 BKN150 \n BECMG 2511/2512 4200 BR \n TEMPO 2516/2521 30005KT 1200 BKN003 \n BECMG 2522/2523 6000 NSW \n BECMG 2605/2606 -RA SCT010 BKN025 OVC100"
"taf	RKSI	2020-05-24 00:09:00	TAF RKSI 242300Z 2500/2606 24006KT 3500 BR BKN002 TX19/2506Z TN12/2521Z TX19/2605Z \n BECMG 2501/2502 6000 NSW SCT010 BKN150 \n BECMG 2511/2512 4200 BR \n TEMPO 2516/2521 30005KT 1200 BKN003 \n BECMG 2522/2523 6000 NSW \n BECMG 2605/2606 -RA SCT010 BKN025 OVC100"
"taf	RKSI	2020-05-24 06:00:00	TAF RKSI 240500Z 2406/2512 27006KT 7000 BKN010 TN13/2420Z TX20/2506Z \n TEMPO 2406/2409 25015G25KT SCT005 \n BECMG 2414/2415 4500 BR \n TEMPO 2420/2424 22005KT 2500 BKN004 \n BECMG 2500/2501 24006KT 6000 NSW FEW010 BKN160"
"taf	RKSI	2020-05-24 06:06:00	TAF RKSI 240500Z 2406/2512 27006KT 7000 BKN010 TN13/2420Z TX20/2506Z \n TEMPO 2406/2409 25015G25KT SCT005 \n BECMG 2414/2415 4500 BR \n TEMPO 2420/2424 22005KT 2500 BKN004 \n BECMG 2500/2501 24006KT 6000 NSW FEW010 BKN160"
"taf	RKSI	2020-05-24 07:25:00	TAF \n AMD RKSI 240725Z 2407/2512 27006KT 6000 SCT002 BKN006 TN13/2420Z TX20/2506Z \n TEMPO 2407/2409 24010KT 3500 BR \n BECMG 2410/2411 3500 BR \n TEMPO 2420/2424 22005KT 2500 BKN004 \n BECMG 2500/2501 24006KT 6000 NSW FEW010 BKN160"
"taf	RKSI	2020-05-24 07:33:00	TAF \n AMD TAF \n AMD RKSI 240725Z 2407/2512 27006KT 6000 SCT002 BKN006 TN13/2420Z TX20/2506Z \n TEMPO 2407/2409 24010KT 3500 BR \n BECMG 2410/2411 3500 BR \n TEMPO 2420/2424 22005KT 2500 BKN004 \n BECMG 2500/2501 24006KT 6000 NSW FEW010 BKN160"
"taf	RKSI	2020-05-24 12:00:00	TAF RKSI 241100Z 2412/2518 27006KT 2500 BR BKN003 TN12/2420Z TX19/2506Z \n TEMPO 2412/2413 1200 \n TEMPO 2419/2424 22005KT 1400 \n BECMG 2500/2501 24006KT 6000 NSW SCT010 BKN160 \n BECMG 2511/2512 4200 BR BKN010 \n TEMPO 2516/2518 30005KT 2500 BKN004"
"taf	RKSI	2020-05-24 12:06:00	TAF RKSI 241100Z 2412/2518 27006KT 2500 BR BKN003 TN12/2420Z TX19/2506Z \n TEMPO 2412/2413 1200 \n TEMPO 2419/2424 22005KT 1400 \n BECMG 2500/2501 24006KT 6000 NSW SCT010 BKN160 \n BECMG 2511/2512 4200 BR BKN010 \n TEMPO 2516/2518 30005KT 2500 BKN004"
"taf	RKSI	2020-05-24 14:35:00	TAF \n AMD RKSI 241335Z 2414/2518 27006KT 4200 BR BKN003 TN12/2420Z TX19/2506Z \n TEMPO 2419/2424 22005KT 1400 \n BECMG 2501/2502 24006KT 6000 NSW SCT010 BKN160 \n BECMG 2511/2512 4200 BR BKN010 \n TEMPO 2516/2518 30005KT 2500 BKN004"
"taf	RKSI	2020-05-24 14:39:00	TAF \n AMD TAF \n AMD RKSI 241335Z 2414/2518 27006KT 4200 BR BKN003 TN12/2420Z TX19/2506Z \n TEMPO 2419/2424 22005KT 1400 \n BECMG 2501/2502 24006KT 6000 NSW SCT010 BKN160 \n BECMG 2511/2512 4200 BR BKN010 \n TEMPO 2516/2518 30005KT 2500 BKN004"
"taf	RKSI	2020-05-24 16:52:00	TAF \n AMD RKSI 241552Z 2416/2518 27006KT 2500 BR BKN003 TN12/2420Z TX19/2506Z \n TEMPO 2419/2424 22005KT 1400 \n BECMG 2501/2502 24006KT 6000 NSW SCT010 BKN160 \n BECMG 2511/2512 4200 BR BKN010 \n TEMPO 2516/2518 30005KT 2500 BKN004"
"taf	RKSI	2020-05-24 16:54:00	TAF \n AMD TAF \n AMD RKSI 241552Z 2416/2518 27006KT 2500 BR BKN003 TN12/2420Z TX19/2506Z \n TEMPO 2419/2424 22005KT 1400 \n BECMG 2501/2502 24006KT 6000 NSW SCT010 BKN160 \n BECMG 2511/2512 4200 BR BKN010 \n TEMPO 2516/2518 30005KT 2500 BKN004"
"taf	RKSI	2020-05-24 18:00:00	TAF RKSI 241700Z 2418/2524 24005KT 1400 BR BKN002 TN12/2420Z TX19/2506Z TN12/2521Z \n TEMPO 2418/2423 0700 FG \n BECMG 2500/2501 6000 NSW SCT010 BKN150 \n BECMG 2511/2512 4200 BR BKN010 \n TEMPO 2516/2521 30005KT 1200 BKN003"
"taf	RKSI	2020-05-24 18:06:00	TAF RKSI 241700Z 2418/2524 24005KT 1400 BR BKN002 TN12/2420Z TX19/2506Z TN12/2521Z \n TEMPO 2418/2423 0700 FG \n BECMG 2500/2501 6000 NSW SCT010 BKN150 \n BECMG 2511/2512 4200 BR BKN010 \n TEMPO 2516/2521 30005KT 1200 BKN003"
"taf	RKSI	2020-05-24 21:50:00	TAF \n AMD RKSI 242050Z 2421/2524 09005KT 3500 BR BKN002 TN12/2420Z TX19/2506Z TN12/2521Z \n TEMPO 2421/2424 1400 \n BECMG 2501/2502 6000 NSW SCT010 BKN150 \n BECMG 2511/2512 4200 BR BKN010 \n TEMPO 2516/2521 30005KT 1200 BKN003"
"taf	RKSI	2020-05-24 21:51:00	TAF \n AMD TAF \n AMD RKSI 242050Z 2421/2524 09005KT 3500 BR BKN002 TN12/2420Z TX19/2506Z TN12/2521Z \n TEMPO 2421/2424 1400 \n BECMG 2501/2502 6000 NSW SCT010 BKN150 \n BECMG 2511/2512 4200 BR BKN010 \n TEMPO 2516/2521 30005KT 1200 BKN003"
"taf	RKSI	2020-05-25 00:00:00	TAF RKSI 252300Z 2600/2706 30005KT 6000 SCT010 BKN120 TX18/2604Z TN11/2621Z TX20/2705Z \n BECMG 2605/2606 24006KT 4200 -RA SCT010 BKN025 OVC100 \n BECMG 2611/2612 32008KT 6000 NSW SCT030 \n BECMG 2621/2622 07005KT \n BECMG 2700/2701 25006KT"
"taf	RKSI	2020-05-25 00:06:00	TAF RKSI 252300Z 2600/2706 30005KT 6000 SCT010 BKN120 TX18/2604Z TN11/2621Z TX20/2705Z \n BECMG 2605/2606 24006KT 4200 -RA SCT010 BKN025 OVC100 \n BECMG 2611/2612 32008KT 6000 NSW SCT030 \n BECMG 2621/2622 07005KT \n BECMG 2700/2701 25006KT"
"taf	RKSI	2020-05-25 06:00:00	TAF RKSI 250500Z 2506/2612 26006KT 6000 BKN005 BKN012 TN12/2521Z TX18/2604Z \n BECMG 2510/2511 23005KT 3500 BR \n TEMPO 2517/2524 30005KT 1200 BKN001 \n BECMG 2600/2601 6000 NSW \n BECMG 2605/2606 20007KT 4200 -RA SCT010 BKN025 OVC100 \n BECMG 2610/2611 32008KT BR FEW010 SCT030"
"taf	RKSI	2020-05-25 06:06:00	TAF RKSI 250500Z 2506/2612 26006KT 6000 BKN005 BKN012 TN12/2521Z TX18/2604Z \n BECMG 2510/2511 23005KT 3500 BR \n TEMPO 2517/2524 30005KT 1200 BKN001 \n BECMG 2600/2601 6000 NSW \n BECMG 2605/2606 20007KT 4200 -RA SCT010 BKN025 OVC100 \n BECMG 2610/2611 32008KT BR FEW010 SCT030"
"taf	RKSI	2020-05-25 07:50:00	TAF \n AMD RKSI 250650Z 2507/2612 26006KT 6000 SCT010 BKN150 TN12/2521Z TX18/2604Z \n BECMG 2510/2511 23005KT 3500 BR BKN005 BKN012 \n TEMPO 2517/2524 30005KT 1200 BKN001 \n BECMG 2600/2601 6000 NSW \n BECMG 2605/2606 20007KT 4200 -RA SCT010 BKN025 OVC100 \n BECMG 2610/2611 32008KT BR FEW010 SCT030"
"taf	RKSI	2020-05-25 07:54:00	TAF \n AMD TAF \n AMD RKSI 250650Z 2507/2612 26006KT 6000 SCT010 BKN150 TN12/2521Z TX18/2604Z \n BECMG 2510/2511 23005KT 3500 BR BKN005 BKN012 \n TEMPO 2517/2524 30005KT 1200 BKN001 \n BECMG 2600/2601 6000 NSW \n BECMG 2605/2606 20007KT 4200 -RA SCT010 BKN025 OVC100 \n BECMG 2610/2611 32008KT BR FEW010 SCT030"
"taf	RKSI	2020-05-25 11:35:00	TAF \n AMD RKSI 251035Z 2511/2612 24005KT 3500 BR BKN003 TN12/2521Z TX18/2604Z \n TEMPO 2511/2512 1400 \n TEMPO 2517/2524 30005KT 1000 BKN001 \n BECMG 2600/2601 6000 NSW \n BECMG 2605/2606 20007KT 4200 -RA SCT010 BKN025 OVC100 \n BECMG 2610/2611 32008KT BR FEW010 SCT030"
"taf	RKSI	2020-05-25 11:36:00	TAF \n AMD TAF \n AMD RKSI 251035Z 2511/2612 24005KT 3500 BR BKN003 TN12/2521Z TX18/2604Z \n TEMPO 2511/2512 1400 \n TEMPO 2517/2524 30005KT 1000 BKN001 \n BECMG 2600/2601 6000 NSW \n BECMG 2605/2606 20007KT 4200 -RA SCT010 BKN025 OVC100 \n BECMG 2610/2611 32008KT BR FEW010 SCT030"
"taf	RKSI	2020-05-25 12:00:00	TAF RKSI 251100Z 2512/2618 24005KT 3500 BR BKN004 BKN010 TN11/2521Z TX18/2604Z \n TEMPO 2517/2524 30005KT 1000 BKN001 \n BECMG 2600/2601 6000 NSW SCT005 BKN010 \n BECMG 2605/2606 27006KT 4200 -RA SCT010 BKN025 OVC100 \n BECMG 2611/2612 32008KT BR FEW010 SCT030 \n BECMG 2612/2613 6000 NSW"
"taf	RKSI	2020-05-25 12:09:00	TAF RKSI 251100Z 2512/2618 24005KT 3500 BR BKN004 BKN010 TN11/2521Z TX18/2604Z \n TEMPO 2517/2524 30005KT 1000 BKN001 \n BECMG 2600/2601 6000 NSW SCT005 BKN010 \n BECMG 2605/2606 27006KT 4200 -RA SCT010 BKN025 OVC100 \n BECMG 2611/2612 32008KT BR FEW010 SCT030 \n BECMG 2612/2613 6000 NSW"
"taf	RKSI	2020-05-25 18:00:00	TAF RKSI 251700Z 2518/2624 30005KT 4200 BR BKN003 BKN010 TN11/2521Z TX18/2604Z TN11/2621Z \n TEMPO 2518/2523 1200 \n BECMG 2600/2601 6000 NSW SCT005 BKN010 \n BECMG 2605/2606 24006KT 4200 -RA SCT010 BKN025 OVC100 \n BECMG 2611/2612 32008KT 6000 NSW SCT030 \n BECMG 2621/2622 07005KT"
"taf	RKSI	2020-05-25 18:09:00	TAF RKSI 251700Z 2518/2624 30005KT 4200 BR BKN003 BKN010 TN11/2521Z TX18/2604Z TN11/2621Z \n TEMPO 2518/2523 1200 \n BECMG 2600/2601 6000 NSW SCT005 BKN010 \n BECMG 2605/2606 24006KT 4200 -RA SCT010 BKN025 OVC100 \n BECMG 2611/2612 32008KT 6000 NSW SCT030 \n BECMG 2621/2622 07005KT"
"taf	RKSI	2020-05-26 06:00:00	TAF RKSI 260500Z 2606/2712 25010KT 3500 -RA FEW010 BKN025 OVC080 TN13/2621Z TX20/2706Z \n TEMPO 2607/2608 19015G25KT 2800 \n BECMG 2611/2612 31010KT 6000 NSW \n BECMG 2613/2614 FEW010 SCT035 \n BECMG 2621/2622 23007KT \n BECMG 2703/2704 29008KT"
"taf	RKSI	2020-05-26 06:06:00	TAF RKSI 260500Z 2606/2712 25010KT 3500 -RA FEW010 BKN025 OVC080 TN13/2621Z TX20/2706Z \n TEMPO 2607/2608 19015G25KT 2800 \n BECMG 2611/2612 31010KT 6000 NSW \n BECMG 2613/2614 FEW010 SCT035 \n BECMG 2621/2622 23007KT \n BECMG 2703/2704 29008KT"
"taf	RKSI	2020-05-26 08:10:00	TAF \n AMD RKSI 260810Z 2608/2712 30010KT 7000 FEW010 BKN025 OVC080 TN13/2621Z TX20/2706Z \n BECMG 2613/2614 FEW010 SCT035 \n BECMG 2621/2622 23007KT \n BECMG 2703/2704 29008KT"
"taf	RKSI	2020-05-26 08:12:00	TAF \n AMD TAF \n AMD RKSI 260810Z 2608/2712 30010KT 7000 FEW010 BKN025 OVC080 TN13/2621Z TX20/2706Z \n BECMG 2613/2614 FEW010 SCT035 \n BECMG 2621/2622 23007KT \n BECMG 2703/2704 29008KT"
"taf	RKSI	2020-05-26 10:20:00	TAF \n AMD RKSI 261020Z 2610/2712 30010KT 7000 FEW010 BKN025 OVC080 TN13/2621Z TX20/2706Z \n TEMPO 2611/2612 -RA \n BECMG 2613/2614 FEW010 SCT035 \n BECMG 2621/2622 23007KT \n BECMG 2703/2704 29008KT"
"taf	RKSI	2020-05-26 10:21:00	TAF \n AMD TAF \n AMD RKSI 261020Z 2610/2712 30010KT 7000 FEW010 BKN025 OVC080 TN13/2621Z TX20/2706Z \n TEMPO 2611/2612 -RA \n BECMG 2613/2614 FEW010 SCT035 \n BECMG 2621/2622 23007KT \n BECMG 2703/2704 29008KT"
"taf	RKSI	2020-05-26 12:00:00	TAF RKSI 261100Z 2612/2718 30006KT 6000 FEW008 BKN040 TN13/2621Z TX20/2706Z \n BECMG 2613/2614 FEW007 \n BECMG 2621/2622 33006KT 4200 BR \n BECMG 2623/2624 26008KT 6000 NSW \n BECMG 2715/2716 19007KT 3500 BR"
"taf	RKSI	2020-05-26 12:09:00	TAF RKSI 261100Z 2612/2718 30006KT 6000 FEW008 BKN040 TN13/2621Z TX20/2706Z \n BECMG 2613/2614 FEW007 \n BECMG 2621/2622 33006KT 4200 BR \n BECMG 2623/2624 26008KT 6000 NSW \n BECMG 2715/2716 19007KT 3500 BR"
"taf	RKSI	2020-05-26 18:00:00	TAF RKSI 261700Z 2618/2724 33006KT 8000 FEW030 TN12/2620Z TX20/2704Z TN13/2721Z \n BECMG 2703/2704 27010KT \n BECMG 2715/2716 20005KT SCT008 \n BECMG 2717/2718 4200 BR \n BECMG 2721/2722 24005KT 6000 NSW SCT010 BKN030"
"taf	RKSI	2020-05-26 18:09:00	TAF RKSI 261700Z 2618/2724 33006KT 8000 FEW030 TN12/2620Z TX20/2704Z TN13/2721Z \n BECMG 2703/2704 27010KT \n BECMG 2715/2716 20005KT SCT008 \n BECMG 2717/2718 4200 BR \n BECMG 2721/2722 24005KT 6000 NSW SCT010 BKN030"
"taf	RKSI	2020-05-27 00:00:00	TAF RKSI 272300Z 2800/2906 20006KT 9999 FEW030 BKN120 TX20/2806Z TN13/2821Z TX23/2905Z \n BECMG 2803/2804 26006KT \n BECMG 2815/2816 17005KT 6000 NSC \n TEMPO 2819/2821 4200 BR SCT010 \n BECMG 2904/2905 28007KT"
"taf	RKSI	2020-05-27 00:06:00	TAF RKSI 272300Z 2800/2906 20006KT 9999 FEW030 BKN120 TX20/2806Z TN13/2821Z TX23/2905Z \n BECMG 2803/2804 26006KT \n BECMG 2815/2816 17005KT 6000 NSC \n TEMPO 2819/2821 4200 BR SCT010 \n BECMG 2904/2905 28007KT"
"taf	RKSI	2020-05-27 06:00:00	TAF RKSI 270500Z 2706/2812 28010KT CAVOK TN13/2721Z TX19/2806Z \n BECMG 2716/2717 18006KT \n BECMG 2720/2721 4200 BR NSC \n BECMG 2722/2723 15006KT CAVOK \n BECMG 2800/2801 26008KT \n BECMG 2811/2812 29007KT 4200 BR FEW005"
"taf	RKSI	2020-05-27 06:09:00	TAF RKSI 270500Z 2706/2812 28010KT CAVOK TN13/2721Z TX19/2806Z \n BECMG 2716/2717 18006KT \n BECMG 2720/2721 4200 BR NSC \n BECMG 2722/2723 15006KT CAVOK \n BECMG 2800/2801 26008KT \n BECMG 2811/2812 29007KT 4200 BR FEW005"
"taf	RKSI	2020-05-27 12:00:00	TAF RKSI 271100Z 2712/2818 28008KT CAVOK TN13/2721Z TX19/2806Z \n BECMG 2716/2717 17007KT 6000 NSC \n BECMG 2719/2720 20006KT 4200 BR FEW004 BKN025 \n BECMG 2721/2722 17008KT 6000 NSW SCT035 \n TEMPO 2802/2804 23010KT \n BECMG 2805/2806 27008KT"
"taf	RKSI	2020-05-27 12:06:00	TAF RKSI 271100Z 2712/2818 28008KT CAVOK TN13/2721Z TX19/2806Z \n BECMG 2716/2717 17007KT 6000 NSC \n BECMG 2719/2720 20006KT 4200 BR FEW004 BKN025 \n BECMG 2721/2722 17008KT 6000 NSW SCT035 \n TEMPO 2802/2804 23010KT \n BECMG 2805/2806 27008KT"
"taf	RKSI	2020-05-27 18:00:00	TAF RKSI 271700Z 2718/2824 18005KT 9999 FEW030 BKN140 TN12/2720Z TX19/2804Z TN13/2821Z \n TEMPO 2720/2722 SCT025 BKN100 \n TEMPO 2803/2806 25008KT \n BECMG 2806/2807 28008KT \n BECMG 2815/2816 18005KT 6000 \n TEMPO 2819/2821 4200 BR SCT010"
"taf	RKSI	2020-05-27 18:06:00	TAF RKSI 271700Z 2718/2824 18005KT 9999 FEW030 BKN140 TN12/2720Z TX19/2804Z TN13/2821Z \n TEMPO 2720/2722 SCT025 BKN100 \n TEMPO 2803/2806 25008KT \n BECMG 2806/2807 28008KT \n BECMG 2815/2816 18005KT 6000 \n TEMPO 2819/2821 4200 BR SCT010"
"taf	RKSI	2020-05-28 00:00:00	TAF RKSI 282300Z 2900/3006 24007KT 7000 SCT035 TX23/2906Z TN15/2921Z TX24/3006Z \n BECMG 2906/2907 31007KT \n BECMG 2918/2919 07006KT 4200 BR NSC \n BECMG 2920/2921 13006KT 6000 NSW \n BECMG 3002/3003 31010KT"
"taf	RKSI	2020-05-28 00:09:00	TAF RKSI 282300Z 2900/3006 24007KT 7000 SCT035 TX23/2906Z TN15/2921Z TX24/3006Z \n BECMG 2906/2907 31007KT \n BECMG 2918/2919 07006KT 4200 BR NSC \n BECMG 2920/2921 13006KT 6000 NSW \n BECMG 3002/3003 31010KT"
"taf	RKSI	2020-05-28 06:00:00	TAF RKSI 280500Z 2806/2912 30008KT 9999 SCT030 TN13/2821Z TX23/2905Z \n BECMG 2815/2816 20005KT 6000 NSC \n BECMG 2819/2820 17005KT 4200 BR SCT010 \n BECMG 2822/2823 6000 NSW NSC \n BECMG 2905/2906 31007KT \n BECMG 2911/2912 35005KT 4200 BR SCT010"
"taf	RKSI	2020-05-28 06:06:00	TAF RKSI 280500Z 2806/2912 30008KT 9999 SCT030 TN13/2821Z TX23/2905Z \n BECMG 2815/2816 20005KT 6000 NSC \n BECMG 2819/2820 17005KT 4200 BR SCT010 \n BECMG 2822/2823 6000 NSW NSC \n BECMG 2905/2906 31007KT \n BECMG 2911/2912 35005KT 4200 BR SCT010"
"taf	RKSI	2020-05-28 12:00:00	TAF RKSI 281100Z 2812/2918 30007KT 6000 SCT030 TN13/2821Z TX23/2905Z \n BECMG 2815/2816 4500 BR \n TEMPO 2818/2821 01005KT 2500 BKN005 \n BECMG 2822/2823 22007KT 6000 NSW NSC \n BECMG 2909/2910 31006KT \n BECMG 2915/2916 03005KT 4200 BR"
"taf	RKSI	2020-05-28 12:06:00	TAF RKSI 281100Z 2812/2918 30007KT 6000 SCT030 TN13/2821Z TX23/2905Z \n BECMG 2815/2816 4500 BR \n TEMPO 2818/2821 01005KT 2500 BKN005 \n BECMG 2822/2823 22007KT 6000 NSW NSC \n BECMG 2909/2910 31006KT \n BECMG 2915/2916 03005KT 4200 BR"
"taf	RKSI	2020-05-28 18:00:00	TAF RKSI 281700Z 2818/2924 29006KT CAVOK TN14/2821Z TX23/2906Z TN15/2921Z \n BECMG 2819/2820 07006KT \n BECMG 2821/2822 16006KT 4200 BR FEW004 \n BECMG 2823/2824 19006KT 6000 NSW \n BECMG 2905/2906 31008KT \n BECMG 2917/2918 14006KT"
"taf	RKSI	2020-05-28 18:09:00	TAF RKSI 281700Z 2818/2924 29006KT CAVOK TN14/2821Z TX23/2906Z TN15/2921Z \n BECMG 2819/2820 07006KT \n BECMG 2821/2822 16006KT 4200 BR FEW004 \n BECMG 2823/2824 19006KT 6000 NSW \n BECMG 2905/2906 31008KT \n BECMG 2917/2918 14006KT"
"taf	RKSI	2020-05-29 00:00:00	TAF RKSI 292300Z 3000/3106 14006KT 6000 NSC TX24/3006Z TN16/3021Z TX24/3106Z \n TEMPO 3004/3005 20010KT \n TEMPO 3006/3007 23010KT \n BECMG 3008/3009 31008KT \n BECMG 3016/3017 14006KT \n BECMG 3100/3101 25007KT"
"taf	RKSI	2020-05-29 00:09:00	TAF RKSI 292300Z 3000/3106 14006KT 6000 NSC TX24/3006Z TN16/3021Z TX24/3106Z \n TEMPO 3004/3005 20010KT \n TEMPO 3006/3007 23010KT \n BECMG 3008/3009 31008KT \n BECMG 3016/3017 14006KT \n BECMG 3100/3101 25007KT"
"taf	RKSI	2020-05-29 01:09:00	TAF \n AMD TAF \n AMD RKSI 290110Z 2901/3006 30007KT 9999 SCT035 TX23/2906Z TN15/2921Z TX24/3006Z \n BECMG 2918/2919 07006KT 4200 BR NSC \n BECMG 2920/2921 13006KT 6000 NSW \n BECMG 3002/3003 31010KT"
"taf	RKSI	2020-05-29 01:10:00	TAF \n AMD RKSI 290110Z 2901/3006 30007KT 9999 SCT035 TX23/2906Z TN15/2921Z TX24/3006Z \n BECMG 2918/2919 07006KT 4200 BR NSC \n BECMG 2920/2921 13006KT 6000 NSW \n BECMG 3002/3003 31010KT"
"taf	RKSI	2020-05-29 06:00:00	TAF RKSI 290500Z 2906/3012 26010KT 9999 SCT035 TN15/2919Z TX24/3006Z \n BECMG 2908/2909 32007KT \n BECMG 2917/2918 07006KT 4200 BR \n BECMG 2920/2921 15006KT 6000 NSW \n BECMG 3005/3006 31008KT"
"taf	RKSI	2020-05-29 06:09:00	TAF RKSI 290500Z 2906/3012 26010KT 9999 SCT035 TN15/2919Z TX24/3006Z \n BECMG 2908/2909 32007KT \n BECMG 2917/2918 07006KT 4200 BR \n BECMG 2920/2921 15006KT 6000 NSW \n BECMG 3005/3006 31008KT"
"taf	RKSI	2020-05-29 12:00:00	TAF RKSI 291100Z 2912/3018 36006KT 9999 SCT030 BKN140 TN15/2919Z TX24/3006Z \n BECMG 2917/2918 07006KT 4200 BR \n BECMG 2920/2921 15006KT 6000 NSW \n BECMG 3005/3006 31008KT \n BECMG 3017/3018 27006KT 4200 BR"
"taf	RKSI	2020-05-29 12:09:00	TAF RKSI 291100Z 2912/3018 36006KT 9999 SCT030 BKN140 TN15/2919Z TX24/3006Z \n BECMG 2917/2918 07006KT 4200 BR \n BECMG 2920/2921 15006KT 6000 NSW \n BECMG 3005/3006 31008KT \n BECMG 3017/3018 27006KT 4200 BR"
"taf	RKSI	2020-05-29 18:00:00	TAF RKSI 291700Z 2918/3024 13008KT CAVOK TN15/2921Z TX24/3006Z TN16/3021Z \n BECMG 3003/3004 21010KT \n BECMG 3007/3008 28010KT \n BECMG 3010/3011 34006KT \n BECMG 3015/3016 24006KT"
"taf	RKSI	2020-05-29 18:09:00	TAF RKSI 291700Z 2918/3024 13008KT CAVOK TN15/2921Z TX24/3006Z TN16/3021Z \n BECMG 3003/3004 21010KT \n BECMG 3007/3008 28010KT \n BECMG 3010/3011 34006KT \n BECMG 3015/3016 24006KT"
"taf	RKSI	2020-05-30 00:00:00	TAF RKSI 302300Z 3100/0106 21005KT 6000 FEW030 BKN140 TX24/3106Z TN16/3120Z TX22/0106Z \n BECMG 3102/3103 27008KT 9999 \n BECMG 3111/3112 21008KT 6000 BKN030 BKN100 \n BECMG 3114/3115 24010KT 4200 BR SCT010 BKN025 OVC100 \n BECMG 3123/3124 27010KT 6000 NSW SCT030 BKN140 \n BECMG 0102/0103 27015G25KT CAVOK"
"taf	RKSI	2020-05-30 00:09:00	TAF RKSI 302300Z 3100/0106 21005KT 6000 FEW030 BKN140 TX24/3106Z TN16/3120Z TX22/0106Z \n BECMG 3102/3103 27008KT 9999 \n BECMG 3111/3112 21008KT 6000 BKN030 BKN100 \n BECMG 3114/3115 24010KT 4200 BR SCT010 BKN025 OVC100 \n BECMG 3123/3124 27010KT 6000 NSW SCT030 BKN140 \n BECMG 0102/0103 27015G25KT CAVOK"
"taf	RKSI	2020-05-30 04:55:00	TAF \n AMD RKSI 300355Z 3004/3106 31006KT 6000 NSC TX24/3006Z TN16/3021Z TX24/3106Z \n BECMG 3015/3016 14006KT \n BECMG 3100/3101 25007KT"
"taf	RKSI	2020-05-30 04:57:00	TAF \n AMD TAF \n AMD RKSI 300355Z 3004/3106 31006KT 6000 NSC TX24/3006Z TN16/3021Z TX24/3106Z \n BECMG 3015/3016 14006KT \n BECMG 3100/3101 25007KT"
"taf	RKSI	2020-05-30 06:00:00	TAF RKSI 300500Z 3006/3112 30007KT CAVOK TN16/3021Z TX24/3106Z \n BECMG 3015/3016 14005KT \n BECMG 3100/3101 25006KT"
"taf	RKSI	2020-05-30 06:09:00	TAF RKSI 300500Z 3006/3112 30007KT CAVOK TN16/3021Z TX24/3106Z \n BECMG 3015/3016 14005KT \n BECMG 3100/3101 25006KT"
"taf	RKSI	2020-05-30 12:00:00	TAF RKSI 301100Z 3012/3118 30007KT CAVOK TN16/3021Z TX24/3106Z \n BECMG 3015/3016 14005KT \n BECMG 3100/3101 25006KT \n BECMG 3112/3113 19005KT 6000 SCT030 BKN120"
"taf	RKSI	2020-05-30 12:09:00	TAF RKSI 301100Z 3012/3118 30007KT CAVOK TN16/3021Z TX24/3106Z \n BECMG 3015/3016 14005KT \n BECMG 3100/3101 25006KT \n BECMG 3112/3113 19005KT 6000 SCT030 BKN120"
"taf	RKSI	2020-05-30 18:00:00	TAF RKSI 301700Z 3018/3124 22005KT 6000 SCT030 BKN120 TN16/3021Z TX24/3106Z TN16/3120Z \n BECMG 3100/3101 28007KT 9999 \n BECMG 3112/3113 21007KT 6000 BKN030 BKN100 \n BECMG 3116/3117 4200 BR SCT010 BKN025 OVC100 \n BECMG 3123/3124 6000 NSW"
"taf	RKSI	2020-05-30 18:09:00	TAF RKSI 301700Z 3018/3124 22005KT 6000 SCT030 BKN120 TN16/3021Z TX24/3106Z TN16/3120Z \n BECMG 3100/3101 28007KT 9999 \n BECMG 3112/3113 21007KT 6000 BKN030 BKN100 \n BECMG 3116/3117 4200 BR SCT010 BKN025 OVC100 \n BECMG 3123/3124 6000 NSW"
"taf	RKSI	2020-05-31 00:00:00	TAF RKSI 312300Z 0100/0206 27010KT 9999 SCT030 TX23/0106Z TN15/0119Z TX22/0204Z \n BECMG 0102/0103 26015G25KT CAVOK \n BECMG 0111/0112 19007KT 6000 NSC \n BECMG 0118/0119 15010KT 4200 BR \n BECMG 0121/0122 6000 NSW SCT030 BKN100 \n BECMG 0202/0203 16015G25KT -RA SCT010 BKN025 OVC080"
"taf	RKSI	2020-05-31 00:09:00	TAF RKSI 312300Z 0100/0206 27010KT 9999 SCT030 TX23/0106Z TN15/0119Z TX22/0204Z \n BECMG 0102/0103 26015G25KT CAVOK \n BECMG 0111/0112 19007KT 6000 NSC \n BECMG 0118/0119 15010KT 4200 BR \n BECMG 0121/0122 6000 NSW SCT030 BKN100 \n BECMG 0202/0203 16015G25KT -RA SCT010 BKN025 OVC080"
"taf	RKSI	2020-05-31 02:03:00	TAF \n AMD RKSI 310203Z 3102/0106 30005KT 9999 FEW030 BKN140 TX24/3106Z TN16/3120Z TX22/0106Z \n BECMG 3111/3112 21008KT 6000 BKN030 BKN100 \n BECMG 3114/3115 24010KT 4200 BR SCT010 BKN025 OVC100 \n BECMG 3123/3124 27010KT 6000 NSW SCT030 BKN140 \n BECMG 0102/0103 27015G25KT CAVOK"
"taf	RKSI	2020-05-31 02:06:00	TAF \n AMD TAF \n AMD RKSI 310203Z 3102/0106 30005KT 9999 FEW030 BKN140 TX24/3106Z TN16/3120Z TX22/0106Z \n BECMG 3111/3112 21008KT 6000 BKN030 BKN100 \n BECMG 3114/3115 24010KT 4200 BR SCT010 BKN025 OVC100 \n BECMG 3123/3124 27010KT 6000 NSW SCT030 BKN140 \n BECMG 0102/0103 27015G25KT CAVOK"
"taf	RKSI	2020-05-31 06:00:00	TAF RKSI 310500Z 3106/0112 27008KT 9999 FEW030 BKN120 TN16/3120Z TX22/0106Z \n BECMG 3112/3113 21010KT 6000 BKN030 BKN100 \n BECMG 3114/3115 4200 BR SCT010 BKN025 OVC100 \n BECMG 3121/3122 27012KT 6000 NSW SCT030 BKN150 \n BECMG 0102/0103 27015G25KT CAVOK \n BECMG 0106/0107 26010KT"
"taf	RKSI	2020-05-31 06:09:00	TAF RKSI 310500Z 3106/0112 27008KT 9999 FEW030 BKN120 TN16/3120Z TX22/0106Z \n BECMG 3112/3113 21010KT 6000 BKN030 BKN100 \n BECMG 3114/3115 4200 BR SCT010 BKN025 OVC100 \n BECMG 3121/3122 27012KT 6000 NSW SCT030 BKN150 \n BECMG 0102/0103 27015G25KT CAVOK \n BECMG 0106/0107 26010KT"
"taf	RKSI	2020-05-31 12:00:00	TAF RKSI 311100Z 3112/0118 22010KT 6000 BKN030 BKN100 TN16/3120Z TX22/0106Z \n BECMG 3114/3115 4200 BR SCT010 BKN025 OVC100 \n TEMPO 3118/3121 2000 -RA \n BECMG 3122/3123 28012KT 6000 NSW SCT030 BKN150 \n BECMG 0102/0103 27015G25KT CAVOK \n BECMG 0112/0113 19006KT"
"taf	RKSI	2020-05-31 12:09:00	TAF RKSI 311100Z 3112/0118 22010KT 6000 BKN030 BKN100 TN16/3120Z TX22/0106Z \n BECMG 3114/3115 4200 BR SCT010 BKN025 OVC100 \n TEMPO 3118/3121 2000 -RA \n BECMG 3122/3123 28012KT 6000 NSW SCT030 BKN150 \n BECMG 0102/0103 27015G25KT CAVOK \n BECMG 0112/0113 19006KT"
"taf	RKSI	2020-05-31 13:05:00	TAF \n AMD RKSI 311305Z 3113/0118 22010KT 6000 -RA SCT010 BKN025 OVC100 TN16/3120Z TX22/0106Z \n BECMG 3114/3115 4200 \n TEMPO 3118/3121 2000 BKN005 BKN025 OVC080 \n BECMG 3121/3122 28012KT 6000 NSW SCT030 BKN150 \n BECMG 0102/0103 27015G25KT CAVOK \n BECMG 0112/0113 19006KT"
"taf	RKSI	2020-05-31 13:09:00	TAF \n AMD TAF \n AMD RKSI 311305Z 3113/0118 22010KT 6000 -RA SCT010 BKN025 OVC100 TN16/3120Z TX22/0106Z \n BECMG 3114/3115 4200 \n TEMPO 3118/3121 2000 BKN005 BKN025 OVC080 \n BECMG 3121/3122 28012KT 6000 NSW SCT030 BKN150 \n BECMG 0102/0103 27015G25KT CAVOK \n BECMG 0112/0113 19006KT"
"taf	RKSI	2020-05-31 18:00:00	TAF RKSI 311700Z 3118/0124 25012KT 4200 BR BKN005 BKN025 OVC080 TN15/3121Z TX22/0106Z TN15/0119Z \n BECMG 3122/3123 28012KT 6000 NSW SCT030 BKN150 \n BECMG 0102/0103 25015G25KT CAVOK \n BECMG 0112/0113 18008KT 6000 NSC \n BECMG 0118/0119 15010KT 4200 BR \n BECMG 0121/0122 6000 NSW"
"taf	RKSI	2020-06-01 00:00:00	TAF RKSI 012300Z 0200/0306 16005KT 3200 -RA FEW010 BKN025 OVC080 TX19/0202Z TN16/0220Z TX23/0305Z \n BECMG 0201/0202 16015G25KT \n TEMPO 0204/0208 2500 TSRA SCT015CB BKN025 OVC070 \n BECMG 0213/0214 20010KT 2500 BR BKN008 BKN020 \n TEMPO 0217/0221 1200 \n BECMG 0301/0302 4200 SCT010"
"taf	RKSI	2020-06-01 00:06:00	TAF RKSI 012300Z 0200/0306 16005KT 3200 -RA FEW010 BKN025 OVC080 TX19/0202Z TN16/0220Z TX23/0305Z \n BECMG 0201/0202 16015G25KT \n TEMPO 0204/0208 2500 TSRA SCT015CB BKN025 OVC070 \n BECMG 0213/0214 20010KT 2500 BR BKN008 BKN020 \n TEMPO 0217/0221 1200 \n BECMG 0301/0302 4200 SCT010"
"taf	RKSI	2020-06-01 06:00:00	TAF RKSI 010500Z 0106/0212 26015G25KT CAVOK TN15/0118Z TX22/0209Z \n BECMG 0112/0113 24005KT 6000 NSC \n BECMG 0118/0119 15008KT 4200 BR FEW010 \n BECMG 0120/0121 6000 NSW SCT030 BKN100 \n BECMG 0202/0203 15015G25KT 4200 -RA SCT010 BKN025 OVC080 \n TEMPO 0208/0209 18015G28KT TSRA SCT015CB BKN025 OVC070"
"taf	RKSI	2020-06-01 06:06:00	TAF RKSI 010500Z 0106/0212 26015G25KT CAVOK TN15/0118Z TX22/0209Z \n BECMG 0112/0113 24005KT 6000 NSC \n BECMG 0118/0119 15008KT 4200 BR FEW010 \n BECMG 0120/0121 6000 NSW SCT030 BKN100 \n BECMG 0202/0203 15015G25KT 4200 -RA SCT010 BKN025 OVC080 \n TEMPO 0208/0209 18015G28KT TSRA SCT015CB BKN025 OVC070"
"taf	RKSI	2020-06-01 06:09:00	TAF RKSI 010500Z 0106/0212 26015G25KT CAVOK TN15/0118Z TX22/0209Z \n BECMG 0112/0113 24005KT 6000 NSC \n BECMG 0118/0119 15008KT 4200 BR FEW010 \n BECMG 0120/0121 6000 NSW SCT030 BKN100 \n BECMG 0202/0203 15015G25KT 4200 -RA SCT010 BKN025 OVC080 \n TEMPO 0208/0209 18015G28KT TSRA SCT015CB BKN025 OVC070"
"taf	RKSI	2020-06-01 12:00:00	TAF RKSI 011100Z 0112/0218 23005KT CAVOK TN15/0118Z TX21/0202Z \n BECMG 0118/0119 18006KT 4200 BR FEW010 \n BECMG 0120/0121 15007KT 6000 NSW SCT030 BKN100 \n BECMG 0202/0203 16015G25KT 4200 -RA SCT010 BKN025 OVC080 \n TEMPO 0206/0208 TSRA SCT015CB BKN025 OVC070 \n BECMG 0213/0214 20008KT 2800 BR BKN008 BKN020"
"taf	RKSI	2020-06-01 12:06:00	TAF RKSI 011100Z 0112/0218 23005KT CAVOK TN15/0118Z TX21/0202Z \n BECMG 0118/0119 18006KT 4200 BR FEW010 \n BECMG 0120/0121 15007KT 6000 NSW SCT030 BKN100 \n BECMG 0202/0203 16015G25KT 4200 -RA SCT010 BKN025 OVC080 \n TEMPO 0206/0208 TSRA SCT015CB BKN025 OVC070 \n BECMG 0213/0214 20008KT 2800 BR BKN008 BKN020"
"taf	RKSI	2020-06-01 14:40:00	TAF \n AMD RKSI 011340Z 0114/0218 23005KT 6000 SCT005 TN15/0118Z TX21/0202Z \n BECMG 0118/0119 18006KT 4200 BR \n BECMG 0120/0121 15007KT 6000 NSW SCT030 BKN100 \n BECMG 0202/0203 16015G25KT 4200 -RA SCT010 BKN025 OVC080 \n TEMPO 0206/0208 TSRA SCT015CB BKN025 OVC070 \n BECMG 0213/0214 20008KT 2800 BR BKN008 BKN020"
"taf	RKSI	2020-06-01 14:42:00	TAF \n AMD TAF \n AMD RKSI 011340Z 0114/0218 23005KT 6000 SCT005 TN15/0118Z TX21/0202Z \n BECMG 0118/0119 18006KT 4200 BR \n BECMG 0120/0121 15007KT 6000 NSW SCT030 BKN100 \n BECMG 0202/0203 16015G25KT 4200 -RA SCT010 BKN025 OVC080 \n TEMPO 0206/0208 TSRA SCT015CB BKN025 OVC070 \n BECMG 0213/0214 20008KT 2800 BR BKN008 BKN020"
"taf	RKSI	2020-06-01 18:00:00	TAF RKSI 011700Z 0118/0224 18005KT 4200 BR SCT005 BKN180 TN12/0118Z TX21/0202Z TN16/0220Z \n BECMG 0120/0121 6000 NSW SCT030 BKN100 \n BECMG 0201/0202 16015G25KT 4200 -RA SCT010 BKN025 OVC080 \n TEMPO 0206/0208 TSRA SCT015CB BKN025 OVC070 \n BECMG 0213/0214 20010KT 2800 BR BKN008 BKN020 \n TEMPO 0217/0221 1200"
"taf	RKSI	2020-06-01 18:09:00	TAF TAF RKSI 011700Z 0118/0224 18005KT 4200 BR SCT005 BKN180 TN12/0118Z TX21/0202Z TN16/0220Z \n BECMG 0120/0121 6000 NSW SCT030 BKN100 \n BECMG 0201/0202 16015G25KT 4200 -RA SCT010 BKN025 OVC080 \n TEMPO 0206/0208 TSRA SCT015CB BKN025 OVC070 \n BECMG 0213/0214 20010KT 2800 BR BKN008 BKN020 \n TEMPO 0217/0221 1200"
"taf	RKSI	2020-06-01 21:27:00	TAF \n AMD RKSI 012127Z 0121/0224 18005KT 3200 BR FEW010 BKN120 TN12/0118Z TX21/0202Z TN16/0220Z \n BECMG 0201/0202 16015G25KT -RA SCT010 BKN025 OVC080 \n TEMPO 0206/0208 2500 TSRA SCT015CB BKN025 OVC070 \n BECMG 0213/0214 20010KT 2800 BR BKN008 BKN020 \n TEMPO 0217/0221 1200"
"taf	RKSI	2020-06-01 21:30:00	TAF \n AMD TAF \n AMD RKSI 012127Z 0121/0224 18005KT 3200 BR FEW010 BKN120 TN12/0118Z TX21/0202Z TN16/0220Z \n BECMG 0201/0202 16015G25KT -RA SCT010 BKN025 OVC080 \n TEMPO 0206/0208 2500 TSRA SCT015CB BKN025 OVC070 \n BECMG 0213/0214 20010KT 2800 BR BKN008 BKN020 \n TEMPO 0217/0221 1200"
"taf	RKSI	2020-06-02 00:00:00	TAF RKSI 022300Z 0300/0406 12005KT 6000 BKN006 TX24/0305Z TN16/0320Z TX22/0405Z \n BECMG 0310/0311 25005KT 2500 BR \n BECMG 0313/0314 1200 \n TEMPO 0316/0322 0700 FG BKN002 \n BECMG 0401/0402 3500"
"taf	RKSI	2020-06-02 00:09:00	TAF RKSI 022300Z 0300/0406 12005KT 6000 BKN006 TX24/0305Z TN16/0320Z TX22/0405Z \n BECMG 0310/0311 25005KT 2500 BR \n BECMG 0313/0314 1200 \n TEMPO 0316/0322 0700 FG BKN002 \n BECMG 0401/0402 3500"
"taf	RKSI	2020-06-02 01:10:00	TAF \n AMD RKSI 020110Z 0201/0306 30005KT 4000 -RA SCT006 BKN025 OVC080 TX18/0202Z TN16/0220Z TX23/0305Z \n BECMG 0203/0204 16015G25KT \n TEMPO 0205/0208 2500 TSRA SCT015CB BKN025 OVC070 \n BECMG 0213/0214 20010KT 2500 BR BKN008 BKN020 \n TEMPO 0217/0221 1200 \n BECMG 0301/0302 4200 SCT010"
"taf	RKSI	2020-06-02 01:15:00	TAF \n AMD TAF \n AMD RKSI 020110Z 0201/0306 30005KT 4000 -RA SCT006 BKN025 OVC080 TX18/0202Z TN16/0220Z TX23/0305Z \n BECMG 0203/0204 16015G25KT \n TEMPO 0205/0208 2500 TSRA SCT015CB BKN025 OVC070 \n BECMG 0213/0214 20010KT 2500 BR BKN008 BKN020 \n TEMPO 0217/0221 1200 \n BECMG 0301/0302 4200 SCT010"
"taf	RKSI	2020-06-02 02:10:00	TAF \n AMD RKSI 020210Z 0202/0306 15015G25KT 4200 -RA SCT008 BKN025 OVC080 TN16/0220Z TX23/0305Z \n TEMPO 0205/0208 2500 TSRA SCT015CB BKN025 OVC070 \n BECMG 0213/0214 20010KT 2500 BR BKN008 BKN020 \n TEMPO 0217/0221 1200 \n BECMG 0301/0302 4200 SCT010"
"taf	RKSI	2020-06-02 02:12:00	TAF \n AMD TAF \n AMD RKSI 020210Z 0202/0306 15015G25KT 4200 -RA SCT008 BKN025 OVC080 TN16/0220Z TX23/0305Z \n TEMPO 0205/0208 2500 TSRA SCT015CB BKN025 OVC070 \n BECMG 0213/0214 20010KT 2500 BR BKN008 BKN020 \n TEMPO 0217/0221 1200 \n BECMG 0301/0302 4200 SCT010"
"taf	RKSI	2020-06-02 04:40:00	TAF \n AMD RKSI 020340Z 0204/0306 15015G25KT 9999 FEW010 BKN025 OVC080 TN16/0220Z TX23/0305Z \n TEMPO 0204/0208 17018G35KT \n TEMPO 0208/0210 -RA \n BECMG 0213/0214 20010KT 4200 BR BKN008 BKN020 \n TEMPO 0217/0221 1200 \n BECMG 0301/0302 4200 SCT010"
"taf	RKSI	2020-06-02 04:48:00	TAF \n AMD TAF \n AMD RKSI 020340Z 0204/0306 15015G25KT 9999 FEW010 BKN025 OVC080 TN16/0220Z TX23/0305Z \n TEMPO 0204/0208 17018G35KT \n TEMPO 0208/0210 -RA \n BECMG 0213/0214 20010KT 4200 BR BKN008 BKN020 \n TEMPO 0217/0221 1200 \n BECMG 0301/0302 4200 SCT010"
"taf	RKSI	2020-06-02 06:00:00	TAF RKSI 020500Z 0206/0312 17016G35KT 9999 SCT030 BKN120 TN15/0220Z TX24/0307Z \n TEMPO 0208/0210 16010KT 6000 -RA BKN025 OVC100 \n BECMG 0213/0214 20007KT 3200 BR BKN006 BKN020 \n TEMPO 0217/0220 1200 BKN003 \n BECMG 0223/0224 17007KT 6000 NSW SCT010 \n BECMG 0301/0302 23010KT FEW030"
"taf	RKSI	2020-06-02 06:06:00	TAF RKSI 020500Z 0206/0312 17016G35KT 9999 SCT030 BKN120 TN15/0220Z TX24/0307Z \n TEMPO 0208/0210 16010KT 6000 -RA BKN025 OVC100 \n BECMG 0213/0214 20007KT 3200 BR BKN006 BKN020 \n TEMPO 0217/0220 1200 BKN003 \n BECMG 0223/0224 17007KT 6000 NSW SCT010 \n BECMG 0301/0302 23010KT FEW030"
"taf	RKSI	2020-06-02 12:00:00	TAF RKSI 021100Z 0212/0318 21007KT 7000 SCT010 BKN030 TN15/0220Z TX24/0305Z \n BECMG 0215/0216 3500 BR BKN006 BKN020 \n TEMPO 0218/0220 1500 BKN003 \n BECMG 0223/0224 24010KT 6000 NSW SCT010 \n BECMG 0312/0313 20006KT 3200 BR BKN008 \n TEMPO 0315/0318 1200 BKN003"
"taf	RKSI	2020-06-02 12:09:00	TAF RKSI 021100Z 0212/0318 21007KT 7000 SCT010 BKN030 TN15/0220Z TX24/0305Z \n BECMG 0215/0216 3500 BR BKN006 BKN020 \n TEMPO 0218/0220 1500 BKN003 \n BECMG 0223/0224 24010KT 6000 NSW SCT010 \n BECMG 0312/0313 20006KT 3200 BR BKN008 \n TEMPO 0315/0318 1200 BKN003"
"taf	RKSI	2020-06-02 14:26:00	TAF \n AMD RKSI 021426Z 0214/0318 21007KT 3200 BR BKN004 BKN020 TN15/0220Z TX24/0305Z \n TEMPO 0216/0220 1500 BKN003 \n BECMG 0223/0224 24010KT 6000 NSW SCT010 \n BECMG 0312/0313 20006KT 3200 BR BKN008 \n TEMPO 0315/0318 1200 BKN003"
"taf	RKSI	2020-06-02 14:30:00	TAF \n AMD TAF \n AMD RKSI 021426Z 0214/0318 21007KT 3200 BR BKN004 BKN020 TN15/0220Z TX24/0305Z \n TEMPO 0216/0220 1500 BKN003 \n BECMG 0223/0224 24010KT 6000 NSW SCT010 \n BECMG 0312/0313 20006KT 3200 BR BKN008 \n TEMPO 0315/0318 1200 BKN003"
"taf	RKSI	2020-06-02 17:42:00	TAF \n AMD RKSI 021642Z 0217/0318 21007KT 0400 FG BKN002 BKN020 TN15/0220Z TX24/0305Z \n BECMG 0221/0222 1200 BR \n BECMG 0223/0224 24010KT 3200 SCT010 \n BECMG 0312/0313 20006KT 2000 BKN008 \n TEMPO 0315/0318 1200 BKN003"
"taf	RKSI	2020-06-02 17:45:00	TAF \n AMD TAF \n AMD RKSI 021642Z 0217/0318 21007KT 0400 FG BKN002 BKN020 TN15/0220Z TX24/0305Z \n BECMG 0221/0222 1200 BR \n BECMG 0223/0224 24010KT 3200 SCT010 \n BECMG 0312/0313 20006KT 2000 BKN008 \n TEMPO 0315/0318 1200 BKN003"
"taf	RKSI	2020-06-02 18:00:00	TAF RKSI 021700Z 0218/0324 23005KT 0400 FG BKN002 TN15/0220Z TX24/0305Z TN16/0320Z \n BECMG 0221/0222 1200 BR \n BECMG 0300/0301 3200 SCT010 \n BECMG 0310/0311 2000 BKN005 \n TEMPO 0314/0319 1000"
"taf	RKSI	2020-06-02 18:06:00	TAF RKSI 021700Z 0218/0324 23005KT 0400 FG BKN002 TN15/0220Z TX24/0305Z TN16/0320Z \n BECMG 0221/0222 1200 BR \n BECMG 0300/0301 3200 SCT010 \n BECMG 0310/0311 2000 BKN005 \n TEMPO 0314/0319 1000"
"taf	RKSI	2020-06-03 00:00:00	TAF RKSI 032300Z 0400/0506 21006KT 3500 BR BKN002 TX23/0406Z TN15/0421Z TX24/0506Z \n BECMG 0401/0402 24006KT 6000 NSW SCT010 \n BECMG 0411/0412 28006KT 3500 BR BKN008 \n TEMPO 0417/0420 1400 BKN003 \n BECMG 0422/0423 12005KT 6000 NSW SCT010 \n BECMG 0503/0504 29007KT FEW030 SCT160"
"taf	RKSI	2020-06-03 00:09:00	TAF RKSI 032300Z 0400/0506 21006KT 3500 BR BKN002 TX23/0406Z TN15/0421Z TX24/0506Z \n BECMG 0401/0402 24006KT 6000 NSW SCT010 \n BECMG 0411/0412 28006KT 3500 BR BKN008 \n TEMPO 0417/0420 1400 BKN003 \n BECMG 0422/0423 12005KT 6000 NSW SCT010 \n BECMG 0503/0504 29007KT FEW030 SCT160"
"taf	RKSI	2020-06-03 01:54:00	TAF \n AMD TAF \n AMD RKSI 030055Z 0301/0406 12005KT 7000 FEW010 BKN025 TX24/0305Z TN16/0320Z TX22/0405Z \n BECMG 0310/0311 25005KT 2500 BR \n BECMG 0313/0314 1200 \n TEMPO 0316/0322 0700 FG BKN002 \n BECMG 0401/0402 3500"
"taf	RKSI	2020-06-03 01:55:00	TAF \n AMD RKSI 030055Z 0301/0406 12005KT 7000 FEW010 BKN025 TX24/0305Z TN16/0320Z TX22/0405Z \n BECMG 0310/0311 25005KT 2500 BR \n BECMG 0313/0314 1200 \n TEMPO 0316/0322 0700 FG BKN002 \n BECMG 0401/0402 3500"
"taf	RKSI	2020-06-03 06:00:00	TAF RKSI 030500Z 0306/0412 23007KT 7000 SCT035 TN16/0321Z TX22/0406Z \n BECMG 0311/0312 20006KT 3500 BR \n BECMG 0314/0315 24007KT 1600 \n TEMPO 0316/0320 21006KT 0800 FG BKN004 \n BECMG 0321/0322 3500 FEW010 BKN025 \n BECMG 0323/0324 27008KT 6000 NSW SCT035"
"taf	RKSI	2020-06-03 06:06:00	TAF RKSI 030500Z 0306/0412 23007KT 7000 SCT035 TN16/0321Z TX22/0406Z \n BECMG 0311/0312 20006KT 3500 BR \n BECMG 0314/0315 24007KT 1600 \n TEMPO 0316/0320 21006KT 0800 FG BKN004 \n BECMG 0321/0322 3500 FEW010 BKN025 \n BECMG 0323/0324 27008KT 6000 NSW SCT035"
"taf	RKSI	2020-06-03 12:00:00	TAF RKSI 031100Z 0312/0418 19008KT 2500 BR BKN004 TN16/0321Z TX22/0406Z \n BECMG 0313/0314 24008KT 1200 \n TEMPO 0315/0320 21006KT 0600 DZ \n BECMG 0321/0322 27007KT 1600 FEW010 BKN025 \n BECMG 0323/0324 24007KT 3500 \n TEMPO 0403/0407 28008KT 6000 NSW"
"taf	RKSI	2020-06-03 12:09:00	TAF RKSI 031100Z 0312/0418 19008KT 2500 BR BKN004 TN16/0321Z TX22/0406Z \n BECMG 0313/0314 24008KT 1200 \n TEMPO 0315/0320 21006KT 0600 DZ \n BECMG 0321/0322 27007KT 1600 FEW010 BKN025 \n BECMG 0323/0324 24007KT 3500 \n TEMPO 0403/0407 28008KT 6000 NSW"
"taf	RKSI	2020-06-03 12:25:00	TAF \n AMD RKSI 031225Z 0312/0418 19008KT 6000 BKN010 BKN020 TN16/0321Z TX22/0406Z \n BECMG 0315/0316 24008KT 1200 BR BKN005 \n TEMPO 0317/0320 21006KT 0700 FG BKN002 \n BECMG 0321/0322 27007KT 1600 FEW010 BKN025 \n BECMG 0323/0324 24007KT 3500 \n TEMPO 0403/0407 28008KT 6000 NSW"
"taf	RKSI	2020-06-03 12:33:00	TAF \n AMD TAF \n AMD RKSI 031225Z 0312/0418 19008KT 6000 BKN010 BKN020 TN16/0321Z TX22/0406Z \n BECMG 0315/0316 24008KT 1200 BR BKN005 \n TEMPO 0317/0320 21006KT 0700 FG BKN002 \n BECMG 0321/0322 27007KT 1600 FEW010 BKN025 \n BECMG 0323/0324 24007KT 3500 \n TEMPO 0403/0407 28008KT 6000 NSW"
"taf	RKSI	2020-06-03 14:00:00	TAF \n AMD RKSI 031400Z 0314/0418 20007KT 3000 BR BKN003 BKN020 TN16/0321Z TX22/0406Z \n BECMG 0315/0316 24006KT 1200 \n TEMPO 0317/0320 21006KT 0700 FG BKN001 \n BECMG 0321/0322 27007KT 1600 SCT010 \n BECMG 0323/0324 24007KT 3500 \n TEMPO 0403/0407 28008KT 6000 NSW NSC"
"taf	RKSI	2020-06-03 14:03:00	TAF \n AMD TAF \n AMD RKSI 031400Z 0314/0418 20007KT 3000 BR BKN003 BKN020 TN16/0321Z TX22/0406Z \n BECMG 0315/0316 24006KT 1200 \n TEMPO 0317/0320 21006KT 0700 FG BKN001 \n BECMG 0321/0322 27007KT 1600 SCT010 \n BECMG 0323/0324 24007KT 3500 \n TEMPO 0403/0407 28008KT 6000 NSW NSC"
"taf	RKSI	2020-06-03 18:00:00	TAF RKSI 031700Z 0318/0424 21006KT 2000 BR BKN006 TN16/0320Z TX23/0405Z TN15/0420Z \n TEMPO 0318/0321 0800 FG BKN001 \n BECMG 0323/0324 24007KT 4200 SCT010 \n BECMG 0401/0402 6000 NSW NSC \n BECMG 0410/0411 27005KT 3500 BR BKN010 \n TEMPO 0418/0420 1400 BKN003"
"taf	RKSI	2020-06-03 18:09:00	TAF RKSI 031700Z 0318/0424 21006KT 2000 BR BKN006 TN16/0320Z TX23/0405Z TN15/0420Z \n TEMPO 0318/0321 0800 FG BKN001 \n BECMG 0323/0324 24007KT 4200 SCT010 \n BECMG 0401/0402 6000 NSW NSC \n BECMG 0410/0411 27005KT 3500 BR BKN010 \n TEMPO 0418/0420 1400 BKN003"
"taf	RKSI	2020-06-03 21:03:00	TAF \n AMD TAF \n AMD RKSI 032055Z 0321/0424 21006KT 4200 BR BKN006 TX23/0405Z TN15/0420Z \n TEMPO 0321/0322 1500 BKN001 \n BECMG 0400/0401 24007KT 6000 NSW SCT010 \n BECMG 0410/0411 27005KT 3500 BR BKN010 \n TEMPO 0418/0420 1400 BKN003"
"taf	RKSI	2020-06-03 21:55:00	TAF \n AMD RKSI 032055Z 0321/0424 21006KT 4200 BR BKN006 TX23/0405Z TN15/0420Z \n TEMPO 0321/0322 1500 BKN001 \n BECMG 0400/0401 24007KT 6000 NSW SCT010 \n BECMG 0410/0411 27005KT 3500 BR BKN010 \n TEMPO 0418/0420 1400 BKN003"
"taf	RKSI	2020-06-03 22:00:00	TAF \n AMD TAF \n AMD RKSI 032055Z 0322/0424 21006KT 3000 BR BKN006 TX23/0405Z TN15/0420Z \n TEMPO 0322/0323 0900 FG BKN001 \n BECMG 0400/0401 24007KT 6000 NSW SCT010 \n BECMG 0410/0411 27005KT 3500 BR BKN010 \n TEMPO 0418/0420 1400 BKN003"
"taf	RKSI	2020-06-03 22:55:00	TAF \n AMD RKSI 032055Z 0322/0424 21006KT 3000 BR BKN006 TX23/0405Z TN15/0420Z \n TEMPO 0322/0323 0900 FG BKN001 \n BECMG 0400/0401 24007KT 6000 NSW SCT010 \n BECMG 0410/0411 27005KT 3500 BR BKN010 \n TEMPO 0418/0420 1400 BKN003"
"taf	RKSI	2020-06-04 00:00:00	TAF RKSI 042300Z 0500/0606 16005KT 4200 BR BKN007 TX23/0506Z TN15/0520Z TX26/0605Z \n BECMG 0501/0502 24005KT 6000 NSW FEW010 BKN020 \n BECMG 0503/0504 30008KT SCT025 \n TEMPO 0516/0520 21005KT 4200 BR SCT010 \n BECMG 0520/0521 18005KT \n BECMG 0602/0603 28005KT CAVOK"
"taf	RKSI	2020-06-04 00:09:00	TAF RKSI 042300Z 0500/0606 16005KT 4200 BR BKN007 TX23/0506Z TN15/0520Z TX26/0605Z \n BECMG 0501/0502 24005KT 6000 NSW FEW010 BKN020 \n BECMG 0503/0504 30008KT SCT025 \n TEMPO 0516/0520 21005KT 4200 BR SCT010 \n BECMG 0520/0521 18005KT \n BECMG 0602/0603 28005KT CAVOK"
"taf	RKSI	2020-06-04 01:48:00	TAF \n AMD TAF \n AMD RKSI 040050Z 0401/0506 23010KT 3500 BR BKN002 TX23/0406Z TN15/0421Z TX24/0506Z \n BECMG 0404/0405 27008KT 6000 NSW SCT010 \n BECMG 0411/0412 30006KT 3500 BR BKN008 \n TEMPO 0417/0420 08006KT 1400 BKN003 \n BECMG 0422/0423 12005KT 6000 NSW SCT010 \n BECMG 0503/0504 29007KT FEW030 SCT160"
"taf	RKSI	2020-06-04 01:50:00	TAF \n AMD RKSI 040050Z 0401/0506 23010KT 3500 BR BKN002 TX23/0406Z TN15/0421Z TX24/0506Z \n BECMG 0404/0405 27008KT 6000 NSW SCT010 \n BECMG 0411/0412 30006KT 3500 BR BKN008 \n TEMPO 0417/0420 08006KT 1400 BKN003 \n BECMG 0422/0423 12005KT 6000 NSW SCT010 \n BECMG 0503/0504 29007KT FEW030 SCT160"
"taf	RKSI	2020-06-04 06:00:00	TAF RKSI 040500Z 0406/0512 22010KT 6000 FEW010 BKN025 TN15/0421Z TX22/0506Z \n BECMG 0410/0411 28008KT 4200 BR BKN006 \n BECMG 0415/0416 22006KT 2800 \n BECMG 0417/0418 28006KT \n BECMG 0423/0424 16006KT 4200 FEW010 BKN025 \n BECMG 0501/0502 26010KT 6000 NSW SCT035 BKN180"
"taf	RKSI	2020-06-04 06:09:00	TAF RKSI 040500Z 0406/0512 22010KT 6000 FEW010 BKN025 TN15/0421Z TX22/0506Z \n BECMG 0410/0411 28008KT 4200 BR BKN006 \n BECMG 0415/0416 22006KT 2800 \n BECMG 0417/0418 28006KT \n BECMG 0423/0424 16006KT 4200 FEW010 BKN025 \n BECMG 0501/0502 26010KT 6000 NSW SCT035 BKN180"
"taf	RKSI	2020-06-04 07:33:00	TAF \n AMD TAF \n AMD RKSI 040635Z 0407/0512 22010KT 3500 BR BKN004 TN15/0421Z TX22/0506Z \n BECMG 0410/0411 28008KT 2500 \n BECMG 0415/0416 22006KT 1200 \n BECMG 0417/0418 28006KT \n BECMG 0423/0424 16006KT 4200 FEW010 BKN025 \n BECMG 0501/0502 26010KT 6000 NSW SCT035 BKN180"
"taf	RKSI	2020-06-04 07:35:00	TAF \n AMD RKSI 040635Z 0407/0512 22010KT 3500 BR BKN004 TN15/0421Z TX22/0506Z \n BECMG 0410/0411 28008KT 2500 \n BECMG 0415/0416 22006KT 1200 \n BECMG 0417/0418 28006KT \n BECMG 0423/0424 16006KT 4200 FEW010 BKN025 \n BECMG 0501/0502 26010KT 6000 NSW SCT035 BKN180"
"taf	RKSI	2020-06-04 10:35:00	TAF \n AMD RKSI 040935Z 0410/0512 22010KT 2500 BR BKN002 TN15/0421Z TX22/0506Z \n TEMPO 0410/0411 25008KT 1400 DZ \n BECMG 0415/0416 25006KT 1200 \n BECMG 0417/0418 28006KT \n BECMG 0423/0424 16006KT 4200 FEW010 BKN025 \n BECMG 0501/0502 26010KT 6000 NSW SCT035 BKN180"
"taf	RKSI	2020-06-04 10:36:00	TAF \n AMD TAF \n AMD RKSI 040935Z 0410/0512 22010KT 2500 BR BKN002 TN15/0421Z TX22/0506Z \n TEMPO 0410/0411 25008KT 1400 DZ \n BECMG 0415/0416 25006KT 1200 \n BECMG 0417/0418 28006KT \n BECMG 0423/0424 16006KT 4200 FEW010 BKN025 \n BECMG 0501/0502 26010KT 6000 NSW SCT035 BKN180"
"taf	RKSI	2020-06-04 12:00:00	TAF RKSI 041100Z 0412/0518 23006KT 3200 BR BKN002 TN15/0421Z TX22/0506Z \n BECMG 0413/0414 26006KT 1800 \n TEMPO 0415/0419 1200 \n BECMG 0420/0421 05006KT 3500 FEW010 BKN025 \n BECMG 0501/0502 29010KT 6000 NSW SCT035"
"taf	RKSI	2020-06-04 12:06:00	TAF RKSI 041100Z 0412/0518 23006KT 3200 BR BKN002 TN15/0421Z TX22/0506Z \n BECMG 0413/0414 26006KT 1800 \n TEMPO 0415/0419 1200 \n BECMG 0420/0421 05006KT 3500 FEW010 BKN025 \n BECMG 0501/0502 29010KT 6000 NSW SCT035"
"taf	RKSI	2020-06-04 12:10:00	TAF \n AMD RKSI 041210Z 0412/0518 26006KT 2000 BR BKN002 TN15/0421Z TX22/0506Z \n TEMPO 0412/0414 1400 -DZ \n TEMPO 0415/0419 1200 \n BECMG 0420/0421 05006KT 3500 FEW010 BKN025 \n BECMG 0501/0502 29010KT 6000 NSW SCT035"
"taf	RKSI	2020-06-04 12:15:00	TAF \n AMD TAF \n AMD RKSI 041210Z 0412/0518 26006KT 2000 BR BKN002 TN15/0421Z TX22/0506Z \n TEMPO 0412/0414 1400 -DZ \n TEMPO 0415/0419 1200 \n BECMG 0420/0421 05006KT 3500 FEW010 BKN025 \n BECMG 0501/0502 29010KT 6000 NSW SCT035"
"taf	RKSI	2020-06-04 15:00:00	TAF \n AMD TAF \n AMD RKSI 041455Z 0415/0518 26006KT 6000 SCT003 BKN008 TN15/0421Z TX22/0506Z \n TEMPO 0417/0419 2500 BR BKN002 \n BECMG 0420/0421 05006KT 3500 FEW010 BKN025 \n BECMG 0501/0502 29010KT 6000 NSW SCT035"
"taf	RKSI	2020-06-04 15:55:00	TAF \n AMD RKSI 041455Z 0415/0518 26006KT 6000 SCT003 BKN008 TN15/0421Z TX22/0506Z \n TEMPO 0417/0419 2500 BR BKN002 \n BECMG 0420/0421 05006KT 3500 FEW010 BKN025 \n BECMG 0501/0502 29010KT 6000 NSW SCT035"
"taf	RKSI	2020-06-04 18:00:00	TAF \n AMD RKSI 041800Z 0418/0524 21005KT 1200 BR SCT003 BKN010 TN16/0420Z TX23/0507Z TN15/0519Z \n TEMPO 0418/0421 0400 FG BKN002 \n BECMG 0422/0423 16005KT 3500 SCT010 BKN020 \n BECMG 0500/0501 30008KT 6000 NSW SCT030 \n TEMPO 0516/0520 21005KT 4200 BR SCT010 \n BECMG 0520/0521 18005KT"
"taf	RKSI	2020-06-04 18:03:00	TAF \n AMD TAF \n AMD RKSI 041800Z 0418/0524 21005KT 1200 BR SCT003 BKN010 TN16/0420Z TX23/0507Z TN15/0519Z \n TEMPO 0418/0421 0400 FG BKN002 \n BECMG 0422/0423 16005KT 3500 SCT010 BKN020 \n BECMG 0500/0501 30008KT 6000 NSW SCT030 \n TEMPO 0516/0520 21005KT 4200 BR SCT010 \n BECMG 0520/0521 18005KT"
"taf	RKSI	2020-06-04 18:09:00	TAF RKSI 041700Z 0418/0524 21005KT 6000 SCT003 BKN010 TN16/0420Z TX23/0507Z TN15/0519Z \n TEMPO 0418/0420 1200 BR BKN002 \n BECMG 0420/0421 16005KT 3500 BR SCT010 BKN020 \n BECMG 0500/0501 30008KT 6000 NSW SCT030 \n TEMPO 0516/0520 21005KT 4200 BR SCT010 \n BECMG 0520/0521 18005KT"
"taf	RKSI	2020-06-04 19:35:00	TAF \n AMD RKSI 041835Z 0419/0524 33005KT 0500 FG BKN002 TN16/0420Z TX23/0507Z TN15/0519Z \n TEMPO 0419/0421 0200 \n BECMG 0422/0423 16005KT 3000 BR SCT010 BKN020 \n BECMG 0500/0501 30008KT 6000 NSW SCT030 \n TEMPO 0516/0520 21005KT 4200 BR SCT010 \n BECMG 0520/0521 18005KT"
"taf	RKSI	2020-06-04 19:39:00	TAF \n AMD TAF \n AMD RKSI 041835Z 0419/0524 33005KT 0500 FG BKN002 TN16/0420Z TX23/0507Z TN15/0519Z \n TEMPO 0419/0421 0200 \n BECMG 0422/0423 16005KT 3000 BR SCT010 BKN020 \n BECMG 0500/0501 30008KT 6000 NSW SCT030 \n TEMPO 0516/0520 21005KT 4200 BR SCT010 \n BECMG 0520/0521 18005KT"
"taf	RKSI	2020-06-05 00:00:00	TAF RKSI 052300Z 0600/0706 07006KT 6000 SCT035 TX26/0606Z TN16/0621Z TX24/0706Z \n BECMG 0603/0604 30010KT \n BECMG 0611/0612 20008KT 3500 BR BKN020 \n TEMPO 0615/0620 17006KT 1500 BKN004 \n BECMG 0700/0701 23007KT 6000 NSW SCT035 \n BECMG 0704/0705 30008KT"
"taf	RKSI	2020-06-05 00:06:00	TAF RKSI 052300Z 0600/0706 07006KT 6000 SCT035 TX26/0606Z TN16/0621Z TX24/0706Z \n BECMG 0603/0604 30010KT \n BECMG 0611/0612 20008KT 3500 BR BKN020 \n TEMPO 0615/0620 17006KT 1500 BKN004 \n BECMG 0700/0701 23007KT 6000 NSW SCT035 \n BECMG 0704/0705 30008KT"
"taf	RKSI	2020-06-05 06:00:00	TAF RKSI 050500Z 0506/0612 28008KT 6000 FEW025 BKN140 TN16/0520Z TX27/0606Z \n BECMG 0516/0517 21005KT 4200 BR SCT010 \n TEMPO 0519/0521 18005KT 2800 BKN005 \n BECMG 0522/0523 16005KT 6000 NSW \n BECMG 0602/0603 28007KT CAVOK \n BECMG 0611/0612 18006KT"
"taf	RKSI	2020-06-05 06:06:00	TAF RKSI 050500Z 0506/0612 28008KT 6000 FEW025 BKN140 TN16/0520Z TX27/0606Z \n BECMG 0516/0517 21005KT 4200 BR SCT010 \n TEMPO 0519/0521 18005KT 2800 BKN005 \n BECMG 0522/0523 16005KT 6000 NSW \n BECMG 0602/0603 28007KT CAVOK \n BECMG 0611/0612 18006KT"
"taf	RKSI	2020-06-05 12:00:00	TAF RKSI 051100Z 0512/0618 28008KT 6000 FEW025 BKN140 TN16/0520Z TX27/0606Z \n BECMG 0516/0517 31005KT 3500 BR BKN010 \n TEMPO 0519/0522 17005KT 1500 BKN004 \n BECMG 0522/0523 15005KT \n BECMG 0601/0602 28008KT 6000 NSW SCT030 \n BECMG 0611/0612 18007KT"
"taf	RKSI	2020-06-05 12:06:00	TAF RKSI 051100Z 0512/0618 28008KT 6000 FEW025 BKN140 TN16/0520Z TX27/0606Z \n BECMG 0516/0517 31005KT 3500 BR BKN010 \n TEMPO 0519/0522 17005KT 1500 BKN004 \n BECMG 0522/0523 15005KT \n BECMG 0601/0602 28008KT 6000 NSW SCT030 \n BECMG 0611/0612 18007KT"
"taf	RKSI	2020-06-05 18:00:00	TAF RKSI 051700Z 0518/0624 28005KT 6000 FEW008 TN15/0521Z TX26/0606Z TN16/0621Z \n BECMG 0520/0521 04005KT 3500 BR \n BECMG 0522/0523 09006KT 6000 NSW \n TEMPO 0600/0602 15010KT \n BECMG 0603/0604 30010KT \n BECMG 0610/0611 20008KT"
"taf	RKSI	2020-06-05 18:09:00	TAF RKSI 051700Z 0518/0624 28005KT 6000 FEW008 TN15/0521Z TX26/0606Z TN16/0621Z \n BECMG 0520/0521 04005KT 3500 BR \n BECMG 0522/0523 09006KT 6000 NSW \n TEMPO 0600/0602 15010KT \n BECMG 0603/0604 30010KT \n BECMG 0610/0611 20008KT"
"taf	RKSI	2020-06-06 00:00:00	TAF RKSI 062300Z 0700/0806 21007KT 6000 BKN020 TX25/0706Z TN17/0721Z TX26/0806Z \n BECMG 0703/0704 27008KT SCT035 \n BECMG 0710/0711 21006KT \n BECMG 0721/0722 18006KT 4200 BR BKN020 \n BECMG 0723/0724 28008KT 6000 NSW SCT035"
"taf	RKSI	2020-06-06 00:09:00	TAF RKSI 062300Z 0700/0806 21007KT 6000 BKN020 TX25/0706Z TN17/0721Z TX26/0806Z \n BECMG 0703/0704 27008KT SCT035 \n BECMG 0710/0711 21006KT \n BECMG 0721/0722 18006KT 4200 BR BKN020 \n BECMG 0723/0724 28008KT 6000 NSW SCT035"
"taf	RKSI	2020-06-06 06:00:00	TAF RKSI 060500Z 0606/0712 30010KT 6000 SCT035 TN16/0621Z TX25/0706Z \n BECMG 0611/0612 21008KT \n BECMG 0615/0616 18007KT 4200 BR BKN020 \n TEMPO 0618/0622 2800 BKN004 \n BECMG 0700/0701 24007KT 6000 NSW SCT035 \n BECMG 0704/0705 31008KT"
"taf	RKSI	2020-06-06 06:06:00	TAF RKSI 060500Z 0606/0712 30010KT 6000 SCT035 TN16/0621Z TX25/0706Z \n BECMG 0611/0612 21008KT \n BECMG 0615/0616 18007KT 4200 BR BKN020 \n TEMPO 0618/0622 2800 BKN004 \n BECMG 0700/0701 24007KT 6000 NSW SCT035 \n BECMG 0704/0705 31008KT"
"taf	RKSI	2020-06-06 12:00:00	TAF RKSI 061100Z 0612/0718 19008KT 4200 BR SCT035 TN16/0621Z TX25/0706Z \n TEMPO 0617/0622 1500 BKN004 \n BECMG 0701/0702 27007KT 6000 NSW \n BECMG 0711/0712 24005KT 3500 BR BKN010 \n BECMG 0715/0716 16005KT 2000 BKN004"
"taf	RKSI	2020-06-06 12:06:00	TAF RKSI 061100Z 0612/0718 19008KT 4200 BR SCT035 TN16/0621Z TX25/0706Z \n TEMPO 0617/0622 1500 BKN004 \n BECMG 0701/0702 27007KT 6000 NSW \n BECMG 0711/0712 24005KT 3500 BR BKN010 \n BECMG 0715/0716 16005KT 2000 BKN004"
"taf	RKSI	2020-06-06 18:00:00	TAF RKSI 061700Z 0618/0724 21008KT 7000 BKN025 TN16/0621Z TX24/0706Z TN17/0721Z \n BECMG 0621/0622 27006KT 4200 BR \n BECMG 0623/0624 19006KT 6000 NSW \n BECMG 0704/0705 27008KT SCT035 \n BECMG 0711/0712 21008KT"
"taf	RKSI	2020-06-06 18:06:00	TAF RKSI 061700Z 0618/0724 21008KT 7000 BKN025 TN16/0621Z TX24/0706Z TN17/0721Z \n BECMG 0621/0622 27006KT 4200 BR \n BECMG 0623/0624 19006KT 6000 NSW \n BECMG 0704/0705 27008KT SCT035 \n BECMG 0711/0712 21008KT"
"taf	RKSI	2020-06-07 00:00:00	TAF RKSI 072300Z 0800/0906 12005KT 6000 FEW010 TX26/0806Z TN18/0821Z TX27/0906Z \n BECMG 0802/0803 28007KT CAVOK \n BECMG 0812/0813 07005KT 6000 NSC \n BECMG 0817/0818 25005KT \n BECMG 0820/0821 07005KT \n BECMG 0902/0903 28007KT CAVOK"
"taf	RKSI	2020-06-07 00:06:00	TAF RKSI 072300Z 0800/0906 12005KT 6000 FEW010 TX26/0806Z TN18/0821Z TX27/0906Z \n BECMG 0802/0803 28007KT CAVOK \n BECMG 0812/0813 07005KT 6000 NSC \n BECMG 0817/0818 25005KT \n BECMG 0820/0821 07005KT \n BECMG 0902/0903 28007KT CAVOK"
"taf	RKSI	2020-06-07 06:00:00	TAF RKSI 070500Z 0706/0812 22006KT 9999 SCT035 TN17/0721Z TX26/0806Z \n BECMG 0712/0713 4200 BR BKN020 \n BECMG 0718/0719 6000 NSW SCT030 \n BECMG 0803/0804 28007KT"
"taf	RKSI	2020-06-07 06:06:00	TAF RKSI 070500Z 0706/0812 22006KT 9999 SCT035 TN17/0721Z TX26/0806Z \n BECMG 0712/0713 4200 BR BKN020 \n BECMG 0718/0719 6000 NSW SCT030 \n BECMG 0803/0804 28007KT"
"taf	RKSI	2020-06-07 07:25:00	TAF \n AMD RKSI 070725Z 0707/0812 28006KT 9999 SCT035 TN17/0721Z TX26/0806Z \n BECMG 0712/0713 19005KT 4200 BR BKN020 \n BECMG 0718/0719 6000 NSW SCT030 \n BECMG 0803/0804 28007KT"
"taf	RKSI	2020-06-07 07:27:00	TAF \n AMD TAF \n AMD RKSI 070725Z 0707/0812 28006KT 9999 SCT035 TN17/0721Z TX26/0806Z \n BECMG 0712/0713 19005KT 4200 BR BKN020 \n BECMG 0718/0719 6000 NSW SCT030 \n BECMG 0803/0804 28007KT"
"taf	RKSI	2020-06-07 10:27:00	TAF \n AMD RKSI 071027Z 0710/0812 28006KT 7000 BKN006 TN17/0721Z TX26/0806Z \n BECMG 0712/0713 19005KT 4200 BR SCT006 BKN020 \n BECMG 0718/0719 6000 NSW SCT030 \n BECMG 0803/0804 28007KT"
"taf	RKSI	2020-06-07 10:30:00	TAF \n AMD TAF \n AMD RKSI 071027Z 0710/0812 28006KT 7000 BKN006 TN17/0721Z TX26/0806Z \n BECMG 0712/0713 19005KT 4200 BR SCT006 BKN020 \n BECMG 0718/0719 6000 NSW SCT030 \n BECMG 0803/0804 28007KT"
"taf	RKSI	2020-06-07 12:00:00	TAF RKSI 071100Z 0712/0818 19005KT 4200 BR BKN006 TN17/0721Z TX26/0806Z \n BECMG 0715/0716 6000 NSW SCT030 \n BECMG 0803/0804 28007KT \n BECMG 0812/0813 07005KT"
"taf	RKSI	2020-06-07 12:09:00	TAF RKSI 071100Z 0712/0818 19005KT 4200 BR BKN006 TN17/0721Z TX26/0806Z \n BECMG 0715/0716 6000 NSW SCT030 \n BECMG 0803/0804 28007KT \n BECMG 0812/0813 07005KT"
"taf	RKSI	2020-06-07 13:35:00	TAF \n AMD RKSI 071235Z 0713/0818 19005KT 6000 BKN006 TN17/0721Z TX26/0806Z \n BECMG 0720/0721 SCT030 \n BECMG 0803/0804 28007KT \n BECMG 0812/0813 07005KT"
"taf	RKSI	2020-06-07 13:36:00	TAF \n AMD TAF \n AMD RKSI 071235Z 0713/0818 19005KT 6000 BKN006 TN17/0721Z TX26/0806Z \n BECMG 0720/0721 SCT030 \n BECMG 0803/0804 28007KT \n BECMG 0812/0813 07005KT"
"taf	RKSI	2020-06-07 18:00:00	TAF RKSI 071700Z 0718/0824 17005KT 6000 BKN005 TN17/0721Z TX26/0806Z TN18/0821Z \n BECMG 0723/0724 SCT030 \n BECMG 0803/0804 28007KT CAVOK \n BECMG 0812/0813 07005KT 6000 NSC \n BECMG 0817/0818 25005KT \n BECMG 0820/0821 07005KT"
"taf	RKSI	2020-06-07 18:06:00	TAF RKSI 071700Z 0718/0824 17005KT 6000 BKN005 TN17/0721Z TX26/0806Z TN18/0821Z \n BECMG 0723/0724 SCT030 \n BECMG 0803/0804 28007KT CAVOK \n BECMG 0812/0813 07005KT 6000 NSC \n BECMG 0817/0818 25005KT \n BECMG 0820/0821 07005KT"
"taf	RKSI	2020-06-07 20:10:00	TAF \n AMD RKSI 072010Z 0720/0824 17005KT 3500 BR BKN005 TN17/0721Z TX26/0806Z TN18/0821Z \n BECMG 0723/0724 6000 NSW SCT030 \n BECMG 0803/0804 28007KT CAVOK \n BECMG 0812/0813 07005KT 6000 NSC \n BECMG 0817/0818 25005KT \n BECMG 0820/0821 07005KT"
"taf	RKSI	2020-06-07 20:12:00	TAF \n AMD TAF \n AMD RKSI 072010Z 0720/0824 17005KT 3500 BR BKN005 TN17/0721Z TX26/0806Z TN18/0821Z \n BECMG 0723/0724 6000 NSW SCT030 \n BECMG 0803/0804 28007KT CAVOK \n BECMG 0812/0813 07005KT 6000 NSC \n BECMG 0817/0818 25005KT \n BECMG 0820/0821 07005KT"
"taf	RKSI	2020-06-08 00:00:00	TAF RKSI 082300Z 0900/1006 18005KT CAVOK TX29/0906Z TN19/0921Z TX29/1004Z \n BECMG 0901/0902 31008KT \n BECMG 0914/0915 07005KT \n BECMG 1001/1002 30006KT 9999 SCT040 BKN180"
"taf	RKSI	2020-06-08 00:06:00	TAF RKSI 082300Z 0900/1006 18005KT CAVOK TX29/0906Z TN19/0921Z TX29/1004Z \n BECMG 0901/0902 31008KT \n BECMG 0914/0915 07005KT \n BECMG 1001/1002 30006KT 9999 SCT040 BKN180"
"taf	RKSI	2020-06-08 06:00:00	TAF RKSI 080500Z 0806/0912 30008KT CAVOK TN18/0821Z TX27/0906Z \n BECMG 0812/0813 07005KT \n BECMG 0902/0903 30007KT"
"taf	RKSI	2020-06-08 06:06:00	TAF RKSI 080500Z 0806/0912 30008KT CAVOK TN18/0821Z TX27/0906Z \n BECMG 0812/0813 07005KT \n BECMG 0902/0903 30007KT"
"taf	RKSI	2020-06-08 12:00:00	TAF RKSI 081100Z 0812/0918 07005KT CAVOK TN18/0821Z TX27/0906Z \n BECMG 0902/0903 30007KT \n BECMG 0912/0913 07005KT"
"taf	RKSI	2020-06-08 12:06:00	TAF RKSI 081100Z 0812/0918 07005KT CAVOK TN18/0821Z TX27/0906Z \n BECMG 0902/0903 30007KT \n BECMG 0912/0913 07005KT"
"taf	RKSI	2020-06-08 13:55:00	TAF \n AMD RKSI 081255Z 0813/0918 33005KT CAVOK TN18/0821Z TX27/0906Z \n BECMG 0818/0819 07005KT \n BECMG 0902/0903 30007KT \n BECMG 0912/0913 07005KT"
"taf	RKSI	2020-06-08 13:57:00	TAF \n AMD TAF \n AMD RKSI 081255Z 0813/0918 33005KT CAVOK TN18/0821Z TX27/0906Z \n BECMG 0818/0819 07005KT \n BECMG 0902/0903 30007KT \n BECMG 0912/0913 07005KT"
"taf	RKSI	2020-06-08 18:00:00	TAF RKSI 081700Z 0818/0924 33005KT CAVOK TN18/0821Z TX29/0906Z TN19/0921Z \n BECMG 0900/0901 07005KT \n BECMG 0902/0903 30008KT \n BECMG 0917/0918 15006KT"
"taf	RKSI	2020-06-08 18:06:00	TAF RKSI 081700Z 0818/0924 33005KT CAVOK TN18/0821Z TX29/0906Z TN19/0921Z \n BECMG 0900/0901 07005KT \n BECMG 0902/0903 30008KT \n BECMG 0917/0918 15006KT"
"taf	RKSI	2020-06-09 00:00:00	TAF RKSI 092300Z 1000/1106 15006KT 9999 SCT030 BKN120 TX29/1005Z TN18/1020Z TX28/1105Z \n BECMG 1003/1004 31007KT \n BECMG 1009/1010 24005KT 4200 -RA FEW010 BKN025 OVC100 \n BECMG 1015/1016 BR \n BECMG 1020/1021 01008KT SCT030 \n BECMG 1103/1104 6000 NSW"
"taf	RKSI	2020-06-09 00:09:00	TAF TAF RKSI 092300Z 1000/1106 15006KT 9999 SCT030 BKN120 TX29/1005Z TN18/1020Z TX28/1105Z \n BECMG 1003/1004 31007KT \n BECMG 1009/1010 24005KT 4200 -RA FEW010 BKN025 OVC100 \n BECMG 1015/1016 BR \n BECMG 1020/1021 01008KT SCT030 \n BECMG 1103/1104 6000 NSW"
"taf	RKSI	2020-06-09 06:00:00	TAF RKSI 090500Z 0906/1012 30008KT CAVOK TN19/0920Z TX29/1004Z \n BECMG 0913/0914 07005KT 9999 FEW030 BKN180 \n BECMG 1002/1003 30007KT \n TEMPO 1010/1012 23006KT 6000 BKN025 OVC100"
"taf	RKSI	2020-06-09 06:09:00	TAF RKSI 090500Z 0906/1012 30008KT CAVOK TN19/0920Z TX29/1004Z \n BECMG 0913/0914 07005KT 9999 FEW030 BKN180 \n BECMG 1002/1003 30007KT \n TEMPO 1010/1012 23006KT 6000 BKN025 OVC100"
"taf	RKSI	2020-06-09 12:00:00	TAF RKSI 091100Z 0912/1018 31005KT CAVOK TN19/0920Z TX29/1005Z \n BECMG 0918/0919 16005KT 9999 FEW030 BKN160 \n BECMG 1002/1003 31007KT \n TEMPO 1010/1016 24005KT 6000 -RA BKN025 OVC100 \n BECMG 1016/1017 4200 BR FEW010 BKN025 OVC100"
"taf	RKSI	2020-06-09 12:06:00	TAF RKSI 091100Z 0912/1018 31005KT CAVOK TN19/0920Z TX29/1005Z \n BECMG 0918/0919 16005KT 9999 FEW030 BKN160 \n BECMG 1002/1003 31007KT \n TEMPO 1010/1016 24005KT 6000 -RA BKN025 OVC100 \n BECMG 1016/1017 4200 BR FEW010 BKN025 OVC100"
"taf	RKSI	2020-06-09 18:00:00	TAF RKSI 091700Z 0918/1024 17005KT 9999 SCT030 BKN150 TN19/0920Z TX29/1005Z TN18/1020Z \n BECMG 1003/1004 31007KT \n BECMG 1009/1010 24005KT 4200 -RA FEW010 BKN025 OVC100 \n BECMG 1015/1016 BR \n BECMG 1020/1021 01008KT"
"taf	RKSI	2020-06-09 18:06:00	TAF RKSI 091700Z 0918/1024 17005KT 9999 SCT030 BKN150 TN19/0920Z TX29/1005Z TN18/1020Z \n BECMG 1003/1004 31007KT \n BECMG 1009/1010 24005KT 4200 -RA FEW010 BKN025 OVC100 \n BECMG 1015/1016 BR \n BECMG 1020/1021 01008KT"
"taf	RKSI	2020-06-10 00:00:00	TAF RKSI 102300Z 1100/1206 02006KT 9999 BKN035 TX27/1106Z TN18/1120Z TX25/1205Z \n BECMG 1102/1103 29010KT SCT035 \n BECMG 1114/1115 17005KT 4200 BR NSC \n BECMG 1123/1124 28006KT 6000 NSW"
"taf	RKSI	2020-06-10 00:09:00	TAF RKSI 102300Z 1100/1206 02006KT 9999 BKN035 TX27/1106Z TN18/1120Z TX25/1205Z \n BECMG 1102/1103 29010KT SCT035 \n BECMG 1114/1115 17005KT 4200 BR NSC \n BECMG 1123/1124 28006KT 6000 NSW"
"taf	RKSI	2020-06-10 06:00:00	TAF RKSI 100500Z 1006/1112 31006KT 9999 SCT035 BKN100 TN18/1020Z TX28/1105Z \n BECMG 1007/1008 23005KT 4200 -RA FEW010 BKN025 OVC080 \n BECMG 1014/1015 03005KT BR \n BECMG 1021/1022 6000 NSW SCT030 BKN120 \n BECMG 1103/1104 29010KT NSC"
"taf	RKSI	2020-06-10 06:06:00	TAF RKSI 100500Z 1006/1112 31006KT 9999 SCT035 BKN100 TN18/1020Z TX28/1105Z \n BECMG 1007/1008 23005KT 4200 -RA FEW010 BKN025 OVC080 \n BECMG 1014/1015 03005KT BR \n BECMG 1021/1022 6000 NSW SCT030 BKN120 \n BECMG 1103/1104 29010KT NSC"
"taf	RKSI	2020-06-10 12:00:00	TAF RKSI 101100Z 1012/1118 18005KT 4200 -RA FEW010 BKN025 OVC070 TN19/1018Z TX27/1106Z \n BECMG 1014/1015 07005KT BR \n BECMG 1021/1022 03005KT 6000 NSW SCT030 BKN120 \n BECMG 1102/1103 29010KT NSC \n BECMG 1114/1115 17005KT 4200 BR"
"taf	RKSI	2020-06-10 12:09:00	TAF TAF RKSI 101100Z 1012/1118 18005KT 4200 -RA FEW010 BKN025 OVC070 TN19/1018Z TX27/1106Z \n BECMG 1014/1015 07005KT BR \n BECMG 1021/1022 03005KT 6000 NSW SCT030 BKN120 \n BECMG 1102/1103 29010KT NSC \n BECMG 1114/1115 17005KT 4200 BR"
"taf	RKSI	2020-06-10 13:54:00	TAF \n AMD RKSI 101254Z 1013/1118 33005KT 4200 -RA FEW010 BKN025 OVC070 TN19/1018Z TX27/1106Z \n BECMG 1014/1015 07005KT BR \n BECMG 1021/1022 03005KT 6000 NSW SCT030 BKN120 \n BECMG 1102/1103 29010KT NSC \n BECMG 1114/1115 17005KT 4200 BR"
"taf	RKSI	2020-06-10 13:57:00	TAF \n AMD TAF \n AMD RKSI 101254Z 1013/1118 33005KT 4200 -RA FEW010 BKN025 OVC070 TN19/1018Z TX27/1106Z \n BECMG 1014/1015 07005KT BR \n BECMG 1021/1022 03005KT 6000 NSW SCT030 BKN120 \n BECMG 1102/1103 29010KT NSC \n BECMG 1114/1115 17005KT 4200 BR"
"taf	RKSI	2020-06-10 14:15:00	TAF \n AMD RKSI 101415Z 1014/1118 15005KT 6000 BKN020 OVC100 TN19/1018Z TX27/1106Z \n BECMG 1021/1022 03005KT SCT030 BKN120 \n BECMG 1102/1103 29010KT NSC \n BECMG 1114/1115 17005KT 4200 BR"
"taf	RKSI	2020-06-10 14:18:00	TAF \n AMD TAF \n AMD RKSI 101415Z 1014/1118 15005KT 6000 BKN020 OVC100 TN19/1018Z TX27/1106Z \n BECMG 1021/1022 03005KT SCT030 BKN120 \n BECMG 1102/1103 29010KT NSC \n BECMG 1114/1115 17005KT 4200 BR"
"taf	RKSI	2020-06-10 18:00:00	TAF RKSI 101700Z 1018/1124 02006KT 7000 BKN020 BKN120 TN19/1019Z TX27/1106Z TN18/1120Z \n BECMG 1021/1022 SCT030 \n BECMG 1102/1103 29010KT NSC \n BECMG 1114/1115 17005KT 4200 BR \n BECMG 1121/1122 6000 NSW"
"taf	RKSI	2020-06-10 18:06:00	TAF RKSI 101700Z 1018/1124 02006KT 7000 BKN020 BKN120 TN19/1019Z TX27/1106Z TN18/1120Z \n BECMG 1021/1022 SCT030 \n BECMG 1102/1103 29010KT NSC \n BECMG 1114/1115 17005KT 4200 BR \n BECMG 1121/1122 6000 NSW"
"taf	RKSI	2020-06-11 00:00:00	TAF RKSI 112300Z 1200/1306 18005KT CAVOK TX27/1204Z TN18/1218Z TX26/1303Z \n BECMG 1202/1203 29006KT 9999 SCT030 BKN120 \n BECMG 1209/1210 21006KT \n BECMG 1215/1216 30005KT \n BECMG 1217/1218 BKN030 BKN120 \n BECMG 1220/1221 17005KT"
"taf	RKSI	2020-06-11 00:06:00	TAF RKSI 112300Z 1200/1306 18005KT CAVOK TX27/1204Z TN18/1218Z TX26/1303Z \n BECMG 1202/1203 29006KT 9999 SCT030 BKN120 \n BECMG 1209/1210 21006KT \n BECMG 1215/1216 30005KT \n BECMG 1217/1218 BKN030 BKN120 \n BECMG 1220/1221 17005KT"
"taf	RKSI	2020-06-11 06:00:00	TAF RKSI 110500Z 1106/1212 31010KT 9999 FEW035 BKN180 TN18/1121Z TX24/1206Z \n BECMG 1113/1114 01006KT \n BECMG 1118/1119 18006KT \n BECMG 1120/1121 4200 BR \n BECMG 1122/1123 6000 NSW \n BECMG 1202/1203 25007KT"
"taf	RKSI	2020-06-11 06:06:00	TAF RKSI 110500Z 1106/1212 31010KT 9999 FEW035 BKN180 TN18/1121Z TX24/1206Z \n BECMG 1113/1114 01006KT \n BECMG 1118/1119 18006KT \n BECMG 1120/1121 4200 BR \n BECMG 1122/1123 6000 NSW \n BECMG 1202/1203 25007KT"
"taf	RKSI	2020-06-11 12:00:00	TAF RKSI 111100Z 1112/1218 31006KT CAVOK TN18/1121Z TX24/1206Z \n BECMG 1120/1121 28006KT 4200 BR NSC \n BECMG 1122/1123 31006KT 6000 NSW \n BECMG 1203/1204 24006KT \n BECMG 1215/1216 33006KT"
"taf	RKSI	2020-06-11 12:09:00	TAF RKSI 111100Z 1112/1218 31006KT CAVOK TN18/1121Z TX24/1206Z \n BECMG 1120/1121 28006KT 4200 BR NSC \n BECMG 1122/1123 31006KT 6000 NSW \n BECMG 1203/1204 24006KT \n BECMG 1215/1216 33006KT"
"taf	RKSI	2020-06-11 18:00:00	TAF RKSI 111700Z 1118/1224 16005KT CAVOK TN18/1120Z TX26/1203Z TN18/1216Z \n BECMG 1202/1203 29007KT 9999 SCT030 BKN120 \n BECMG 1208/1209 23008KT \n BECMG 1211/1212 29005KT \n BECMG 1217/1218 BKN030 BKN120 \n BECMG 1220/1221 15005KT"
"taf	RKSI	2020-06-11 18:06:00	TAF RKSI 111700Z 1118/1224 16005KT CAVOK TN18/1120Z TX26/1203Z TN18/1216Z \n BECMG 1202/1203 29007KT 9999 SCT030 BKN120 \n BECMG 1208/1209 23008KT \n BECMG 1211/1212 29005KT \n BECMG 1217/1218 BKN030 BKN120 \n BECMG 1220/1221 15005KT"
"taf	RKSI	2020-06-12 00:00:00	TAF RKSI 122300Z 1300/1406 18007KT CAVOK TX28/1307Z TN18/1321Z TN26/1405Z \n BECMG 1307/1308 31005KT 9999 SCT030 BKN120 \n BECMG 1314/1315 21005KT 6000 -RA FEW010 BKN025 OVC100 \n BECMG 1320/1321 29007KT NSW SCT030 BKN120 \n BECMG 1405/1406 29015G25KT CAVOK"
"taf	RKSI	2020-06-12 00:09:00	TAF RKSI 122300Z 1300/1406 18007KT CAVOK TX28/1307Z TN18/1321Z TN26/1405Z \n BECMG 1307/1308 31005KT 9999 SCT030 BKN120 \n BECMG 1314/1315 21005KT 6000 -RA FEW010 BKN025 OVC100 \n BECMG 1320/1321 29007KT NSW SCT030 BKN120 \n BECMG 1405/1406 29015G25KT CAVOK"
"taf	RKSI	2020-06-12 06:00:00	TAF RKSI 120500Z 1206/1312 30006KT CAVOK TN18/1221Z TX28/1306Z \n BECMG 1210/1211 18006KT \n BECMG 1215/1216 33006KT \n BECMG 1300/1301 17006KT \n BECMG 1303/1304 25006KT \n BECMG 1311/1312 16006KT 9999 FEW010 BKN025"
"taf	RKSI	2020-06-12 06:06:00	TAF RKSI 120500Z 1206/1312 30006KT CAVOK TN18/1221Z TX28/1306Z \n BECMG 1210/1211 18006KT \n BECMG 1215/1216 33006KT \n BECMG 1300/1301 17006KT \n BECMG 1303/1304 25006KT \n BECMG 1311/1312 16006KT 9999 FEW010 BKN025"
"taf	RKSI	2020-06-12 08:35:00	TAF \n AMD RKSI 120735Z 1208/1312 25006KT 7000 -RA FEW010 BKN045 OVC170 TN18/1221Z TX28/1306Z \n BECMG 1210/1211 18006KT NSW \n BECMG 1215/1216 33006KT \n BECMG 1300/1301 17006KT \n BECMG 1303/1304 25006KT \n BECMG 1311/1312 16006KT 9999 FEW010 BKN025"
"taf	RKSI	2020-06-12 08:36:00	TAF \n AMD TAF \n AMD RKSI 120735Z 1208/1312 25006KT 7000 -RA FEW010 BKN045 OVC170 TN18/1221Z TX28/1306Z \n BECMG 1210/1211 18006KT NSW \n BECMG 1215/1216 33006KT \n BECMG 1300/1301 17006KT \n BECMG 1303/1304 25006KT \n BECMG 1311/1312 16006KT 9999 FEW010 BKN025"
"taf	RKSI	2020-06-12 12:00:00	TAF RKSI 121100Z 1212/1318 26006KT CAVOK TN18/1221Z TX28/1306Z \n TEMPO 1218/1222 07006KT \n BECMG 1223/1224 17008KT \n BECMG 1307/1308 25006KT \n BECMG 1312/1313 22006KT 4200 -RA FEW010 BKN025"
"taf	RKSI	2020-06-12 12:09:00	TAF RKSI 121100Z 1212/1318 26006KT CAVOK TN18/1221Z TX28/1306Z \n TEMPO 1218/1222 07006KT \n BECMG 1223/1224 17008KT \n BECMG 1307/1308 25006KT \n BECMG 1312/1313 22006KT 4200 -RA FEW010 BKN025"
"taf	RKSI	2020-06-12 18:00:00	TAF RKSI 121700Z 1218/1324 05005KT CAVOK TN18/1220Z TX28/1307Z TN18/1322Z \n BECMG 1300/1301 19007KT \n BECMG 1308/1309 31005KT 9999 SCT030 BKN120 \n BECMG 1314/1315 21005KT 4200 -RA FEW010 BKN025 OVC100 \n BECMG 1321/1322 30005KT 6000 NSW SCT030 BKN120"
"taf	RKSI	2020-06-12 18:06:00	TAF RKSI 121700Z 1218/1324 05005KT CAVOK TN18/1220Z TX28/1307Z TN18/1322Z \n BECMG 1300/1301 19007KT \n BECMG 1308/1309 31005KT 9999 SCT030 BKN120 \n BECMG 1314/1315 21005KT 4200 -RA FEW010 BKN025 OVC100 \n BECMG 1321/1322 30005KT 6000 NSW SCT030 BKN120"
"taf	RKSI	2020-06-13 00:00:00	TAF RKSI 132300Z 1400/1506 30010KT CAVOK TX25/1406Z TN18/1421Z TX25/1506Z \n BECMG 1404/1405 27015G25KT \n BECMG 1414/1415 28010KT \n BECMG 1420/1421 22010KT"
"taf	RKSI	2020-06-13 00:03:00	TAF COR RKSI 130003Z 1300/1406 18007KT CAVOK TX28/1307Z TN18/1321Z TX26/1405Z \n BECMG 1307/1308 31005KT 9999 SCT030 BKN120 \n BECMG 1314/1315 21005KT 6000 -RA FEW010 BKN025 OVC100 \n BECMG 1320/1321 29007KT NSW SCT030 BKN120 \n BECMG 1405/1406 29015G25KT CAVOK"
"taf	RKSI	2020-06-13 00:06:00	TAF COR TAF COR RKSI 130003Z 1300/1406 18007KT CAVOK TX28/1307Z TN18/1321Z TX26/1405Z \n BECMG 1307/1308 31005KT 9999 SCT030 BKN120 \n BECMG 1314/1315 21005KT 6000 -RA FEW010 BKN025 OVC100 \n BECMG 1320/1321 29007KT NSW SCT030 BKN120 \n BECMG 1405/1406 29015G25KT CAVOK"
"taf	RKSI	2020-06-13 00:09:00	TAF RKSI 132300Z 1400/1506 30010KT CAVOK TX25/1406Z TN18/1421Z TX25/1506Z \n BECMG 1404/1405 27015G25KT \n BECMG 1414/1415 28010KT \n BECMG 1420/1421 22010KT"
"taf	RKSI	2020-06-13 02:24:00	TAF \n AMD TAF \n AMD RKSI 130225Z 1302/1406 31005KT CAVOK TX28/1307Z TN18/1321Z TX26/1405Z \n BECMG 1312/1313 21005KT 6000 -RA FEW010 BKN025 OVC100 \n BECMG 1320/1321 29007KT NSW SCT030 BKN120 \n BECMG 1405/1406 29015G25KT CAVOK"
"taf	RKSI	2020-06-13 02:25:00	TAF \n AMD RKSI 130225Z 1302/1406 31005KT CAVOK TX28/1307Z TN18/1321Z TX26/1405Z \n BECMG 1312/1313 21005KT 6000 -RA FEW010 BKN025 OVC100 \n BECMG 1320/1321 29007KT NSW SCT030 BKN120 \n BECMG 1405/1406 29015G25KT CAVOK"
"taf	RKSI	2020-06-13 06:00:00	TAF RKSI 130500Z 1306/1412 30008KT CAVOK TN19/1321Z TX26/1405Z \n BECMG 1311/1312 9999 BKN030 BKN100 \n BECMG 1314/1315 22005KT 6000 -RA SCT010 BKN025 OVC100 \n BECMG 1317/1318 29007KT \n BECMG 1320/1321 NSW SCT030 BKN120 \n BECMG 1405/1406 27015G25KT CAVOK"
"taf	RKSI	2020-06-13 06:06:00	TAF RKSI 130500Z 1306/1412 30008KT CAVOK TN19/1321Z TX26/1405Z \n BECMG 1311/1312 9999 BKN030 BKN100 \n BECMG 1314/1315 22005KT 6000 -RA SCT010 BKN025 OVC100 \n BECMG 1317/1318 29007KT \n BECMG 1320/1321 NSW SCT030 BKN120 \n BECMG 1405/1406 27015G25KT CAVOK"
"taf	RKSI	2020-06-13 12:00:00	TAF RKSI 131100Z 1312/1418 30005KT 9999 BKN030 BKN100 TN19/1321Z TX26/1405Z \n BECMG 1314/1315 22005KT 6000 -RA SCT010 BKN025 OVC100 \n BECMG 1317/1318 29007KT \n BECMG 1320/1321 NSW SCT030 BKN120 \n BECMG 1404/1405 28015G25KT CAVOK \n BECMG 1412/1413 29010KT"
"taf	RKSI	2020-06-13 12:06:00	TAF RKSI 131100Z 1312/1418 30005KT 9999 BKN030 BKN100 TN19/1321Z TX26/1405Z \n BECMG 1314/1315 22005KT 6000 -RA SCT010 BKN025 OVC100 \n BECMG 1317/1318 29007KT \n BECMG 1320/1321 NSW SCT030 BKN120 \n BECMG 1404/1405 28015G25KT CAVOK \n BECMG 1412/1413 29010KT"
"taf	RKSI	2020-06-13 18:00:00	TAF RKSI 131700Z 1318/1424 22006KT 4200 BR FEW004 BKN025 TN19/1321Z TX25/1406Z TN18/1421Z \n BECMG 1320/1321 28008KT 6000 NSW SCT035 \n BECMG 1405/1406 27015G25KT \n BECMG 1414/1415 28010KT \n BECMG 1420/1421 22008KT"
"taf	RKSI	2020-06-13 18:06:00	TAF RKSI 131700Z 1318/1424 22006KT 4200 BR FEW004 BKN025 TN19/1321Z TX25/1406Z TN18/1421Z \n BECMG 1320/1321 28008KT 6000 NSW SCT035 \n BECMG 1405/1406 27015G25KT \n BECMG 1414/1415 28010KT \n BECMG 1420/1421 22008KT"
"taf	RKSI	2020-06-14 00:00:00	TAF RKSI 142300Z 1500/1606 22010KT CAVOK TX25/1506Z TN18/1521Z TX26/1606Z \n BECMG 1504/1505 23015G25KT \n BECMG 1509/1510 24010KT \n BECMG 1516/1517 30008KT \n BECMG 1601/1602 23008KT"
"taf	RKSI	2020-06-14 00:06:00	TAF RKSI 142300Z 1500/1606 22010KT CAVOK TX25/1506Z TN18/1521Z TX26/1606Z \n BECMG 1504/1505 23015G25KT \n BECMG 1509/1510 24010KT \n BECMG 1516/1517 30008KT \n BECMG 1601/1602 23008KT"
"taf	RKSI	2020-06-14 06:00:00	TAF RKSI 140500Z 1406/1512 27015G25KT CAVOK TN18/1421Z TX25/1506Z \n BECMG 1414/1415 28009KT \n BECMG 1420/1421 22009KT \n BECMG 1503/1504 24015G25KT \n BECMG 1511/1512 26010KT"
"taf	RKSI	2020-06-14 06:09:00	TAF RKSI 140500Z 1406/1512 27015G25KT CAVOK TN18/1421Z TX25/1506Z \n BECMG 1414/1415 28009KT \n BECMG 1420/1421 22009KT \n BECMG 1503/1504 24015G25KT \n BECMG 1511/1512 26010KT"
"taf	RKSI	2020-06-14 12:00:00	TAF RKSI 141100Z 1412/1518 28010KT 6000 FEW020 TN18/1421Z TX25/1506Z \n BECMG 1422/1423 22007KT CAVOK \n BECMG 1503/1504 25015G25KT \n BECMG 1511/1512 25006KT"
"taf	RKSI	2020-06-14 12:06:00	TAF RKSI 141100Z 1412/1518 28010KT 6000 FEW020 TN18/1421Z TX25/1506Z \n BECMG 1422/1423 22007KT CAVOK \n BECMG 1503/1504 25015G25KT \n BECMG 1511/1512 25006KT"
"taf	RKSI	2020-06-14 18:00:00	TAF RKSI 141700Z 1418/1524 28008KT CAVOK TN18/1421Z TX25/1506Z TN18/1521Z \n BECMG 1421/1422 22010KT \n BECMG 1504/1505 24015G25KT \n BECMG 1509/1510 25010KT \n BECMG 1515/1516 19006KT"
"taf	RKSI	2020-06-14 18:09:00	TAF RKSI 141700Z 1418/1524 28008KT CAVOK TN18/1421Z TX25/1506Z TN18/1521Z \n BECMG 1421/1422 22010KT \n BECMG 1504/1505 24015G25KT \n BECMG 1509/1510 25010KT \n BECMG 1515/1516 19006KT"
"taf	RKSI	2020-06-15 00:00:00	TAF RKSI 152300Z 1600/1706 16006KT 6000 SCT025 TX27/1606Z TN18/1620Z TX26/1705Z \n BECMG 1604/1605 25008KT CAVOK \n BECMG 1612/1613 18006KT 4200 BR BKN015 \n BECMG 1615/1616 1300 BKN005 \n BECMG 1620/1621 4200 BKN020 \n BECMG 1701/1702 25007KT 6000 NSW FEW030 BKN140"
"taf	RKSI	2020-06-15 00:06:00	TAF RKSI 152300Z 1600/1706 16006KT 6000 SCT025 TX27/1606Z TN18/1620Z TX26/1705Z \n BECMG 1604/1605 25008KT CAVOK \n BECMG 1612/1613 18006KT 4200 BR BKN015 \n BECMG 1615/1616 1300 BKN005 \n BECMG 1620/1621 4200 BKN020 \n BECMG 1701/1702 25007KT 6000 NSW FEW030 BKN140"
"taf	RKSI	2020-06-15 06:00:00	TAF RKSI 150500Z 1506/1612 24015G25KT CAVOK TN18/1521Z TX26/1606Z \n BECMG 1512/1513 27010KT \n BECMG 1516/1517 33005KT \n BECMG 1602/1603 23006KT"
"taf	RKSI	2020-06-15 06:09:00	TAF RKSI 150500Z 1506/1612 24015G25KT CAVOK TN18/1521Z TX26/1606Z \n BECMG 1512/1513 27010KT \n BECMG 1516/1517 33005KT \n BECMG 1602/1603 23006KT"
"taf	RKSI	2020-06-15 12:00:00	TAF RKSI 151100Z 1512/1618 23008KT CAVOK TN18/1521Z TX26/1606Z \n BECMG 1514/1515 30005KT 4200 BR NSC \n BECMG 1518/1519 6000 NSW \n BECMG 1602/1603 23006KT"
"taf	RKSI	2020-06-15 12:09:00	TAF RKSI 151100Z 1512/1618 23008KT CAVOK TN18/1521Z TX26/1606Z \n BECMG 1514/1515 30005KT 4200 BR NSC \n BECMG 1518/1519 6000 NSW \n BECMG 1602/1603 23006KT"
"taf	RKSI	2020-06-15 13:55:00	TAF \n AMD RKSI 151255Z 1513/1618 23008KT 6000 BKN005 TN18/1521Z TX26/1606Z \n BECMG 1514/1515 30005KT 4200 BR \n BECMG 1520/1521 6000 NSW NSC \n BECMG 1602/1603 23006KT"
"taf	RKSI	2020-06-15 13:57:00	TAF \n AMD TAF \n AMD RKSI 151255Z 1513/1618 23008KT 6000 BKN005 TN18/1521Z TX26/1606Z \n BECMG 1514/1515 30005KT 4200 BR \n BECMG 1520/1521 6000 NSW NSC \n BECMG 1602/1603 23006KT"
"taf	RKSI	2020-06-15 18:00:00	TAF RKSI 151700Z 1518/1624 24007KT 3500 BR BKN005 TN18/1520Z TX27/1606Z TN18/1620Z \n BECMG 1521/1522 33006KT 6000 NSW BKN020 \n BECMG 1600/1601 16005KT CAVOK \n BECMG 1603/1604 25008KT \n BECMG 1612/1613 18006KT 3500 BR BKN005 \n BECMG 1621/1622 6000 NSW NSC"
"taf	RKSI	2020-06-15 18:06:00	TAF RKSI 151700Z 1518/1624 24007KT 3500 BR BKN005 TN18/1520Z TX27/1606Z TN18/1620Z \n BECMG 1521/1522 33006KT 6000 NSW BKN020 \n BECMG 1600/1601 16005KT CAVOK \n BECMG 1603/1604 25008KT \n BECMG 1612/1613 18006KT 3500 BR BKN005 \n BECMG 1621/1622 6000 NSW NSC"
"taf	RKSI	2020-06-15 21:25:00	TAF \n AMD RKSI 152125Z 1521/1624 16007KT 6000 BKN010 TX27/1606Z TN18/1620Z \n BECMG 1522/1523 BKN020 \n BECMG 1600/1601 CAVOK \n BECMG 1603/1604 25008KT \n BECMG 1612/1613 18006KT 3500 BR BKN005 \n BECMG 1621/1622 6000 NSW NSC"
"taf	RKSI	2020-06-15 21:27:00	TAF \n AMD TAF \n AMD RKSI 152125Z 1521/1624 16007KT 6000 BKN010 TX27/1606Z TN18/1620Z \n BECMG 1522/1523 BKN020 \n BECMG 1600/1601 CAVOK \n BECMG 1603/1604 25008KT \n BECMG 1612/1613 18006KT 3500 BR BKN005 \n BECMG 1621/1622 6000 NSW NSC"
"taf	RKSI	2020-06-16 00:00:00	TAF RKSI 162300Z 1700/1806 24008KT 9999 FEW030 BKN180 TX26/1705Z TN18/1720Z TX26/1806Z \n BECMG 1710/1711 4200 BR SCT010 \n BECMG 1714/1715 18005KT 2500 BKN005 BKN160 \n BECMG 1720/1721 15005KT 4200 BKN012 BKN130 \n BECMG 1723/1724 18005KT 6000 NSW BKN020 BKN130 \n BECMG 1803/1804 25006KT NSC"
"taf	RKSI	2020-06-16 00:09:00	TAF RKSI 162300Z 1700/1806 24008KT 9999 FEW030 BKN180 TX26/1705Z TN18/1720Z TX26/1806Z \n BECMG 1710/1711 4200 BR SCT010 \n BECMG 1714/1715 18005KT 2500 BKN005 BKN160 \n BECMG 1720/1721 15005KT 4200 BKN012 BKN130 \n BECMG 1723/1724 18005KT 6000 NSW BKN020 BKN130 \n BECMG 1803/1804 25006KT NSC"
"taf	RKSI	2020-06-16 06:00:00	TAF RKSI 160500Z 1606/1712 25007KT 7000 SCT025 TN18/1620Z TX26/1705Z \n BECMG 1612/1613 18006KT 4200 BR BKN015 \n BECMG 1615/1616 2000 \n BECMG 1620/1621 4200 SCT025 \n BECMG 1700/1701 25007KT 6000 NSW \n BECMG 1709/1710 4200 BR"
"taf	RKSI	2020-06-16 06:06:00	TAF RKSI 160500Z 1606/1712 25007KT 7000 SCT025 TN18/1620Z TX26/1705Z \n BECMG 1612/1613 18006KT 4200 BR BKN015 \n BECMG 1615/1616 2000 \n BECMG 1620/1621 4200 SCT025 \n BECMG 1700/1701 25007KT 6000 NSW \n BECMG 1709/1710 4200 BR"
"taf	RKSI	2020-06-16 12:00:00	TAF RKSI 161100Z 1612/1718 18006KT 4200 BR FEW015 BKN180 TN18/1620Z TX26/1705Z \n BECMG 1615/1616 2000 BKN010 \n BECMG 1620/1621 4200 SCT025 \n BECMG 1700/1701 25007KT 6000 NSW \n BECMG 1709/1710 4200 BR \n BECMG 1712/1713 19005KT"
"taf	RKSI	2020-06-16 12:06:00	TAF RKSI 161100Z 1612/1718 18006KT 4200 BR FEW015 BKN180 TN18/1620Z TX26/1705Z \n BECMG 1615/1616 2000 BKN010 \n BECMG 1620/1621 4200 SCT025 \n BECMG 1700/1701 25007KT 6000 NSW \n BECMG 1709/1710 4200 BR \n BECMG 1712/1713 19005KT"
"taf	RKSI	2020-06-16 13:25:00	TAF \n AMD RKSI 161325Z 1613/1718 26006KT 6000 FEW015 BKN180 TN18/1620Z TX26/1705Z \n BECMG 1615/1616 18006KT 2800 BR BKN010 \n BECMG 1620/1621 4200 SCT025 \n BECMG 1700/1701 25007KT 6000 NSW \n BECMG 1709/1710 4200 BR \n BECMG 1712/1713 19005KT"
"taf	RKSI	2020-06-16 13:27:00	TAF \n AMD TAF \n AMD RKSI 161325Z 1613/1718 26006KT 6000 FEW015 BKN180 TN18/1620Z TX26/1705Z \n BECMG 1615/1616 18006KT 2800 BR BKN010 \n BECMG 1620/1621 4200 SCT025 \n BECMG 1700/1701 25007KT 6000 NSW \n BECMG 1709/1710 4200 BR \n BECMG 1712/1713 19005KT"
"taf	RKSI	2020-06-16 18:00:00	TAF RKSI 161700Z 1618/1724 18006KT 6000 FEW020 BKN180 TN18/1620Z TX26/1705Z TN18/1720Z \n BECMG 1701/1702 25007KT \n BECMG 1710/1711 4200 BR SCT010 \n BECMG 1714/1715 19005KT 2500 BKN005 \n BECMG 1720/1721 15005KT 4200 BKN012 \n BECMG 1723/1724 20005KT 6000 NSW BKN020 BKN120"
"taf	RKSI	2020-06-16 18:06:00	TAF RKSI 161700Z 1618/1724 18006KT 6000 FEW020 BKN180 TN18/1620Z TX26/1705Z TN18/1720Z \n BECMG 1701/1702 25007KT \n BECMG 1710/1711 4200 BR SCT010 \n BECMG 1714/1715 19005KT 2500 BKN005 \n BECMG 1720/1721 15005KT 4200 BKN012 \n BECMG 1723/1724 20005KT 6000 NSW BKN020 BKN120"
"taf	RKSI	2020-06-17 00:00:00	TAF RKSI 172300Z 1800/1906 35005KT 7000 SCT025 BKN120 TX25/1804Z TN19/1819Z TX26/1905Z \n BECMG 1803/1804 23005KT \n BECMG 1808/1809 33006KT \n BECMG 1814/1815 4200 BR BKN025 OVC100 \n TEMPO 1818/1821 -RA \n BECMG 1823/1824 6000 NSW SCT030"
"taf	RKSI	2020-06-17 00:09:00	TAF RKSI 172300Z 1800/1906 35005KT 7000 SCT025 BKN120 TX25/1804Z TN19/1819Z TX26/1905Z \n BECMG 1803/1804 23005KT \n BECMG 1808/1809 33006KT \n BECMG 1814/1815 4200 BR BKN025 OVC100 \n TEMPO 1818/1821 -RA \n BECMG 1823/1824 6000 NSW SCT030"
"taf	RKSI	2020-06-17 06:00:00	TAF RKSI 170500Z 1706/1812 24008KT 9999 FEW030 SCT160 TN18/1720Z TX26/1807Z \n BECMG 1712/1713 18005KT 4200 BR SCT010 \n BECMG 1721/1722 21005KT 6000 NSW SCT025 BKN130 \n BECMG 1809/1810 31005KT"
"taf	RKSI	2020-06-17 06:09:00	TAF RKSI 170500Z 1706/1812 24008KT 9999 FEW030 SCT160 TN18/1720Z TX26/1807Z \n BECMG 1712/1713 18005KT 4200 BR SCT010 \n BECMG 1721/1722 21005KT 6000 NSW SCT025 BKN130 \n BECMG 1809/1810 31005KT"
"taf	RKSI	2020-06-17 12:00:00	TAF RKSI 171100Z 1712/1818 25008KT 9999 FEW030 BKN160 TN18/1719Z TX26/1804Z \n BECMG 1714/1715 20005KT 4200 BR SCT010 \n BECMG 1721/1722 02005KT 6000 NSW SCT025 BKN120 \n BECMG 1803/1804 23005KT \n BECMG 1808/1809 32006KT"
"taf	RKSI	2020-06-17 12:09:00	TAF RKSI 171100Z 1712/1818 25008KT 9999 FEW030 BKN160 TN18/1719Z TX26/1804Z \n BECMG 1714/1715 20005KT 4200 BR SCT010 \n BECMG 1721/1722 02005KT 6000 NSW SCT025 BKN120 \n BECMG 1803/1804 23005KT \n BECMG 1808/1809 32006KT"
"taf	RKSI	2020-06-17 15:40:00	TAF \n AMD RKSI 171440Z 1715/1818 20005KT 9999 FEW030 BKN160 TN18/1719Z TX26/1804Z \n BECMG 1717/1718 4200 BR SCT010 \n BECMG 1721/1722 02005KT 6000 NSW SCT025 BKN120 \n BECMG 1803/1804 23005KT \n BECMG 1808/1809 32006KT"
"taf	RKSI	2020-06-17 15:42:00	TAF \n AMD TAF \n AMD RKSI 171440Z 1715/1818 20005KT 9999 FEW030 BKN160 TN18/1719Z TX26/1804Z \n BECMG 1717/1718 4200 BR SCT010 \n BECMG 1721/1722 02005KT 6000 NSW SCT025 BKN120 \n BECMG 1803/1804 23005KT \n BECMG 1808/1809 32006KT"
"taf	RKSI	2020-06-17 16:10:00	TAF \n AMD RKSI 171610Z 1716/1818 20005KT 6000 FEW005 BKN160 TN18/1719Z TX26/1804Z \n BECMG 1717/1718 4200 BR SCT005 \n BECMG 1721/1722 02005KT 6000 NSW SCT025 BKN120 \n BECMG 1803/1804 23005KT \n BECMG 1808/1809 32006KT"
"taf	RKSI	2020-06-17 16:12:00	TAF \n AMD TAF \n AMD RKSI 171610Z 1716/1818 20005KT 6000 FEW005 BKN160 TN18/1719Z TX26/1804Z \n BECMG 1717/1718 4200 BR SCT005 \n BECMG 1721/1722 02005KT 6000 NSW SCT025 BKN120 \n BECMG 1803/1804 23005KT \n BECMG 1808/1809 32006KT"
"taf	RKSI	2020-06-17 16:48:00	TAF \n AMD RKSI 171648Z 1716/1818 20005KT 2000 BR SCT003 BKN160 TN18/1719Z TX26/1804Z \n TEMPO 1716/1720 0800 FG BKN003 \n BECMG 1721/1722 02005KT 6000 NSW SCT025 BKN120 \n BECMG 1803/1804 23005KT \n BECMG 1808/1809 32006KT"
"taf	RKSI	2020-06-17 16:51:00	TAF \n AMD TAF \n AMD RKSI 171648Z 1716/1818 20005KT 2000 BR SCT003 BKN160 TN18/1719Z TX26/1804Z \n TEMPO 1716/1720 0800 FG BKN003 \n BECMG 1721/1722 02005KT 6000 NSW SCT025 BKN120 \n BECMG 1803/1804 23005KT \n BECMG 1808/1809 32006KT"
"taf	RKSI	2020-06-17 18:00:00	TAF \n AMD RKSI 171730Z 1718/1824 20005KT 4200 BR SCT003 TN18/1719Z TX26/1804Z TN19/1819Z \n TEMPO 1718/1719 2500 \n BECMG 1720/1721 02005KT 6000 NSW SCT025 BKN120 \n BECMG 1803/1804 23005KT \n BECMG 1808/1809 32006KT \n BECMG 1812/1813 BKN025 OVC100"
"taf	RKSI	2020-06-17 18:09:00	TAF TAF RKSI 171700Z 1718/1824 20005KT 2800 BR SCT003 TN18/1719Z TX26/1804Z TN19/1819Z \n BECMG 1720/1721 02005KT 6000 NSW SCT025 BKN120 \n BECMG 1803/1804 23005KT \n BECMG 1808/1809 32006KT \n BECMG 1812/1813 BKN025 OVC100"
"taf	RKSI	2020-06-17 18:30:00	TAF \n AMD RKSI 171730Z 1718/1824 20005KT 4200 BR SCT003 TN18/1719Z TX26/1804Z TN19/1819Z \n TEMPO 1718/1719 2500 \n BECMG 1720/1721 02005KT 6000 NSW SCT025 BKN120 \n BECMG 1803/1804 23005KT \n BECMG 1808/1809 32006KT \n BECMG 1812/1813 BKN025 OVC100"
"taf	RKSI	2020-06-17 18:33:00	TAF \n AMD TAF \n AMD RKSI 171730Z 1718/1824 20005KT 4200 BR SCT003 TN18/1719Z TX26/1804Z TN19/1819Z \n TEMPO 1718/1719 2500 \n BECMG 1720/1721 02005KT 6000 NSW SCT025 BKN120 \n BECMG 1803/1804 23005KT \n BECMG 1808/1809 32006KT \n BECMG 1812/1813 BKN025 OVC100"
"taf	RKSI	2020-06-17 21:03:00	TAF \n AMD RKSI 172103Z 1721/1824 35005KT 2500 BR SCT008 TN18/1719Z TX26/1804Z TN19/1819Z \n BECMG 1800/1801 6000 NSW SCT025 BKN120 \n BECMG 1803/1804 23005KT \n BECMG 1808/1809 32006KT \n BECMG 1812/1813 4200 BR BKN025 OVC100 \n BECMG 1821/1822 6000 NSW"
"taf	RKSI	2020-06-17 21:06:00	TAF \n AMD TAF \n AMD RKSI 172103Z 1721/1824 35005KT 2500 BR SCT008 TN18/1719Z TX26/1804Z TN19/1819Z \n BECMG 1800/1801 6000 NSW SCT025 BKN120 \n BECMG 1803/1804 23005KT \n BECMG 1808/1809 32006KT \n BECMG 1812/1813 4200 BR BKN025 OVC100 \n BECMG 1821/1822 6000 NSW"
"taf	RKSI	2020-06-18 00:00:00	TAF RKSI 182300Z 1900/2006 02006KT 6000 SCT040 BKN120 TX28/1904Z TN19/1920Z TX27/2005Z \n BECMG 1902/1903 30010KT CAVOK \n BECMG 1913/1914 21005KT 4200 BR SCT010 \n BECMG 1921/1922 29008KT 6000 NSW"
"taf	RKSI	2020-06-18 00:06:00	TAF RKSI 182300Z 1900/2006 02006KT 6000 SCT040 BKN120 TX28/1904Z TN19/1920Z TX27/2005Z \n BECMG 1902/1903 30010KT CAVOK \n BECMG 1913/1914 21005KT 4200 BR SCT010 \n BECMG 1921/1922 29008KT 6000 NSW"
"taf	RKSI	2020-06-18 06:00:00	TAF RKSI 180500Z 1806/1912 33006KT 9999 FEW030 BKN130 TN19/1818Z TX28/1904Z \n BECMG 1816/1817 36007KT 4200 BR BKN025 OVC100 \n TEMPO 1819/1821 03008KT -RA \n BECMG 1821/1822 05007KT 6000 NSW SCT030 \n BECMG 1902/1903 32012G22KT"
"taf	RKSI	2020-06-18 06:09:00	TAF RKSI 180500Z 1806/1912 33006KT 9999 FEW030 BKN130 TN19/1818Z TX28/1904Z \n BECMG 1816/1817 36007KT 4200 BR BKN025 OVC100 \n TEMPO 1819/1821 03008KT -RA \n BECMG 1821/1822 05007KT 6000 NSW SCT030 \n BECMG 1902/1903 32012G22KT"
"taf	RKSI	2020-06-18 09:15:00	TAF \n AMD RKSI 180915Z 1809/1912 33006KT 9999 FEW030 BKN130 TN19/1818Z TX28/1904Z \n TEMPO 1810/1811 -RA BKN030 OVC120 \n BECMG 1816/1817 36007KT 4200 BR BKN025 OVC100 \n TEMPO 1819/1821 03008KT -RA \n BECMG 1821/1822 05007KT 6000 NSW SCT030 \n BECMG 1902/1903 32012G22KT"
"taf	RKSI	2020-06-18 09:18:00	TAF \n AMD TAF \n AMD RKSI 180915Z 1809/1912 33006KT 9999 FEW030 BKN130 TN19/1818Z TX28/1904Z \n TEMPO 1810/1811 -RA BKN030 OVC120 \n BECMG 1816/1817 36007KT 4200 BR BKN025 OVC100 \n TEMPO 1819/1821 03008KT -RA \n BECMG 1821/1822 05007KT 6000 NSW SCT030 \n BECMG 1902/1903 32012G22KT"
"taf	RKSI	2020-06-18 12:00:00	TAF RKSI 181100Z 1812/1918 32005KT 9999 SCT030 BKN120 TN19/1820Z TX28/1904Z \n BECMG 1817/1818 36005KT 4200 BR BKN025 OVC100 \n TEMPO 1819/1821 03006KT -RA \n BECMG 1821/1822 05007KT 6000 NSW SCT030 \n BECMG 1902/1903 30012G22KT CAVOK \n BECMG 1913/1914 21005KT 4200 BR SCT010"
"taf	RKSI	2020-06-18 12:06:00	TAF RKSI 181100Z 1812/1918 32005KT 9999 SCT030 BKN120 TN19/1820Z TX28/1904Z \n BECMG 1817/1818 36005KT 4200 BR BKN025 OVC100 \n TEMPO 1819/1821 03006KT -RA \n BECMG 1821/1822 05007KT 6000 NSW SCT030 \n BECMG 1902/1903 30012G22KT CAVOK \n BECMG 1913/1914 21005KT 4200 BR SCT010"
"taf	RKSI	2020-06-18 18:00:00	TAF RKSI 181700Z 1818/1924 03010KT 9999 SCT030 BKN120 TN19/1820Z TX28/1904Z TN19/1920Z \n TEMPO 1818/1821 6000 -RA BKN025 OVC100 \n BECMG 1902/1903 30010KT CAVOK \n BECMG 1913/1914 21005KT 4200 BR SCT010 \n BECMG 1921/1922 29008KT 6000 NSW"
"taf	RKSI	2020-06-18 18:06:00	TAF RKSI 181700Z 1818/1924 03010KT 9999 SCT030 BKN120 TN19/1820Z TX28/1904Z TN19/1920Z \n TEMPO 1818/1821 6000 -RA BKN025 OVC100 \n BECMG 1902/1903 30010KT CAVOK \n BECMG 1913/1914 21005KT 4200 BR SCT010 \n BECMG 1921/1922 29008KT 6000 NSW"
"taf	RKSI	2020-06-18 20:17:00	TAF \n AMD RKSI 182017Z 1820/1924 02010KT 7000 SCT030 BKN120 TN19/1820Z TX28/1904Z TN19/1920Z \n TEMPO 1820/1823 3500 -TSRA SCT015CB BKN025 OVC080 \n BECMG 1902/1903 30010KT \n BECMG 1913/1914 21005KT 4200 BR SCT010 \n BECMG 1921/1922 29008KT 6000 NSW"
"taf	RKSI	2020-06-18 20:21:00	TAF \n AMD TAF \n AMD RKSI 182017Z 1820/1924 02010KT 7000 SCT030 BKN120 TN19/1820Z TX28/1904Z TN19/1920Z \n TEMPO 1820/1823 3500 -TSRA SCT015CB BKN025 OVC080 \n BECMG 1902/1903 30010KT \n BECMG 1913/1914 21005KT 4200 BR SCT010 \n BECMG 1921/1922 29008KT 6000 NSW"
"taf	RKSI	2020-06-19 00:00:00	TAF RKSI 192300Z 2000/2106 22006KT CAVOK TX27/2004Z TN17/2018Z TX27/2105Z \n BECMG 2004/2005 28009KT \n BECMG 2012/2013 22005KT 6000 FEW020 \n BECMG 2015/2016 31005KT 4200 BR SCT010 \n TEMPO 2018/2020 2800 BKN007 \n BECMG 2021/2022 6000 NSW NSC"
"taf	RKSI	2020-06-19 00:09:00	TAF RKSI 192300Z 2000/2106 22006KT CAVOK TX27/2004Z TN17/2018Z TX27/2105Z \n BECMG 2004/2005 28009KT \n BECMG 2012/2013 22005KT 6000 FEW020 \n BECMG 2015/2016 31005KT 4200 BR SCT010 \n TEMPO 2018/2020 2800 BKN007 \n BECMG 2021/2022 6000 NSW NSC"
"taf	RKSI	2020-06-19 06:00:00	TAF RKSI 190500Z 1906/2012 31007KT CAVOK TN19/1921Z TX27/2006Z \n BECMG 1914/1915 20005KT 4200 BR SCT010 \n BECMG 1921/1922 28007KT CAVOK"
"taf	RKSI	2020-06-19 06:06:00	TAF RKSI 190500Z 1906/2012 31007KT CAVOK TN19/1921Z TX27/2006Z \n BECMG 1914/1915 20005KT 4200 BR SCT010 \n BECMG 1921/1922 28007KT CAVOK"
"taf	RKSI	2020-06-19 08:20:00	TAF \n AMD RKSI 190820Z 1908/2012 29012KT CAVOK TN19/1921Z TX27/2006Z \n BECMG 1914/1915 20005KT 4200 BR SCT010 \n BECMG 1921/1922 28007KT CAVOK"
"taf	RKSI	2020-06-19 08:21:00	TAF \n AMD TAF \n AMD RKSI 190820Z 1908/2012 29012KT CAVOK TN19/1921Z TX27/2006Z \n BECMG 1914/1915 20005KT 4200 BR SCT010 \n BECMG 1921/1922 28007KT CAVOK"
"taf	RKSI	2020-06-19 12:00:00	TAF RKSI 191100Z 1912/2018 28007KT CAVOK TN19/1921Z TX27/2006Z \n BECMG 1914/1915 20005KT 4200 BR SCT010 \n BECMG 1921/1922 28007KT CAVOK \n BECMG 2011/2012 20005KT 4200 BR SCT010"
"taf	RKSI	2020-06-19 12:06:00	TAF RKSI 191100Z 1912/2018 28007KT CAVOK TN19/1921Z TX27/2006Z \n BECMG 1914/1915 20005KT 4200 BR SCT010 \n BECMG 1921/1922 28007KT CAVOK \n BECMG 2011/2012 20005KT 4200 BR SCT010"
"taf	RKSI	2020-06-19 18:00:00	TAF RKSI 191700Z 1918/2024 21005KT 4200 BR NSC TN18/1920Z TX27/2004Z TN17/2017Z \n BECMG 1921/1922 6000 NSW \n BECMG 2004/2005 28009KT CAVOK \n BECMG 2015/2016 31005KT 4200 BR SCT010 \n TEMPO 2018/2020 2800 BKN007 \n BECMG 2021/2022 6000 NSW NSC"
"taf	RKSI	2020-06-19 18:06:00	TAF RKSI 191700Z 1918/2024 21005KT 4200 BR NSC TN18/1920Z TX27/2004Z TN17/2017Z \n BECMG 1921/1922 6000 NSW \n BECMG 2004/2005 28009KT CAVOK \n BECMG 2015/2016 31005KT 4200 BR SCT010 \n TEMPO 2018/2020 2800 BKN007 \n BECMG 2021/2022 6000 NSW NSC"
"taf	RKSI	2020-06-20 00:00:00	TAF RKSI 202300Z 2100/2206 30008KT CAVOK TX27/2105Z TN20/2120Z TX29/2205Z \n BECMG 2112/2113 12005KT 4200 BR NSC \n BECMG 2121/2122 6000 NSW \n BECMG 2201/2202 29006KT"
"taf	RKSI	2020-06-20 00:09:00	TAF RKSI 202300Z 2100/2206 30008KT CAVOK TX27/2105Z TN20/2120Z TX29/2205Z \n BECMG 2112/2113 12005KT 4200 BR NSC \n BECMG 2121/2122 6000 NSW \n BECMG 2201/2202 29006KT"
"taf	RKSI	2020-06-20 06:00:00	TAF RKSI 200500Z 2006/2112 28008KT CAVOK TN18/2019Z TX27/2105Z \n BECMG 2012/2013 20005KT 6000 FEW020 \n BECMG 2015/2016 31005KT 4200 BR SCT010 \n BECMG 2017/2018 2800 BKN007 \n BECMG 2020/2021 21005KT 6000 NSW NSC \n BECMG 2102/2103 27008KT CAVOK"
"taf	RKSI	2020-06-20 06:06:00	TAF RKSI 200500Z 2006/2112 28008KT CAVOK TN18/2019Z TX27/2105Z \n BECMG 2012/2013 20005KT 6000 FEW020 \n BECMG 2015/2016 31005KT 4200 BR SCT010 \n BECMG 2017/2018 2800 BKN007 \n BECMG 2020/2021 21005KT 6000 NSW NSC \n BECMG 2102/2103 27008KT CAVOK"
"taf	RKSI	2020-06-20 12:00:00	TAF RKSI 201100Z 2012/2118 30005KT 6000 SCT010 TN18/2019Z TX27/2105Z \n BECMG 2014/2015 22005KT 2800 BR BKN005 \n TEMPO 2016/2019 0800 FG \n BECMG 2020/2021 28005KT 4200 \n BECMG 2022/2023 22005KT 6000 NSW SCT015 \n BECMG 2101/2102 28008KT CAVOK"
"taf	RKSI	2020-06-20 12:06:00	TAF RKSI 201100Z 2012/2118 30005KT 6000 SCT010 TN18/2019Z TX27/2105Z \n BECMG 2014/2015 22005KT 2800 BR BKN005 \n TEMPO 2016/2019 0800 FG \n BECMG 2020/2021 28005KT 4200 \n BECMG 2022/2023 22005KT 6000 NSW SCT015 \n BECMG 2101/2102 28008KT CAVOK"
"taf	RKSI	2020-06-20 15:36:00	TAF \n AMD RKSI 201436Z 2015/2118 22005KT 6000 SCT010 TN18/2019Z TX27/2105Z \n BECMG 2017/2018 2000 BR \n BECMG 2020/2021 28005KT 4200 \n BECMG 2022/2023 22005KT 6000 NSW \n BECMG 2101/2102 28008KT CAVOK"
"taf	RKSI	2020-06-20 15:39:00	TAF \n AMD TAF \n AMD RKSI 201436Z 2015/2118 22005KT 6000 SCT010 TN18/2019Z TX27/2105Z \n BECMG 2017/2018 2000 BR \n BECMG 2020/2021 28005KT 4200 \n BECMG 2022/2023 22005KT 6000 NSW \n BECMG 2101/2102 28008KT CAVOK"
"taf	RKSI	2020-06-20 16:01:00	TAF \n AMD RKSI 201601Z 2016/2118 36005KT 0400 FG BKN003 TN18/2019Z TX27/2105Z \n BECMG 2017/2018 1200 BR SCT010 \n BECMG 2020/2021 28005KT 4200 \n BECMG 2022/2023 22005KT 6000 NSW \n BECMG 2101/2102 28008KT CAVOK"
"taf	RKSI	2020-06-20 16:03:00	TAF \n AMD TAF \n AMD RKSI 201601Z 2016/2118 36005KT 0400 FG BKN003 TN18/2019Z TX27/2105Z \n BECMG 2017/2018 1200 BR SCT010 \n BECMG 2020/2021 28005KT 4200 \n BECMG 2022/2023 22005KT 6000 NSW \n BECMG 2101/2102 28008KT CAVOK"
"taf	RKSI	2020-06-20 18:00:00	TAF RKSI 201700Z 2018/2124 35005KT 3200 BR SCT003 TN18/2019Z TX27/2105Z TN20/2120Z \n BECMG 2021/2022 22005KT 6000 NSW NSC \n BECMG 2101/2102 28008KT \n BECMG 2112/2113 4200 BR"
"taf	RKSI	2020-06-20 18:06:00	TAF RKSI 201700Z 2018/2124 35005KT 3200 BR SCT003 TN18/2019Z TX27/2105Z TN20/2120Z \n BECMG 2021/2022 22005KT 6000 NSW NSC \n BECMG 2101/2102 28008KT \n BECMG 2112/2113 4200 BR"
"taf	RKSI	2020-06-20 21:55:00	TAF \n AMD RKSI 202055Z 2021/2124 35005KT 6000 SCT010 TN18/2019Z TX27/2105Z TN20/2120Z \n BECMG 2101/2102 28008KT CAVOK \n BECMG 2112/2113 4200 BR NSC"
"taf	RKSI	2020-06-20 21:57:00	TAF \n AMD TAF \n AMD RKSI 202055Z 2021/2124 35005KT 6000 SCT010 TN18/2019Z TX27/2105Z TN20/2120Z \n BECMG 2101/2102 28008KT CAVOK \n BECMG 2112/2113 4200 BR NSC"
"taf	RKSI	2020-06-21 00:00:00	TAF RKSI 212300Z 2200/2306 06005KT CAVOK TX30/2205Z TN19/2220Z TX27/2305Z \n BECMG 2202/2203 29010KT \n BECMG 2214/2215 23005KT 7000 NSC \n BECMG 2217/2218 20005KT 4200 BR BKN005 \n BECMG 2221/2222 6000 NSW SCT010 \n BECMG 2300/2301 29008KT CAVOK"
"taf	RKSI	2020-06-21 00:06:00	TAF RKSI 212300Z 2200/2306 06005KT CAVOK TX30/2205Z TN19/2220Z TX27/2305Z \n BECMG 2202/2203 29010KT \n BECMG 2214/2215 23005KT 7000 NSC \n BECMG 2217/2218 20005KT 4200 BR BKN005 \n BECMG 2221/2222 6000 NSW SCT010 \n BECMG 2300/2301 29008KT CAVOK"
"taf	RKSI	2020-06-21 06:00:00	TAF RKSI 210500Z 2106/2212 30008KT CAVOK TN20/2120Z TX30/2205Z \n BECMG 2112/2113 4200 BR SCT015 \n BECMG 2115/2116 2500 BKN005 \n BECMG 2117/2118 01005KT 4200 BKN012 \n BECMG 2121/2122 12005KT 6000 NSW NSC \n BECMG 2201/2202 29007KT CAVOK"
"taf	RKSI	2020-06-21 06:06:00	TAF RKSI 210500Z 2106/2212 30008KT CAVOK TN20/2120Z TX30/2205Z \n BECMG 2112/2113 4200 BR SCT015 \n BECMG 2115/2116 2500 BKN005 \n BECMG 2117/2118 01005KT 4200 BKN012 \n BECMG 2121/2122 12005KT 6000 NSW NSC \n BECMG 2201/2202 29007KT CAVOK"
"taf	RKSI	2020-06-21 12:00:00	TAF RKSI 211100Z 2112/2218 30007KT 6000 NSC TN20/2120Z TX30/2205Z \n BECMG 2114/2115 4200 BR SCT015 \n BECMG 2117/2118 25005KT 2000 BKN005 \n BECMG 2120/2121 30007KT 4200 BKN012 \n BECMG 2122/2123 6000 NSW NSC \n BECMG 2214/2215 20006KT"
"taf	RKSI	2020-06-21 12:09:00	TAF RKSI 211100Z 2112/2218 30007KT 6000 NSC TN20/2120Z TX30/2205Z \n BECMG 2114/2115 4200 BR SCT015 \n BECMG 2117/2118 25005KT 2000 BKN005 \n BECMG 2120/2121 30007KT 4200 BKN012 \n BECMG 2122/2123 6000 NSW NSC \n BECMG 2214/2215 20006KT"
"taf	RKSI	2020-06-21 18:00:00	TAF RKSI 211700Z 2118/2224 28005KT 6000 SCT010 TN20/2120Z TX30/2205Z TN20/2220Z \n TEMPO 2120/2122 3000 BR BKN005 \n BECMG 2122/2123 20005KT NSC \n BECMG 2201/2202 29008KT CAVOK \n BECMG 2216/2217 20005KT 4200 BR SCT010"
"taf	RKSI	2020-06-21 18:06:00	TAF RKSI 211700Z 2118/2224 28005KT 6000 SCT010 TN20/2120Z TX30/2205Z TN20/2220Z \n TEMPO 2120/2122 3000 BR BKN005 \n BECMG 2122/2123 20005KT NSC \n BECMG 2201/2202 29008KT CAVOK \n BECMG 2216/2217 20005KT 4200 BR SCT010"
"taf	RKSI	2020-06-21 20:15:00	TAF \n AMD RKSI 212015Z 2120/2224 06005KT 6000 NSC TN19/2120Z TX30/2205Z TN20/2220Z \n BECMG 2123/2124 13005KT CAVOK \n BECMG 2202/2203 29009KT \n BECMG 2216/2217 20005KT 4200 BR NSC \n BECMG 2221/2222 15005KT CAVOK"
"taf	RKSI	2020-06-21 20:18:00	TAF \n AMD TAF \n AMD RKSI 212015Z 2120/2224 06005KT 6000 NSC TN19/2120Z TX30/2205Z TN20/2220Z \n BECMG 2123/2124 13005KT CAVOK \n BECMG 2202/2203 29009KT \n BECMG 2216/2217 20005KT 4200 BR NSC \n BECMG 2221/2222 15005KT CAVOK"
"taf	RKSI	2020-06-22 00:00:00	TAF RKSI 222300Z 2300/2406 16005KT CAVOK TX27/2305Z TN22/2319Z TX25/2404Z \n BECMG 2302/2303 30008KT \n BECMG 2310/2311 08008KT 9999 SCT030 BKN120 \n BECMG 2315/2316 12010KT 6000 -RA SCT010 BKN025 OVC070 \n BECMG 2320/2321 15013KT 4200 RA \n BECMG 2323/2324 13020G30KT 2400"
"taf	RKSI	2020-06-22 00:06:00	TAF RKSI 222300Z 2300/2406 16005KT CAVOK TX27/2305Z TN22/2319Z TX25/2404Z \n BECMG 2302/2303 30008KT \n BECMG 2310/2311 08008KT 9999 SCT030 BKN120 \n BECMG 2315/2316 12010KT 6000 -RA SCT010 BKN025 OVC070 \n BECMG 2320/2321 15013KT 4200 RA \n BECMG 2323/2324 13020G30KT 2400"
"taf	RKSI	2020-06-22 06:00:00	TAF RKSI 220500Z 2206/2312 29008KT CAVOK TN19/2220Z TX27/2305Z \n BECMG 2214/2215 23005KT 6000 NSC \n BECMG 2217/2218 20005KT 4200 BR BKN010 \n BECMG 2220/2221 6000 NSW NSC \n BECMG 2303/2304 29007KT 9999 FEW030 BKN180"
"taf	RKSI	2020-06-22 06:06:00	TAF RKSI 220500Z 2206/2312 29008KT CAVOK TN19/2220Z TX27/2305Z \n BECMG 2214/2215 23005KT 6000 NSC \n BECMG 2217/2218 20005KT 4200 BR BKN010 \n BECMG 2220/2221 6000 NSW NSC \n BECMG 2303/2304 29007KT 9999 FEW030 BKN180"
"taf	RKSI	2020-06-22 12:00:00	TAF RKSI 221100Z 2212/2318 30006KT 6000 NSC TN20/2220Z TX27/2305Z \n BECMG 2214/2215 22006KT \n BECMG 2303/2304 31007KT 9999 FEW030 BKN140 \n BECMG 2311/2312 08006KT BKN030 BKN100 \n BECMG 2315/2316 11006KT 6000 -RA SCT010 BKN025 OVC100"
"taf	RKSI	2020-06-22 12:06:00	TAF RKSI 221100Z 2212/2318 30006KT 6000 NSC TN20/2220Z TX27/2305Z \n BECMG 2214/2215 22006KT \n BECMG 2303/2304 31007KT 9999 FEW030 BKN140 \n BECMG 2311/2312 08006KT BKN030 BKN100 \n BECMG 2315/2316 11006KT 6000 -RA SCT010 BKN025 OVC100"
"taf	RKSI	2020-06-22 12:09:00	TAF RKSI 221100Z 2212/2318 30006KT 6000 NSC TN20/2220Z TX27/2305Z \n BECMG 2214/2215 22006KT \n BECMG 2303/2304 31007KT 9999 FEW030 BKN140 \n BECMG 2311/2312 08006KT BKN030 BKN100 \n BECMG 2315/2316 11006KT 6000 -RA SCT010 BKN025 OVC100"
"taf	RKSI	2020-06-22 14:00:00	TAF \n AMD RKSI 221400Z 2214/2318 30005KT CAVOK TN20/2220Z TX27/2305Z \n TEMPO 2219/2220 20005KT 6000 NSC \n BECMG 2221/2222 12005KT \n BECMG 2303/2304 31007KT 9999 FEW030 BKN140 \n BECMG 2311/2312 08006KT BKN030 BKN100 \n BECMG 2315/2316 11006KT 6000 -RA SCT010 BKN025 OVC100"
"taf	RKSI	2020-06-22 14:03:00	TAF \n AMD TAF \n AMD RKSI 221400Z 2214/2318 30005KT CAVOK TN20/2220Z TX27/2305Z \n TEMPO 2219/2220 20005KT 6000 NSC \n BECMG 2221/2222 12005KT \n BECMG 2303/2304 31007KT 9999 FEW030 BKN140 \n BECMG 2311/2312 08006KT BKN030 BKN100 \n BECMG 2315/2316 11006KT 6000 -RA SCT010 BKN025 OVC100"
"taf	RKSI	2020-06-22 18:00:00	TAF RKSI 221700Z 2218/2324 16005KT CAVOK TN20/2220Z TX27/2305Z TN22/2319Z \n BECMG 2302/2303 30007KT \n BECMG 2311/2312 08006KT 9999 SCT030 BKN120 \n BECMG 2315/2316 6000 -RA SCT010 BKN025 OVC070 \n BECMG 2320/2321 12010KT 4200 RA"
"taf	RKSI	2020-06-22 18:06:00	TAF RKSI 221700Z 2218/2324 16005KT CAVOK TN20/2220Z TX27/2305Z TN22/2319Z \n BECMG 2302/2303 30007KT \n BECMG 2311/2312 08006KT 9999 SCT030 BKN120 \n BECMG 2315/2316 6000 -RA SCT010 BKN025 OVC070 \n BECMG 2320/2321 12010KT 4200 RA"
"taf	RKSI	2020-06-23 00:00:00	TAF RKSI 232300Z 2400/2506 14015KT 6000 -RA BKN030 OVC080 TX25/2405Z TN21/2421Z TX26/2506Z \n BECMG 2401/2402 14020G30KT 3500 RA SCT010 BKN025 OVC060 \n BECMG 2409/2410 15015KT 6000 -RA \n BECMG 2412/2413 18008KT 4200 \n BECMG 2421/2422 6000"
"taf	RKSI	2020-06-23 00:06:00	TAF RKSI 232300Z 2400/2506 14015KT 6000 -RA BKN030 OVC080 TX25/2405Z TN21/2421Z TX26/2506Z \n BECMG 2401/2402 14020G30KT 3500 RA SCT010 BKN025 OVC060 \n BECMG 2409/2410 15015KT 6000 -RA \n BECMG 2412/2413 18008KT 4200 \n BECMG 2421/2422 6000"
"taf	RKSI	2020-06-23 06:00:00	TAF RKSI 230500Z 2306/2412 31005KT CAVOK TN22/2319Z TX25/2404Z \n BECMG 2310/2311 07007KT 9999 SCT030 BKN120 \n BECMG 2318/2319 13010KT 6000 -RA SCT010 BKN025 OVC070 \n BECMG 2320/2321 4200 \n BECMG 2400/2401 13020G30KT 2400 RA \n BECMG 2406/2407 4200 -RA"
"taf	RKSI	2020-06-23 06:09:00	TAF RKSI 230500Z 2306/2412 31005KT CAVOK TN22/2319Z TX25/2404Z \n BECMG 2310/2311 07007KT 9999 SCT030 BKN120 \n BECMG 2318/2319 13010KT 6000 -RA SCT010 BKN025 OVC070 \n BECMG 2320/2321 4200 \n BECMG 2400/2401 13020G30KT 2400 RA \n BECMG 2406/2407 4200 -RA"
"taf	RKSI	2020-06-23 11:00:00	TAF \n AMD RKSI 231124Z 2311/2412 07005KT 7000 -RA SCT030 OVC120 TN22/2319Z TX25/2404Z \n BECMG 2318/2319 13010KT SCT010 BKN025 OVC070 \n BECMG 2320/2321 4200 \n BECMG 2400/2401 13020G30KT 2400 RA \n BECMG 2406/2407 4200 -RA"
"taf	RKSI	2020-06-23 11:24:00	TAF \n AMD RKSI 231124Z 2311/2412 07005KT 7000 -RA SCT030 OVC120 TN22/2319Z TX25/2404Z \n BECMG 2318/2319 13010KT SCT010 BKN025 OVC070 \n BECMG 2320/2321 4200 \n BECMG 2400/2401 13020G30KT 2400 RA \n BECMG 2406/2407 4200 -RA"
"taf	RKSI	2020-06-23 11:27:00	TAF \n AMD TAF \n AMD RKSI 231124Z 2311/2412 07005KT 7000 -RA SCT030 OVC120 TN22/2319Z TX25/2404Z \n BECMG 2318/2319 13010KT SCT010 BKN025 OVC070 \n BECMG 2320/2321 4200 \n BECMG 2400/2401 13020G30KT 2400 RA \n BECMG 2406/2407 4200 -RA"
"taf	RKSI	2020-06-23 12:00:00	TAF \n AMD RKSI 231135Z 2312/2418 07007KT 7000 -RA SCT030 BKN120 TN22/2319Z TX25/2404Z \n BECMG 2315/2316 SCT010 BKN025 OVC070 \n BECMG 2320/2321 13010KT 4200 \n BECMG 2400/2401 13020G30KT 2400 RA \n BECMG 2406/2407 4200 -RA \n BECMG 2414/2415 18010KT"
"taf	RKSI	2020-06-23 12:09:00	TAF RKSI 231100Z 2312/2418 07007KT 9999 SCT030 BKN120 TN22/2319Z TX25/2404Z \n BECMG 2315/2316 6000 -RA SCT010 BKN025 OVC070 \n BECMG 2320/2321 13010KT 4200 \n BECMG 2400/2401 13020G30KT 2400 RA \n BECMG 2406/2407 4200 -RA \n BECMG 2414/2415 18010KT"
"taf	RKSI	2020-06-23 12:35:00	TAF \n AMD RKSI 231135Z 2312/2418 07007KT 7000 -RA SCT030 BKN120 TN22/2319Z TX25/2404Z \n BECMG 2315/2316 SCT010 BKN025 OVC070 \n BECMG 2320/2321 13010KT 4200 \n BECMG 2400/2401 13020G30KT 2400 RA \n BECMG 2406/2407 4200 -RA \n BECMG 2414/2415 18010KT"
"taf	RKSI	2020-06-23 12:39:00	TAF \n AMD TAF \n AMD RKSI 231135Z 2312/2418 07007KT 7000 -RA SCT030 BKN120 TN22/2319Z TX25/2404Z \n BECMG 2315/2316 SCT010 BKN025 OVC070 \n BECMG 2320/2321 13010KT 4200 \n BECMG 2400/2401 13020G30KT 2400 RA \n BECMG 2406/2407 4200 -RA \n BECMG 2414/2415 18010KT"
"taf	RKSI	2020-06-23 14:55:00	TAF \n AMD RKSI 231355Z 2314/2418 07007KT 7000 SCT030 BKN120 TN22/2319Z TX25/2404Z \n BECMG 2315/2316 -RA SCT010 BKN025 OVC070 \n BECMG 2320/2321 13010KT 4200 \n BECMG 2400/2401 13020G30KT 2400 RA \n BECMG 2406/2407 4200 -RA \n BECMG 2414/2415 18010KT"
"taf	RKSI	2020-06-23 14:57:00	TAF \n AMD TAF \n AMD RKSI 231355Z 2314/2418 07007KT 7000 SCT030 BKN120 TN22/2319Z TX25/2404Z \n BECMG 2315/2316 -RA SCT010 BKN025 OVC070 \n BECMG 2320/2321 13010KT 4200 \n BECMG 2400/2401 13020G30KT 2400 RA \n BECMG 2406/2407 4200 -RA \n BECMG 2414/2415 18010KT"
"taf	RKSI	2020-06-23 18:00:00	TAF RKSI 231700Z 2318/2424 10008KT 6000 -RA BKN030 OVC080 TN22/2321Z TX25/2404Z TN21/2421Z \n BECMG 2319/2320 13010KT 4200 \n BECMG 2323/2324 13020G30KT 6000 \n BECMG 2401/2402 3500 RA SCT010 BKN025 OVC070 \n BECMG 2409/2410 13015KT 6000 -RA \n BECMG 2412/2413 18010KT 4200"
"taf	RKSI	2020-06-23 18:06:00	TAF RKSI 231700Z 2318/2424 10008KT 6000 -RA BKN030 OVC080 TN22/2321Z TX25/2404Z TN21/2421Z \n BECMG 2319/2320 13010KT 4200 \n BECMG 2323/2324 13020G30KT 6000 \n BECMG 2401/2402 3500 RA SCT010 BKN025 OVC070 \n BECMG 2409/2410 13015KT 6000 -RA \n BECMG 2412/2413 18010KT 4200"
"taf	RKSI	2020-06-24 00:00:00	TAF RKSI 242300Z 2500/2606 18010KT 6000 BKN025 OVC080 TX26/2506Z TN20/2519Z TX26/2605Z \n BECMG 2508/2509 4200 -RA SCT010 BKN025 OVC080 \n BECMG 2514/2515 25015G25KT 2800 BR BKN010 BKN020 OVC080 \n BECMG 2521/2522 28015G25KT 4200 BKN025 \n BECMG 2601/2602 25010KT 6000 NSW SCT030"
"taf	RKSI	2020-06-24 00:06:00	TAF RKSI 242300Z 2500/2606 18010KT 6000 BKN025 OVC080 TX26/2506Z TN20/2519Z TX26/2605Z \n BECMG 2508/2509 4200 -RA SCT010 BKN025 OVC080 \n BECMG 2514/2515 25015G25KT 2800 BR BKN010 BKN020 OVC080 \n BECMG 2521/2522 28015G25KT 4200 BKN025 \n BECMG 2601/2602 25010KT 6000 NSW SCT030"
"taf	RKSI	2020-06-24 06:00:00	TAF RKSI 240500Z 2406/2512 18015G25KT 3500 -RA FEW010 BKN025 OVC080 TN21/2421Z TX26/2506Z \n BECMG 2408/2409 6000 \n BECMG 2412/2413 18010KT 4200 \n BECMG 2500/2501 6000 \n BECMG 2506/2507 NSW SCT030 BKN120"
"taf	RKSI	2020-06-24 06:06:00	TAF RKSI 240500Z 2406/2512 18015G25KT 3500 -RA FEW010 BKN025 OVC080 TN21/2421Z TX26/2506Z \n BECMG 2408/2409 6000 \n BECMG 2412/2413 18010KT 4200 \n BECMG 2500/2501 6000 \n BECMG 2506/2507 NSW SCT030 BKN120"
"taf	RKSI	2020-06-24 06:15:00	TAF \n AMD RKSI 240615Z 2406/2512 18015G25KT 2000 -RA FEW010 BKN025 OVC080 TN21/2421Z TX26/2506Z \n BECMG 2408/2409 4200 \n BECMG 2412/2413 18010KT \n BECMG 2500/2501 6000 \n BECMG 2506/2507 NSW SCT030 BKN120"
"taf	RKSI	2020-06-24 06:18:00	TAF \n AMD TAF \n AMD RKSI 240615Z 2406/2512 18015G25KT 2000 -RA FEW010 BKN025 OVC080 TN21/2421Z TX26/2506Z \n BECMG 2408/2409 4200 \n BECMG 2412/2413 18010KT \n BECMG 2500/2501 6000 \n BECMG 2506/2507 NSW SCT030 BKN120"
"taf	RKSI	2020-06-24 07:00:00	TAF \n AMD RKSI 240700Z 2407/2512 18015G25KT 1700 -RA SCT003 BKN010 OVC080 TN21/2421Z TX26/2506Z \n BECMG 2408/2409 4200 \n BECMG 2412/2413 18010KT SCT010 BKN025 OVC080 \n BECMG 2500/2501 6000 \n BECMG 2506/2507 NSW SCT030 BKN120"
"taf	RKSI	2020-06-24 07:03:00	TAF \n AMD TAF \n AMD RKSI 240700Z 2407/2512 18015G25KT 1700 -RA SCT003 BKN010 OVC080 TN21/2421Z TX26/2506Z \n BECMG 2408/2409 4200 \n BECMG 2412/2413 18010KT SCT010 BKN025 OVC080 \n BECMG 2500/2501 6000 \n BECMG 2506/2507 NSW SCT030 BKN120"
"taf	RKSI	2020-06-24 09:35:00	TAF \n AMD RKSI 240835Z 2409/2512 16015G25KT 1400 -RA SCT003 BKN010 OVC080 TN21/2421Z TX26/2506Z \n BECMG 2411/2412 18010KT \n BECMG 2500/2501 6000 \n BECMG 2506/2507 NSW SCT030 BKN120"
"taf	RKSI	2020-06-24 09:39:00	TAF \n AMD TAF \n AMD RKSI 240835Z 2409/2512 16015G25KT 1400 -RA SCT003 BKN010 OVC080 TN21/2421Z TX26/2506Z \n BECMG 2411/2412 18010KT \n BECMG 2500/2501 6000 \n BECMG 2506/2507 NSW SCT030 BKN120"
"taf	RKSI	2020-06-24 12:00:00	TAF RKSI 241100Z 2412/2518 17010KT 1200 -RA SCT003 BKN010 OVC080 TN21/2421Z TX26/2506Z \n TEMPO 2413/2418 0700 BKN003 \n BECMG 2423/2424 4200 BR \n BECMG 2503/2504 6000 NSW SCT030 BKN120 \n BECMG 2509/2510 4200 -RA SCT010 BKN025 \n BECMG 2513/2514 BR"
"taf	RKSI	2020-06-24 12:06:00	TAF RKSI 241100Z 2412/2518 17010KT 1200 -RA SCT003 BKN010 OVC080 TN21/2421Z TX26/2506Z \n TEMPO 2413/2418 0700 BKN003 \n BECMG 2423/2424 4200 BR \n BECMG 2503/2504 6000 NSW SCT030 BKN120 \n BECMG 2509/2510 4200 -RA SCT010 BKN025 \n BECMG 2513/2514 BR"
"taf	RKSI	2020-06-24 18:00:00	TAF RKSI 241700Z 2418/2524 18008KT 1800 BR BKN005 BKN025 OVC080 TN20/2421Z TX26/2506Z TN20/2519Z \n BECMG 2423/2424 4200 \n BECMG 2503/2504 6000 NSW SCT030 BKN120 \n BECMG 2509/2510 4200 -RA SCT010 BKN025 OVC080 \n BECMG 2513/2514 2800 BR \n BECMG 2521/2522 29008KT 6000 NSW BKN015 BKN100"
"taf	RKSI	2020-06-24 18:09:00	TAF RKSI 241700Z 2418/2524 18008KT 1800 BR BKN005 BKN025 OVC080 TN20/2421Z TX26/2506Z TN20/2519Z \n BECMG 2423/2424 4200 \n BECMG 2503/2504 6000 NSW SCT030 BKN120 \n BECMG 2509/2510 4200 -RA SCT010 BKN025 OVC080 \n BECMG 2513/2514 2800 BR \n BECMG 2521/2522 29008KT 6000 NSW BKN015 BKN100"
"taf	RKSI	2020-06-25 00:00:00	TAF RKSI 252300Z 2600/2706 25010KT 4200 BR BKN005 BKN030 TX24/2606Z TN19/2620Z TX25/2705Z \n BECMG 2601/2602 27015G25KT 6000 NSW SCT030 \n BECMG 2611/2612 23007KT 4200 BR SCT008 BKN025 OVC100 \n TEMPO 2618/2622 2800 -TSRA SCT010CB BKN025 OVC080 \n BECMG 2701/2702 6000 NSW SCT030 BKN120"
"taf	RKSI	2020-06-25 00:09:00	TAF RKSI 252300Z 2600/2706 25010KT 4200 BR BKN005 BKN030 TX24/2606Z TN19/2620Z TX25/2705Z \n BECMG 2601/2602 27015G25KT 6000 NSW SCT030 \n BECMG 2611/2612 23007KT 4200 BR SCT008 BKN025 OVC100 \n TEMPO 2618/2622 2800 -TSRA SCT010CB BKN025 OVC080 \n BECMG 2701/2702 6000 NSW SCT030 BKN120"
"taf	RKSI	2020-06-25 02:50:00	TAF \n AMD RKSI 250150Z 2502/2606 18010KT 6000 BKN025 OVC080 TX26/2506Z TN20/2519Z TX26/2605Z \n TEMPO 2502/2505 4800 -DZ SCT003 BKN025 OVC080 \n BECMG 2508/2509 4200 -RA SCT010 BKN025 OVC080 \n BECMG 2514/2515 25015G25KT 2800 BR BKN010 BKN020 OVC080 \n BECMG 2521/2522 28015G25KT 4200 BKN025 \n BECMG 2601/2602 25010KT 6000 NSW SCT030"
"taf	RKSI	2020-06-25 02:54:00	TAF \n AMD TAF \n AMD RKSI 250150Z 2502/2606 18010KT 6000 BKN025 OVC080 TX26/2506Z TN20/2519Z TX26/2605Z \n TEMPO 2502/2505 4800 -DZ SCT003 BKN025 OVC080 \n BECMG 2508/2509 4200 -RA SCT010 BKN025 OVC080 \n BECMG 2514/2515 25015G25KT 2800 BR BKN010 BKN020 OVC080 \n BECMG 2521/2522 28015G25KT 4200 BKN025 \n BECMG 2601/2602 25010KT 6000 NSW SCT030"
"taf	RKSI	2020-06-25 06:00:00	TAF \n AMD RKSI 250515Z 2506/2612 18008KT 8000 SCT008 BKN025 OVC080 TN19/2520Z TX26/2605Z \n TEMPO 2506/2509 4800 -DZ BKN005 BKN025 OVC080 \n BECMG 2509/2510 4200 -RA \n BECMG 2517/2518 21010KT 2800 BR BKN005 BKN020 \n BECMG 2523/2524 27012KT 6000 NSW \n BECMG 2601/2602 26015G25KT 9999 SCT030"
"taf	RKSI	2020-06-25 06:09:00	TAF RKSI 250500Z 2506/2612 18008KT 8000 SCT008 BKN025 OVC080 TN19/2520Z TX26/2605Z \n BECMG 2509/2510 4200 -RA \n BECMG 2517/2518 21010KT 2800 BR BKN005 BKN020 \n BECMG 2523/2524 27012KT 6000 NSW \n BECMG 2601/2602 26015G25KT 9999 SCT030 \n BECMG 2610/2611 25008KT"
"taf	RKSI	2020-06-25 06:15:00	TAF \n AMD RKSI 250515Z 2506/2612 18008KT 8000 SCT008 BKN025 OVC080 TN19/2520Z TX26/2605Z \n TEMPO 2506/2509 4800 -DZ BKN005 BKN025 OVC080 \n BECMG 2509/2510 4200 -RA \n BECMG 2517/2518 21010KT 2800 BR BKN005 BKN020 \n BECMG 2523/2524 27012KT 6000 NSW \n BECMG 2601/2602 26015G25KT 9999 SCT030"
"taf	RKSI	2020-06-25 06:21:00	TAF \n AMD TAF \n AMD RKSI 250515Z 2506/2612 18008KT 8000 SCT008 BKN025 OVC080 TN19/2520Z TX26/2605Z \n TEMPO 2506/2509 4800 -DZ BKN005 BKN025 OVC080 \n BECMG 2509/2510 4200 -RA \n BECMG 2517/2518 21010KT 2800 BR BKN005 BKN020 \n BECMG 2523/2524 27012KT 6000 NSW \n BECMG 2601/2602 26015G25KT 9999 SCT030"
"taf	RKSI	2020-06-25 12:00:00	TAF RKSI 251100Z 2512/2618 19008KT 3500 -RA BKN003 BKN025 OVC080 TN18/2519Z TX24/2606Z \n BECMG 2517/2518 24010KT 2800 BR \n BECMG 2523/2524 27015G25KT 6000 NSW FEW010 SCT030 \n BECMG 2610/2611 24007KT SCT008 BKN025 OVC120"
"taf	RKSI	2020-06-25 12:06:00	TAF RKSI 251100Z 2512/2618 19008KT 3500 -RA BKN003 BKN025 OVC080 TN18/2519Z TX24/2606Z \n BECMG 2517/2518 24010KT 2800 BR \n BECMG 2523/2524 27015G25KT 6000 NSW FEW010 SCT030 \n BECMG 2610/2611 24007KT SCT008 BKN025 OVC120"
"taf	RKSI	2020-06-25 12:12:00	TAF \n AMD RKSI 251212Z 2512/2618 19008KT 6000 BKN003 BKN025 OVC080 TN18/2519Z TX24/2606Z \n BECMG 2517/2518 24010KT 2800 BR \n BECMG 2523/2524 27015G25KT 6000 NSW FEW010 SCT030 \n BECMG 2610/2611 24007KT SCT008 BKN025 OVC120"
"taf	RKSI	2020-06-25 12:15:00	TAF \n AMD TAF \n AMD RKSI 251212Z 2512/2618 19008KT 6000 BKN003 BKN025 OVC080 TN18/2519Z TX24/2606Z \n BECMG 2517/2518 24010KT 2800 BR \n BECMG 2523/2524 27015G25KT 6000 NSW FEW010 SCT030 \n BECMG 2610/2611 24007KT SCT008 BKN025 OVC120"
"taf	RKSI	2020-06-25 13:10:00	TAF \n AMD RKSI 251310Z 2513/2618 19008KT 4200 -DZ BKN003 BKN025 OVC080 TN18/2519Z TX24/2606Z \n BECMG 2517/2518 24010KT 2800 BR \n BECMG 2523/2524 27015G25KT 6000 NSW FEW010 SCT030 \n BECMG 2610/2611 24007KT SCT008 BKN025 OVC120"
"taf	RKSI	2020-06-25 13:15:00	TAF \n AMD TAF \n AMD RKSI 251310Z 2513/2618 19008KT 4200 -DZ BKN003 BKN025 OVC080 TN18/2519Z TX24/2606Z \n BECMG 2517/2518 24010KT 2800 BR \n BECMG 2523/2524 27015G25KT 6000 NSW FEW010 SCT030 \n BECMG 2610/2611 24007KT SCT008 BKN025 OVC120"
"taf	RKSI	2020-06-25 18:00:00	TAF \n AMD RKSI 251712Z 2518/2624 24010KT 4200 BR BKN003 BKN025 TN18/2519Z TX24/2606Z TN19/2620Z \n TEMPO 2518/2519 -RA \n BECMG 2520/2521 SCT003 BKN030 \n BECMG 2523/2524 27015G25KT 6000 NSW SCT030 \n BECMG 2611/2612 24007KT 4200 BR SCT008 BKN025 OVC120"
"taf	RKSI	2020-06-25 18:06:00	TAF RKSI 251700Z 2518/2624 24010KT 4200 BR BKN003 BKN025 TN18/2519Z TX24/2606Z TN19/2620Z \n BECMG 2520/2521 SCT003 BKN030 \n BECMG 2523/2524 27015G25KT 6000 NSW SCT030 \n BECMG 2611/2612 24007KT 4200 BR SCT008 BKN025 OVC120"
"taf	RKSI	2020-06-25 18:12:00	TAF \n AMD RKSI 251712Z 2518/2624 24010KT 4200 BR BKN003 BKN025 TN18/2519Z TX24/2606Z TN19/2620Z \n TEMPO 2518/2519 -RA \n BECMG 2520/2521 SCT003 BKN030 \n BECMG 2523/2524 27015G25KT 6000 NSW SCT030 \n BECMG 2611/2612 24007KT 4200 BR SCT008 BKN025 OVC120"
"taf	RKSI	2020-06-25 18:15:00	TAF \n AMD TAF \n AMD RKSI 251712Z 2518/2624 24010KT 4200 BR BKN003 BKN025 TN18/2519Z TX24/2606Z TN19/2620Z \n TEMPO 2518/2519 -RA \n BECMG 2520/2521 SCT003 BKN030 \n BECMG 2523/2524 27015G25KT 6000 NSW SCT030 \n BECMG 2611/2612 24007KT 4200 BR SCT008 BKN025 OVC120"
"taf	RKSI	2020-06-26 00:00:00	TAF RKSI 262300Z 2700/2806 20005KT 9999 SCT040 BKN120 TX25/2706Z TN19/2721Z TX26/2805Z \n BECMG 2705/2706 31006KT \n BECMG 2711/2712 4200 BR SCT010 \n BECMG 2721/2722 6000 NSW"
"taf	RKSI	2020-06-26 00:09:00	TAF RKSI 262300Z 2700/2806 20005KT 9999 SCT040 BKN120 TX25/2706Z TN19/2721Z TX26/2805Z \n BECMG 2705/2706 31006KT \n BECMG 2711/2712 4200 BR SCT010 \n BECMG 2721/2722 6000 NSW"
"taf	RKSI	2020-06-26 06:00:00	TAF RKSI 260500Z 2606/2712 24010KT 9999 SCT010 BKN160 TN19/2621Z TX25/2706Z \n BECMG 2614/2615 4200 BR SCT008 BKN025 OVC100 \n TEMPO 2617/2621 18005KT 2800 -TSRA SCT007 SCT015CB BKN025 OVC080 \n BECMG 2700/2701 19006KT 6000 NSW FEW010 SCT030 \n BECMG 2705/2706 30006KT 9999"
"taf	RKSI	2020-06-26 06:06:00	TAF RKSI 260500Z 2606/2712 24010KT 9999 SCT010 BKN160 TN19/2621Z TX25/2706Z \n BECMG 2614/2615 4200 BR SCT008 BKN025 OVC100 \n TEMPO 2617/2621 18005KT 2800 -TSRA SCT007 SCT015CB BKN025 OVC080 \n BECMG 2700/2701 19006KT 6000 NSW FEW010 SCT030 \n BECMG 2705/2706 30006KT 9999"
"taf	RKSI	2020-06-26 12:00:00	TAF RKSI 261100Z 2612/2718 23006KT 7000 FEW010 SCT160 TN19/2621Z TX25/2706Z \n BECMG 2616/2617 17005KT 4200 -RA SCT007 SCT015CB BKN025 OVC080 \n BECMG 2621/2622 BR SCT010 BKN025 OVC100 \n BECMG 2700/2701 6000 NSW SCT030 \n BECMG 2705/2706 31006KT 9999 \n BECMG 2716/2717 4200 BR SCT010"
"taf	RKSI	2020-06-26 12:06:00	TAF RKSI 261100Z 2612/2718 23006KT 7000 FEW010 SCT160 TN19/2621Z TX25/2706Z \n BECMG 2616/2617 17005KT 4200 -RA SCT007 SCT015CB BKN025 OVC080 \n BECMG 2621/2622 BR SCT010 BKN025 OVC100 \n BECMG 2700/2701 6000 NSW SCT030 \n BECMG 2705/2706 31006KT 9999 \n BECMG 2716/2717 4200 BR SCT010"
"taf	RKSI	2020-06-26 18:00:00	TAF RKSI 261700Z 2618/2724 17006KT 6000 -RA SCT007 BKN025 OVC100 TN19/2621Z TX25/2706Z TN19/2721Z \n TEMPO 2618/2621 3500 -TSRA SCT007 SCT015CB BKN025 OVC080 \n BECMG 2623/2624 NSW SCT030 BKN120 \n BECMG 2705/2706 31005KT \n BECMG 2711/2712 4200 BR SCT010 \n BECMG 2721/2722 6000 NSW"
"taf	RKSI	2020-06-26 18:06:00	TAF RKSI 261700Z 2618/2724 17006KT 6000 -RA SCT007 BKN025 OVC100 TN19/2621Z TX25/2706Z TN19/2721Z \n TEMPO 2618/2621 3500 -TSRA SCT007 SCT015CB BKN025 OVC080 \n BECMG 2623/2624 NSW SCT030 BKN120 \n BECMG 2705/2706 31005KT \n BECMG 2711/2712 4200 BR SCT010 \n BECMG 2721/2722 6000 NSW"
"taf	RKSI	2020-06-26 20:14:00	TAF \n AMD RKSI 262014Z 2620/2724 17005KT 6000 -RA SCT007 BKN025 OVC100 TN19/2621Z TX25/2706Z TN19/2721Z \n BECMG 2623/2624 NSW SCT030 BKN120 \n BECMG 2705/2706 31005KT \n BECMG 2711/2712 4200 BR SCT010 \n BECMG 2721/2722 6000 NSW"
"taf	RKSI	2020-06-26 20:18:00	TAF \n AMD TAF \n AMD RKSI 262014Z 2620/2724 17005KT 6000 -RA SCT007 BKN025 OVC100 TN19/2621Z TX25/2706Z TN19/2721Z \n BECMG 2623/2624 NSW SCT030 BKN120 \n BECMG 2705/2706 31005KT \n BECMG 2711/2712 4200 BR SCT010 \n BECMG 2721/2722 6000 NSW"
"taf	RKSI	2020-06-26 21:09:00	TAF \n AMD RKSI 262109Z 2621/2724 17005KT 6000 BKN035 OVC120 TN19/2621Z TX25/2706Z TN19/2721Z \n TEMPO 2621/2623 -RA \n BECMG 2705/2706 31005KT \n BECMG 2711/2712 4200 BR SCT010 \n BECMG 2721/2722 6000 NSW"
"taf	RKSI	2020-06-26 21:12:00	TAF \n AMD TAF \n AMD RKSI 262109Z 2621/2724 17005KT 6000 BKN035 OVC120 TN19/2621Z TX25/2706Z TN19/2721Z \n TEMPO 2621/2623 -RA \n BECMG 2705/2706 31005KT \n BECMG 2711/2712 4200 BR SCT010 \n BECMG 2721/2722 6000 NSW"
"taf	RKSI	2020-06-27 00:00:00	TAF RKSI 272300Z 2800/2906 33007KT 9999 FEW010 TX27/2805Z TN18/2821Z TX27/2905Z \n BECMG 2805/2806 27010KT \n BECMG 2814/2815 18005KT 4200 BR BKN005 \n BECMG 2821/2822 15005KT 6000 NSW SCT010 BKN160"
"taf	RKSI	2020-06-27 00:06:00	TAF RKSI 272300Z 2800/2906 33007KT 9999 FEW010 TX27/2805Z TN18/2821Z TX27/2905Z \n BECMG 2805/2806 27010KT \n BECMG 2814/2815 18005KT 4200 BR BKN005 \n BECMG 2821/2822 15005KT 6000 NSW SCT010 BKN160"
"taf	RKSI	2020-06-27 06:00:00	TAF RKSI 270500Z 2706/2812 29006KT CAVOK TN19/2721Z TX28/2805Z \n BECMG 2712/2713 4200 BR SCT010 \n BECMG 2716/2717 2800 \n BECMG 2721/2722 05005KT 6000 NSW NSC \n BECMG 2723/2724 15005KT CAVOK \n BECMG 2801/2802 30007KT"
"taf	RKSI	2020-06-27 06:05:00	TAF \n AMD RKSI 270605Z 2706/2812 24008KT CAVOK TN19/2721Z TX28/2805Z \n BECMG 2712/2713 33005KT 4200 BR SCT010 \n BECMG 2716/2717 2800 \n BECMG 2721/2722 05005KT 6000 NSW NSC \n BECMG 2723/2724 15005KT CAVOK \n BECMG 2801/2802 30007KT"
"taf	RKSI	2020-06-27 06:09:00	TAF \n AMD TAF \n AMD RKSI 270605Z 2706/2812 24008KT CAVOK TN19/2721Z TX28/2805Z \n BECMG 2712/2713 33005KT 4200 BR SCT010 \n BECMG 2716/2717 2800 \n BECMG 2721/2722 05005KT 6000 NSW NSC \n BECMG 2723/2724 15005KT CAVOK \n BECMG 2801/2802 30007KT"
"taf	RKSI	2020-06-27 12:00:00	TAF RKSI 271100Z 2712/2818 31006KT CAVOK TN19/2721Z TX28/2805Z \n BECMG 2714/2715 35005KT 4200 BR SCT007 \n BECMG 2716/2717 2800 BKN002 \n BECMG 2720/2721 32006KT 4200 SCT010 \n BECMG 2722/2723 29010KT CAVOK \n BECMG 2814/2815 16005KT 6000 NSC"
"taf	RKSI	2020-06-27 12:06:00	TAF RKSI 271100Z 2712/2818 31006KT CAVOK TN19/2721Z TX28/2805Z \n BECMG 2714/2715 35005KT 4200 BR SCT007 \n BECMG 2716/2717 2800 BKN002 \n BECMG 2720/2721 32006KT 4200 SCT010 \n BECMG 2722/2723 29010KT CAVOK \n BECMG 2814/2815 16005KT 6000 NSC"
"taf	RKSI	2020-06-27 18:00:00	TAF RKSI 271700Z 2718/2824 33007KT 2800 BR SCT005 TN19/2721Z TX27/2805Z TN18/2822Z \n TEMPO 2718/2720 30005KT 0800 FG BKN001 \n BECMG 2721/2722 6000 NSW FEW020 \n BECMG 2804/2805 27010KT CAVOK \n BECMG 2814/2815 18005KT 4200 BR BKN005 \n BECMG 2821/2822 15005KT 6000 NSW SCT010 BKN160"
"taf	RKSI	2020-06-27 18:06:00	TAF RKSI 271700Z 2718/2824 33007KT 2800 BR SCT005 TN19/2721Z TX27/2805Z TN18/2822Z \n TEMPO 2718/2720 30005KT 0800 FG BKN001 \n BECMG 2721/2722 6000 NSW FEW020 \n BECMG 2804/2805 27010KT CAVOK \n BECMG 2814/2815 18005KT 4200 BR BKN005 \n BECMG 2821/2822 15005KT 6000 NSW SCT010 BKN160"
"taf	RKSI	2020-06-28 00:00:00	TAF RKSI 282300Z 2900/3006 13006KT 6000 FEW010 BKN160 TX27/2904Z TN18/2920Z TX25/3006Z \n BECMG 2907/2908 10015G25KT -RA SCT010 BKN025 OVC070 \n BECMG 2914/2915 06022G35KT 4200 \n BECMG 2918/2919 03020G35KT RA \n BECMG 2922/2923 6000 -RA \n BECMG 3001/3002 02015G25KT NSW SCT030 BKN120"
"taf	RKSI	2020-06-28 00:06:00	TAF RKSI 282300Z 2900/3006 13006KT 6000 FEW010 BKN160 TX27/2904Z TN18/2920Z TX25/3006Z \n BECMG 2907/2908 10015G25KT -RA SCT010 BKN025 OVC070 \n BECMG 2914/2915 06022G35KT 4200 \n BECMG 2918/2919 03020G35KT RA \n BECMG 2922/2923 6000 -RA \n BECMG 3001/3002 02015G25KT NSW SCT030 BKN120"
"taf	RKSI	2020-06-28 06:00:00	TAF RKSI 280500Z 2806/2912 28010KT CAVOK TN18/2821Z TX27/2905Z \n BECMG 2813/2814 20005KT 4200 BR BKN007 \n BECMG 2815/2816 1200 BKN002 \n BECMG 2819/2820 15005KT 4200 SCT010 BKN200 \n BECMG 2821/2822 06006KT 6000 NSW \n BECMG 2902/2903 12010KT SCT030 BKN120"
"taf	RKSI	2020-06-28 06:06:00	TAF RKSI 280500Z 2806/2912 28010KT CAVOK TN18/2821Z TX27/2905Z \n BECMG 2813/2814 20005KT 4200 BR BKN007 \n BECMG 2815/2816 1200 BKN002 \n BECMG 2819/2820 15005KT 4200 SCT010 BKN200 \n BECMG 2821/2822 06006KT 6000 NSW \n BECMG 2902/2903 12010KT SCT030 BKN120"
"taf	RKSI	2020-06-28 12:00:00	TAF RKSI 281100Z 2812/2918 26005KT 4200 BR SCT002 TN18/2821Z TX27/2905Z \n TEMPO 2814/2818 20005KT 0800 FG BKN002 \n BECMG 2819/2820 15005KT \n BECMG 2821/2822 06005KT 6000 NSW NSC \n BECMG 2902/2903 12010KT SCT030 BKN120 \n BECMG 2912/2913 05017G27KT 4200 -RA SCT010 BKN025 OVC070"
"taf	RKSI	2020-06-28 12:09:00	TAF TAF RKSI 281100Z 2812/2918 26005KT 4200 BR SCT002 TN18/2821Z TX27/2905Z \n TEMPO 2814/2818 20005KT 0800 FG BKN002 \n BECMG 2819/2820 15005KT \n BECMG 2821/2822 06005KT 6000 NSW NSC \n BECMG 2902/2903 12010KT SCT030 BKN120 \n BECMG 2912/2913 05017G27KT 4200 -RA SCT010 BKN025 OVC070"
"taf	RKSI	2020-06-28 18:00:00	TAF \n AMD RKSI 281730Z 2818/2924 16005KT 3500 BR SCT002 BKN160 TN17/2820Z TX27/2904Z TN18/2922Z \n TEMPO 2818/2820 0800 FG BKN001 \n BECMG 2821/2822 13006KT 6000 NSW SCT030 BKN120 \n BECMG 2908/2909 10015G25KT -RA SCT010 BKN025 OVC070 \n BECMG 2914/2915 02020G35KT 4200 RA \n BECMG 2921/2922 6000 -RA"
"taf	RKSI	2020-06-28 18:06:00	TAF RKSI 281700Z 2818/2924 16005KT 4200 BR SCT002 BKN160 TN17/2820Z TX27/2904Z TN18/2922Z \n BECMG 2821/2822 06005KT 6000 NSW NSC \n BECMG 2902/2903 16006KT SCT030 BKN120 \n BECMG 2908/2909 10015G25KT -RA SCT010 BKN025 OVC070 \n BECMG 2914/2915 02020G35KT 4200 RA \n BECMG 2921/2922 6000 -RA"
"taf	RKSI	2020-06-28 18:30:00	TAF \n AMD TAF \n AMD RKSI 281730Z 2818/2924 16005KT 3500 BR SCT002 BKN160 TN17/2820Z TX27/2904Z TN18/2922Z \n TEMPO 2818/2820 0800 FG BKN001 \n BECMG 2821/2822 13006KT 6000 NSW SCT030 BKN120 \n BECMG 2908/2909 10015G25KT -RA SCT010 BKN025 OVC070 \n BECMG 2914/2915 02020G35KT 4200 RA \n BECMG 2921/2922 6000 -RA"
"taf	RKSI	2020-06-28 22:00:00	TAF \n AMD RKSI 282200Z 2822/2924 16005KT 3500 BR SCT002 BKN160 TN17/2820Z TX27/2904Z TN18/2922Z \n BECMG 2823/2824 13006KT 6000 NSW SCT030 BKN120 \n BECMG 2908/2909 10015G25KT -RA SCT010 BKN025 OVC070 \n BECMG 2914/2915 02020G35KT 4200 RA \n BECMG 2921/2922 6000 -RA"
"taf	RKSI	2020-06-28 22:09:00	TAF \n AMD TAF \n AMD RKSI 282200Z 2822/2924 16005KT 3500 BR SCT002 BKN160 TN17/2820Z TX27/2904Z TN18/2922Z \n BECMG 2823/2824 13006KT 6000 NSW SCT030 BKN120 \n BECMG 2908/2909 10015G25KT -RA SCT010 BKN025 OVC070 \n BECMG 2914/2915 02020G35KT 4200 RA \n BECMG 2921/2922 6000 -RA"
"taf	RKSI	2020-06-29 00:00:00	TAF RKSI 292300Z 3000/0106 01017G35KT 4200 -RA SCT010 BKN025 OVC070 TX24/3007Z TN18/3021Z TX25/0105Z \n BECMG 3005/3006 BR SCT030 BKN120 \n BECMG 3007/3008 35015G25KT 6000 NSW \n BECMG 3013/3014 35010KT 4200 -RA SCT010 BKN025 OVC070 \n BECMG 3020/3021 25006KT 6000 NSW SCT030 BKN120 \n BECMG 0101/0102 10005KT"
"taf	RKSI	2020-06-29 00:06:00	TAF RKSI 292300Z 3000/0106 01017G35KT 4200 -RA SCT010 BKN025 OVC070 TX24/3007Z TN18/3021Z TX25/0105Z \n BECMG 3005/3006 BR SCT030 BKN120 \n BECMG 3007/3008 35015G25KT 6000 NSW \n BECMG 3013/3014 35010KT 4200 -RA SCT010 BKN025 OVC070 \n BECMG 3020/3021 25006KT 6000 NSW SCT030 BKN120 \n BECMG 0101/0102 10005KT"
"taf	RKSI	2020-06-29 00:28:00	TAF \n AMD RKSI 290028Z 2900/3006 13006KT 4200 BR FEW010 BKN160 TX27/2904Z TN18/2920Z TX25/3006Z \n BECMG 2902/2903 6000 NSW \n BECMG 2907/2908 10015G25KT -RA SCT010 BKN025 OVC070 \n BECMG 2914/2915 06022G35KT 4200 \n BECMG 2918/2919 03020G35KT RA \n BECMG 2922/2923 6000 -RA"
"taf	RKSI	2020-06-29 00:33:00	TAF \n AMD TAF \n AMD RKSI 290028Z 2900/3006 13006KT 4200 BR FEW010 BKN160 TX27/2904Z TN18/2920Z TX25/3006Z \n BECMG 2902/2903 6000 NSW \n BECMG 2907/2908 10015G25KT -RA SCT010 BKN025 OVC070 \n BECMG 2914/2915 06022G35KT 4200 \n BECMG 2918/2919 03020G35KT RA \n BECMG 2922/2923 6000 -RA"
"taf	RKSI	2020-06-29 06:00:00	TAF RKSI 290500Z 2906/3012 13008KT 6000 -RA BKN030 OVC100 TN18/2920Z TX25/3006Z \n BECMG 2908/2909 10015G25KT \n BECMG 2914/2915 03020G35KT 3500 RA SCT010 BKN025 OVC070 \n BECMG 2922/2923 6000 -RA BKN025 OVC080 \n BECMG 3001/3002 36020G35KT NSW SCT030 BKN110 \n BECMG 3008/3009 35015G25KT"
"taf	RKSI	2020-06-29 06:09:00	TAF RKSI 290500Z 2906/3012 13008KT 6000 -RA BKN030 OVC100 TN18/2920Z TX25/3006Z \n BECMG 2908/2909 10015G25KT \n BECMG 2914/2915 03020G35KT 3500 RA SCT010 BKN025 OVC070 \n BECMG 2922/2923 6000 -RA BKN025 OVC080 \n BECMG 3001/3002 36020G35KT NSW SCT030 BKN110 \n BECMG 3008/3009 35015G25KT"
"taf	RKSI	2020-06-29 06:25:00	TAF \n AMD RKSI 290625Z 2906/3012 13008KT 6000 SCT030 OVC110 TN18/2920Z TX25/3006Z \n BECMG 2907/2908 10015G25KT -RA BKN030 OVC100 \n BECMG 2914/2915 03020G35KT 3500 RA SCT010 BKN025 OVC070 \n BECMG 2922/2923 6000 -RA BKN025 OVC080 \n BECMG 3001/3002 36020G35KT NSW SCT030 BKN110 \n BECMG 3008/3009 35015G25KT"
"taf	RKSI	2020-06-29 06:27:00	TAF \n AMD TAF \n AMD RKSI 290625Z 2906/3012 13008KT 6000 SCT030 OVC110 TN18/2920Z TX25/3006Z \n BECMG 2907/2908 10015G25KT -RA BKN030 OVC100 \n BECMG 2914/2915 03020G35KT 3500 RA SCT010 BKN025 OVC070 \n BECMG 2922/2923 6000 -RA BKN025 OVC080 \n BECMG 3001/3002 36020G35KT NSW SCT030 BKN110 \n BECMG 3008/3009 35015G25KT"
"taf	RKSI	2020-06-29 12:00:00	TAF RKSI 291100Z 2912/3018 10015G25KT 6000 -RA BKN030 OVC100 TN18/2920Z TX25/3006Z \n BECMG 2914/2915 03020G35KT 3500 RA SCT010 BKN025 OVC070 \n BECMG 2922/2923 6000 -RA BKN025 OVC080 \n BECMG 3001/3002 36020G35KT NSW SCT030 BKN110 \n BECMG 3007/3008 35015G25KT \n BECMG 3014/3015 35008KT BKN030 BKN100"
"taf	RKSI	2020-06-29 12:09:00	TAF RKSI 291100Z 2912/3018 10015G25KT 6000 -RA BKN030 OVC100 TN18/2920Z TX25/3006Z \n BECMG 2914/2915 03020G35KT 3500 RA SCT010 BKN025 OVC070 \n BECMG 2922/2923 6000 -RA BKN025 OVC080 \n BECMG 3001/3002 36020G35KT NSW SCT030 BKN110 \n BECMG 3007/3008 35015G25KT \n BECMG 3014/3015 35008KT BKN030 BKN100"
"taf	RKSI	2020-06-29 12:48:00	TAF \n AMD TAF \n AMD RKSI 291150Z 2912/3018 10015G25KT 3500 -RA BKN030 OVC100 TN18/2920Z TX25/3006Z \n BECMG 2914/2915 03020G35KT 2800 RA SCT010 BKN025 OVC070 \n BECMG 2922/2923 6000 -RA BKN025 OVC080 \n BECMG 3001/3002 36020G35KT NSW SCT030 BKN110 \n BECMG 3007/3008 35015G25KT \n BECMG 3014/3015 35008KT BKN030 BKN100"
"taf	RKSI	2020-06-29 12:50:00	TAF \n AMD RKSI 291150Z 2912/3018 10015G25KT 3500 -RA BKN030 OVC100 TN18/2920Z TX25/3006Z \n BECMG 2914/2915 03020G35KT 2800 RA SCT010 BKN025 OVC070 \n BECMG 2922/2923 6000 -RA BKN025 OVC080 \n BECMG 3001/3002 36020G35KT NSW SCT030 BKN110 \n BECMG 3007/3008 35015G25KT \n BECMG 3014/3015 35008KT BKN030 BKN100"
"taf	RKSI	2020-06-29 18:00:00	TAF RKSI 291700Z 2918/3024 06020G35KT 4200 -RA SCT010 BKN030 OVC070 TN18/2920Z TX25/3006Z TN18/3021Z \n BECMG 2920/2921 6000 BKN025 OVC080 \n BECMG 2923/2924 36020G35KT NSW SCT030 BKN120 \n BECMG 3007/3008 35015G25KT 9999 \n BECMG 3014/3015 35008KT 6000 \n BECMG 3021/3022 24007KT 9999"
"taf	RKSI	2020-06-29 18:06:00	TAF RKSI 291700Z 2918/3024 06020G35KT 4200 -RA SCT010 BKN030 OVC070 TN18/2920Z TX25/3006Z TN18/3021Z \n BECMG 2920/2921 6000 BKN025 OVC080 \n BECMG 2923/2924 36020G35KT NSW SCT030 BKN120 \n BECMG 3007/3008 35015G25KT 9999 \n BECMG 3014/3015 35008KT 6000 \n BECMG 3021/3022 24007KT 9999"
"taf	RKSI	2020-06-29 22:40:00	TAF \n AMD RKSI 292140Z 2922/3024 03020G35KT 4200 -RA SCT010 BKN030 OVC070 TN18/2920Z TX24/3006Z TN18/3021Z \n BECMG 3004/3005 36017G35KT 6000 NSW SCT030 BKN120 \n BECMG 3007/3008 35015G25KT \n BECMG 3014/3015 35008KT \n BECMG 3021/3022 24007KT"
"taf	RKSI	2020-06-29 22:42:00	TAF \n AMD TAF \n AMD RKSI 292140Z 2922/3024 03020G35KT 4200 -RA SCT010 BKN030 OVC070 TN18/2920Z TX24/3006Z TN18/3021Z \n BECMG 3004/3005 36017G35KT 6000 NSW SCT030 BKN120 \n BECMG 3007/3008 35015G25KT \n BECMG 3014/3015 35008KT \n BECMG 3021/3022 24007KT"
"taf	RKSI	2020-06-30 00:00:00	TAF RKSI 302300Z 0100/0206 32005KT 9999 SCT030 BKN100 TX25/0106Z TN19/0121Z TX26/0205Z \n BECMG 0102/0103 19007KT SCT030 BKN120 \n BECMG 0113/0114 16006KT 4200 BR SCT010 \n BECMG 0120/0121 19006KT CAVOK \n BECMG 0204/0205 27006KT 9999 SCT030 BKN120"
"taf	RKSI	2020-06-30 00:09:00	TAF RKSI 302300Z 0100/0206 32005KT 9999 SCT030 BKN100 TX25/0106Z TN19/0121Z TX26/0205Z \n BECMG 0102/0103 19007KT SCT030 BKN120 \n BECMG 0113/0114 16006KT 4200 BR SCT010 \n BECMG 0120/0121 19006KT CAVOK \n BECMG 0204/0205 27006KT 9999 SCT030 BKN120"
"taf	RKSI	2020-06-30 00:28:00	TAF \n AMD RKSI 300028Z 3000/0106 01017G35KT 6000 -RA SCT010 BKN025 OVC070 TX24/3007Z TN18/3021Z TX25/0105Z \n BECMG 3005/3006 BR SCT030 BKN120 \n BECMG 3007/3008 35015G25KT NSW \n BECMG 3013/3014 35010KT 4200 -RA SCT010 BKN025 OVC070 \n BECMG 3020/3021 25006KT 6000 NSW SCT030 BKN120 \n BECMG 0101/0102 10005KT"
"taf	RKSI	2020-06-30 00:30:00	TAF \n AMD TAF \n AMD RKSI 300028Z 3000/0106 01017G35KT 6000 -RA SCT010 BKN025 OVC070 TX24/3007Z TN18/3021Z TX25/0105Z \n BECMG 3005/3006 BR SCT030 BKN120 \n BECMG 3007/3008 35015G25KT NSW \n BECMG 3013/3014 35010KT 4200 -RA SCT010 BKN025 OVC070 \n BECMG 3020/3021 25006KT 6000 NSW SCT030 BKN120 \n BECMG 0101/0102 10005KT"
"taf	RKSI	2020-06-30 02:39:00	TAF COR TAF COR RKSI 300140Z 3002/0106 01017G35KT 6000 -RA SCT010 BKN025 OVC070 TX24/3007Z TN18/3021Z TX25/0105Z \n BECMG 3005/3006 NSW SCT030 BKN120 \n BECMG 3007/3008 35015G25KT \n BECMG 3013/3014 35010KT 4200 -RA SCT010 BKN025 OVC070 \n BECMG 3020/3021 25006KT 6000 NSW SCT030 BKN120 \n BECMG 0101/0102 10005KT"
"taf	RKSI	2020-06-30 02:40:00	TAF COR RKSI 300140Z 3002/0106 01017G35KT 6000 -RA SCT010 BKN025 OVC070 TX24/3007Z TN18/3021Z TX25/0105Z \n BECMG 3005/3006 NSW SCT030 BKN120 \n BECMG 3007/3008 35015G25KT \n BECMG 3013/3014 35010KT 4200 -RA SCT010 BKN025 OVC070 \n BECMG 3020/3021 25006KT 6000 NSW SCT030 BKN120 \n BECMG 0101/0102 10005KT"
"taf	RKSI	2020-06-30 06:00:00	TAF RKSI 300500Z 3006/0112 36017G35KT 6000 -RA SCT010 BKN030 OVC080 TN18/3021Z TX26/0106Z \n BECMG 3007/3008 36015G25KT \n BECMG 3009/3010 NSW SCT030 BKN120 \n BECMG 3014/3015 35010KT 4200 -RA SCT010 BKN025 OVC070 \n BECMG 3020/3021 26006KT 6000 NSW SCT030 BKN120 \n BECMG 0101/0102 20007KT NSC"
"taf	RKSI	2020-06-30 06:06:00	TAF RKSI 300500Z 3006/0112 36017G35KT 6000 -RA SCT010 BKN030 OVC080 TN18/3021Z TX26/0106Z \n BECMG 3007/3008 36015G25KT \n BECMG 3009/3010 NSW SCT030 BKN120 \n BECMG 3014/3015 35010KT 4200 -RA SCT010 BKN025 OVC070 \n BECMG 3020/3021 26006KT 6000 NSW SCT030 BKN120 \n BECMG 0101/0102 20007KT NSC"
"taf	RKSI	2020-06-30 12:00:00	TAF RKSI 301100Z 3012/0118 35008KT 6000 -RA FEW010 BKN030 OVC070 TN18/3021Z TX26/0106Z \n BECMG 3017/3018 4200 \n BECMG 3020/3021 25006KT 6000 \n BECMG 3023/3024 NSW SCT030 BKN120 \n BECMG 0106/0107 19005KT NSC \n BECMG 0113/0114 16005KT 4200 BR SCT010"
"taf	RKSI	2020-06-30 12:06:00	TAF RKSI 301100Z 3012/0118 35008KT 6000 -RA FEW010 BKN030 OVC070 TN18/3021Z TX26/0106Z \n BECMG 3017/3018 4200 \n BECMG 3020/3021 25006KT 6000 \n BECMG 3023/3024 NSW SCT030 BKN120 \n BECMG 0106/0107 19005KT NSC \n BECMG 0113/0114 16005KT 4200 BR SCT010"
"taf	RKSI	2020-06-30 18:00:00	TAF RKSI 301700Z 3018/0124 34010KT 9999 -RA BKN030 OVC100 TN18/3021Z TX25/0106Z TN19/0121Z \n BECMG 3020/3021 25007KT \n BECMG 3023/3024 NSW SCT030 BKN120 \n BECMG 0106/0107 19007KT CAVOK \n BECMG 0113/0114 16006KT 4200 BR SCT010 \n BECMG 0120/0121 CAVOK"
"taf	RKSI	2020-06-30 18:06:00	TAF RKSI 301700Z 3018/0124 34010KT 9999 -RA BKN030 OVC100 TN18/3021Z TX25/0106Z TN19/0121Z \n BECMG 3020/3021 25007KT \n BECMG 3023/3024 NSW SCT030 BKN120 \n BECMG 0106/0107 19007KT CAVOK \n BECMG 0113/0114 16006KT 4200 BR SCT010 \n BECMG 0120/0121 CAVOK"
"taf	RKSI	2020-06-30 20:10:00	TAF COR RKSI 302010Z 3020/0124 33005KT 9999 BKN030 OVC100 TN18/3021Z TX25/0106Z TN19/0121Z \n BECMG 3021/3022 -RA \n BECMG 3023/3024 25007KT NSW SCT030 BKN120 \n BECMG 0106/0107 19007KT CAVOK \n BECMG 0113/0114 16006KT 4200 BR SCT010 \n BECMG 0120/0121 CAVOK"
"taf	RKSI	2020-06-30 20:18:00	TAF \n AMD TAF \n AMD RKSI 302010Z 3020/0124 33005KT 9999 BKN030 OVC100 TN18/3021Z TX25/0106Z TN19/0121Z \n BECMG 3021/3022 -RA \n BECMG 3023/3024 24007KT NSW SCT030 BKN120 \n BECMG 0106/0107 19007KT CAVOK \n BECMG 0113/0114 16006KT 4200 BR SCT010 \n BECMG 0120/0121 CAVOK"
"taf	RKSI	2020-06-30 20:21:00	TAF COR TAF COR RKSI 302010Z 3020/0124 33005KT 9999 BKN030 OVC100 TN18/3021Z TX25/0106Z TN19/0121Z \n BECMG 3021/3022 -RA \n BECMG 3023/3024 25007KT NSW SCT030 BKN120 \n BECMG 0106/0107 19007KT CAVOK \n BECMG 0113/0114 16006KT 4200 BR SCT010 \n BECMG 0120/0121 CAVOK"
"taf	RKSI	2020-07-01 00:00:00	TAF RKSI 012300Z 0200/0306 15006KT 6000 SCT015 TX27/0205Z TN20/0221Z TX28/0306Z \n BECMG 0203/0204 25006KT NSC \n BECMG 0212/0213 20005KT 4200 BR BKN010 \n BECMG 0215/0216 16005KT 2800 \n BECMG 0222/0223 07005KT 6000 NSW SCT030 BKN100 \n BECMG 0303/0304 29006KT"
"taf	RKSI	2020-07-01 00:06:00	TAF RKSI 012300Z 0200/0306 15006KT 6000 SCT015 TX27/0205Z TN20/0221Z TX28/0306Z \n BECMG 0203/0204 25006KT NSC \n BECMG 0212/0213 20005KT 4200 BR BKN010 \n BECMG 0215/0216 16005KT 2800 \n BECMG 0222/0223 07005KT 6000 NSW SCT030 BKN100 \n BECMG 0303/0304 29006KT"
"taf	RKSI	2020-07-01 06:00:00	TAF RKSI 010500Z 0106/0212 20006KT 9999 BKN020 TN19/0121Z TX26/0205Z \n BECMG 0113/0114 4200 BR SCT005 BKN020 \n BECMG 0200/0201 CAVOK \n BECMG 0204/0205 27006KT"
"taf	RKSI	2020-07-01 06:06:00	TAF RKSI 010500Z 0106/0212 20006KT 9999 BKN020 TN19/0121Z TX26/0205Z \n BECMG 0113/0114 4200 BR SCT005 BKN020 \n BECMG 0200/0201 CAVOK \n BECMG 0204/0205 27006KT"
"taf	RKSI	2020-07-01 09:42:00	TAF \n AMD RKSI 010842Z 0109/0212 21006KT 4200 BR SCT005 BKN020 TN19/0121Z TX26/0205Z \n BECMG 0200/0201 CAVOK \n BECMG 0204/0205 27006KT"
"taf	RKSI	2020-07-01 09:45:00	TAF \n AMD TAF \n AMD RKSI 010842Z 0109/0212 21006KT 4200 BR SCT005 BKN020 TN19/0121Z TX26/0205Z \n BECMG 0200/0201 CAVOK \n BECMG 0204/0205 27006KT"
"taf	RKSI	2020-07-01 12:00:00	TAF RKSI 011100Z 0112/0218 18006KT 3500 BR SCT005 BKN015 TN19/0121Z TX26/0205Z \n BECMG 0115/0116 2000 \n BECMG 0120/0121 4200 \n BECMG 0123/0124 6000 NSW SCT030 \n BECMG 0203/0204 27006KT CAVOK \n BECMG 0212/0213 17005KT 4200 BR NSC"
"taf	RKSI	2020-07-01 12:06:00	TAF RKSI 011100Z 0112/0218 18006KT 3500 BR SCT005 BKN015 TN19/0121Z TX26/0205Z \n BECMG 0115/0116 2000 \n BECMG 0120/0121 4200 \n BECMG 0123/0124 6000 NSW SCT030 \n BECMG 0203/0204 27006KT CAVOK \n BECMG 0212/0213 17005KT 4200 BR NSC"
"taf	RKSI	2020-07-01 18:00:00	TAF RKSI 011700Z 0118/0224 17006KT 2000 BR BKN010 BKN025 TN19/0121Z TX27/0205Z TN20/0221Z \n BECMG 0120/0121 4200 \n BECMG 0123/0124 6000 NSW SCT030 \n BECMG 0203/0204 26006KT CAVOK \n BECMG 0212/0213 17005KT 3500 BR BKN010 \n BECMG 0221/0222 05005KT 6000 NSW SCT015"
"taf	RKSI	2020-07-01 18:06:00	TAF RKSI 011700Z 0118/0224 17006KT 2000 BR BKN010 BKN025 TN19/0121Z TX27/0205Z TN20/0221Z \n BECMG 0120/0121 4200 \n BECMG 0123/0124 6000 NSW SCT030 \n BECMG 0203/0204 26006KT CAVOK \n BECMG 0212/0213 17005KT 3500 BR BKN010 \n BECMG 0221/0222 05005KT 6000 NSW SCT015"
"taf	RKSI	2020-07-02 00:00:00	TAF RKSI 022300Z 0300/0406 15006KT 3000 BR SCT030 BKN120 TX28/0306Z TN20/0321Z TX28/0406Z \n BECMG 0302/0303 20006KT 5000 \n BECMG 0305/0306 28006KT 9999 NSW \n TEMPO 0312/0315 25006KT 5000 -SHRA FEW010CB BKN025 OVC080 \n BECMG 0316/0317 07005KT 3000 BR \n BECMG 0400/0401 27007KT 5000 NSC"
"taf	RKSI	2020-07-02 00:06:00	TAF RKSI 022300Z 0300/0406 15006KT 3000 BR SCT030 BKN120 TX28/0306Z TN20/0321Z TX28/0406Z \n BECMG 0302/0303 20006KT 5000 \n BECMG 0305/0306 28006KT 9999 NSW \n TEMPO 0312/0315 25006KT 5000 -SHRA FEW010CB BKN025 OVC080 \n BECMG 0316/0317 07005KT 3000 BR \n BECMG 0400/0401 27007KT 5000 NSC"
"taf	RKSI	2020-07-02 02:37:00	TAF \n AMD RKSI 020137Z 0202/0306 15006KT 4000 BR SCT015 TX27/0205Z TN20/0221Z TX28/0306Z \n BECMG 0203/0204 25006KT 6000 NSW NSC \n BECMG 0212/0213 20005KT 4000 BR BKN010 \n BECMG 0215/0216 16005KT 2500 \n BECMG 0222/0223 07005KT 6000 NSW SCT030 BKN100 \n BECMG 0303/0304 29006KT"
"taf	RKSI	2020-07-02 02:39:00	TAF \n AMD TAF \n AMD RKSI 020137Z 0202/0306 15006KT 4000 BR SCT015 TX27/0205Z TN20/0221Z TX28/0306Z \n BECMG 0203/0204 25006KT 6000 NSW NSC \n BECMG 0212/0213 20005KT 4000 BR BKN010 \n BECMG 0215/0216 16005KT 2500 \n BECMG 0222/0223 07005KT 6000 NSW SCT030 BKN100 \n BECMG 0303/0304 29006KT"
"taf	RKSI	2020-07-02 04:00:00	TAF \n AMD RKSI 020400Z 0204/0306 15005KT 4000 BR SCT025 TX27/0205Z TN20/0221Z TX28/0306Z \n BECMG 0212/0213 20005KT 2500 BKN010 \n BECMG 0222/0223 07005KT 6000 NSW SCT030 BKN100 \n BECMG 0303/0304 29006KT"
"taf	RKSI	2020-07-02 04:03:00	TAF \n AMD TAF \n AMD RKSI 020400Z 0204/0306 15005KT 4000 BR SCT025 TX27/0205Z TN20/0221Z TX28/0306Z \n BECMG 0212/0213 20005KT 2500 BKN010 \n BECMG 0222/0223 07005KT 6000 NSW SCT030 BKN100 \n BECMG 0303/0304 29006KT"
"taf	RKSI	2020-07-02 06:00:00	TAF RKSI 020500Z 0206/0312 18005KT 5000 BR SCT030 TN20/0221Z TX28/0306Z \n BECMG 0209/0210 24006KT 2000 BKN010 \n BECMG 0222/0223 06005KT 5000 SCT030 BKN120 \n BECMG 0305/0306 17006KT 9999 NSW"
"taf	RKSI	2020-07-02 06:06:00	TAF RKSI 020500Z 0206/0312 18005KT 5000 BR SCT030 TN20/0221Z TX28/0306Z \n BECMG 0209/0210 24006KT 2000 BKN010 \n BECMG 0222/0223 06005KT 5000 SCT030 BKN120 \n BECMG 0305/0306 17006KT 9999 NSW"
"taf	RKSI	2020-07-02 06:27:00	TAF \n AMD RKSI 020927Z 0206/0312 18005KT 7000 SCT030 TN20/0221Z TX28/0306Z \n BECMG 0212/0213 24006KT 2000 BR BKN010 \n BECMG 0222/0223 06005KT 5000 SCT030 BKN120 \n BECMG 0305/0306 17006KT 9999 NSW"
"taf	RKSI	2020-07-02 06:28:00	TAF \n AMD RKSI 020928Z 0206/0312 31007KT 7000 SCT030 TN20/0221Z TX28/0306Z \n BECMG 0212/0213 24006KT 2000 BR BKN010 \n BECMG 0222/0223 06005KT 5000 SCT030 BKN120 \n BECMG 0305/0306 17006KT 9999 NSW"
"taf	RKSI	2020-07-02 06:54:00	TAF \n AMD RKSI 020927Z 0206/0312 18005KT 7000 SCT030 TN20/0221Z TX28/0306Z \n BECMG 0212/0213 24006KT 2000 BR BKN010 \n BECMG 0222/0223 06005KT 5000 SCT030 BKN120 \n BECMG 0305/0306 17006KT 9999 NSW"
"taf	RKSI	2020-07-02 09:29:00	TAF \n AMD RKSI 020929Z 0209/0312 31007KT 7000 SCT030 TN20/0221Z TX28/0306Z \n BECMG 0212/0213 24006KT 2000 BR BKN010 \n BECMG 0222/0223 06005KT 5000 SCT030 BKN120 \n BECMG 0305/0306 17006KT 9999 NSW"
"taf	RKSI	2020-07-02 09:54:00	TAF \n AMD RKSI 020929Z 0209/0312 31007KT 7000 SCT030 TN20/0221Z TX28/0306Z \n BECMG 0212/0213 24006KT 2000 BR BKN010 \n BECMG 0222/0223 06005KT 5000 SCT030 BKN120 \n BECMG 0305/0306 17006KT 9999 NSW"
"taf	RKSI	2020-07-02 12:00:00	TAF COR RKSI 021100Z 0212/0318 18005KT 6000 NSC TN20/0221Z TX28/0306Z \n BECMG 0215/0216 2000 BR BKN010 \n BECMG 0222/0223 07005KT 5000 SCT030 BKN120 \n BECMG 0305/0306 17006KT 9999 NSW"
"taf	RKSI	2020-07-02 12:06:00	TAF RKSI 021100Z 0212/0318 18005KT 6000 NSC TN20/2021Z TX28/0306Z \n BECMG 0215/0216 2000 BR BKN010 \n BECMG 0222/0223 07005KT 5000 SCT030 BKN120 \n BECMG 0305/0306 17006KT 9999 NSW"
"taf	RKSI	2020-07-02 12:27:00	TAF COR TAF COR RKSI 021100Z 0212/0318 18005KT 6000 NSC TN20/0221Z TX28/0306Z \n BECMG 0215/0216 2000 BR BKN010 \n BECMG 0222/0223 07005KT 5000 SCT030 BKN120 \n BECMG 0305/0306 17006KT 9999 NSW"
"taf	RKSI	2020-07-02 18:00:00	TAF RKSI 021700Z 0218/0324 15005KT 3000 BR NSC TN20/0220Z TX28/0306Z TN20/0321Z \n BECMG 0221/0222 09006KT 5000 SCT030 BKN120 \n BECMG 0305/0306 29006KT 9999 NSW \n BECMG 0312/0313 15006KT CAVOK \n BECMG 0317/0318 3000 BR NSC \n BECMG 0320/0321 5000"
"taf	RKSI	2020-07-02 18:06:00	TAF RKSI 021700Z 0218/0324 15005KT 3000 BR NSC TN20/0220Z TX28/0306Z TN20/0321Z \n BECMG 0221/0222 09006KT 5000 SCT030 BKN120 \n BECMG 0305/0306 29006KT 9999 NSW \n BECMG 0312/0313 15006KT CAVOK \n BECMG 0317/0318 3000 BR NSC \n BECMG 0320/0321 5000"
"taf	RKSI	2020-07-03 00:00:00	TAF RKSI 032300Z 0400/0506 29008KT CAVOK TX25/0406Z TN20/0420Z TX25/0505Z \n BECMG 0412/0413 4000 BR SCT010 \n BECMG 0414/0415 2000 \n BECMG 0421/0422 19005KT 4000 \n BECMG 0500/0501 6000 NSW SCT020 BKN120"
"taf	RKSI	2020-07-03 00:06:00	TAF RKSI 032300Z 0400/0506 29008KT CAVOK TX25/0406Z TN20/0420Z TX25/0505Z \n BECMG 0412/0413 4000 BR SCT010 \n BECMG 0414/0415 2000 \n BECMG 0421/0422 19005KT 4000 \n BECMG 0500/0501 6000 NSW SCT020 BKN120"
"taf	RKSI	2020-07-03 00:15:00	TAF \n AMD RKSI 030015Z 0300/0406 15006KT 6000 SCT030 BKN120 TX28/0306Z TN20/0321Z TX28/0406Z \n BECMG 0305/0306 28006KT 9999 \n TEMPO 0312/0315 25006KT 5000 -SHRA FEW010CB BKN025 OVC080 \n BECMG 0316/0317 07005KT 3000 BR \n BECMG 0400/0401 27007KT 5000 NSC"
"taf	RKSI	2020-07-03 00:18:00	TAF \n AMD TAF \n AMD RKSI 030015Z 0300/0406 15006KT 6000 SCT030 BKN120 TX28/0306Z TN20/0321Z TX28/0406Z \n BECMG 0305/0306 28006KT 9999 \n TEMPO 0312/0315 25006KT 5000 -SHRA FEW010CB BKN025 OVC080 \n BECMG 0316/0317 07005KT 3000 BR \n BECMG 0400/0401 27007KT 5000 NSC"
"taf	RKSI	2020-07-03 06:00:00	TAF RKSI 030500Z 0306/0412 18008KT 9999 SCT030 BKN120 TN20/0320Z TX28/0403Z \n BECMG 0310/0311 33005KT \n TEMPO 0312/0315 4000 -SHRA FEW015CB BKN025 OVC080 \n BECMG 0316/0317 01005KT 3000 BR \n BECMG 0400/0401 27008KT 5000 NSW"
"taf	RKSI	2020-07-03 06:06:00	TAF RKSI 030500Z 0306/0412 18008KT 9999 SCT030 BKN120 TN20/0320Z TX28/0403Z \n BECMG 0310/0311 33005KT \n TEMPO 0312/0315 4000 -SHRA FEW015CB BKN025 OVC080 \n BECMG 0316/0317 01005KT 3000 BR \n BECMG 0400/0401 27008KT 5000 NSW"
"taf	RKSI	2020-07-03 06:55:00	TAF COR RKSI 030655Z 0306/0412 18008KT 9999 SCT030 BKN120 TN20/0320Z TX28/0403Z \n BECMG 0310/0311 33005KT \n TEMPO 0312/0315 4000 -SHRA FEW015CB BKN025 OVC080 \n BECMG 0316/0317 01005KT 3000 BR \n BECMG 0400/0401 27008KT 5000"
"taf	RKSI	2020-07-03 06:57:00	TAF COR TAF COR RKSI 030655Z 0306/0412 18008KT 9999 SCT030 BKN120 TN20/0320Z TX28/0403Z \n BECMG 0310/0311 33005KT \n TEMPO 0312/0315 4000 -SHRA FEW015CB BKN025 OVC080 \n BECMG 0316/0317 01005KT 3000 BR \n BECMG 0400/0401 27008KT 5000"
"taf	RKSI	2020-07-03 12:00:00	TAF RKSI 031100Z 0312/0418 33005KT 6000 -RA BKN030 OVC100 TN20/0321Z TX27/0406Z \n BECMG 0314/0315 03005KT 3000 BR SCT008 \n BECMG 0400/0401 27009KT 6000 NSW FEW030 SCT160 \n BECMG 0412/0413 21005KT \n BECMG 0416/0417 24006KT 3000 BR SCT008"
"taf	RKSI	2020-07-03 12:09:00	TAF RKSI 031100Z 0312/0418 33005KT 6000 -RA BKN030 OVC100 TN20/0321Z TX27/0406Z \n BECMG 0314/0315 03005KT 3000 BR SCT008 \n BECMG 0400/0401 27009KT 6000 NSW FEW030 SCT160 \n BECMG 0412/0413 21005KT \n BECMG 0416/0417 24006KT 3000 BR SCT008"
"taf	RKSI	2020-07-03 13:05:00	TAF \n AMD RKSI 031305Z 0313/0418 33005KT 3000 -RA BKN030 OVC100 TN20/0321Z TX27/0406Z \n BECMG 0314/0315 03005KT BR SCT008 \n BECMG 0400/0401 27009KT 6000 NSW FEW030 SCT160 \n BECMG 0412/0413 21005KT \n BECMG 0416/0417 24006KT 3000 BR SCT008"
"taf	RKSI	2020-07-03 13:09:00	TAF \n AMD TAF \n AMD RKSI 031305Z 0313/0418 33005KT 3000 -RA BKN030 OVC100 TN20/0321Z TX27/0406Z \n BECMG 0314/0315 03005KT BR SCT008 \n BECMG 0400/0401 27009KT 6000 NSW FEW030 SCT160 \n BECMG 0412/0413 21005KT \n BECMG 0416/0417 24006KT 3000 BR SCT008"
"taf	RKSI	2020-07-03 15:37:00	TAF \n AMD RKSI 031437Z 0315/0418 33005KT 3000 -RA BKN030 OVC100 TN20/0321Z TX27/0406Z \n BECMG 0317/0318 03005KT BR SCT008 \n BECMG 0400/0401 27009KT 6000 NSW FEW030 SCT160 \n BECMG 0412/0413 21005KT \n BECMG 0416/0417 24006KT 3000 BR SCT008"
"taf	RKSI	2020-07-03 15:39:00	TAF \n AMD TAF \n AMD RKSI 031437Z 0315/0418 33005KT 3000 -RA BKN030 OVC100 TN20/0321Z TX27/0406Z \n BECMG 0317/0318 03005KT BR SCT008 \n BECMG 0400/0401 27009KT 6000 NSW FEW030 SCT160 \n BECMG 0412/0413 21005KT \n BECMG 0416/0417 24006KT 3000 BR SCT008"
"taf	RKSI	2020-07-03 18:00:00	TAF RKSI 031700Z 0318/0424 05005KT 9999 SCT030 BKN120 TN20/0321Z TX27/0406Z TN20/0420Z \n BECMG 0400/0401 27010KT CAVOK \n BECMG 0412/0413 4000 BR SCT010 \n BECMG 0415/0416 2000 \n BECMG 0422/0423 19006KT 4000"
"taf	RKSI	2020-07-03 18:09:00	TAF RKSI 031700Z 0318/0424 05005KT 9999 SCT030 BKN120 TN20/0321Z TX27/0406Z TN20/0420Z \n BECMG 0400/0401 27010KT CAVOK \n BECMG 0412/0413 4000 BR SCT010 \n BECMG 0415/0416 2000 \n BECMG 0422/0423 19006KT 4000"
"taf	RKSI	2020-07-04 00:00:00	TAF RKSI 042300Z 0500/0606 25005KT 6000 SCT030 BKN100 TX25/0505Z TN19/0520Z TX26/0605Z \n BECMG 0501/0502 19006KT \n BECMG 0511/0512 33005KT 4000 BR \n BECMG 0517/0518 2000 BKN005 \n BECMG 0522/0523 6000 NSW SCT030"
"taf	RKSI	2020-07-04 00:06:00	TAF RKSI 042300Z 0500/0606 25005KT 6000 SCT030 BKN100 TX25/0505Z TN19/0520Z TX26/0605Z \n BECMG 0501/0502 19006KT \n BECMG 0511/0512 33005KT 4000 BR \n BECMG 0517/0518 2000 BKN005 \n BECMG 0522/0523 6000 NSW SCT030"
"taf	RKSI	2020-07-04 06:00:00	TAF RKSI 040500Z 0406/0512 28008KT 9999 FEW030 TN19/0420Z TX25/0505Z \n BECMG 0414/0415 24006KT 4000 BR SCT008 \n BECMG 0417/0418 2000 \n BECMG 0420/0422 27005KT 5000 \n BECMG 0500/0501 19006KT 9999 NSW SCT030 BKN120 \n BECMG 0503/0504 29005KT"
"taf	RKSI	2020-07-04 06:06:00	TAF RKSI 040500Z 0406/0512 28008KT 9999 FEW030 TN19/0420Z TX25/0505Z \n BECMG 0414/0415 24006KT 4000 BR SCT008 \n BECMG 0417/0418 2000 \n BECMG 0420/0422 27005KT 5000 \n BECMG 0500/0501 19006KT 9999 NSW SCT030 BKN120 \n BECMG 0503/0504 29005KT"
"taf	RKSI	2020-07-04 12:00:00	TAF RKSI 041100Z 0412/0518 24006KT CAVOK TN19/0420Z TX25/0505Z \n BECMG 0414/0415 4000 BR SCT008 \n BECMG 0418/0419 2000 BKN005 \n BECMG 0422/0423 28005KT 5000 SCT010 \n BECMG 0500/0501 19006KT 9999 NSW SCT030 BKN120 \n BECMG 0504/0505 27006KT"
"taf	RKSI	2020-07-04 12:06:00	TAF RKSI 041100Z 0412/0518 24006KT CAVOK TN19/0420Z TX25/0505Z \n BECMG 0414/0415 4000 BR SCT008 \n BECMG 0418/0419 2000 BKN005 \n BECMG 0422/0423 28005KT 5000 SCT010 \n BECMG 0500/0501 19006KT 9999 NSW SCT030 BKN120 \n BECMG 0504/0505 27006KT"
"taf	RKSI	2020-07-04 15:00:00	TAF \n AMD TAF \n AMD RKSI 041457Z 0415/0518 24006KT 6000 NSC TN19/0420Z TX25/0505Z \n BECMG 0418/0419 2000 BR BKN005 \n BECMG 0422/0423 28005KT 5000 SCT010 \n BECMG 0500/0501 19006KT 9999 NSW SCT030 BKN120 \n BECMG 0504/0505 27006KT"
"taf	RKSI	2020-07-04 15:57:00	TAF \n AMD RKSI 041457Z 0415/0518 24006KT 6000 NSC TN19/0420Z TX25/0505Z \n BECMG 0418/0419 2000 BR BKN005 \n BECMG 0422/0423 28005KT 5000 SCT010 \n BECMG 0500/0501 19006KT 9999 NSW SCT030 BKN120 \n BECMG 0504/0505 27006KT"
"taf	RKSI	2020-07-04 18:00:00	TAF RKSI 041700Z 0418/0524 25005KT 5000 BR NSC TN19/0420Z TX25/0505Z TN19/0520Z \n TEMPO 0418/0421 2000 SCT010 \n BECMG 0500/0501 19006KT 9999 NSW SCT030 BKN100 \n BECMG 0511/0512 33005KT 4000 BR \n BECMG 0521/0522 5000"
"taf	RKSI	2020-07-04 18:06:00	TAF RKSI 041700Z 0418/0524 25005KT 5000 BR NSC TN19/0420Z TX25/0505Z TN19/0520Z \n TEMPO 0418/0421 2000 SCT010 \n BECMG 0500/0501 19006KT 9999 NSW SCT030 BKN100 \n BECMG 0511/0512 33005KT 4000 BR \n BECMG 0521/0522 5000"
"taf	RKSI	2020-07-04 21:40:00	TAF \n AMD RKSI 042040Z 0421/0524 25005KT 3000 BR BKN005 TN19/0420Z TX25/0505Z TN19/0520Z \n BECMG 0423/0424 5000 SCT030 BKN100 \n BECMG 0501/0502 19006KT 9999 NSW \n BECMG 0511/0512 33005KT 4000 BR \n BECMG 0521/0522 5000"
"taf	RKSI	2020-07-04 21:42:00	TAF \n AMD TAF \n AMD RKSI 042040Z 0421/0524 25005KT 3000 BR BKN005 TN19/0420Z TX25/0505Z TN19/0520Z \n BECMG 0423/0424 5000 SCT030 BKN100 \n BECMG 0501/0502 19006KT 9999 NSW \n BECMG 0511/0512 33005KT 4000 BR \n BECMG 0521/0522 5000"
"taf	RKSI	2020-07-05 00:00:00	TAF RKSI 052300Z 0600/0706 03005KT 9999 SCT030 TX27/0606Z TN20/0620Z TX26/0705Z \n BECMG 0603/0604 32010KT \n BECMG 0613/0614 26005KT 4000 BR BKN030 OVC100 \n TEMPO 0615/0618 -RA \n BECMG 0620/0621 23005KT 6000 NSW \n BECMG 0700/0701 30010KT 9999 SCT030"
"taf	RKSI	2020-07-05 00:09:00	TAF RKSI 052300Z 0600/0706 03005KT 9999 SCT030 TX27/0606Z TN20/0620Z TX26/0705Z \n BECMG 0603/0604 32010KT \n BECMG 0613/0614 26005KT 4000 BR BKN030 OVC100 \n TEMPO 0615/0618 -RA \n BECMG 0620/0621 23005KT 6000 NSW \n BECMG 0700/0701 30010KT 9999 SCT030"
"taf	RKSI	2020-07-05 06:00:00	TAF RKSI 050500Z 0506/0612 30007KT 9999 FEW030 TN19/0520Z TX26/0605Z \n BECMG 0511/0512 33005KT 4000 BR \n BECMG 0517/0518 2000 BKN005 \n BECMG 0522/0523 28006KT 6000 NSW SCT030 BKN120"
"taf	RKSI	2020-07-05 06:09:00	TAF RKSI 050500Z 0506/0612 30007KT 9999 FEW030 TN19/0520Z TX26/0605Z \n BECMG 0511/0512 33005KT 4000 BR \n BECMG 0517/0518 2000 BKN005 \n BECMG 0522/0523 28006KT 6000 NSW SCT030 BKN120"
"taf	RKSI	2020-07-05 12:00:00	TAF \n AMD RKSI 051500Z 0512/0618 33005KT 9999 SCT030 BKN180 TN19/0520Z TX26/0605Z \n BECMG 0517/0518 4000 BR SCT008 BKN030 \n BECMG 0521/0522 30006KT 6000 NSW SCT030 BKN180 \n BECMG 0613/0614 27005KT -RA FEW010 BKN025 OVC080 \n BECMG 0615/0616 NSW SCT030"
"taf	RKSI	2020-07-05 12:06:00	TAF \n AMD TAF \n AMD RKSI 051500Z 0512/0618 33005KT 9999 SCT030 BKN180 TN19/0520Z TX26/0605Z \n BECMG 0517/0518 4000 BR SCT008 BKN030 \n BECMG 0521/0522 30006KT 6000 NSW SCT030 BKN180 \n BECMG 0613/0614 27005KT -RA FEW010 BKN025 OVC080 \n BECMG 0615/0616 NSW SCT030"
"taf	RKSI	2020-07-05 18:00:00	TAF RKSI 051700Z 0518/0624 03005KT 9999 BKN030 BKN160 TN20/0520Z TX27/0606Z TN20/0620Z \n BECMG 0602/0603 33010KT SCT030 \n BECMG 0610/0611 27006KT BKN030 OVC100 \n BECMG 0614/0615 4000 -RA \n BECMG 0616/0617 6000 NSW SCT030"
"taf	RKSI	2020-07-05 18:06:00	TAF RKSI 051700Z 0518/0624 03005KT 9999 BKN030 BKN160 TN20/0520Z TX27/0606Z TN20/0620Z \n BECMG 0602/0603 33010KT SCT030 \n BECMG 0610/0611 27006KT BKN030 OVC100 \n BECMG 0614/0615 4000 -RA \n BECMG 0616/0617 6000 NSW SCT030"
"taf	RKSI	2020-07-06 00:00:00	TAF RKSI 062300Z 0700/0806 29010KT 9999 SCT025 BKN070 TX26/0705Z TN20/0720Z TX28/0805Z \n BECMG 0703/0704 SCT030 \n BECMG 0717/0718 35006KT \n BECMG 0803/0804 24007KT"
"taf	RKSI	2020-07-06 00:06:00	TAF RKSI 062300Z 0700/0806 29010KT 9999 SCT025 BKN070 TX26/0705Z TN20/0720Z TX28/0805Z \n BECMG 0703/0704 SCT030 \n BECMG 0717/0718 35006KT \n BECMG 0803/0804 24007KT"
"taf	RKSI	2020-07-06 06:00:00	TAF RKSI 060500Z 0606/0712 30008KT 9999 SCT030 BKN150 TN20/0620Z TX26/0705Z \n BECMG 0613/0614 26005KT 4000 BR BKN030 OVC100 \n TEMPO 0617/0619 -RA \n BECMG 0620/0621 23005KT 6000 NSW \n BECMG 0700/0701 30010KT 9999 SCT030"
"taf	RKSI	2020-07-06 06:06:00	TAF RKSI 060500Z 0606/0712 30008KT 9999 SCT030 BKN150 TN20/0620Z TX26/0705Z \n BECMG 0613/0614 26005KT 4000 BR BKN030 OVC100 \n TEMPO 0617/0619 -RA \n BECMG 0620/0621 23005KT 6000 NSW \n BECMG 0700/0701 30010KT 9999 SCT030"
"taf	RKSI	2020-07-06 12:00:00	TAF RKSI 061100Z 0612/0718 30008KT 9999 SCT030 BKN150 TN20/0620Z TX26/0705Z \n BECMG 0613/0614 26005KT 4000 BR BKN030 OVC100 \n TEMPO 0617/0619 -RA \n BECMG 0620/0621 23005KT 6000 NSW \n BECMG 0700/0701 29010KT 9999 SCT030 \n BECMG 0714/0715 35008KT"
"taf	RKSI	2020-07-06 12:09:00	TAF RKSI 061100Z 0612/0718 30008KT 9999 SCT030 BKN150 TN20/0620Z TX26/0705Z \n BECMG 0613/0614 26005KT 4000 BR BKN030 OVC100 \n TEMPO 0617/0619 -RA \n BECMG 0620/0621 23005KT 6000 NSW \n BECMG 0700/0701 29010KT 9999 SCT030 \n BECMG 0714/0715 35008KT"
"taf	RKSI	2020-07-06 14:50:00	TAF \n AMD RKSI 061350Z 0614/0718 28005KT 9999 FEW030 SCT100 TN20/0620Z TX26/0705Z \n TEMPO 0617/0619 23005KT 4000 -RA BKN030 OVC100 \n BECMG 0619/0620 22005KT BKN030 \n BECMG 0700/0701 29010KT SCT030 \n BECMG 0714/0715 35008KT"
"taf	RKSI	2020-07-06 14:57:00	TAF \n AMD TAF \n AMD RKSI 061350Z 0614/0718 28005KT 9999 FEW030 SCT100 TN20/0620Z TX26/0705Z \n TEMPO 0617/0619 23005KT 4000 -RA BKN030 OVC100 \n BECMG 0619/0620 22005KT BKN030 \n BECMG 0700/0701 29010KT SCT030 \n BECMG 0714/0715 35008KT"
"taf	RKSI	2020-07-06 18:00:00	TAF RKSI 061700Z 0618/0724 23005KT 9999 BKN030 TN20/0620Z TX26/0705Z TN20/0720Z \n TEMPO 0618/0621 4000 -RA SCT015CB BKN025 \n BECMG 0623/0624 29010KT SCT030 \n BECMG 0714/0715 35006KT"
"taf	RKSI	2020-07-06 18:06:00	TAF RKSI 061700Z 0618/0724 23005KT 9999 BKN030 TN20/0620Z TX26/0705Z TN20/0720Z \n TEMPO 0618/0621 4000 -RA SCT015CB BKN025 \n BECMG 0623/0624 29010KT SCT030 \n BECMG 0714/0715 35006KT"
"taf	RKSI	2020-07-07 00:00:00	TAF RKSI 072300Z 0800/0906 35006KT 9999 FEW030 TX28/0806Z TN19/0821Z TX29/0906Z \n BECMG 0803/0804 24008KT \n BECMG 0812/0813 21006KT 3000 BR SCT010 \n BECMG 0815/0816 1200 BKN005 \n BECMG 0821/0822 17006KT 3000 SCT010 \n BECMG 0900/0901 08006KT 6000 NSW NSC"
"taf	RKSI	2020-07-07 00:06:00	TAF RKSI 072300Z 0800/0906 35006KT 9999 FEW030 TX28/0806Z TN19/0821Z TX29/0906Z \n BECMG 0803/0804 24008KT \n BECMG 0812/0813 21006KT 3000 BR SCT010 \n BECMG 0815/0816 1200 BKN005 \n BECMG 0821/0822 17006KT 3000 SCT010 \n BECMG 0900/0901 08006KT 6000 NSW NSC"
"taf	RKSI	2020-07-07 06:00:00	TAF RKSI 070500Z 0706/0812 29010KT 9999 SCT030 TN20/0720Z TX28/0806Z \n BECMG 0715/0716 35007KT \n BECMG 0803/0804 24008KT"
"taf	RKSI	2020-07-07 06:06:00	TAF RKSI 070500Z 0706/0812 29010KT 9999 SCT030 TN20/0720Z TX28/0806Z \n BECMG 0715/0716 35007KT \n BECMG 0803/0804 24008KT"
"taf	RKSI	2020-07-07 12:00:00	TAF RKSI 071100Z 0712/0818 29010KT 6000 SCT030 TN20/0720Z TX28/0806Z \n BECMG 0713/0714 4000 BR SCT010 \n BECMG 0715/0716 35007KT \n BECMG 0722/0723 5000 SCT030 \n BECMG 0803/0804 24008KT 9999 NSW \n BECMG 0812/0813 21006KT 3000 BR BKN010"
"taf	RKSI	2020-07-07 12:06:00	TAF RKSI 071100Z 0712/0818 29010KT 6000 SCT030 TN20/0720Z TX28/0806Z \n BECMG 0713/0714 4000 BR SCT010 \n BECMG 0715/0716 35007KT \n BECMG 0722/0723 5000 SCT030 \n BECMG 0803/0804 24008KT 9999 NSW \n BECMG 0812/0813 21006KT 3000 BR BKN010"
"taf	RKSI	2020-07-07 14:40:00	TAF \n AMD RKSI 071340Z 0714/0818 29010KT 6000 SCT030 TN20/0720Z TX28/0806Z \n BECMG 0715/0716 35007KT \n BECMG 0803/0804 24008KT 9999 \n BECMG 0812/0813 21006KT 3000 BR BKN010"
"taf	RKSI	2020-07-07 14:42:00	TAF \n AMD TAF \n AMD RKSI 071340Z 0714/0818 29010KT 6000 SCT030 TN20/0720Z TX28/0806Z \n BECMG 0715/0716 35007KT \n BECMG 0803/0804 24008KT 9999 \n BECMG 0812/0813 21006KT 3000 BR BKN010"
"taf	RKSI	2020-07-07 18:00:00	TAF RKSI 071700Z 0718/0824 35007KT 6000 SCT030 TN20/0720Z TX28/0806Z TN19/0821Z \n BECMG 0803/0804 24008KT \n BECMG 0812/0813 21006KT 3000 BR SCT010 \n BECMG 0815/0816 1200 BKN005 \n BECMG 0821/0822 17006KT 3000 SCT010"
"taf	RKSI	2020-07-07 18:06:00	TAF RKSI 071700Z 0718/0824 35007KT 6000 SCT030 TN20/0720Z TX28/0806Z TN19/0821Z \n BECMG 0803/0804 24008KT \n BECMG 0812/0813 21006KT 3000 BR SCT010 \n BECMG 0815/0816 1200 BKN005 \n BECMG 0821/0822 17006KT 3000 SCT010"
"taf	RKSI	2020-07-08 00:00:00	TAF RKSI 082300Z 0900/1006 08006KT 5000 BR SCT010 BKN030 TX29/0906Z TN22/0921Z TX28/1006Z \n BECMG 0902/0903 29008KT CAVOK \n BECMG 0916/0917 12008KT \n BECMG 0921/0922 03010KT 9999 SCT030 BKN160 \n BECMG 1001/1002 6000 -RA FEW010 BKN025 OVC100"
"taf	RKSI	2020-07-08 00:06:00	TAF RKSI 082300Z 0900/1006 08006KT 5000 BR SCT010 BKN030 TX29/0906Z TN22/0921Z TX28/1006Z \n BECMG 0902/0903 29008KT CAVOK \n BECMG 0916/0917 12008KT \n BECMG 0921/0922 03010KT 9999 SCT030 BKN160 \n BECMG 1001/1002 6000 -RA FEW010 BKN025 OVC100"
"taf	RKSI	2020-07-08 06:00:00	TAF RKSI 080500Z 0806/0912 27008KT 9999 FEW030 TN20/0820Z TX29/0906Z \n BECMG 0812/0813 21006KT 3000 BR SCT010 \n BECMG 0815/0816 18005KT 1200 BKN005 \n BECMG 0821/0822 15005KT 3000 \n BECMG 0900/0901 08006KT 5000 SCT010 \n BECMG 0902/0903 29008KT CAVOK"
"taf	RKSI	2020-07-08 06:06:00	TAF RKSI 080500Z 0806/0912 27008KT 9999 FEW030 TN20/0820Z TX29/0906Z \n BECMG 0812/0813 21006KT 3000 BR SCT010 \n BECMG 0815/0816 18005KT 1200 BKN005 \n BECMG 0821/0822 15005KT 3000 \n BECMG 0900/0901 08006KT 5000 SCT010 \n BECMG 0902/0903 29008KT CAVOK"
"taf	RKSI	2020-07-08 08:50:00	TAF \n AMD RKSI 080850Z 0808/0912 27008KT 5000 BR BKN005 TN20/0820Z TX29/0906Z \n BECMG 0812/0813 21006KT 3000 SCT010 \n BECMG 0815/0816 18005KT 1200 BKN005 \n BECMG 0821/0822 15005KT 3000 \n BECMG 0900/0901 08006KT 5000 SCT010 \n BECMG 0902/0903 29008KT CAVOK"
"taf	RKSI	2020-07-08 08:51:00	TAF \n AMD TAF \n AMD RKSI 080850Z 0808/0912 27008KT 5000 BR BKN005 TN20/0820Z TX29/0906Z \n BECMG 0812/0813 21006KT 3000 SCT010 \n BECMG 0815/0816 18005KT 1200 BKN005 \n BECMG 0821/0822 15005KT 3000 \n BECMG 0900/0901 08006KT 5000 SCT010 \n BECMG 0902/0903 29008KT CAVOK"
"taf	RKSI	2020-07-08 12:00:00	TAF RKSI 081100Z 0812/0918 21006KT 1500 BR BKN005 TN20/0820Z TX29/0906Z \n BECMG 0815/0816 18005KT 0800 FG BKN001 \n BECMG 0822/0823 15005KT 3000 BR BKN005 \n BECMG 0900/0901 08006KT 5000 SCT010 \n BECMG 0902/0903 29008KT CAVOK \n BECMG 0916/0917 12008KT"
"taf	RKSI	2020-07-08 12:06:00	TAF RKSI 081100Z 0812/0918 21006KT 1500 BR BKN005 TN20/0820Z TX29/0906Z \n BECMG 0815/0816 18005KT 0800 FG BKN001 \n BECMG 0822/0823 15005KT 3000 BR BKN005 \n BECMG 0900/0901 08006KT 5000 SCT010 \n BECMG 0902/0903 29008KT CAVOK \n BECMG 0916/0917 12008KT"
"taf	RKSI	2020-07-08 15:20:00	TAF \n AMD RKSI 081520Z 0815/0918 21006KT 1800 BR BKN005 TN20/0820Z TX29/0906Z \n BECMG 0817/0818 18005KT 0800 FG BKN001 \n BECMG 0822/0823 15005KT 3000 BR BKN005 \n BECMG 0900/0901 08006KT 5000 SCT010 \n BECMG 0902/0903 29008KT CAVOK \n BECMG 0916/0917 12008KT"
"taf	RKSI	2020-07-08 15:24:00	TAF \n AMD TAF \n AMD RKSI 081520Z 0815/0918 21006KT 1800 BR BKN005 TN20/0820Z TX29/0906Z \n BECMG 0817/0818 18005KT 0800 FG BKN001 \n BECMG 0822/0823 15005KT 3000 BR BKN005 \n BECMG 0900/0901 08006KT 5000 SCT010 \n BECMG 0902/0903 29008KT CAVOK \n BECMG 0916/0917 12008KT"
"taf	RKSI	2020-07-08 18:00:00	TAF RKSI 081700Z 0818/0924 18005KT 1200 BR BKN005 TN20/0820Z TX29/0906Z TN22/0921Z \n BECMG 0822/0823 15005KT 3000 \n BECMG 0900/0901 08006KT 5000 SCT010 \n BECMG 0902/0903 29008KT CAVOK \n BECMG 0916/0917 12008KT \n BECMG 0921/0922 03010KT 9999 SCT030 BKN160"
"taf	RKSI	2020-07-08 18:06:00	TAF RKSI 081700Z 0818/0924 18005KT 1200 BR BKN005 TN20/0820Z TX29/0906Z TN22/0921Z \n BECMG 0822/0823 15005KT 3000 \n BECMG 0900/0901 08006KT 5000 SCT010 \n BECMG 0902/0903 29008KT CAVOK \n BECMG 0916/0917 12008KT \n BECMG 0921/0922 03010KT 9999 SCT030 BKN160"
"taf	RKSI	2020-07-08 20:05:00	TAF \n AMD RKSI 082005Z 0820/0924 18005KT 2500 BR BKN005 TN20/0820Z TX29/0906Z TN22/0921Z \n BECMG 0822/0823 15005KT 3000 \n BECMG 0900/0901 08006KT 5000 SCT010 \n BECMG 0902/0903 29008KT CAVOK \n BECMG 0916/0917 12008KT \n BECMG 0921/0922 03010KT 9999 SCT030 BKN160"
"taf	RKSI	2020-07-08 20:06:00	TAF \n AMD TAF \n AMD RKSI 082005Z 0820/0924 18005KT 2500 BR BKN005 TN20/0820Z TX29/0906Z TN22/0921Z \n BECMG 0822/0823 15005KT 3000 \n BECMG 0900/0901 08006KT 5000 SCT010 \n BECMG 0902/0903 29008KT CAVOK \n BECMG 0916/0917 12008KT \n BECMG 0921/0922 03010KT 9999 SCT030 BKN160"
"taf	RKSI	2020-07-09 00:00:00	TAF RKSI 092300Z 1000/1106 03012KT 6000 -RA FEW010 BKN025 OVC080 TX27/1006Z TN21/1021Z TX29/1106Z \n BECMG 1002/1003 01015G25KT 3000 RA \n BECMG 1007/1008 5000 -RA \n BECMG 1011/1012 01012KT 7000 NSW \n BECMG 1018/1019 SCT030 \n BECMG 1103/1104 30006KT"
"taf	RKSI	2020-07-09 00:06:00	TAF RKSI 092300Z 1000/1106 03012KT 6000 -RA FEW010 BKN025 OVC080 TX27/1006Z TN21/1021Z TX29/1106Z \n BECMG 1002/1003 01015G25KT 3000 RA \n BECMG 1007/1008 5000 -RA \n BECMG 1011/1012 01012KT 7000 NSW \n BECMG 1018/1019 SCT030 \n BECMG 1103/1104 30006KT"
"taf	RKSI	2020-07-09 01:15:00	TAF \n AMD RKSI 090115Z 0901/1006 08006KT 3500 BR SCT010 BKN030 TX29/0906Z TN22/0921Z TX28/1006Z \n BECMG 0902/0903 29008KT CAVOK \n BECMG 0916/0917 12008KT \n BECMG 0921/0922 03010KT 9999 SCT030 BKN160 \n BECMG 1001/1002 6000 -RA FEW010 BKN025 OVC100"
"taf	RKSI	2020-07-09 01:18:00	TAF \n AMD TAF \n AMD RKSI 090115Z 0901/1006 08006KT 3500 BR SCT010 BKN030 TX29/0906Z TN22/0921Z TX28/1006Z \n BECMG 0902/0903 29008KT CAVOK \n BECMG 0916/0917 12008KT \n BECMG 0921/0922 03010KT 9999 SCT030 BKN160 \n BECMG 1001/1002 6000 -RA FEW010 BKN025 OVC100"
"taf	RKSI	2020-07-09 03:44:00	TAF \n AMD RKSI 090244Z 0903/1006 29010KT 4000 BR SCT030 TX29/0906Z TN22/0921Z TX28/1006Z \n BECMG 0905/0906 6000 NSW NSC \n BECMG 0916/0917 12008KT \n BECMG 0921/0922 03010KT \n BECMG 1001/1002 4000 -RA FEW010 BKN025 OVC100"
"taf	RKSI	2020-07-09 03:48:00	TAF \n AMD RKSI 090244Z 0903/1006 29010KT 4000 BR SCT030 TX29/0906Z TN22/0921Z TX28/1006Z \n BECMG 0905/0906 6000 NSC \n BECMG 0916/0917 12008KT \n BECMG 0921/0922 03010KT \n BECMG 1001/1002 4000 -RA FEW010 BKN025 OVC100"
"taf	RKSI	2020-07-09 06:00:00	TAF RKSI 090500Z 0906/1012 30010KT 6000 SCT030 TN22/0921Z TX28/1006Z \n BECMG 0914/0915 10006KT \n BECMG 1000/1001 03012KT 4000 -RA FEW010 BKN025 OVC080 \n BECMG 1006/1007 6000 NSW SCT030 BKN120"
"taf	RKSI	2020-07-09 06:09:00	TAF RKSI 090500Z 0906/1012 30010KT 6000 SCT030 TN22/0921Z TX28/1006Z \n BECMG 0914/0915 10006KT \n BECMG 1000/1001 03012KT 4000 -RA FEW010 BKN025 OVC080 \n BECMG 1006/1007 6000 NSW SCT030 BKN120"
"taf	RKSI	2020-07-09 12:00:00	TAF RKSI 091100Z 0912/1018 30010KT 6000 NSC TN22/0921Z TX25/1006Z \n BECMG 0914/0915 10006KT \n BECMG 1000/1001 03012KT 4000 -RA FEW010 BKN025 OVC080 \n BECMG 1007/1008 BR \n BECMG 1014/1015 6000 NSW SCT030"
"taf	RKSI	2020-07-09 12:06:00	TAF RKSI 091100Z 0912/1018 30010KT 6000 NSC TN22/0921Z TX25/1006Z \n BECMG 0914/0915 10006KT \n BECMG 1000/1001 03012KT 4000 -RA FEW010 BKN025 OVC080 \n BECMG 1007/1008 BR \n BECMG 1014/1015 6000 NSW SCT030"
"taf	RKSI	2020-07-09 18:00:00	TAF RKSI 091700Z 0918/1024 10006KT 6000 NSC TN22/0921Z TX28/1006Z TN21/1021Z \n BECMG 0920/0921 03012KT BKN030 BKN120 \n BECMG 0923/0924 -RA SCT010 BKN025 OVC080 \n BECMG 1001/1002 4000 \n BECMG 1007/1008 6000 NSW BKN040 BKN100 \n BECMG 1014/1015 SCT030"
"taf	RKSI	2020-07-09 18:09:00	TAF RKSI 091700Z 0918/1024 10006KT 6000 NSC TN22/0921Z TX28/1006Z TN21/1021Z \n BECMG 0920/0921 03012KT BKN030 BKN120 \n BECMG 0923/0924 -RA SCT010 BKN025 OVC080 \n BECMG 1001/1002 4000 \n BECMG 1007/1008 6000 NSW BKN040 BKN100 \n BECMG 1014/1015 SCT030"
"taf	RKSI	2020-07-09 20:29:00	TAF \n AMD RKSI 092029Z 0920/1024 03012KT 6000 BKN030 BKN120 TN22/0921Z TX28/1006Z TN21/1021Z \n TEMPO 0920/0921 -RA \n BECMG 0922/0923 -RA SCT010 BKN025 OVC080 \n BECMG 1001/1002 4000 \n BECMG 1007/1008 6000 NSW BKN040 BKN100 \n BECMG 1014/1015 SCT030"
"taf	RKSI	2020-07-09 20:30:00	TAF \n AMD TAF \n AMD RKSI 092029Z 0920/1024 03012KT 6000 BKN030 BKN120 TN22/0921Z TX28/1006Z TN21/1021Z \n TEMPO 0920/0921 -RA \n BECMG 0922/0923 -RA SCT010 BKN025 OVC080 \n BECMG 1001/1002 4000 \n BECMG 1007/1008 6000 NSW BKN040 BKN100 \n BECMG 1014/1015 SCT030"
"taf	RKSI	2020-07-10 00:00:00	TAF RKSI 102300Z 1100/1206 05010KT CAVOK TX29/1106Z TN21/1121Z TX28/1206Z \n BECMG 1103/1104 33007KT \n BECMG 1108/1109 06010KT 9999 SCT030 \n BECMG 1121/1122 BKN040 BKN160 \n BECMG 1200/1201 15007KT"
"taf	RKSI	2020-07-10 00:06:00	TAF RKSI 102300Z 1100/1206 05010KT CAVOK TX29/1106Z TN21/1121Z TX28/1206Z \n BECMG 1103/1104 33007KT \n BECMG 1108/1109 06010KT 9999 SCT030 \n BECMG 1121/1122 BKN040 BKN160 \n BECMG 1200/1201 15007KT"
"taf	RKSI	2020-07-10 02:10:00	TAF \n AMD RKSI 100210Z 1002/1106 03012KT 6000 -RA FEW010 BKN025 OVC080 TX27/1006Z TN21/1021Z TX29/1106Z \n TEMPO 1002/1006 01015G25KT 3000 RA \n BECMG 1011/1012 01012KT NSW \n BECMG 1018/1019 SCT030 \n BECMG 1103/1104 30006KT"
"taf	RKSI	2020-07-10 02:12:00	TAF \n AMD TAF \n AMD RKSI 100210Z 1002/1106 03012KT 6000 -RA FEW010 BKN025 OVC080 TX27/1006Z TN21/1021Z TX29/1106Z \n TEMPO 1002/1006 01015G25KT 3000 RA \n BECMG 1011/1012 01012KT NSW \n BECMG 1018/1019 SCT030 \n BECMG 1103/1104 30006KT"
"taf	RKSI	2020-07-10 06:00:00	TAF RKSI 100500Z 1006/1112 02015G25KT 7000 FEW010 BKN030 OVC100 TN21/1021Z TX29/1106Z \n TEMPO 1006/1012 -RA \n BECMG 1013/1014 SCT030 \n BECMG 1023/1024 03010KT \n BECMG 1103/1104 33005KT \n BECMG 1109/1110 03010KT"
"taf	RKSI	2020-07-10 06:09:00	TAF TAF RKSI 100500Z 1006/1112 02015G25KT 7000 FEW010 BKN030 OVC100 TN21/1021Z TX29/1106Z \n TEMPO 1006/1012 -RA \n BECMG 1013/1014 SCT030 \n BECMG 1023/1024 03010KT \n BECMG 1103/1104 33005KT \n BECMG 1109/1110 03010KT"
"taf	RKSI	2020-07-10 06:50:00	TAF \n AMD RKSI 100550Z 1006/1112 03015G25KT 9999 FEW010 BKN030 OVC100 TN21/1021Z TX29/1106Z \n TEMPO 1009/1012 -RA \n BECMG 1015/1016 SCT030 \n BECMG 1023/1024 03010KT \n BECMG 1103/1104 33005KT \n BECMG 1109/1110 03010KT"
"taf	RKSI	2020-07-10 06:51:00	TAF \n AMD TAF \n AMD RKSI 100550Z 1006/1112 03015G25KT 9999 FEW010 BKN030 OVC100 TN21/1021Z TX29/1106Z \n TEMPO 1009/1012 -RA \n BECMG 1015/1016 SCT030 \n BECMG 1023/1024 03010KT \n BECMG 1103/1104 33005KT \n BECMG 1109/1110 03010KT"
"taf	RKSI	2020-07-10 08:01:00	TAF \n AMD RKSI 100801Z 1008/1112 03015G25KT 9999 FEW030 SCT180 TN21/1021Z TX29/1106Z \n BECMG 1023/1024 03010KT \n BECMG 1103/1104 33005KT \n BECMG 1109/1110 03010KT"
"taf	RKSI	2020-07-10 08:03:00	TAF \n AMD TAF \n AMD RKSI 100801Z 1008/1112 03015G25KT 9999 FEW030 SCT180 TN21/1021Z TX29/1106Z \n BECMG 1023/1024 03010KT \n BECMG 1103/1104 33005KT \n BECMG 1109/1110 03010KT"
"taf	RKSI	2020-07-10 12:00:00	TAF RKSI 101100Z 1012/1118 03015G25KT 9999 FEW030 SCT100 TN21/1021Z TX29/1106Z \n BECMG 1023/1024 03010KT \n BECMG 1103/1104 33005KT \n BECMG 1109/1110 03010KT"
"taf	RKSI	2020-07-10 12:06:00	TAF RKSI 101100Z 1012/1118 03015G25KT 9999 FEW030 SCT100 TN21/1021Z TX29/1106Z \n BECMG 1023/1024 03010KT \n BECMG 1103/1104 33005KT \n BECMG 1109/1110 03010KT"
"taf	RKSI	2020-07-10 18:00:00	TAF RKSI 101700Z 1018/1124 02010KT CAVOK TN21/1021Z TX29/1106Z TN21/1121Z \n BECMG 1103/1104 32006KT 9999 SCT030 \n BECMG 1109/1110 06010KT"
"taf	RKSI	2020-07-10 18:06:00	TAF RKSI 101700Z 1018/1124 02010KT CAVOK TN21/1021Z TX29/1106Z TN21/1121Z \n BECMG 1103/1104 32006KT 9999 SCT030 \n BECMG 1109/1110 06010KT"
"taf	RKSI	2020-07-11 00:00:00	TAF RKSI 112300Z 1200/1306 11006KT 9999 BKN030 OVC100 TX27/1204Z TN20/1220Z TX24/1305Z \n BECMG 1202/1203 17010KT \n BECMG 1211/1212 13015G25KT 4000 -RA SCT010 BKN025 OVC080 \n BECMG 1219/1220 08015G25KT 2500 RA BKN010 BKN025 OVC080 \n BECMG 1300/1301 4000 -RA"
"taf	RKSI	2020-07-11 00:06:00	TAF RKSI 112300Z 1200/1306 11006KT 9999 BKN030 OVC100 TX27/1204Z TN20/1220Z TX24/1305Z \n BECMG 1202/1203 17010KT \n BECMG 1211/1212 13015G25KT 4000 -RA SCT010 BKN025 OVC080 \n BECMG 1219/1220 08015G25KT 2500 RA BKN010 BKN025 OVC080 \n BECMG 1300/1301 4000 -RA"
"taf	RKSI	2020-07-11 06:00:00	TAF RKSI 110500Z 1106/1212 02008KT 9999 SCT030 BKN180 TN21/1120Z TX27/1204Z \n BECMG 1111/1112 12007KT \n BECMG 1120/1121 BKN030 OVC100 \n BECMG 1202/1203 18010KT"
"taf	RKSI	2020-07-11 06:06:00	TAF RKSI 110500Z 1106/1212 02008KT 9999 SCT030 BKN180 TN21/1120Z TX27/1204Z \n BECMG 1111/1112 12007KT \n BECMG 1120/1121 BKN030 OVC100 \n BECMG 1202/1203 18010KT"
"taf	RKSI	2020-07-11 12:00:00	TAF RKSI 111100Z 1112/1218 04005KT 9999 SCT030 BKN180 TN21/1120Z TX27/1204Z \n BECMG 1117/1118 11006KT \n BECMG 1122/1123 17010KT BKN030 OVC100 \n BECMG 1215/1216 13015G25KT 6000 -RA SCT010 BKN025 OVC080"
"taf	RKSI	2020-07-11 12:06:00	TAF RKSI 111100Z 1112/1218 04005KT 9999 SCT030 BKN180 TN21/1120Z TX27/1204Z \n BECMG 1117/1118 11006KT \n BECMG 1122/1123 17010KT BKN030 OVC100 \n BECMG 1215/1216 13015G25KT 6000 -RA SCT010 BKN025 OVC080"
"taf	RKSI	2020-07-11 18:00:00	TAF RKSI 111700Z 1118/1224 04007KT 9999 SCT030 BKN180 TN21/1120Z TX27/1204Z TN20/1220Z \n BECMG 1121/1122 11006KT \n BECMG 1200/1201 17010KT BKN030 OVC100 \n BECMG 1215/1216 13015G25KT 6000 -RA SCT010 BKN025 OVC080 \n BECMG 1221/1222 4000"
"taf	RKSI	2020-07-11 18:09:00	TAF RKSI 111700Z 1118/1224 04007KT 9999 SCT030 BKN180 TN21/1120Z TX27/1204Z TN20/1220Z \n BECMG 1121/1122 11006KT \n BECMG 1200/1201 17010KT BKN030 OVC100 \n BECMG 1215/1216 13015G25KT 6000 -RA SCT010 BKN025 OVC080 \n BECMG 1221/1222 4000"
"taf	RKSI	2020-07-12 00:00:00	TAF RKSI 122300Z 1300/1406 08015G25KT 4000 -RA BKN010 BKN025 OVC080 TX22/1305Z TN18/1320Z TX24/1405Z \n BECMG 1314/1315 02015G25KT 2500 RA \n BECMG 1318/1319 4000 -RA SCT010 BKN025 OVC100 \n BECMG 1320/1321 02012KT 6000 NSW"
"taf	RKSI	2020-07-12 00:06:00	TAF RKSI 122300Z 1300/1406 08015G25KT 4000 -RA BKN010 BKN025 OVC080 TX22/1305Z TN18/1320Z TX24/1405Z \n BECMG 1314/1315 02015G25KT 2500 RA \n BECMG 1318/1319 4000 -RA SCT010 BKN025 OVC100 \n BECMG 1320/1321 02012KT 6000 NSW"
"taf	RKSI	2020-07-12 03:30:00	TAF \n AMD RKSI 120230Z 1203/1306 18006KT 9999 BKN030 OVC100 TX27/1204Z TN20/1220Z TX24/1305Z \n BECMG 1206/1207 6000 -RA SCT010 BKN025 OVC080 \n BECMG 1211/1212 13015G25KT 4000 \n BECMG 1219/1220 08015G25KT 2500 RA BKN010 BKN025 OVC080 \n BECMG 1300/1301 4000 -RA"
"taf	RKSI	2020-07-12 03:33:00	TAF \n AMD TAF \n AMD RKSI 120230Z 1203/1306 18006KT 9999 BKN030 OVC100 TX27/1204Z TN20/1220Z TX24/1305Z \n BECMG 1206/1207 6000 -RA SCT010 BKN025 OVC080 \n BECMG 1211/1212 13015G25KT 4000 \n BECMG 1219/1220 08015G25KT 2500 RA BKN010 BKN025 OVC080 \n BECMG 1300/1301 4000 -RA"
"taf	RKSI	2020-07-12 06:00:00	TAF \n AMD TAF \n AMD RKSI 120600Z 1206/1312 13006KT 7000 -RA BKN030 OVC100 TN19/1221Z TX24/1307Z \n BECMG 1207/1208 16010KT 4000 SCT010 BKN025 OVC080 \n BECMG 1215/1216 13015G25KT \n BECMG 1219/1220 10020G35KT 2500 RA BKN010 BKN025 OVC070 \n BECMG 1302/1303 13020G35KT 4000 -RA SCT010 BKN025 OVC080 \n BECMG 1308/1309 13015G25KT"
"taf	RKSI	2020-07-12 06:09:00	TAF RKSI 120500Z 1206/1312 13006KT 7000 BKN030 OVC100 TN19/1221Z TX24/1307Z \n FM120630 16010KT 4000 -RA SCT010 BKN025 OVC080 \n BECMG 1215/1216 13015G25KT \n BECMG 1219/1220 10020G35KT 2500 RA BKN010 BKN025 OVC070 \n BECMG 1302/1303 13020G35KT 4000 -RA SCT010 BKN025 OVC080 \n BECMG 1308/1309 13015G25KT"
"taf	RKSI	2020-07-12 12:00:00	TAF RKSI 121100Z 1212/1318 12010KT 7000 -RA SCT010 BKN025 OVC080 TN19/1220Z TX24/1307Z \n BECMG 1215/1216 13015G25KT 4000 \n BECMG 1218/1219 09020G35KT 2500 RA BKN010 BKN025 OVC070 \n BECMG 1301/1302 4000 -RA SCT010 BKN025 OVC080 \n BECMG 1308/1309 09015G25KT"
"taf	RKSI	2020-07-12 12:06:00	TAF RKSI 121100Z 1212/1318 12010KT 7000 -RA SCT010 BKN025 OVC080 TN19/1220Z TX24/1307Z \n BECMG 1215/1216 13015G25KT 4000 \n BECMG 1218/1219 09020G35KT 2500 RA BKN010 BKN025 OVC070 \n BECMG 1301/1302 4000 -RA SCT010 BKN025 OVC080 \n BECMG 1308/1309 09015G25KT"
"taf	RKSI	2020-07-12 18:00:00	TAF \n AMD RKSI 121733Z 1218/1324 09015G25KT 4000 -RA SCT010 BKN025 OVC080 TN20/1220Z TX24/1307Z TN20/1320Z \n BECMG 1220/1221 09020G35KT 2500 RA BKN010 BKN025 OVC070 \n BECMG 1302/1303 09015G25KT 4000 -RA SCT010 BKN025 OVC080 \n BECMG 1314/1315 02015G25KT 2500 RA \n BECMG 1318/1319 -RA \n BECMG 1320/1321 02012KT 6000 NSW"
"taf	RKSI	2020-07-12 18:06:00	TAF RKSI 121700Z 1218/1324 09015G25KT 6000 -RA SCT010 BKN025 OVC080 TN20/1220Z TX24/1307Z TN20/1320Z \n BECMG 1220/1221 09020G35KT 2500 RA BKN010 BKN025 OVC070 \n BECMG 1302/1303 09015G25KT 4000 -RA SCT010 BKN025 OVC080 \n BECMG 1314/1315 02015G25KT 2500 RA \n BECMG 1318/1319 -RA \n BECMG 1320/1321 02012KT 6000 NSW"
"taf	RKSI	2020-07-12 18:33:00	TAF \n AMD RKSI 121733Z 1218/1324 09015G25KT 4000 -RA SCT010 BKN025 OVC080 TN20/1220Z TX24/1307Z TN20/1320Z \n BECMG 1220/1221 09020G35KT 2500 RA BKN010 BKN025 OVC070 \n BECMG 1302/1303 09015G25KT 4000 -RA SCT010 BKN025 OVC080 \n BECMG 1314/1315 02015G25KT 2500 RA \n BECMG 1318/1319 -RA \n BECMG 1320/1321 02012KT 6000 NSW"
"taf	RKSI	2020-07-12 18:36:00	TAF \n AMD RKSI 121733Z 1218/1324 09015G25KT 4000 -RA SCT010 BKN025 OVC080 TN20/1220Z TX24/1307Z TN20/1320Z \n BECMG 1220/1221 09020G35KT 2500 RA BKN010 BKN025 OVC070 \n BECMG 1302/1303 09015G25KT 4000 -RA SCT010 BKN025 OVC080 \n BECMG 1314/1315 02015G25KT 2500 RA \n BECMG 1318/1319 -RA \n BECMG 1320/1321 02012KT 6000 NSW"
"taf	RKSI	2020-07-12 21:15:00	TAF \n AMD RKSI 122115Z 1221/1324 08015G25KT 4000 -RA BKN010 BKN025 OVC080 TN20/1220Z TX24/1307Z TN20/1320Z \n TEMPO 1222/1301 2500 RA \n BECMG 1302/1303 SCT010 BKN025 OVC080 \n BECMG 1314/1315 02015G25KT 2500 RA \n BECMG 1318/1319 -RA \n BECMG 1320/1321 02012KT 6000 NSW"
"taf	RKSI	2020-07-12 21:18:00	TAF \n AMD TAF \n AMD RKSI 122115Z 1221/1324 08015G25KT 4000 -RA BKN010 BKN025 OVC080 TN20/1220Z TX24/1307Z TN20/1320Z \n TEMPO 1222/1301 2500 RA \n BECMG 1302/1303 SCT010 BKN025 OVC080 \n BECMG 1314/1315 02015G25KT 2500 RA \n BECMG 1318/1319 -RA \n BECMG 1320/1321 02012KT 6000 NSW"
"taf	RKSI	2020-07-13 06:00:00	TAF RKSI 130500Z 1306/1412 08015G25KT 5000 -RA SCT010 BKN025 OVC080 TN18/1320Z TX24/1405Z \n BECMG 1314/1315 02015G25KT 2500 RA \n BECMG 1318/1319 4000 -RA \n BECMG 1320/1321 02012KT 6000 NSW \n BECMG 1406/1407 SCT030 BKN120"
"taf	RKSI	2020-07-13 06:09:00	TAF RKSI 130500Z 1306/1412 08015G25KT 5000 -RA SCT010 BKN025 OVC080 TN18/1320Z TX24/1405Z \n BECMG 1314/1315 02015G25KT 2500 RA \n BECMG 1318/1319 4000 -RA \n BECMG 1320/1321 02012KT 6000 NSW \n BECMG 1406/1407 SCT030 BKN120"
"taf	RKSI	2020-07-13 09:38:00	TAF \n AMD RKSI 130838Z 1309/1412 08012KT 3500 -RA SCT006 BKN025 OVC080 TN18/1320Z TX24/1405Z \n BECMG 1314/1315 02015G25KT 2500 RA \n BECMG 1318/1319 4000 -RA \n BECMG 1320/1321 02012KT 6000 NSW \n BECMG 1406/1407 SCT030 BKN120"
"taf	RKSI	2020-07-13 09:39:00	TAF \n AMD TAF \n AMD RKSI 130838Z 1309/1412 08012KT 3500 -RA SCT006 BKN025 OVC080 TN18/1320Z TX24/1405Z \n BECMG 1314/1315 02015G25KT 2500 RA \n BECMG 1318/1319 4000 -RA \n BECMG 1320/1321 02012KT 6000 NSW \n BECMG 1406/1407 SCT030 BKN120"
"taf	RKSI	2020-07-13 12:00:00	TAF RKSI 131100Z 1312/1418 08015G25KT 4000 -RA SCT006 BKN025 OVC080 TN18/1320Z TX24/1405Z \n BECMG 1314/1315 02015G25KT 2500 RA \n BECMG 1318/1319 4000 -RA \n BECMG 1320/1321 02012KT 6000 NSW \n BECMG 1406/1407 SCT030 BKN120"
"taf	RKSI	2020-07-13 12:09:00	TAF RKSI 131100Z 1312/1418 08015G25KT 4000 -RA SCT006 BKN025 OVC080 TN18/1320Z TX24/1405Z \n BECMG 1314/1315 02015G25KT 2500 RA \n BECMG 1318/1319 4000 -RA \n BECMG 1320/1321 02012KT 6000 NSW \n BECMG 1406/1407 SCT030 BKN120"
"taf	RKSI	2020-07-13 14:30:00	TAF \n AMD RKSI 131430Z 1314/1418 08015G25KT 4000 -TSRA SCT006CB BKN025 OVC080 TN18/1320Z TX24/1405Z \n BECMG 1315/1316 02015G25KT 2500 RA \n BECMG 1318/1319 4000 -RA \n BECMG 1320/1321 02012KT 6000 NSW \n BECMG 1406/1407 SCT030 BKN120"
"taf	RKSI	2020-07-13 18:00:00	TAF RKSI 131700Z 1318/1424 03015G25KT 5000 -RA SCT010 BKN025 OVC080 TN18/1321Z TX24/1406Z TN18/1421Z \n BECMG 1320/1321 03012KT 8000 NSW BKN030 BKN100 \n BECMG 1406/1407 SCT030 BKN120"
"taf	RKSI	2020-07-13 18:06:00	TAF RKSI 131700Z 1318/1424 03015G25KT 5000 -RA SCT010 BKN025 OVC080 TN18/1321Z TX24/1406Z TN18/1421Z \n BECMG 1320/1321 03012KT 8000 NSW BKN030 BKN100 \n BECMG 1406/1407 SCT030 BKN120"
"taf	RKSI	2020-07-14 00:00:00	TAF RKSI 142300Z 1500/1606 05005KT 9999 FEW030 BKN120 TX27/1506Z TN20/1518Z TX28/1605Z \n BECMG 1502/1503 18005KT CAVOK \n BECMG 1506/1507 26010KT \n BECMG 1518/1519 32005KT 9999 SCT030 \n BECMG 1602/1603 26010KT"
"taf	RKSI	2020-07-14 00:06:00	TAF RKSI 142300Z 1500/1606 05005KT 9999 FEW030 BKN120 TX27/1506Z TN20/1518Z TX28/1605Z \n BECMG 1502/1503 18005KT CAVOK \n BECMG 1506/1507 26010KT \n BECMG 1518/1519 32005KT 9999 SCT030 \n BECMG 1602/1603 26010KT"
"taf	RKSI	2020-07-14 06:00:00	TAF RKSI 140500Z 1406/1512 03010KT 9999 BKN040 BKN100 TN18/1421Z TX27/1506Z \n BECMG 1413/1414 SCT040 BKN120 \n BECMG 1502/1503 25008KT CAVOK"
"taf	RKSI	2020-07-14 06:09:00	TAF RKSI 140500Z 1406/1512 03010KT 9999 BKN040 BKN100 TN18/1421Z TX27/1506Z \n BECMG 1413/1414 SCT040 BKN120 \n BECMG 1502/1503 25008KT CAVOK"
"taf	RKSI	2020-07-14 12:00:00	TAF RKSI 141100Z 1412/1518 02008KT 9999 SCT040 BKN120 TN18/1421Z TX27/1506Z \n BECMG 1502/1503 25010KT CAVOK"
"taf	RKSI	2020-07-14 12:06:00	TAF RKSI 141100Z 1412/1518 02008KT 9999 SCT040 BKN120 TN18/1421Z TX27/1506Z \n BECMG 1502/1503 25010KT CAVOK"
"taf	RKSI	2020-07-14 16:00:00	TAF \n AMD RKSI 141500Z 1416/1518 02008KT 9999 SCT040 BKN120 TN18/1421Z TX27/1506Z \n TEMPO 1416/1419 6000 -RA BKN030 BKN100 \n BECMG 1502/1503 25010KT CAVOK"
"taf	RKSI	2020-07-14 16:03:00	TAF \n AMD TAF \n AMD RKSI 141500Z 1416/1518 02008KT 9999 SCT040 BKN120 TN18/1421Z TX27/1506Z \n TEMPO 1416/1419 6000 -RA BKN030 BKN100 \n BECMG 1502/1503 25010KT CAVOK"
"taf	RKSI	2020-07-14 18:00:00	TAF RKSI 141700Z 1418/1524 03006KT 9999 SCT030 BKN120 TN18/1420Z TX27/1506Z TN20/1521Z \n TEMPO 1418/1420 -RA BKN030 BKN100 \n BECMG 1502/1503 18005KT CAVOK \n BECMG 1506/1507 26010KT \n BECMG 1521/1522 32005KT 9999 FEW030"
"taf	RKSI	2020-07-14 18:06:00	TAF RKSI 141700Z 1418/1524 03006KT 9999 SCT030 BKN120 TN18/1420Z TX27/1506Z TN20/1521Z \n TEMPO 1418/1420 -RA BKN030 BKN100 \n BECMG 1502/1503 18005KT CAVOK \n BECMG 1506/1507 26010KT \n BECMG 1521/1522 32005KT 9999 FEW030"
"taf	RKSI	2020-07-15 00:00:00	TAF RKSI 152300Z 1600/1706 19005KT 9999 SCT040 TX28/1605Z TN21/1621Z TX28/1706Z \n BECMG 1602/1603 28010KT CAVOK \n BECMG 1612/1613 34007KT 9999 SCT030 \n BECMG 1700/1701 24006KT \n TEMPO 1705/1706 27010KT 4000 -SHRA SCT010CB BKN025 OVC080"
"taf	RKSI	2020-07-15 00:09:00	TAF TAF RKSI 152300Z 1600/1706 19005KT 9999 SCT040 TX28/1605Z TN21/1621Z TX28/1706Z \n BECMG 1602/1603 28010KT CAVOK \n BECMG 1612/1613 34007KT 9999 SCT030 \n BECMG 1700/1701 24006KT \n TEMPO 1705/1706 27010KT 4000 -SHRA SCT010CB BKN025 OVC080"
"taf	RKSI	2020-07-15 06:00:00	TAF RKSI 150500Z 1506/1612 26010KT CAVOK TN20/1521Z TX28/1605Z \n BECMG 1518/1519 33005KT 9999 SCT040 \n BECMG 1602/1603 27010KT CAVOK"
"taf	RKSI	2020-07-15 06:06:00	TAF RKSI 150500Z 1506/1612 26010KT CAVOK TN20/1521Z TX28/1605Z \n BECMG 1518/1519 33005KT 9999 SCT040 \n BECMG 1602/1603 27010KT CAVOK"
"taf	RKSI	2020-07-15 12:00:00	TAF RKSI 151100Z 1512/1618 29010KT CAVOK TN20/1521Z TX28/1605Z \n BECMG 1518/1519 35005KT 9999 SCT040 \n BECMG 1523/1524 21005KT \n BECMG 1602/1603 27010KT CAVOK \n BECMG 1612/1613 33007KT"
"taf	RKSI	2020-07-15 12:09:00	TAF RKSI 151100Z 1512/1618 29010KT CAVOK TN20/1521Z TX28/1605Z \n BECMG 1518/1519 35005KT 9999 SCT040 \n BECMG 1523/1524 21005KT \n BECMG 1602/1603 27010KT CAVOK \n BECMG 1612/1613 33007KT"
"taf	RKSI	2020-07-15 18:00:00	TAF RKSI 151700Z 1518/1624 24005KT 9999 SCT040 TN20/1521Z TX28/1605Z TN21/1621Z \n BECMG 1521/1522 35005KT \n BECMG 1602/1603 27010KT CAVOK \n BECMG 1612/1613 34007KT 9999 SCT030"
"taf	RKSI	2020-07-15 18:09:00	TAF RKSI 151700Z 1518/1624 24005KT 9999 SCT040 TN20/1521Z TX28/1605Z TN21/1621Z \n BECMG 1521/1522 35005KT \n BECMG 1602/1603 27010KT CAVOK \n BECMG 1612/1613 34007KT 9999 SCT030"
"taf	RKSI	2020-07-15 21:40:00	TAF \n AMD RKSI 152040Z 1521/1624 22005KT 9999 BKN040 TN20/1521Z TX28/1605Z TN21/1621Z \n BECMG 1602/1603 28010KT CAVOK \n BECMG 1612/1613 34007KT 9999 SCT030"
"taf	RKSI	2020-07-15 21:42:00	TAF \n AMD TAF \n AMD RKSI 152040Z 1521/1624 22005KT 9999 BKN040 TN20/1521Z TX28/1605Z TN21/1621Z \n BECMG 1602/1603 28010KT CAVOK \n BECMG 1612/1613 34007KT 9999 SCT030"
"taf	RKSI	2020-07-16 00:00:00	TAF RKSI 162300Z 1700/1806 19006KT 9999 SCT030 TX28/1706Z TN21/1721Z TX28/1806Z \n BECMG 1702/1703 27010KT \n BECMG 1715/1716 21006KT \n BECMG 1721/1722 06006KT \n BECMG 1723/1724 17005KT CAVOK \n BECMG 1804/1805 26006KT"
"taf	RKSI	2020-07-16 00:06:00	TAF RKSI 162300Z 1700/1806 19006KT 9999 SCT030 TX28/1706Z TN21/1721Z TX28/1806Z \n BECMG 1702/1703 27010KT \n BECMG 1715/1716 21006KT \n BECMG 1721/1722 06006KT \n BECMG 1723/1724 17005KT CAVOK \n BECMG 1804/1805 26006KT"
"taf	RKSI	2020-07-16 06:00:00	TAF RKSI 160500Z 1606/1712 28010KT CAVOK TN21/1621Z TX28/1706Z \n BECMG 1613/1614 34006KT 9999 SCT030 \n BECMG 1700/1701 24006KT \n TEMPO 1705/1709 27010KT 4000 -SHRA SCT010CB BKN025 OVC080 \n BECMG 1710/1711 30006KT 5000 BR"
"taf	RKSI	2020-07-16 06:09:00	TAF RKSI 160500Z 1606/1712 28010KT CAVOK TN21/1621Z TX28/1706Z \n BECMG 1613/1614 34006KT 9999 SCT030 \n BECMG 1700/1701 24006KT \n TEMPO 1705/1709 27010KT 4000 -SHRA SCT010CB BKN025 OVC080 \n BECMG 1710/1711 30006KT 5000 BR"
"taf	RKSI	2020-07-16 12:00:00	TAF RKSI 161100Z 1612/1718 30010KT CAVOK TN21/1621Z TX28/1706Z \n BECMG 1613/1614 36006KT 9999 SCT030 \n BECMG 1700/1701 24006KT \n TEMPO 1705/1709 27010KT 4000 -SHRA SCT010CB BKN025 OVC080 \n BECMG 1715/1716 30006KT 5000 BR"
"taf	RKSI	2020-07-16 12:09:00	TAF RKSI 161100Z 1612/1718 30010KT CAVOK TN21/1621Z TX28/1706Z \n BECMG 1613/1614 36006KT 9999 SCT030 \n BECMG 1700/1701 24006KT \n TEMPO 1705/1709 27010KT 4000 -SHRA SCT010CB BKN025 OVC080 \n BECMG 1715/1716 30006KT 5000 BR"
"taf	RKSI	2020-07-16 18:00:00	TAF RKSI 161700Z 1618/1724 33007KT 9999 SCT030 TN21/1621Z TX28/1706Z TN21/1721Z \n BECMG 1700/1701 23006KT \n TEMPO 1705/1709 27011KT 4000 -SHRA SCT010CB BKN025 OVC080 \n BECMG 1715/1716 29006KT 4000 BR SCT010 \n BECMG 1721/1722 06006KT 6000 NSW SCT030 \n BECMG 1723/1724 17005KT"
"taf	RKSI	2020-07-16 18:06:00	TAF RKSI 161700Z 1618/1724 33007KT 9999 SCT030 TN21/1621Z TX28/1706Z TN21/1721Z \n BECMG 1700/1701 23006KT \n TEMPO 1705/1709 27011KT 4000 -SHRA SCT010CB BKN025 OVC080 \n BECMG 1715/1716 29006KT 4000 BR SCT010 \n BECMG 1721/1722 06006KT 6000 NSW SCT030 \n BECMG 1723/1724 17005KT"
"taf	RKSI	2020-07-17 00:00:00	TAF RKSI 172300Z 1800/1906 20007KT CAVOK TX28/1806Z TN21/1821Z TX27/1906Z \n BECMG 1804/1805 26010KT \n BECMG 1811/1812 36006KT \n BECMG 1815/1816 14010KT 9999 BKN040 OVC100 \n BECMG 1818/1819 15015G25KT 5000 -RA SCT010 BKN025 OVC070 \n TEMPO 1823/1904 3000 TSRA SCT010CB BKN025 OVC070"
"taf	RKSI	2020-07-17 00:06:00	TAF RKSI 172300Z 1800/1906 20007KT CAVOK TX28/1806Z TN21/1821Z TX27/1906Z \n BECMG 1804/1805 26010KT \n BECMG 1811/1812 36006KT \n BECMG 1815/1816 14010KT 9999 BKN040 OVC100 \n BECMG 1818/1819 15015G25KT 5000 -RA SCT010 BKN025 OVC070 \n TEMPO 1823/1904 3000 TSRA SCT010CB BKN025 OVC070"
"taf	RKSI	2020-07-17 06:00:00	TAF RKSI 170500Z 1706/1812 27010KT CAVOK TN21/1721Z TX28/1806Z \n BECMG 1715/1716 21005KT \n BECMG 1718/1719 06006KT \n BECMG 1800/1801 18006KT \n BECMG 1804/1805 26006KT"
"taf	RKSI	2020-07-17 06:06:00	TAF RKSI 170500Z 1706/1812 27010KT CAVOK TN21/1721Z TX28/1806Z \n BECMG 1715/1716 21005KT \n BECMG 1718/1719 06006KT \n BECMG 1800/1801 18006KT \n BECMG 1804/1805 26006KT"
"taf	RKSI	2020-07-17 12:00:00	TAF RKSI 171100Z 1712/1818 29010KT CAVOK TN21/1721Z TX28/1806Z \n BECMG 1715/1716 21005KT \n BECMG 1718/1719 06006KT 4000 BR SCT030 \n BECMG 1800/1801 18006KT 7000 NSW NSC \n BECMG 1804/1805 26006KT \n BECMG 1813/1814 16010KT"
"taf	RKSI	2020-07-17 12:06:00	TAF RKSI 171100Z 1712/1818 29010KT CAVOK TN21/1721Z TX28/1806Z \n BECMG 1715/1716 21005KT \n BECMG 1718/1719 06006KT 4000 BR SCT030 \n BECMG 1800/1801 18006KT 7000 NSW NSC \n BECMG 1804/1805 26006KT \n BECMG 1813/1814 16010KT"
"taf	RKSI	2020-07-17 18:00:00	TAF RKSI 171700Z 1718/1824 16007KT CAVOK TN21/1721Z TX28/1806Z TN21/1821Z \n BECMG 1804/1805 26010KT \n BECMG 1809/1810 33005KT \n BECMG 1813/1814 07006KT \n BECMG 1817/1818 14012KT 9999 BKN040 OVC100 \n BECMG 1820/1821 15015G25KT 5000 -RA SCT010 BKN025 OVC070"
"taf	RKSI	2020-07-17 18:09:00	TAF RKSI 171700Z 1718/1824 16007KT CAVOK TN21/1721Z TX28/1806Z TN21/1821Z \n BECMG 1804/1805 26010KT \n BECMG 1809/1810 33005KT \n BECMG 1813/1814 07006KT \n BECMG 1817/1818 14012KT 9999 BKN040 OVC100 \n BECMG 1820/1821 15015G25KT 5000 -RA SCT010 BKN025 OVC070"
"taf	RKSI	2020-07-18 00:00:00	TAF RKSI 182300Z 1900/2006 15015G25KT 4000 -RA SCT010 BKN025 OVC070 TX26/1906Z TN22/1921Z TX26/2006Z \n TEMPO 1906/1910 2500 TSRA SCT010CB BKN025 OVC070 \n BECMG 1912/1913 18025G35KT \n TEMPO 1919/1923 21025G35KT 2500 TSRA SCT010CB BKN025 OVC070 \n BECMG 1923/1924 23015G25KT 5000 BR \n BECMG 2003/2004 25012KT 8000 NSW BKN030 BKN100"
"taf	RKSI	2020-07-18 00:09:00	TAF TAF RKSI 182300Z 1900/2006 15015G25KT 4000 -RA SCT010 BKN025 OVC070 TX26/1906Z TN22/1921Z TX26/2006Z \n TEMPO 1906/1910 2500 TSRA SCT010CB BKN025 OVC070 \n BECMG 1912/1913 18025G35KT \n TEMPO 1919/1923 21025G35KT 2500 TSRA SCT010CB BKN025 OVC070 \n BECMG 1923/1924 23015G25KT 5000 BR \n BECMG 2003/2004 25012KT 8000 NSW BKN030 BKN100"
"taf	RKSI	2020-07-18 06:00:00	TAF RKSI 180500Z 1806/1912 26010KT CAVOK TN21/1821Z TX27/1906Z \n BECMG 1810/1811 36005KT \n BECMG 1818/1819 14010KT 9999 BKN040 OVC100 \n BECMG 1820/1821 15015G25KT 6000 -RA SCT010 BKN025 OVC070 \n TEMPO 1906/1910 3000 TSRA SCT010CB BKN025 OVC070"
"taf	RKSI	2020-07-18 06:06:00	TAF RKSI 180500Z 1806/1912 26010KT CAVOK TN21/1821Z TX27/1906Z \n BECMG 1810/1811 36005KT \n BECMG 1818/1819 14010KT 9999 BKN040 OVC100 \n BECMG 1820/1821 15015G25KT 6000 -RA SCT010 BKN025 OVC070 \n TEMPO 1906/1910 3000 TSRA SCT010CB BKN025 OVC070"
"taf	RKSI	2020-07-18 12:00:00	TAF RKSI 181100Z 1812/1918 33006KT CAVOK TN21/1821Z TX27/1906Z \n BECMG 1818/1819 14010KT 9999 BKN040 OVC100 \n BECMG 1820/1821 15015G25KT 6000 -RA SCT010 BKN025 OVC070 \n TEMPO 1906/1910 3000 TSRA SCT010CB BKN025 OVC070 \n BECMG 1913/1914 19025G35KT"
"taf	RKSI	2020-07-18 12:09:00	TAF RKSI 181100Z 1812/1918 33006KT CAVOK TN21/1821Z TX27/1906Z \n BECMG 1818/1819 14010KT 9999 BKN040 OVC100 \n BECMG 1820/1821 15015G25KT 6000 -RA SCT010 BKN025 OVC070 \n TEMPO 1906/1910 3000 TSRA SCT010CB BKN025 OVC070 \n BECMG 1913/1914 19025G35KT"
"taf	RKSI	2020-07-18 18:00:00	TAF RKSI 181700Z 1818/1924 14010KT 6000 BKN040 OVC100 TN21/1821Z TX26/1906Z TN22/1921Z \n BECMG 1819/1820 15015G25KT -RA SCT010 BKN025 OVC070 \n TEMPO 1906/1910 2500 TSRA SCT010CB BKN025 OVC070 \n BECMG 1913/1914 18025G35KT 4000 \n BECMG 1919/1920 21015G25KT 2500 RA \n BECMG 1922/1923 5000 -RA"
"taf	RKSI	2020-07-18 18:09:00	TAF RKSI 181700Z 1818/1924 14010KT 6000 BKN040 OVC100 TN21/1821Z TX26/1906Z TN22/1921Z \n BECMG 1819/1820 15015G25KT -RA SCT010 BKN025 OVC070 \n TEMPO 1906/1910 2500 TSRA SCT010CB BKN025 OVC070 \n BECMG 1913/1914 18025G35KT 4000 \n BECMG 1919/1920 21015G25KT 2500 RA \n BECMG 1922/1923 5000 -RA"
"taf	RKSI	2020-07-19 00:00:00	TAF RKSI 192300Z 2000/2106 25015G25KT 6000 SCT005 BKN025 TX25/2007Z TN21/2020Z TX27/2105Z \n BECMG 2005/2006 19010KT SCT030 \n BECMG 2015/2016 25007KT 4000 BR SCT010 \n BECMG 2101/2102 30006KT 7000 NSW SCT030"
"taf	RKSI	2020-07-19 00:09:00	TAF RKSI 192300Z 2000/2106 25015G25KT 6000 SCT005 BKN025 TX25/2007Z TN21/2020Z TX27/2105Z \n BECMG 2005/2006 19010KT SCT030 \n BECMG 2015/2016 25007KT 4000 BR SCT010 \n BECMG 2101/2102 30006KT 7000 NSW SCT030"
"taf	RKSI	2020-07-19 06:00:00	TAF \n AMD RKSI 190600Z 1906/2012 15015G25KT 6000 -RA SCT010 BKN025 OVC080 TN21/1922Z TX25/2007Z \n BECMG 1915/1916 18022G35KT 4000 \n TEMPO 1919/1923 21025G35KT 2000 TSRA SCT015CB BKN025 OVC070 \n BECMG 2000/2001 25015G25KT 5000 BR \n BECMG 2008/2009 24010KT 8000 NSW SCT030"
"taf	RKSI	2020-07-19 06:06:00	TAF RKSI 190500Z 1906/2012 15015G25KT 6000 -RA SCT010 BKN025 OVC080 TN21/1922Z TX25/2007Z \n TEMPO 1907/1910 2500 TSRA SCT015CB BKN025 OVC070 \n BECMG 1915/1916 18022G35KT 4000 \n TEMPO 1919/1923 21025G35KT 2000 TSRA SCT015CB BKN025 OVC070 \n BECMG 2000/2001 25015G25KT 5000 BR \n BECMG 2008/2009 24010KT 8000 NSW SCT030"
"taf	RKSI	2020-07-19 06:09:00	TAF \n AMD TAF \n AMD RKSI 190600Z 1906/2012 15015G25KT 6000 -RA SCT010 BKN025 OVC080 TN21/1922Z TX25/2007Z \n BECMG 1915/1916 18022G35KT 4000 \n TEMPO 1919/1923 21025G35KT 2000 TSRA SCT015CB BKN025 OVC070 \n BECMG 2000/2001 25015G25KT 5000 BR \n BECMG 2008/2009 24010KT 8000 NSW SCT030"
"taf	RKSI	2020-07-19 12:00:00	TAF RKSI 191100Z 1912/2018 16015G25KT 6000 -RA SCT010 BKN025 OVC080 TN21/1922Z TX25/2007Z \n BECMG 1915/1916 18022G35KT 4000 \n TEMPO 1918/1922 21025G35KT 2000 TSRA SCT015CB BKN025 OVC070 \n BECMG 2000/2001 25015G25KT 5000 BR \n BECMG 2008/2009 24010KT 9999 NSW SCT030 \n BECMG 2015/2016 30006KT SCT010"
"taf	RKSI	2020-07-19 12:09:00	TAF RKSI 191100Z 1912/2018 16015G25KT 6000 -RA SCT010 BKN025 OVC080 TN21/1922Z TX25/2007Z \n BECMG 1915/1916 18022G35KT 4000 \n TEMPO 1918/1922 21025G35KT 2000 TSRA SCT015CB BKN025 OVC070 \n BECMG 2000/2001 25015G25KT 5000 BR \n BECMG 2008/2009 24010KT 9999 NSW SCT030 \n BECMG 2015/2016 30006KT SCT010"
"taf	RKSI	2020-07-19 18:00:00	TAF RKSI 191700Z 1918/2024 21025G35KT 4000 -RA BKN010 BKN025 OVC080 TN22/1922Z TX25/2007Z TN21/2020Z \n TEMPO 1919/1921 2000 -TSRA SCT015CB BKN025 OVC070 \n BECMG 1923/1924 25015G25KT BR SCT010 BKN025 OVC080 \n BECMG 2003/2004 9999 NSW SCT030 \n BECMG 2012/2013 24007KT 4000 BR SCT010"
"taf	RKSI	2020-07-19 18:06:00	TAF RKSI 191700Z 1918/2024 21025G35KT 4000 -RA BKN010 BKN025 OVC080 TN22/1922Z TX25/2007Z TN21/2020Z \n TEMPO 1919/1921 2000 -TSRA SCT015CB BKN025 OVC070 \n BECMG 1923/1924 25015G25KT BR SCT010 BKN025 OVC080 \n BECMG 2003/2004 9999 NSW SCT030 \n BECMG 2012/2013 24007KT 4000 BR SCT010"
"taf	RKSI	2020-07-19 20:25:00	TAF \n AMD RKSI 192025Z 1920/2024 21025G35KT 6000 -RA BKN010 BKN025 OVC080 TN22/1922Z TX25/2007Z TN21/2020Z \n BECMG 1923/1924 25015G25KT 9999 NSW SCT010 BKN025 OVC080 \n BECMG 2003/2004 SCT030 \n BECMG 2012/2013 24007KT 4000 BR SCT010"
"taf	RKSI	2020-07-19 20:27:00	TAF \n AMD TAF \n AMD RKSI 192025Z 1920/2024 21025G35KT 6000 -RA BKN010 BKN025 OVC080 TN22/1922Z TX25/2007Z TN21/2020Z \n BECMG 1923/1924 25015G25KT 9999 NSW SCT010 BKN025 OVC080 \n BECMG 2003/2004 SCT030 \n BECMG 2012/2013 24007KT 4000 BR SCT010"
"taf	RKSI	2020-07-20 00:00:00	TAF RKSI 202300Z 2100/2206 23005KT 6000 SCT005 BKN030 TX28/2105Z TN22/2120Z TX27/2205Z \n BECMG 2101/2102 SCT030 \n BECMG 2105/2106 30007KT \n BECMG 2115/2116 07005KT 4000 BR \n BECMG 2200/2201 25006KT 6000 NSW BKN030 BKN100 \n TEMPO 2203/2206 -RA"
"taf	RKSI	2020-07-20 00:06:00	TAF RKSI 202300Z 2100/2206 23005KT 6000 SCT005 BKN030 TX28/2105Z TN22/2120Z TX27/2205Z \n BECMG 2101/2102 SCT030 \n BECMG 2105/2106 30007KT \n BECMG 2115/2116 07005KT 4000 BR \n BECMG 2200/2201 25006KT 6000 NSW BKN030 BKN100 \n TEMPO 2203/2206 -RA"
"taf	RKSI	2020-07-20 06:00:00	TAF RKSI 200500Z 2006/2112 25015G25KT 9999 SCT010 BKN025 TN21/2020Z TX28/2106Z \n BECMG 2008/2009 24007KT SCT030 \n BECMG 2015/2016 29005KT 4000 BR SCT010 \n BECMG 2021/2022 19005KT 7000 NSW SCT030 \n BECMG 2103/2104 30007KT CAVOK"
"taf	RKSI	2020-07-20 06:06:00	TAF TAF RKSI 200500Z 2006/2112 25015G25KT 9999 SCT010 BKN025 TN21/2020Z TX28/2106Z \n BECMG 2008/2009 24007KT SCT030 \n BECMG 2015/2016 29005KT 4000 BR SCT010 \n BECMG 2021/2022 19005KT 7000 NSW SCT030 \n BECMG 2103/2104 30007KT CAVOK"
"taf	RKSI	2020-07-20 12:00:00	TAF RKSI 201100Z 2012/2118 24007KT 8000 SCT010 BKN160 TN21/2020Z TX28/2105Z \n BECMG 2015/2016 29005KT 4000 BR \n BECMG 2021/2022 19005KT 6000 NSW SCT030 \n BECMG 2103/2104 30007KT CAVOK \n BECMG 2113/2114 20005KT 6000 SCT010"
"taf	RKSI	2020-07-20 12:06:00	TAF RKSI 201100Z 2012/2118 24007KT 8000 SCT010 BKN160 TN21/2020Z TX28/2105Z \n BECMG 2015/2016 29005KT 4000 BR \n BECMG 2021/2022 19005KT 6000 NSW SCT030 \n BECMG 2103/2104 30007KT CAVOK \n BECMG 2113/2114 20005KT 6000 SCT010"
"taf	RKSI	2020-07-20 18:00:00	TAF RKSI 201700Z 2018/2124 24007KT 4000 BR SCT007 BKN040 TN21/2020Z TX28/2105Z TN22/2120Z \n BECMG 2020/2021 6000 NSW SCT040 \n BECMG 2103/2104 30007KT \n BECMG 2113/2114 06005KT"
"taf	RKSI	2020-07-20 18:06:00	TAF RKSI 201700Z 2018/2124 24007KT 4000 BR SCT007 BKN040 TN21/2020Z TX28/2105Z TN22/2120Z \n BECMG 2020/2021 6000 NSW SCT040 \n BECMG 2103/2104 30007KT \n BECMG 2113/2114 06005KT"
"taf	RKSI	2020-07-20 21:12:00	TAF \n AMD RKSI 202112Z 2021/2124 24005KT 3000 BR SCT007 BKN030 TN21/2020Z TX28/2105Z TN22/2120Z \n BECMG 2023/2024 6000 NSW SCT030 \n BECMG 2103/2104 30007KT \n BECMG 2113/2114 06005KT"
"taf	RKSI	2020-07-20 21:15:00	TAF \n AMD TAF \n AMD RKSI 202112Z 2021/2124 24005KT 3000 BR SCT007 BKN030 TN21/2020Z TX28/2105Z TN22/2120Z \n BECMG 2023/2024 6000 NSW SCT030 \n BECMG 2103/2104 30007KT \n BECMG 2113/2114 06005KT"
"taf	RKSI	2020-07-21 00:00:00	TAF RKSI 212300Z 2200/2306 24005KT 4000 -RA SCT010 BKN025 OVC100 TX26/2207Z TN22/2220Z TX25/2305Z \n BECMG 2203/2204 31005KT 6000 NSW BKN030 OVC100 \n BECMG 2213/2214 17005KT \n BECMG 2220/2221 11010KT 4000 -RA SCT010 BKN025 OVC080 \n BECMG 2302/2303 11015G25KT RA"
"taf	RKSI	2020-07-21 00:06:00	TAF RKSI 212300Z 2200/2306 24005KT 4000 -RA SCT010 BKN025 OVC100 TX26/2207Z TN22/2220Z TX25/2305Z \n BECMG 2203/2204 31005KT 6000 NSW BKN030 OVC100 \n BECMG 2213/2214 17005KT \n BECMG 2220/2221 11010KT 4000 -RA SCT010 BKN025 OVC080 \n BECMG 2302/2303 11015G25KT RA"
"taf	RKSI	2020-07-21 06:00:00	TAF RKSI 210500Z 2106/2212 28007KT 9999 SCT025 BKN180 TN22/2120Z TX27/2205Z \n BECMG 2115/2116 07005KT 4000 BR SCT010 \n BECMG 2200/2201 27006KT 6000 NSW BKN030 BKN100 \n TEMPO 2203/2206 -RA \n BECMG 2208/2209 SCT030 BKN150"
"taf	RKSI	2020-07-21 06:06:00	TAF RKSI 210500Z 2106/2212 28007KT 9999 SCT025 BKN180 TN22/2120Z TX27/2205Z \n BECMG 2115/2116 07005KT 4000 BR SCT010 \n BECMG 2200/2201 27006KT 6000 NSW BKN030 BKN100 \n TEMPO 2203/2206 -RA \n BECMG 2208/2209 SCT030 BKN150"
"taf	RKSI	2020-07-21 12:00:00	TAF RKSI 211100Z 2112/2218 31007KT 6000 SCT025 BKN180 TN22/2120Z TX27/2205Z \n BECMG 2114/2115 07005KT 4000 BR SCT010 \n BECMG 2122/2123 27006KT 6000 NSW BKN030 BKN100 \n TEMPO 2200/2203 4000 -RA \n BECMG 2208/2209 SCT030 BKN150 \n BECMG 2213/2214 20005KT"
"taf	RKSI	2020-07-21 12:09:00	TAF RKSI 211100Z 2112/2218 31007KT 6000 SCT025 BKN180 TN22/2120Z TX27/2205Z \n BECMG 2114/2115 07005KT 4000 BR SCT010 \n BECMG 2122/2123 27006KT 6000 NSW BKN030 BKN100 \n TEMPO 2200/2203 4000 -RA \n BECMG 2208/2209 SCT030 BKN150 \n BECMG 2213/2214 20005KT"
"taf	RKSI	2020-07-21 18:00:00	TAF RKSI 211700Z 2118/2224 32005KT 4000 BR SCT030 BKN180 TN22/2120Z TX27/2207Z TN22/2220Z \n BECMG 2120/2121 20005KT 6000 NSW BKN030 OVC100 \n TEMPO 2122/2202 4000 -RA \n BECMG 2204/2205 31005KT SCT030 BKN120 \n BECMG 2211/2212 17008KT BKN030 OVC100 \n BECMG 2219/2220 11010KT 4000 -RA SCT010 BKN025 OVC080"
"taf	RKSI	2020-07-21 18:06:00	TAF RKSI 211700Z 2118/2224 32005KT 4000 BR SCT030 BKN180 TN22/2120Z TX27/2207Z TN22/2220Z \n BECMG 2120/2121 20005KT 6000 NSW BKN030 OVC100 \n TEMPO 2122/2202 4000 -RA \n BECMG 2204/2205 31005KT SCT030 BKN120 \n BECMG 2211/2212 17008KT BKN030 OVC100 \n BECMG 2219/2220 11010KT 4000 -RA SCT010 BKN025 OVC080"
"taf	RKSI	2020-07-22 00:00:00	TAF RKSI 222300Z 2300/2406 11015G25KT 3500 -RA SCT010 BKN030 OVC080 TX24/2305Z TN20/2322Z TX26/2405Z \n BECMG 2303/2304 2500 RA SCT015CB BKN025 OVC070 \n BECMG 2305/2306 10020G35KT \n BECMG 2311/2312 4000 -RA SCT010 BKN025 OVC080 \n BECMG 2314/2315 07015G25KT \n BECMG 2400/2401 03015G28KT 6000"
"taf	RKSI	2020-07-22 00:09:00	TAF RKSI 222300Z 2300/2406 11015G25KT 3500 -RA SCT010 BKN030 OVC080 TX24/2305Z TN20/2322Z TX26/2405Z \n BECMG 2303/2304 2500 RA SCT015CB BKN025 OVC070 \n BECMG 2305/2306 10020G35KT \n BECMG 2311/2312 4000 -RA SCT010 BKN025 OVC080 \n BECMG 2314/2315 07015G25KT \n BECMG 2400/2401 03015G28KT 6000"
"taf	RKSI	2020-07-22 01:03:00	TAF \n AMD RKSI 220103Z 2201/2306 31005KT 4000 -RA SCT010 BKN025 OVC100 TX26/2207Z TN22/2220Z TX25/2305Z \n TEMPO 2201/2203 1500 RA \n BECMG 2204/2205 6000 NSW BKN030 OVC100 \n BECMG 2213/2214 17005KT \n BECMG 2220/2221 11010KT 4000 -RA SCT010 BKN025 OVC080 \n BECMG 2302/2303 11015G25KT RA"
"taf	RKSI	2020-07-22 01:06:00	TAF \n AMD TAF \n AMD RKSI 220103Z 2201/2306 31005KT 4000 -RA SCT010 BKN025 OVC100 TX26/2207Z TN22/2220Z TX25/2305Z \n TEMPO 2201/2203 1500 RA \n BECMG 2204/2205 6000 NSW BKN030 OVC100 \n BECMG 2213/2214 17005KT \n BECMG 2220/2221 11010KT 4000 -RA SCT010 BKN025 OVC080 \n BECMG 2302/2303 11015G25KT RA"
"taf	RKSI	2020-07-22 06:00:00	TAF \n AMD RKSI 220600Z 2206/2312 31006KT 6000 BKN025 OVC100 TN22/2220Z TX25/2305Z \n TEMPO 2206/2209 -RA SCT010 BKN025 OVC100 \n BECMG 2213/2214 17005KT \n BECMG 2220/2221 11010KT 4000 -RA SCT010 BKN025 OVC080 \n BECMG 2302/2303 11015G25KT RA \n BECMG 2308/2309 10020G35KT"
"taf	RKSI	2020-07-22 06:03:00	TAF \n AMD TAF \n AMD RKSI 220600Z 2206/2312 31006KT 6000 BKN025 OVC100 TN22/2220Z TX25/2305Z \n TEMPO 2206/2209 -RA SCT010 BKN025 OVC100 \n BECMG 2213/2214 17005KT \n BECMG 2220/2221 11010KT 4000 -RA SCT010 BKN025 OVC080 \n BECMG 2302/2303 11015G25KT RA \n BECMG 2308/2309 10020G35KT"
"taf	RKSI	2020-07-22 06:09:00	TAF RKSI 220500Z 2206/2312 31005KT 6000 BKN025 OVC100 TN22/2220Z TX25/2305Z \n BECMG 2213/2214 17005KT \n BECMG 2220/2221 11010KT 4000 -RA SCT010 BKN025 OVC080 \n BECMG 2302/2303 11015G25KT RA \n BECMG 2308/2309 10020G35KT"
"taf	RKSI	2020-07-22 08:20:00	TAF \n AMD RKSI 220820Z 2208/2312 25006KT 3000 -RA SCT010 BKN025 OVC100 TN22/2220Z TX25/2305Z \n BECMG 2210/2211 5000 BR BKN025 OVC100 \n BECMG 2213/2214 17005KT \n BECMG 2220/2221 11010KT -RA SCT010 BKN025 OVC080 \n BECMG 2302/2303 11015G25KT 3000 RA \n BECMG 2308/2309 10020G35KT"
"taf	RKSI	2020-07-22 08:21:00	TAF \n AMD TAF \n AMD RKSI 220820Z 2208/2312 25006KT 3000 -RA SCT010 BKN025 OVC100 TN22/2220Z TX25/2305Z \n BECMG 2210/2211 5000 BR BKN025 OVC100 \n BECMG 2213/2214 17005KT \n BECMG 2220/2221 11010KT -RA SCT010 BKN025 OVC080 \n BECMG 2302/2303 11015G25KT 3000 RA \n BECMG 2308/2309 10020G35KT"
"taf	RKSI	2020-07-22 12:00:00	TAF RKSI 221100Z 2212/2318 25006KT 6000 SCT010 BKN025 OVC100 TN22/2220Z TX25/2305Z \n BECMG 2213/2214 17005KT 4000 BR \n BECMG 2218/2219 11010KT -RA \n BECMG 2302/2303 11015G25KT 2500 RA \n BECMG 2308/2309 10020G35KT"
"taf	RKSI	2020-07-22 12:06:00	TAF RKSI 221100Z 2212/2318 25006KT 6000 SCT010 BKN025 OVC100 TN22/2220Z TX25/2305Z \n BECMG 2213/2214 17005KT 4000 BR \n BECMG 2218/2219 11010KT -RA \n BECMG 2302/2303 11015G25KT 2500 RA \n BECMG 2308/2309 10020G35KT"
"taf	RKSI	2020-07-22 18:00:00	TAF RKSI 221700Z 2218/2324 14005KT 4000 BR SCT010 BKN025 OVC100 TN20/2219Z TX24/2305Z TN20/2322Z \n BECMG 2219/2220 11010KT -RA \n BECMG 2300/2301 11015G25KT \n BECMG 2305/2306 10020G35KT 2500 RA SCT015CB BKN025 OVC070 \n BECMG 2311/2312 4000 -RA SCT010 BKN025 OVC080 \n BECMG 2314/2315 07015G25KT"
"taf	RKSI	2020-07-22 18:09:00	TAF RKSI 221700Z 2218/2324 14005KT 4000 BR SCT010 BKN025 OVC100 TN20/2219Z TX24/2305Z TN20/2322Z \n BECMG 2219/2220 11010KT -RA \n BECMG 2300/2301 11015G25KT \n BECMG 2305/2306 10020G35KT 2500 RA SCT015CB BKN025 OVC070 \n BECMG 2311/2312 4000 -RA SCT010 BKN025 OVC080 \n BECMG 2314/2315 07015G25KT"
"taf	RKSI	2020-07-23 00:00:00	TAF RKSI 232300Z 2400/2506 03013G25KT 6000 -RA BKN025 OVC080 TX26/2405Z TN21/2421Z TX28/2506Z \n BECMG 2406/2407 NSW \n BECMG 2412/2413 SCT030 BKN120"
"taf	RKSI	2020-07-23 00:09:00	TAF RKSI 232300Z 2400/2506 03013G25KT 6000 -RA BKN025 OVC080 TX26/2405Z TN21/2421Z TX28/2506Z \n BECMG 2406/2407 NSW \n BECMG 2412/2413 SCT030 BKN120"
"taf	RKSI	2020-07-23 06:00:00	TAF RKSI 230500Z 2306/2412 10015G25KT 2500 +RA SCT015CB BKN025 OVC070 TN20/2322Z TX26/2405Z \n BECMG 2308/2309 07020G35KT RA SCT010 BKN025 OVC080 \n BECMG 2314/2315 07015G25KT 4000 -RA \n BECMG 2400/2401 03015G25KT 6000 \n BECMG 2406/2407 NSW BKN025 BKN080"
"taf	RKSI	2020-07-23 06:09:00	TAF RKSI 230500Z 2306/2412 10015G25KT 2500 +RA SCT015CB BKN025 OVC070 TN20/2322Z TX26/2405Z \n BECMG 2308/2309 07020G35KT RA SCT010 BKN025 OVC080 \n BECMG 2314/2315 07015G25KT 4000 -RA \n BECMG 2400/2401 03015G25KT 6000 \n BECMG 2406/2407 NSW BKN025 BKN080"
"taf	RKSI	2020-07-23 09:25:00	TAF \n AMD RKSI 230825Z 2309/2412 10015G25KT 2500 +TSRA SCT015CB BKN025 OVC070 TN20/2322Z TX26/2405Z \n BECMG 2310/2311 07020G35KT TSRA \n BECMG 2314/2315 07015G25KT 4000 -RA SCT010 BKN025 OVC070 \n BECMG 2400/2401 03015G25KT 6000 \n BECMG 2406/2407 NSW BKN025 BKN080"
"taf	RKSI	2020-07-23 09:30:00	TAF \n AMD TAF \n AMD RKSI 230825Z 2309/2412 10015G25KT 2500 +TSRA SCT015CB BKN025 OVC070 TN20/2322Z TX26/2405Z \n BECMG 2310/2311 07020G35KT TSRA \n BECMG 2314/2315 07015G25KT 4000 -RA SCT010 BKN025 OVC070 \n BECMG 2400/2401 03015G25KT 6000 \n BECMG 2406/2407 NSW BKN025 BKN080"
"taf	RKSI	2020-07-23 12:00:00	TAF RKSI 231100Z 2312/2418 07020G35KT 4000 RA SCT015CB BKN025 OVC070 TN19/2322Z TX26/2405Z \n BECMG 2314/2315 04020G35KT -RA SCT010 BKN025 OVC080 \n BECMG 2320/2321 03015G25KT 6000 BKN030 OVC080 \n BECMG 2406/2407 NSW \n BECMG 2412/2413 SCT030 BKN120"
"taf	RKSI	2020-07-23 12:09:00	TAF RKSI 231100Z 2312/2418 07020G35KT 4000 RA SCT015CB BKN025 OVC070 TN19/2322Z TX26/2405Z \n BECMG 2314/2315 04020G35KT -RA SCT010 BKN025 OVC080 \n BECMG 2320/2321 03015G25KT 6000 BKN030 OVC080 \n BECMG 2406/2407 NSW \n BECMG 2412/2413 SCT030 BKN120"
"taf	RKSI	2020-07-23 15:00:00	TAF \n AMD TAF \n AMD RKSI 231500Z 2315/2418 07018G30KT 6000 -RA SCT015 BKN025 OVC070 TN19/2322Z TX26/2405Z \n TEMPO 2316/2318 3000 RA \n BECMG 2406/2407 03015G25KT NSW \n BECMG 2412/2413 SCT030 BKN120"
"taf	RKSI	2020-07-23 15:07:00	TAF \n AMD RKSI 231507Z 2315/2418 07020G35KT 6000 -RA SCT015 BKN025 OVC070 TN19/2322Z TX26/2405Z \n TEMPO 2316/2318 3000 RA \n BECMG 2402/2403 03015G25KT \n BECMG 2406/2407 NSW \n BECMG 2412/2413 SCT030 BKN120"
"taf	RKSI	2020-07-23 15:09:00	TAF \n AMD TAF \n AMD RKSI 231507Z 2315/2418 07020G35KT 6000 -RA SCT015 BKN025 OVC070 TN19/2322Z TX26/2405Z \n TEMPO 2316/2318 3000 RA \n BECMG 2402/2403 03015G25KT \n BECMG 2406/2407 NSW \n BECMG 2412/2413 SCT030 BKN120"
"taf	RKSI	2020-07-23 18:00:00	TAF RKSI 231700Z 2318/2424 07018G35KT 6000 -RA SCT010 BKN025 OVC080 TN19/2322Z TX26/2405Z TN21/2421Z \n TEMPO 2318/2319 3000 RA \n BECMG 2401/2402 02015G25KT BKN030 OVC080 \n BECMG 2406/2407 NSW \n BECMG 2412/2413 SCT030 BKN120"
"taf	RKSI	2020-07-23 18:06:00	TAF RKSI 231700Z 2318/2424 07018G35KT 6000 -RA SCT010 BKN025 OVC080 TN19/2322Z TX26/2405Z TN21/2421Z \n TEMPO 2318/2319 3000 RA \n BECMG 2401/2402 02015G25KT BKN030 OVC080 \n BECMG 2406/2407 NSW \n BECMG 2412/2413 SCT030 BKN120"
"taf	RKSI	2020-07-23 19:15:00	TAF \n AMD RKSI 231915Z 2319/2424 07018G35KT 6000 -RA SCT010 BKN025 OVC080 TN19/2322Z TX26/2405Z TN21/2421Z \n TEMPO 2319/2323 3000 RA \n BECMG 2401/2402 02015G25KT BKN030 OVC080 \n BECMG 2406/2407 NSW \n BECMG 2412/2413 SCT030 BKN120"
"taf	RKSI	2020-07-23 19:18:00	TAF \n AMD TAF \n AMD RKSI 231915Z 2319/2424 07018G35KT 6000 -RA SCT010 BKN025 OVC080 TN19/2322Z TX26/2405Z TN21/2421Z \n TEMPO 2319/2323 3000 RA \n BECMG 2401/2402 02015G25KT BKN030 OVC080 \n BECMG 2406/2407 NSW \n BECMG 2412/2413 SCT030 BKN120"
"taf	RKSI	2020-07-23 21:15:00	TAF \n AMD TAF \n AMD RKSI 232115Z 2321/2424 03015G25KT 6000 RA SCT010 BKN025 OVC080 TN19/2322Z TX26/2405Z TN21/2421Z \n BECMG 2323/2324 -RA \n BECMG 2401/2402 BKN030 OVC080 \n BECMG 2406/2407 NSW \n BECMG 2412/2413 SCT030 BKN120"
"taf	RKSI	2020-07-24 00:00:00	TAF RKSI 242300Z 2500/2606 02012KT 9999 SCT030 BKN120 TX28/2505Z TN21/2521Z TX29/2606Z \n TEMPO 2500/2501 6000 -RA BKN025 OVC100 \n TEMPO 2505/2507 6000 -RA FEW010 BKN025 OVC100 \n BECMG 2602/2603 25005KT"
"taf	RKSI	2020-07-24 00:09:00	TAF RKSI 242300Z 2500/2606 02012KT 9999 SCT030 BKN120 TX28/2505Z TN21/2521Z TX29/2606Z \n TEMPO 2500/2501 6000 -RA BKN025 OVC100 \n TEMPO 2505/2507 6000 -RA FEW010 BKN025 OVC100 \n BECMG 2602/2603 25005KT"
"taf	RKSI	2020-07-24 06:00:00	TAF RKSI 240500Z 2406/2512 03015G25KT 6000 BKN025 BKN080 TN21/2421Z TX28/2506Z \n TEMPO 2406/2408 -RA \n BECMG 2506/2507 SCT030 BKN120 \n BECMG 2511/2512 03012KT"
"taf	RKSI	2020-07-24 06:09:00	TAF RKSI 240500Z 2406/2512 03015G25KT 6000 BKN025 BKN080 TN21/2421Z TX28/2506Z \n TEMPO 2406/2408 -RA \n BECMG 2506/2507 SCT030 BKN120 \n BECMG 2511/2512 03012KT"
"taf	RKSI	2020-07-24 12:00:00	TAF RKSI 241100Z 2412/2518 03015G25KT 6000 BKN030 BKN070 TN21/2421Z TX28/2506Z \n BECMG 2506/2507 SCT030 BKN120 \n BECMG 2512/2513 03012KT"
"taf	RKSI	2020-07-24 12:09:00	TAF RKSI 241100Z 2412/2518 03015G25KT 6000 BKN030 BKN070 TN21/2421Z TX28/2506Z \n BECMG 2506/2507 SCT030 BKN120 \n BECMG 2512/2513 03012KT"
"taf	RKSI	2020-07-24 14:05:00	TAF \n AMD RKSI 241405Z 2414/2518 03015G25KT 6000 BKN030 BKN070 TN21/2421Z TX28/2506Z \n TEMPO 2414/2419 3000 -RA SCT010 BKN025 OVC100 \n BECMG 2506/2507 SCT030 BKN120 \n BECMG 2512/2513 03012KT"
"taf	RKSI	2020-07-24 14:06:00	TAF \n AMD TAF \n AMD RKSI 241405Z 2414/2518 03015G25KT 6000 BKN030 BKN070 TN21/2421Z TX28/2506Z \n TEMPO 2414/2419 3000 -RA SCT010 BKN025 OVC100 \n BECMG 2506/2507 SCT030 BKN120 \n BECMG 2512/2513 03012KT"
"taf	RKSI	2020-07-24 18:00:00	TAF RKSI 241700Z 2418/2524 02013G25KT 6000 SCT030 BKN120 TN21/2421Z TX28/2506Z TN21/2521Z \n TEMPO 2418/2422 4000 -RA SCT010 BKN025 OVC100"
"taf	RKSI	2020-07-24 18:09:00	TAF RKSI 241700Z 2418/2524 02013G25KT 6000 SCT030 BKN120 TN21/2421Z TX28/2506Z TN21/2521Z \n TEMPO 2418/2422 4000 -RA SCT010 BKN025 OVC100"
"taf	RKSI	2020-07-25 00:00:00	TAF RKSI 252300Z 2600/2706 05010KT CAVOK TX28/2606Z TN22/2621Z TX27/2706Z \n BECMG 2602/2603 27006KT 9999 FEW040 BKN120 \n BECMG 2612/2613 21005KT BKN030 BKN100 \n BECMG 2617/2618 4000 BR \n BECMG 2621/2622 15006KT 6000 NSW \n TEMPO 2703/2706 24005KT -RA"
"taf	RKSI	2020-07-25 00:09:00	TAF RKSI 252300Z 2600/2706 05010KT CAVOK TX28/2606Z TN22/2621Z TX27/2706Z \n BECMG 2602/2603 27006KT 9999 FEW040 BKN120 \n BECMG 2612/2613 21005KT BKN030 BKN100 \n BECMG 2617/2618 4000 BR \n BECMG 2621/2622 15006KT 6000 NSW \n TEMPO 2703/2706 24005KT -RA"
"taf	RKSI	2020-07-25 06:00:00	TAF RKSI 250500Z 2506/2612 03012KT 9999 SCT030 BKN120 TN21/2521Z TX29/2606Z \n BECMG 2521/2522 09005KT \n BECMG 2602/2603 25005KT"
"taf	RKSI	2020-07-25 06:09:00	TAF RKSI 250500Z 2506/2612 03012KT 9999 SCT030 BKN120 TN21/2521Z TX29/2606Z \n BECMG 2521/2522 09005KT \n BECMG 2602/2603 25005KT"
"taf	RKSI	2020-07-25 12:00:00	TAF RKSI 251100Z 2512/2618 03012KT 9999 FEW030 BKN120 TN21/2521Z TX29/2606Z \n BECMG 2521/2522 09005KT \n BECMG 2602/2603 25005KT \n BECMG 2612/2613 18006KT 4000 BR"
"taf	RKSI	2020-07-25 12:09:00	TAF RKSI 251100Z 2512/2618 03012KT 9999 FEW030 BKN120 TN21/2521Z TX29/2606Z \n BECMG 2521/2522 09005KT \n BECMG 2602/2603 25005KT \n BECMG 2612/2613 18006KT 4000 BR"
"taf	RKSI	2020-07-25 18:00:00	TAF RKSI 251700Z 2518/2624 04010KT 9999 FEW040 BKN120 TN21/2521Z TX28/2606Z TN22/2621Z \n BECMG 2602/2603 25006KT \n BECMG 2612/2613 19006KT BKN030 BKN100 \n BECMG 2615/2616 4000 BR \n BECMG 2621/2622 10007KT 6000 NSW"
"taf	RKSI	2020-07-25 18:09:00	TAF RKSI 251700Z 2518/2624 04010KT 9999 FEW040 BKN120 TN21/2521Z TX28/2606Z TN22/2621Z \n BECMG 2602/2603 25006KT \n BECMG 2612/2613 19006KT BKN030 BKN100 \n BECMG 2615/2616 4000 BR \n BECMG 2621/2622 10007KT 6000 NSW"
"taf	RKSI	2020-07-26 00:00:00	TAF RKSI 262300Z 2700/2806 18005KT 5000 -RA FEW010 BKN025 OVC080 TX26/2706Z TN22/2721Z TX28/2806Z \n BECMG 2702/2703 25005KT \n BECMG 2706/2707 30006KT 8000 NSW \n BECMG 2714/2715 05006KT 4000 BR \n TEMPO 2718/2721 -RA \n BECMG 2722/2723 25006KT 8000 NSW SCT030 BKN120"
"taf	RKSI	2020-07-26 00:09:00	TAF RKSI 262300Z 2700/2806 18005KT 5000 -RA FEW010 BKN025 OVC080 TX26/2706Z TN22/2721Z TX28/2806Z \n BECMG 2702/2703 25005KT \n BECMG 2706/2707 30006KT 8000 NSW \n BECMG 2714/2715 05006KT 4000 BR \n TEMPO 2718/2721 -RA \n BECMG 2722/2723 25006KT 8000 NSW SCT030 BKN120"
"taf	RKSI	2020-07-26 06:00:00	TAF RKSI 260500Z 2606/2712 30006KT 9999 SCT040 TN22/2621Z TX27/2706Z \n BECMG 2615/2616 21005KT 4000 BR BKN030 BKN100 \n BECMG 2621/2622 15006KT 6000 NSW \n BECMG 2708/2709 05006KT -RA SCT010 BKN025 OVC080"
"taf	RKSI	2020-07-26 06:09:00	TAF RKSI 260500Z 2606/2712 30006KT 9999 SCT040 TN22/2621Z TX27/2706Z \n BECMG 2615/2616 21005KT 4000 BR BKN030 BKN100 \n BECMG 2621/2622 15006KT 6000 NSW \n BECMG 2708/2709 05006KT -RA SCT010 BKN025 OVC080"
"taf	RKSI	2020-07-26 12:00:00	TAF RKSI 261100Z 2612/2718 27005KT 9999 FEW030 BKN150 TN22/2621Z TX27/2706Z \n BECMG 2615/2616 21005KT 4000 BR \n BECMG 2621/2622 15006KT 6000 NSW BKN030 BKN100 \n TEMPO 2708/2711 05006KT -RA SCT010 BKN025 OVC100 \n BECMG 2715/2716 05006KT -RA SCT010 BKN025 OVC080"
"taf	RKSI	2020-07-26 12:09:00	TAF RKSI 261100Z 2612/2718 27005KT 9999 FEW030 BKN150 TN22/2621Z TX27/2706Z \n BECMG 2615/2616 21005KT 4000 BR \n BECMG 2621/2622 15006KT 6000 NSW BKN030 BKN100 \n TEMPO 2708/2711 05006KT -RA SCT010 BKN025 OVC100 \n BECMG 2715/2716 05006KT -RA SCT010 BKN025 OVC080"
"taf	RKSI	2020-07-26 18:00:00	TAF \n AMD RKSI 261725Z 2618/2724 30005KT 6000 BKN030 BKN100 TN22/2621Z TX26/2706Z TN22/2721Z \n TEMPO 2618/2619 -RA \n BECMG 2621/2622 21005KT 9999 \n BECMG 2708/2709 05007KT \n BECMG 2716/2717 5000 -RA SCT010 BKN025 OVC080 \n BECMG 2721/2722 8000 NSW BKN030 BKN120"
"taf	RKSI	2020-07-26 18:09:00	TAF TAF RKSI 261700Z 2618/2724 30005KT 6000 BKN030 BKN100 TN22/2621Z TX26/2706Z TN22/2721Z \n BECMG 2621/2622 21005KT 9999 \n BECMG 2708/2709 05007KT \n BECMG 2716/2717 5000 -RA SCT010 BKN025 OVC080 \n BECMG 2721/2722 8000 NSW BKN030 BKN120"
"taf	RKSI	2020-07-26 18:24:00	TAF \n AMD TAF \n AMD RKSI 261725Z 2618/2724 30005KT 6000 BKN030 BKN100 TN22/2621Z TX26/2706Z TN22/2721Z \n TEMPO 2618/2619 -RA \n BECMG 2621/2622 21005KT 9999 \n BECMG 2708/2709 05007KT \n BECMG 2716/2717 5000 -RA SCT010 BKN025 OVC080 \n BECMG 2721/2722 8000 NSW BKN030 BKN120"
"taf	RKSI	2020-07-26 18:25:00	TAF \n AMD RKSI 261725Z 2618/2724 30005KT 6000 BKN030 BKN100 TN22/2621Z TX26/2706Z TN22/2721Z \n TEMPO 2618/2619 -RA \n BECMG 2621/2622 21005KT 9999 \n BECMG 2708/2709 05007KT \n BECMG 2716/2717 5000 -RA SCT010 BKN025 OVC080 \n BECMG 2721/2722 8000 NSW BKN030 BKN120"
"taf	RKSI	2020-07-26 21:48:00	TAF \n AMD TAF \n AMD RKSI 262050Z 2621/2724 21005KT 6000 -RA SCT010 BKN025 OVC080 TN22/2621Z TX26/2706Z TN22/2721Z \n BECMG 2706/2707 NSW \n BECMG 2708/2709 05007KT BKN030 BKN100 \n BECMG 2716/2717 5000 -RA SCT010 BKN025 OVC080 \n BECMG 2721/2722 8000 NSW BKN030 BKN120"
"taf	RKSI	2020-07-26 21:50:00	TAF \n AMD RKSI 262050Z 2621/2724 21005KT 6000 -RA SCT010 BKN025 OVC080 TN22/2621Z TX26/2706Z TN22/2721Z \n BECMG 2706/2707 NSW \n BECMG 2708/2709 05007KT BKN030 BKN100 \n BECMG 2716/2717 5000 -RA SCT010 BKN025 OVC080 \n BECMG 2721/2722 8000 NSW BKN030 BKN120"
"taf	RKSI	2020-07-27 00:00:00	TAF RKSI 272300Z 2800/2906 05005KT 6000 -RA BKN030 OVC100 TX27/2806Z TN23/2820Z TX27/2905Z \n BECMG 2802/2803 12006KT NSW \n TEMPO 2819/2823 4000 -RA SCT010 BKN025 OVC080"
"taf	RKSI	2020-07-27 00:09:00	TAF TAF RKSI 272300Z 2800/2906 05005KT 6000 -RA BKN030 OVC100 TX27/2806Z TN23/2820Z TX27/2905Z \n BECMG 2802/2803 12006KT NSW \n TEMPO 2819/2823 4000 -RA SCT010 BKN025 OVC080"
"taf	RKSI	2020-07-27 06:00:00	TAF RKSI 270500Z 2706/2812 32005KT 6000 -RA SCT010 BKN025 OVC070 TN22/2721Z TX27/2806Z \n BECMG 2709/2710 36005KT NSW \n BECMG 2714/2715 13005KT 4000 -RA \n BECMG 2719/2720 09006KT 6000 NSW \n TEMPO 2805/2808 13008KT 4000 -RA \n BECMG 2808/2809 15010KT"
"taf	RKSI	2020-07-27 06:09:00	TAF RKSI 270500Z 2706/2812 32005KT 6000 -RA SCT010 BKN025 OVC070 TN22/2721Z TX27/2806Z \n BECMG 2709/2710 36005KT NSW \n BECMG 2714/2715 13005KT 4000 -RA \n BECMG 2719/2720 09006KT 6000 NSW \n TEMPO 2805/2808 13008KT 4000 -RA \n BECMG 2808/2809 15010KT"
"taf	RKSI	2020-07-27 12:00:00	TAF RKSI 271100Z 2712/2818 36005KT 6000 SCT010 BKN030 OVC080 TN22/2721Z TX27/2806Z \n BECMG 2714/2715 13005KT 4000 -RA \n BECMG 2719/2720 09006KT 6000 NSW \n TEMPO 2805/2808 05006KT -RA \n BECMG 2811/2812 12006KT 4000 BR \n BECMG 2814/2815 17005KT -RA"
"taf	RKSI	2020-07-27 12:09:00	TAF TAF RKSI 271100Z 2712/2818 36005KT 6000 SCT010 BKN030 OVC080 TN22/2721Z TX27/2806Z \n BECMG 2714/2715 13005KT 4000 -RA \n BECMG 2719/2720 09006KT 6000 NSW \n TEMPO 2805/2808 05006KT -RA \n BECMG 2811/2812 12006KT 4000 BR \n BECMG 2814/2815 17005KT -RA"
"taf	RKSI	2020-07-27 14:40:00	TAF \n AMD RKSI 271340Z 2714/2818 36005KT 7000 BKN030 OVC100 TN22/2721Z TX27/2806Z \n BECMG 2715/2716 13005KT 4000 BR \n BECMG 2719/2720 09006KT 6000 NSW \n BECMG 2811/2812 12006KT 4000 BR \n BECMG 2814/2815 17005KT -RA SCT010 BKN025 OVC080"
"taf	RKSI	2020-07-27 14:42:00	TAF \n AMD TAF \n AMD RKSI 271340Z 2714/2818 36005KT 7000 BKN030 OVC100 TN22/2721Z TX27/2806Z \n BECMG 2715/2716 13005KT 4000 BR \n BECMG 2719/2720 09006KT 6000 NSW \n BECMG 2811/2812 12006KT 4000 BR \n BECMG 2814/2815 17005KT -RA SCT010 BKN025 OVC080"
"taf	RKSI	2020-07-27 18:00:00	TAF RKSI 271700Z 2718/2824 05005KT 7000 BKN030 OVC100 TN22/2721Z TX27/2806Z TN23/2820Z \n TEMPO 2718/2722 4000 -RA \n BECMG 2802/2803 12006KT \n BECMG 2811/2812 4000 BR \n BECMG 2814/2815 -RA SCT010 BKN025 OVC080"
"taf	RKSI	2020-07-27 18:09:00	TAF RKSI 271700Z 2718/2824 05005KT 7000 BKN030 OVC100 TN22/2721Z TX27/2806Z TN23/2820Z \n TEMPO 2718/2722 4000 -RA \n BECMG 2802/2803 12006KT \n BECMG 2811/2812 4000 BR \n BECMG 2814/2815 -RA SCT010 BKN025 OVC080"
"taf	RKSI	2020-07-27 22:03:00	TAF \n AMD TAF \n AMD RKSI 272158Z 2722/2824 05005KT 6000 -RA BKN030 OVC100 TN22/2721Z TX27/2806Z TN23/2820Z \n BECMG 2802/2803 NSW \n BECMG 2805/2806 12006KT \n BECMG 2811/2812 4000 BR \n TEMPO 2819/2823 -RA SCT010 BKN025 OVC080"
"taf	RKSI	2020-07-27 22:58:00	TAF \n AMD RKSI 272158Z 2722/2824 05005KT 6000 -RA BKN030 OVC100 TN22/2721Z TX27/2806Z TN23/2820Z \n BECMG 2802/2803 NSW \n BECMG 2805/2806 12006KT \n BECMG 2811/2812 4000 BR \n TEMPO 2819/2823 -RA SCT010 BKN025 OVC080"
"taf	RKSI	2020-07-28 04:40:00	TAF COR RKSI 280340Z 2804/2906 05005KT 6000 -RA BKN030 OVC100 TX27/2806Z TN23/2820Z TX27/2905Z \n BECMG 2808/2809 12006KT NSW \n TEMPO 2819/2823 4000 -RA SCT010 BKN025 OVC080"
"taf	RKSI	2020-07-28 04:48:00	TAF \n AMD TAF \n AMD RKSI 280340Z 2804/2906 05005KT 6000 BKN030 OVC100 TX27/2806Z TN23/2820Z TX27/2905Z \n BECMG 2808/2809 12006KT NSW \n TEMPO 2819/2823 4000 -RA SCT010 BKN025 OVC080"
"taf	RKSI	2020-07-28 04:54:00	TAF \n AMD TAF \n AMD RKSI 280340Z 2804/2906 05005KT 6000 -RA BKN030 OVC100 TX27/2806Z TN23/2820Z TX27/2905Z \n BECMG 2808/2809 12006KT NSW \n TEMPO 2819/2823 4000 -RA SCT010 BKN025 OVC080"
"taf	RKSI	2020-07-28 06:00:00	TAF RKSI 280500Z 2806/2912 15007KT 9999 BKN030 OVC100 TN22/2821Z TX27/2907Z \n TEMPO 2806/2808 -RA \n BECMG 2811/2812 06005KT 6000 \n TEMPO 2819/2823 09005KT 4000 -RA \n BECMG 2900/2901 12006KT 9999 SCT010 BKN025 OVC080 \n BECMG 2905/2906 16005KT 6000 -RA"
"taf	RKSI	2020-07-28 06:09:00	TAF RKSI 280500Z 2806/2912 15007KT 9999 BKN030 OVC100 TN22/2821Z TX27/2907Z \n TEMPO 2806/2808 -RA \n BECMG 2811/2812 06005KT 6000 \n TEMPO 2819/2823 09005KT 4000 -RA \n BECMG 2900/2901 12006KT 9999 SCT010 BKN025 OVC080 \n BECMG 2905/2906 16005KT 6000 -RA"
"taf	RKSI	2020-07-28 12:00:00	TAF RKSI 281100Z 2812/2918 06005KT 6000 BKN030 OVC100 TN22/2820Z TX26/2904Z \n TEMPO 2819/2823 09005KT 4000 -RA \n BECMG 2900/2901 16008KT 9999 SCT010 BKN025 OVC080 \n BECMG 2904/2905 6000 -RA \n BECMG 2917/2918 24005KT 4000 RA"
"taf	RKSI	2020-07-28 12:09:00	TAF TAF RKSI 281100Z 2812/2918 06005KT 6000 BKN030 OVC100 TN22/2820Z TX26/2904Z \n TEMPO 2819/2823 09005KT 4000 -RA \n BECMG 2900/2901 16008KT 9999 SCT010 BKN025 OVC080 \n BECMG 2904/2905 6000 -RA \n BECMG 2917/2918 24005KT 4000 RA"
"taf	RKSI	2020-07-28 16:48:00	TAF \n AMD RKSI 281548Z 2816/2918 06005KT 6000 -RA BKN030 OVC100 TN22/2820Z TX26/2904Z \n BECMG 2818/2819 09005KT 4000 \n BECMG 2822/2823 6000 NSW \n BECMG 2900/2901 16008KT 9999 SCT010 BKN025 OVC080 \n BECMG 2904/2905 6000 -RA \n BECMG 2917/2918 24005KT 4000 RA"
"taf	RKSI	2020-07-28 16:51:00	TAF \n AMD TAF \n AMD RKSI 281548Z 2816/2918 06005KT 6000 -RA BKN030 OVC100 TN22/2820Z TX26/2904Z \n BECMG 2818/2819 09005KT 4000 \n BECMG 2822/2823 6000 NSW \n BECMG 2900/2901 16008KT 9999 SCT010 BKN025 OVC080 \n BECMG 2904/2905 6000 -RA \n BECMG 2917/2918 24005KT 4000 RA"
"taf	RKSI	2020-07-28 18:00:00	TAF RKSI 281700Z 2818/2924 09005KT 6000 -RA SCT010 BKN025 OVC080 TN22/2820Z TX26/2904Z TN22/2920Z \n TEMPO 2818/2821 4000 \n BECMG 2823/2824 16010KT NSW \n BECMG 2904/2905 -RA \n BECMG 2917/2918 24005KT 4000 RA \n BECMG 2922/2923 6000 -RA"
"taf	RKSI	2020-07-28 18:06:00	TAF RKSI 281700Z 2818/2924 09005KT 6000 -RA SCT010 BKN025 OVC080 TN22/2820Z TX26/2904Z TN22/2920Z \n TEMPO 2818/2821 4000 \n BECMG 2823/2824 16010KT NSW \n BECMG 2904/2905 -RA \n BECMG 2917/2918 24005KT 4000 RA \n BECMG 2922/2923 6000 -RA"
"taf	RKSI	2020-07-29 00:00:00	TAF RKSI 292300Z 3000/3106 26005KT 4000 BR BKN002 BKN025 OVC100 TX27/3006Z TN22/3020Z TX28/3104Z \n BECMG 3001/3002 6000 NSW SCT008 BKN025 \n BECMG 3007/3008 20005KT \n BECMG 3012/3013 23007KT 4000 BR \n TEMPO 3020/3024 20005KT 2500 -RA BKN005 BKN025 \n BECMG 3100/3101 7000 NSW"
"taf	RKSI	2020-07-29 00:09:00	TAF RKSI 292300Z 3000/3106 26005KT 4000 BR BKN002 BKN025 OVC100 TX27/3006Z TN22/3020Z TX28/3104Z \n BECMG 3001/3002 6000 NSW SCT008 BKN025 \n BECMG 3007/3008 20005KT \n BECMG 3012/3013 23007KT 4000 BR \n TEMPO 3020/3024 20005KT 2500 -RA BKN005 BKN025 \n BECMG 3100/3101 7000 NSW"
"taf	RKSI	2020-07-29 06:00:00	TAF RKSI 290500Z 2906/3012 19007KT 6000 -RA SCT010 BKN020 OVC100 TN22/2920Z TX26/3005Z \n BECMG 2915/2916 4000 BKN010 OVC025 \n BECMG 2921/2922 25006KT \n BECMG 3000/3001 6000 SCT010 BKN025 \n BECMG 3006/3007 NSW"
"taf	RKSI	2020-07-29 06:09:00	TAF RKSI 290500Z 2906/3012 19007KT 6000 -RA SCT010 BKN020 OVC100 TN22/2920Z TX26/3005Z \n BECMG 2915/2916 4000 BKN010 OVC025 \n BECMG 2921/2922 25006KT \n BECMG 3000/3001 6000 SCT010 BKN025 \n BECMG 3006/3007 NSW"
"taf	RKSI	2020-07-29 08:52:00	TAF \n AMD RKSI 290752Z 2908/3012 24007KT 6000 SCT010 BKN020 OVC100 TN22/2920Z TX26/3005Z \n BECMG 2915/2916 4000 -RA BKN010 OVC025 \n BECMG 3000/3001 6000 NSW SCT010 BKN025"
"taf	RKSI	2020-07-29 08:54:00	TAF \n AMD TAF \n AMD RKSI 290752Z 2908/3012 24007KT 6000 SCT010 BKN020 OVC100 TN22/2920Z TX26/3005Z \n BECMG 2915/2916 4000 -RA BKN010 OVC025 \n BECMG 3000/3001 6000 NSW SCT010 BKN025"
"taf	RKSI	2020-07-29 12:00:00	TAF RKSI 291100Z 2912/3018 31006KT 4000 BR SCT010 BKN020 OVC100 TN22/2920Z TX26/3005Z \n BECMG 2914/2915 12006KT 2500 -RA BKN010 OVC025 \n BECMG 2923/2924 23006KT 6000 NSW SCT010 BKN025"
"taf	RKSI	2020-07-29 12:09:00	TAF TAF RKSI 291100Z 2912/3018 31006KT 4000 BR SCT010 BKN020 OVC100 TN22/2920Z TX26/3005Z \n BECMG 2914/2915 12006KT 2500 -RA BKN010 OVC025 \n BECMG 2923/2924 23006KT 6000 NSW SCT010 BKN025"
"taf	RKSI	2020-07-29 18:00:00	TAF RKSI 291700Z 2918/3024 18005KT 4000 BR BKN005 BKN025 OVC100 TN22/2922Z TX26/3003Z TN22/3020Z \n TEMPO 2918/2923 22005KT 2500 -RA \n BECMG 2923/2924 23005KT 6000 NSW SCT010 BKN025 \n BECMG 3012/3013 4000 BR \n TEMPO 3020/3024 20005KT 2500 -RA"
"taf	RKSI	2020-07-29 18:09:00	TAF TAF RKSI 291700Z 2918/3024 18005KT 4000 BR BKN005 BKN025 OVC100 TN22/2922Z TX26/3003Z TN22/3020Z \n TEMPO 2918/2923 22005KT 2500 -RA \n BECMG 2923/2924 23005KT 6000 NSW SCT010 BKN025 \n BECMG 3012/3013 4000 BR \n TEMPO 3020/3024 20005KT 2500 -RA"
"taf	RKSI	2020-07-30 00:00:00	TAF RKSI 302300Z 3100/0106 18005KT 7000 SCT010 BKN025 TX28/3104Z TN23/3116Z TX26/0106Z \n BECMG 3102/3103 24010KT BKN025 \n TEMPO 3103/3106 4000 -SHRA SCT015CB BKN025 OVC080 \n BECMG 3112/3113 18006KT 4000 BR SCT010 BKN025 OVC100 \n BECMG 3117/3118 -RA \n BECMG 0103/0104 6000"
"taf	RKSI	2020-07-30 00:09:00	TAF TAF RKSI 302300Z 3100/0106 18005KT 7000 SCT010 BKN025 TX28/3104Z TN23/3116Z TX26/0106Z \n BECMG 3102/3103 24010KT BKN025 \n TEMPO 3103/3106 4000 -SHRA SCT015CB BKN025 OVC080 \n BECMG 3112/3113 18006KT 4000 BR SCT010 BKN025 OVC100 \n BECMG 3117/3118 -RA \n BECMG 0103/0104 6000"
"taf	RKSI	2020-07-30 06:00:00	TAF RKSI 300500Z 3006/3112 26006KT 9999 FEW010 SCT030 BKN180 TN22/3020Z TX28/3104Z \n BECMG 3007/3008 20005KT \n BECMG 3012/3013 23007KT 4000 BR SCT008 BKN030 \n BECMG 3100/3101 7000 NSW"
"taf	RKSI	2020-07-30 06:09:00	TAF RKSI 300500Z 3006/3112 26006KT 9999 FEW010 SCT030 BKN180 TN22/3020Z TX28/3104Z \n BECMG 3007/3008 20005KT \n BECMG 3012/3013 23007KT 4000 BR SCT008 BKN030 \n BECMG 3100/3101 7000 NSW"
"taf	RKSI	2020-07-30 12:00:00	TAF RKSI 301100Z 3012/3118 27006KT 9999 SCT030 BKN180 TN22/3020Z TX28/3104Z \n BECMG 3016/3017 17005KT 4000 BR SCT010 BKN025 \n BECMG 3100/3101 24006KT 7000 NSW \n BECMG 3112/3113 4000 BR BKN005 BKN025"
"taf	RKSI	2020-07-30 12:09:00	TAF RKSI 301100Z 3012/3118 27006KT 9999 SCT030 BKN180 TN22/3020Z TX28/3104Z \n BECMG 3016/3017 17005KT 4000 BR SCT010 BKN025 \n BECMG 3100/3101 24006KT 7000 NSW \n BECMG 3112/3113 4000 BR BKN005 BKN025"
"taf	RKSI	2020-07-30 18:00:00	TAF RKSI 301700Z 3018/3124 35005KT 9999 SCT010 BKN180 TN22/3020Z TX28/3104Z TN23/3116Z \n BECMG 3019/3020 18005KT 6000 \n BECMG 3104/3105 24010KT BKN025 BKN120 \n BECMG 3112/3113 18005KT 4000 BR SCT008 BKN025 OVC100 \n BECMG 3117/3118 -RA"
"taf	RKSI	2020-07-30 18:09:00	TAF RKSI 301700Z 3018/3124 35005KT 9999 SCT010 BKN180 TN22/3020Z TX28/3104Z TN23/3116Z \n BECMG 3019/3020 18005KT 6000 \n BECMG 3104/3105 24010KT BKN025 BKN120 \n BECMG 3112/3113 18005KT 4000 BR SCT008 BKN025 OVC100 \n BECMG 3117/3118 -RA"
"taf	RKSI	2020-07-31 00:00:00	TAF RKSI 312300Z 0100/0206 18013KT 3000 RA BKN005 BKN025 OVC080 TX26/0106Z TN23/0121Z TX27/0206Z \n TEMPO 0103/0107 19015G25KT 1200 TSRA BKN005CB BKN025 OVC080 \n BECMG 0108/0109 20015G25KT 6000 SCT010 BKN025 OVC080 \n BECMG 0111/0112 3000 BKN005 BKN025 OVC080 \n BECMG 0115/0116 -RA \n BECMG 0203/0204 RA"
"taf	RKSI	2020-07-31 00:09:00	TAF RKSI 312300Z 0100/0206 18013KT 3000 RA BKN005 BKN025 OVC080 TX26/0106Z TN23/0121Z TX27/0206Z \n TEMPO 0103/0107 19015G25KT 1200 TSRA BKN005CB BKN025 OVC080 \n BECMG 0108/0109 20015G25KT 6000 SCT010 BKN025 OVC080 \n BECMG 0111/0112 3000 BKN005 BKN025 OVC080 \n BECMG 0115/0116 -RA \n BECMG 0203/0204 RA"
"taf	RKSI	2020-07-31 06:00:00	TAF RKSI 310500Z 3106/0112 25008KT 6000 BKN025 TN23/3116Z TX26/0106Z \n BECMG 3112/3113 18006KT 3000 BR SCT010 BKN025 OVC100 \n BECMG 3116/3117 -RA \n BECMG 3121/3122 6000 \n BECMG 0110/0111 18015G25KT"
"taf	RKSI	2020-07-31 06:09:00	TAF RKSI 310500Z 3106/0112 25008KT 6000 BKN025 TN23/3116Z TX26/0106Z \n BECMG 3112/3113 18006KT 3000 BR SCT010 BKN025 OVC100 \n BECMG 3116/3117 -RA \n BECMG 3121/3122 6000 \n BECMG 0110/0111 18015G25KT"
"taf	RKSI	2020-07-31 09:55:00	TAF \n AMD RKSI 310855Z 3109/0112 18007KT 3000 BR BKN025 TN23/3116Z TX26/0106Z \n TEMPO 3109/3113 23007KT 0800 FG BKN005 BKN030 \n BECMG 3115/3116 -RA \n BECMG 3121/3122 6000 \n BECMG 0110/0111 18015G25KT"
"taf	RKSI	2020-07-31 09:57:00	TAF \n AMD TAF \n AMD RKSI 310855Z 3109/0112 18007KT 3000 BR BKN025 TN23/3116Z TX26/0106Z \n TEMPO 3109/3113 23007KT 0800 FG BKN005 BKN030 \n BECMG 3115/3116 -RA \n BECMG 3121/3122 6000 \n BECMG 0110/0111 18015G25KT"
"taf	RKSI	2020-07-31 12:00:00	TAF \n AMD RKSI 311125Z 3112/0118 23007KT 3500 -RA BKN005 BKN025 OVC070 TN23/3116Z TX26/0106Z \n BECMG 3114/3115 2000 RA \n BECMG 0100/0101 15008KT 4000 \n BECMG 0102/0103 18010KT 6000 -RA SCT010 BKN025 OVC070 \n BECMG 0111/0112 19015G25KT 3000 RA"
"taf	RKSI	2020-07-31 12:09:00	TAF RKSI 311100Z 3112/0118 23007KT 3500 BR BKN005 BKN025 OVC070 TN23/3116Z TX26/0106Z \n BECMG 3113/3114 -RA \n BECMG 3115/3116 2000 RA \n BECMG 0100/0101 15008KT 4000 \n BECMG 0102/0103 18010KT 6000 -RA SCT010 BKN025 OVC070 \n BECMG 0111/0112 19015G25KT 3000 RA"
"taf	RKSI	2020-07-31 12:24:00	TAF \n AMD TAF \n AMD RKSI 311125Z 3112/0118 23007KT 3500 -RA BKN005 BKN025 OVC070 TN23/3116Z TX26/0106Z \n BECMG 3114/3115 2000 RA \n BECMG 0100/0101 15008KT 4000 \n BECMG 0102/0103 18010KT 6000 -RA SCT010 BKN025 OVC070 \n BECMG 0111/0112 19015G25KT 3000 RA"
"taf	RKSI	2020-07-31 12:25:00	TAF \n AMD RKSI 311125Z 3112/0118 23007KT 3500 -RA BKN005 BKN025 OVC070 TN23/3116Z TX26/0106Z \n BECMG 3114/3115 2000 RA \n BECMG 0100/0101 15008KT 4000 \n BECMG 0102/0103 18010KT 6000 -RA SCT010 BKN025 OVC070 \n BECMG 0111/0112 19015G25KT 3000 RA"
"taf	RKSI	2020-07-31 15:05:00	TAF \n AMD RKSI 311505Z 3115/0118 23007KT 3500 -RA BKN002 BKN025 OVC070 TN23/3116Z TX26/0106Z \n BECMG 3117/3118 2000 RA \n BECMG 0100/0101 15008KT 4000 \n BECMG 0102/0103 18010KT 6000 -RA SCT010 BKN025 OVC070 \n BECMG 0111/0112 19015G25KT 3000 RA"
"taf	RKSI	2020-07-31 15:06:00	TAF \n AMD TAF \n AMD RKSI 311505Z 3115/0118 23007KT 3500 -RA BKN002 BKN025 OVC070 TN23/3116Z TX26/0106Z \n BECMG 3117/3118 2000 RA \n BECMG 0100/0101 15008KT 4000 \n BECMG 0102/0103 18010KT 6000 -RA SCT010 BKN025 OVC070 \n BECMG 0111/0112 19015G25KT 3000 RA"
"taf	RKSI	2020-07-31 18:00:00	TAF RKSI 311700Z 3118/0124 18007KT 3000 -RA BKN002 BKN025 OVC070 TN23/3120Z TX26/0106Z TN23/0121Z \n BECMG 3120/3121 15010KT RA \n TEMPO 0103/0107 17015G25KT 1200 TSRA BKN002CB BKN025 OVC070 \n BECMG 0108/0109 19015G25KT 6000 SCT010 BKN025 OVC080 \n BECMG 0111/0112 3000 BKN005 BKN025 OVC080 \n BECMG 0115/0116 19012KT"
"taf	RKSI	2020-07-31 18:09:00	TAF RKSI 311700Z 3118/0124 18007KT 3000 -RA BKN002 BKN025 OVC070 TN23/3120Z TX26/0106Z TN23/0121Z \n BECMG 3120/3121 15010KT RA \n TEMPO 0103/0107 17015G25KT 1200 TSRA BKN002CB BKN025 OVC070 \n BECMG 0108/0109 19015G25KT 6000 SCT010 BKN025 OVC080 \n BECMG 0111/0112 3000 BKN005 BKN025 OVC080 \n BECMG 0115/0116 19012KT"
"taf	RKSI	2020-07-31 18:55:00	TAF \n AMD RKSI 311755Z 3118/0124 18007KT 0400 -RA BKN002 BKN025 OVC070 TN23/3120Z TX26/0106Z TN23/0121Z \n BECMG 3121/3122 15010KT 3000 RA \n TEMPO 0103/0107 17015G25KT 1200 TSRA BKN002CB BKN025 OVC070 \n BECMG 0108/0109 19015G25KT 6000 SCT010 BKN025 OVC080 \n BECMG 0111/0112 3000 BKN005 BKN025 OVC080 \n BECMG 0115/0116 19012KT"
"taf	RKSI	2020-07-31 18:57:00	TAF \n AMD TAF \n AMD RKSI 311755Z 3118/0124 18007KT 0400 -RA BKN002 BKN025 OVC070 TN23/3120Z TX26/0106Z TN23/0121Z \n BECMG 3121/3122 15010KT 3000 RA \n TEMPO 0103/0107 17015G25KT 1200 TSRA BKN002CB BKN025 OVC070 \n BECMG 0108/0109 19015G25KT 6000 SCT010 BKN025 OVC080 \n BECMG 0111/0112 3000 BKN005 BKN025 OVC080 \n BECMG 0115/0116 19012KT"
"taf	RKSI	2020-07-31 19:15:00	TAF \n AMD RKSI 311915Z 3119/0124 18007KT 3000 -RA BKN002 BKN025 OVC070 TN23/3120Z TX26/0106Z TN23/0121Z \n TEMPO 3119/3121 15010KT 0400 RA \n BECMG 3122/3123 RA \n TEMPO 0103/0107 17015G25KT 1200 TSRA BKN002CB BKN025 OVC070 \n BECMG 0108/0109 19015G25KT 6000 SCT010 BKN025 OVC080 \n BECMG 0111/0112 3000 BKN005 BKN025 OVC080"
"taf	RKSI	2020-07-31 19:18:00	TAF \n AMD TAF \n AMD RKSI 311915Z 3119/0124 18007KT 3000 -RA BKN002 BKN025 OVC070 TN23/3120Z TX26/0106Z TN23/0121Z \n TEMPO 3119/3121 15010KT 0400 RA \n BECMG 3122/3123 RA \n TEMPO 0103/0107 17015G25KT 1200 TSRA BKN002CB BKN025 OVC070 \n BECMG 0108/0109 19015G25KT 6000 SCT010 BKN025 OVC080 \n BECMG 0111/0112 3000 BKN005 BKN025 OVC080"
"taf	RKSI	2020-07-31 20:30:00	TAF \n AMD TAF \n AMD RKSI 312030Z 3120/0124 18007KT 4000 BR BKN003 BKN025 OVC070 TN23/3120Z TX26/0106Z TN23/0121Z \n BECMG 3123/3124 2000 RA \n TEMPO 0103/0107 17015G25KT 1200 TSRA BKN003CB BKN025 OVC070 \n BECMG 0108/0109 19015G25KT 6000 SCT010 BKN025 OVC080 \n BECMG 0111/0112 3000 BKN005 BKN025 OVC080"
"taf	RKSI	2020-08-01 00:00:00	TAF RKSI 012300Z 0200/0306 23008KT 1500 -RA BKN003 BKN025 OVC080 TX27/0206Z TN23/0221Z TX27/0306Z \n BECMG 0203/0204 4000 SCT005 BKN025 OVC080 \n TEMPO 0208/0212 2500 TSRA SCT005CB BKN025 OVC080 \n BECMG 0213/0214 19015G30KT 2500 \n BECMG 0217/0218 RA BKN005 BKN025 OVC080 \n TEMPO 0223/0302 1200 TSRA BKN005CB BKN025 OVC080"
"taf	RKSI	2020-08-01 00:09:00	TAF RKSI 012300Z 0200/0306 23008KT 1500 -RA BKN003 BKN025 OVC080 TX27/0206Z TN23/0221Z TX27/0306Z \n BECMG 0203/0204 4000 SCT005 BKN025 OVC080 \n TEMPO 0208/0212 2500 TSRA SCT005CB BKN025 OVC080 \n BECMG 0213/0214 19015G30KT 2500 \n BECMG 0217/0218 RA BKN005 BKN025 OVC080 \n TEMPO 0223/0302 1200 TSRA BKN005CB BKN025 OVC080"
"taf	RKSI	2020-08-01 06:00:00	TAF RKSI 010500Z 0106/0212 19012KT 6000 RA SCT010 BKN025 OVC070 TN23/0121Z TX27/0206Z \n TEMPO 0106/0109 3000 TSRA SCT010CB BKN025 OVC070 \n BECMG 0110/0111 -RA \n BECMG 0112/0113 3000 BKN005 BKN025 OVC070 \n BECMG 0120/0121 6000 SCT010 BKN025 OVC070 \n TEMPO 0207/0211 3000 TSRA SCT010CB BKN025 OVC070"
"taf	RKSI	2020-08-01 06:09:00	TAF RKSI 010500Z 0106/0212 19012KT 6000 RA SCT010 BKN025 OVC070 TN23/0121Z TX27/0206Z \n TEMPO 0106/0109 3000 TSRA SCT010CB BKN025 OVC070 \n BECMG 0110/0111 -RA \n BECMG 0112/0113 3000 BKN005 BKN025 OVC070 \n BECMG 0120/0121 6000 SCT010 BKN025 OVC070 \n TEMPO 0207/0211 3000 TSRA SCT010CB BKN025 OVC070"
"taf	RKSI	2020-08-01 07:35:00	TAF \n AMD RKSI 010635Z 0107/0212 19012KT 6000 RA SCT010 BKN025 OVC070 TN23/0121Z TX27/0206Z \n TEMPO 0109/0115 3000 TSRA SCT010CB BKN025 OVC070 \n BECMG 0115/0116 3000 -RA BKN005 BKN025 OVC070 \n BECMG 0120/0121 6000 SCT010 BKN025 OVC070 \n TEMPO 0207/0211 3000 TSRA SCT010CB BKN025 OVC070"
"taf	RKSI	2020-08-01 07:36:00	TAF \n AMD TAF \n AMD RKSI 010635Z 0107/0212 19012KT 6000 RA SCT010 BKN025 OVC070 TN23/0121Z TX27/0206Z \n TEMPO 0109/0115 3000 TSRA SCT010CB BKN025 OVC070 \n BECMG 0115/0116 3000 -RA BKN005 BKN025 OVC070 \n BECMG 0120/0121 6000 SCT010 BKN025 OVC070 \n TEMPO 0207/0211 3000 TSRA SCT010CB BKN025 OVC070"
"taf	RKSI	2020-08-01 08:50:00	TAF \n AMD RKSI 010750Z 0108/0212 19012KT 6000 -RA SCT010 BKN025 OVC070 TN23/0121Z TX27/0206Z \n BECMG 0115/0116 3000 BKN005 BKN025 OVC070 \n BECMG 0120/0121 6000 SCT010 BKN025 OVC070 \n TEMPO 0207/0211 3000 TSRA SCT010CB BKN025 OVC070"
"taf	RKSI	2020-08-01 08:51:00	TAF \n AMD TAF \n AMD RKSI 010750Z 0108/0212 19012KT 6000 -RA SCT010 BKN025 OVC070 TN23/0121Z TX27/0206Z \n BECMG 0115/0116 3000 BKN005 BKN025 OVC070 \n BECMG 0120/0121 6000 SCT010 BKN025 OVC070 \n TEMPO 0207/0211 3000 TSRA SCT010CB BKN025 OVC070"
"taf	RKSI	2020-08-01 12:00:00	TAF RKSI 011100Z 0112/0218 22012KT 6000 -RA SCT010 BKN030 OVC080 TN23/0121Z TX27/0206Z \n BECMG 0113/0114 3000 BKN005 BKN025 OVC070 \n BECMG 0120/0121 6000 SCT010 BKN025 OVC070 \n BECMG 0205/0206 RA \n TEMPO 0208/0212 3000 TSRA SCT010CB BKN025 OVC070 \n BECMG 0212/0213 19015G25KT 4000 -RA"
"taf	RKSI	2020-08-01 12:09:00	TAF RKSI 011100Z 0112/0218 22012KT 6000 -RA SCT010 BKN030 OVC080 TN23/0121Z TX27/0206Z \n BECMG 0113/0114 3000 BKN005 BKN025 OVC070 \n BECMG 0120/0121 6000 SCT010 BKN025 OVC070 \n BECMG 0205/0206 RA \n TEMPO 0208/0212 3000 TSRA SCT010CB BKN025 OVC070 \n BECMG 0212/0213 19015G25KT 4000 -RA"
"taf	RKSI	2020-08-01 18:00:00	TAF \n AMD TAF \n AMD RKSI 011800Z 0118/0224 24007KT 2000 BR BKN006 BKN025 OVC080 TN23/0121Z TX27/0206Z TN23/0221Z \n TEMPO 0118/0121 0400 FG BKN001 \n BECMG 0122/0123 20007KT 6000 -RA SCT010 BKN025 OVC080 \n TEMPO 0208/0212 3000 TSRA SCT010CB BKN025 OVC070 \n BECMG 0213/0214 19015G25KT 4000 \n BECMG 0217/0218 20018G35KT RA"
"taf	RKSI	2020-08-01 18:09:00	TAF TAF RKSI 011700Z 0118/0224 24007KT 3000 BR BKN006 BKN025 OVC080 TN23/0121Z TX27/0206Z TN23/0221Z \n TEMPO 0118/0120 1200 -RA BKN002 BKN025 OVC080 \n BECMG 0121/0122 20007KT 6000 -RA SCT010 BKN025 OVC080 \n TEMPO 0208/0212 3000 TSRA SCT010CB BKN025 OVC070 \n BECMG 0213/0214 19015G25KT 4000 \n BECMG 0217/0218 20018G35KT RA"
"taf	RKSI	2020-08-02 00:00:00	TAF \n AMD RKSI 022329Z 0300/0406 20015G25KT 4000 RA BKN005 BKN025 OVC070 TX27/0306Z TN23/0321Z TX27/0406Z \n BECMG 0312/0313 -RA SCT010 BKN025 OVC070 \n BECMG 0316/0317 2500 RA \n TEMPO 0321/0324 TSRA SCT010CB BKN025 OVC070 \n BECMG 0401/0402 6000 -RA"
"taf	RKSI	2020-08-02 00:09:00	TAF RKSI 022300Z 0300/0406 20015G25KT 6000 -RA SCT010 BKN025 OVC070 TX27/0306Z TN23/0321Z TX27/0406Z \n BECMG 0312/0313 4000 \n BECMG 0316/0317 2500 RA \n TEMPO 0321/0324 TSRA BKN005CB BKN025 OVC070 \n BECMG 0401/0402 6000 -RA"
"taf	RKSI	2020-08-02 00:25:00	TAF \n AMD RKSI 022325Z 0300/0406 20015G25KT 4000 RA BKN005 BKN025 OVC070 TX27/0306Z TN23/0321Z TX27/0406Z \n BECMG 0312/0313 -RA SCT010 BKN025 OVC070 \n BECMG 0316/0317 2500 RA \n TEMPO 0321/0324 TSRA BKN005CB BKN025 OVC070 \n BECMG 0401/0402 6000 -RA"
"taf	RKSI	2020-08-02 00:27:00	TAF \n AMD TAF \n AMD RKSI 022325Z 0300/0406 20015G25KT 4000 RA BKN005 BKN025 OVC070 TX27/0306Z TN23/0321Z TX27/0406Z \n BECMG 0312/0313 -RA SCT010 BKN025 OVC070 \n BECMG 0316/0317 2500 RA \n TEMPO 0321/0324 TSRA BKN005CB BKN025 OVC070 \n BECMG 0401/0402 6000 -RA"
"taf	RKSI	2020-08-02 00:29:00	TAF \n AMD RKSI 022329Z 0300/0406 20015G25KT 4000 RA BKN005 BKN025 OVC070 TX27/0306Z TN23/0321Z TX27/0406Z \n BECMG 0312/0313 -RA SCT010 BKN025 OVC070 \n BECMG 0316/0317 2500 RA \n TEMPO 0321/0324 TSRA SCT010CB BKN025 OVC070 \n BECMG 0401/0402 6000 -RA"
"taf	RKSI	2020-08-02 00:33:00	TAF \n AMD TAF \n AMD RKSI 022329Z 0300/0406 20015G25KT 4000 RA BKN005 BKN025 OVC070 TX27/0306Z TN23/0321Z TX27/0406Z \n BECMG 0312/0313 -RA SCT010 BKN025 OVC070 \n BECMG 0316/0317 2500 RA \n TEMPO 0321/0324 TSRA SCT010CB BKN025 OVC070 \n BECMG 0401/0402 6000 -RA"
"taf	RKSI	2020-08-02 00:45:00	TAF \n AMD RKSI 022345Z 0300/0406 20015G25KT 4000 RA BKN005 BKN025 OVC070 TX27/0306Z TN23/0321Z TX27/0406Z \n TEMPO 0300/0305 TSRA SCT010CB BKN025 OVC070 \n BECMG 0312/0313 -RA SCT010 BKN025 OVC070 \n BECMG 0316/0317 2500 RA \n TEMPO 0321/0324 TSRA SCT010CB BKN025 OVC070 \n BECMG 0401/0402 6000 -RA"
"taf	RKSI	2020-08-02 00:48:00	TAF \n AMD TAF \n AMD RKSI 022345Z 0300/0406 20015G25KT 4000 RA BKN005 BKN025 OVC070 TX27/0306Z TN23/0321Z TX27/0406Z \n TEMPO 0300/0305 TSRA SCT010CB BKN025 OVC070 \n BECMG 0312/0313 -RA SCT010 BKN025 OVC070 \n BECMG 0316/0317 2500 RA \n TEMPO 0321/0324 TSRA SCT010CB BKN025 OVC070 \n BECMG 0401/0402 6000 -RA"
"taf	RKSI	2020-08-02 05:32:00	TAF \n AMD RKSI 020432Z 0205/0306 23008KT 4000 -RA BKN008 BKN025 OVC080 TX27/0206Z TN23/0221Z TX27/0306Z \n TEMPO 0206/0208 2500 TSRA SCT010CB BKN025 OVC080 \n BECMG 0213/0214 19015G30KT 2500 \n BECMG 0217/0218 RA BKN005 BKN025 OVC080 \n TEMPO 0223/0302 1200 TSRA BKN005CB BKN025 OVC080"
"taf	RKSI	2020-08-02 05:36:00	TAF \n AMD TAF \n AMD RKSI 020432Z 0205/0306 23008KT 4000 -RA BKN008 BKN025 OVC080 TX27/0206Z TN23/0221Z TX27/0306Z \n TEMPO 0206/0208 2500 TSRA SCT010CB BKN025 OVC080 \n BECMG 0213/0214 19015G30KT 2500 \n BECMG 0217/0218 RA BKN005 BKN025 OVC080 \n TEMPO 0223/0302 1200 TSRA BKN005CB BKN025 OVC080"
"taf	RKSI	2020-08-02 06:00:00	TAF \n AMD TAF \n AMD RKSI 020557Z 0206/0312 22015G25KT 4000 -RA BKN007 BKN025 OVC080 TN23/0221Z TX27/0306Z \n TEMPO 0206/0208 22025G35KT 2500 TSRA SCT010CB BKN025 OVC070 \n BECMG 0216/0217 2500 RA SCT010 BKN025 OVC080 \n TEMPO 0218/0222 TSRA SCT010CB BKN025 OVC070 \n BECMG 0223/0224 22015G25KT 4000 -RA"
"taf	RKSI	2020-08-02 06:09:00	TAF TAF RKSI 020500Z 0206/0312 21015G25KT 4000 -RA BKN007 BKN025 OVC080 TN23/0221Z TX27/0306Z \n TEMPO 0206/0208 2500 TSRA SCT010CB BKN025 OVC070 \n BECMG 0216/0217 22020G35KT 2500 RA SCT010 BKN025 OVC080 \n TEMPO 0218/0222 TSRA SCT010CB BKN025 OVC070 \n BECMG 0223/0224 22015G25KT 4000 -RA"
"taf	RKSI	2020-08-02 06:57:00	TAF \n AMD RKSI 020557Z 0206/0312 22015G25KT 4000 -RA BKN007 BKN025 OVC080 TN23/0221Z TX27/0306Z \n TEMPO 0206/0208 22025G35KT 2500 TSRA SCT010CB BKN025 OVC070 \n BECMG 0216/0217 2500 RA SCT010 BKN025 OVC080 \n TEMPO 0218/0222 TSRA SCT010CB BKN025 OVC070 \n BECMG 0223/0224 22015G25KT 4000 -RA"
"taf	RKSI	2020-08-02 07:32:00	TAF \n AMD RKSI 020632Z 0207/0312 22015G25KT 4000 -RA BKN007 BKN025 OVC080 TN23/0221Z TX27/0306Z \n TEMPO 0207/0208 22025G35KT 2500 TSRA SCT010CB BKN025 OVC070 \n BECMG 0216/0217 2500 RA SCT010 BKN025 OVC080 \n TEMPO 0218/0222 TSRA SCT010CB BKN025 OVC070 \n BECMG 0223/0224 4000 -RA"
"taf	RKSI	2020-08-02 07:36:00	TAF \n AMD TAF \n AMD RKSI 020632Z 0207/0312 22015G25KT 4000 -RA BKN007 BKN025 OVC080 TN23/0221Z TX27/0306Z \n TEMPO 0207/0208 22025G35KT 2500 TSRA SCT010CB BKN025 OVC070 \n BECMG 0216/0217 2500 RA SCT010 BKN025 OVC080 \n TEMPO 0218/0222 TSRA SCT010CB BKN025 OVC070 \n BECMG 0223/0224 4000 -RA"
"taf	RKSI	2020-08-02 09:41:00	TAF \n AMD RKSI 020841Z 0209/0312 22015G25KT 7000 -RA SCT010 BKN025 OVC080 TN23/0221Z TX27/0306Z \n BECMG 0216/0217 2500 RA \n TEMPO 0218/0222 TSRA SCT010CB BKN025 OVC070 \n BECMG 0223/0224 4000 -RA"
"taf	RKSI	2020-08-02 09:45:00	TAF \n AMD TAF \n AMD RKSI 020841Z 0209/0312 22015G25KT 7000 -RA SCT010 BKN025 OVC080 TN23/0221Z TX27/0306Z \n BECMG 0216/0217 2500 RA \n TEMPO 0218/0222 TSRA SCT010CB BKN025 OVC070 \n BECMG 0223/0224 4000 -RA"
"taf	RKSI	2020-08-02 12:00:00	TAF RKSI 021100Z 0212/0318 18015G25KT 4000 -RA BKN005 BKN025 OVC080 TN23/0221Z TX27/0306Z \n BECMG 0216/0217 2500 RA \n TEMPO 0218/0222 19020G35KT TSRA SCT007CB BKN025 OVC070 \n BECMG 0223/0224 4000 -RA SCT010 BKN025 OVC080"
"taf	RKSI	2020-08-02 12:09:00	TAF RKSI 021100Z 0212/0318 18015G25KT 4000 -RA BKN005 BKN025 OVC080 TN23/0221Z TX27/0306Z \n BECMG 0216/0217 2500 RA \n TEMPO 0218/0222 19020G35KT TSRA SCT007CB BKN025 OVC070 \n BECMG 0223/0224 4000 -RA SCT010 BKN025 OVC080"
"taf	RKSI	2020-08-02 18:00:00	TAF RKSI 021700Z 0218/0324 20025G35KT 3000 RA BKN005 BKN025 OVC070 TN23/0221Z TX27/0306Z TN23/0321Z \n TEMPO 0218/0222 TSRA BKN005CB BKN025 OVC070 \n BECMG 0223/0224 20015G25KT 6000 -RA SCT010 BKN025 OVC070 \n BECMG 0312/0313 4000 \n BECMG 0316/0317 2500 RA \n TEMPO 0321/0324 TSRA BKN005CB BKN025 OVC070"
"taf	RKSI	2020-08-02 18:09:00	TAF RKSI 021700Z 0218/0324 20025G35KT 3000 RA BKN005 BKN025 OVC070 TN23/0221Z TX27/0306Z TN23/0321Z \n TEMPO 0218/0222 TSRA BKN005CB BKN025 OVC070 \n BECMG 0223/0224 20015G25KT 6000 -RA SCT010 BKN025 OVC070 \n BECMG 0312/0313 4000 \n BECMG 0316/0317 2500 RA \n TEMPO 0321/0324 TSRA BKN005CB BKN025 OVC070"
"taf	RKSI	2020-08-03 00:00:00	TAF RKSI 032300Z 0400/0506 21015G25KT 4000 -RA BKN010 BKN025 OVC080 TX27/0406Z TN24/0421Z TX28/0506Z \n BECMG 0406/0407 21010KT 6000 \n TEMPO 0407/0410 3000 RA SCT008CB BKN020 OVC070 \n BECMG 0414/0415 4000 \n TEMPO 0421/0501 16010KT 2500 TSRA SCT008CB BKN020 OVC070 \n BECMG 0502/0503 16010KT RA"
"taf	RKSI	2020-08-03 00:06:00	TAF RKSI 032300Z 0400/0506 21015G25KT 4000 -RA BKN010 BKN025 OVC080 TX27/0406Z TN24/0421Z TX28/0506Z \n BECMG 0406/0407 21010KT 6000 \n TEMPO 0407/0410 3000 RA SCT008CB BKN020 OVC070 \n BECMG 0414/0415 4000 \n TEMPO 0421/0501 16010KT 2500 TSRA SCT008CB BKN020 OVC070 \n BECMG 0502/0503 16010KT RA"
"taf	RKSI	2020-08-03 02:04:00	TAF \n AMD RKSI 030204Z 0302/0406 20015G25KT 4000 -RA BKN006 BKN025 OVC070 TX27/0306Z TN23/0321Z TX27/0406Z \n BECMG 0305/0306 SCT010 BKN025 OVC070 \n BECMG 0316/0317 2500 RA \n TEMPO 0321/0324 TSRA SCT010CB BKN025 OVC070 \n BECMG 0401/0402 6000 -RA"
"taf	RKSI	2020-08-03 02:06:00	TAF \n AMD TAF \n AMD RKSI 030204Z 0302/0406 20015G25KT 4000 -RA BKN006 BKN025 OVC070 TX27/0306Z TN23/0321Z TX27/0406Z \n BECMG 0305/0306 SCT010 BKN025 OVC070 \n BECMG 0316/0317 2500 RA \n TEMPO 0321/0324 TSRA SCT010CB BKN025 OVC070 \n BECMG 0401/0402 6000 -RA"
"taf	RKSI	2020-08-03 06:00:00	TAF RKSI 030500Z 0306/0412 19010KT 6000 -RA BKN007 BKN025 OVC080 TN23/0321Z TX27/0406Z \n TEMPO 0311/0313 2500 TSRA SCT010CB BKN025 OVC070 \n BECMG 0316/0317 4000 RA \n TEMPO 0321/0323 2500 TSRA SCT010CB BKN025 OVC070 \n BECMG 0400/0401 20015G25KT 6000 -RA \n BECMG 0409/0410 19010KT"
"taf	RKSI	2020-08-03 06:09:00	TAF RKSI 030500Z 0306/0412 19010KT 6000 -RA BKN007 BKN025 OVC080 TN23/0321Z TX27/0406Z \n TEMPO 0311/0313 2500 TSRA SCT010CB BKN025 OVC070 \n BECMG 0316/0317 4000 RA \n TEMPO 0321/0323 2500 TSRA SCT010CB BKN025 OVC070 \n BECMG 0400/0401 20015G25KT 6000 -RA \n BECMG 0409/0410 19010KT"
"taf	RKSI	2020-08-03 12:00:00	TAF RKSI 031100Z 0312/0418 18010KT 6000 -RA SCT010 BKN025 OVC080 TN23/0321Z TX27/0406Z \n BECMG 0316/0317 4000 RA \n TEMPO 0321/0323 2500 TSRA SCT010CB BKN025 OVC070 \n BECMG 0400/0401 20015G25KT 6000 -RA \n BECMG 0409/0410 19010KT \n BECMG 0414/0415 4000 RA"
"taf	RKSI	2020-08-03 12:09:00	TAF RKSI 031100Z 0312/0418 18010KT 6000 -RA SCT010 BKN025 OVC080 TN23/0321Z TX27/0406Z \n BECMG 0316/0317 4000 RA \n TEMPO 0321/0323 2500 TSRA SCT010CB BKN025 OVC070 \n BECMG 0400/0401 20015G25KT 6000 -RA \n BECMG 0409/0410 19010KT \n BECMG 0414/0415 4000 RA"
"taf	RKSI	2020-08-03 18:00:00	TAF RKSI 031700Z 0318/0424 20015G25KT 4000 -RA BKN010 BKN020 OVC080 TN23/0321Z TX27/0406Z TN24/0421Z \n BECMG 0322/0323 6000 SCT010 BKN025 OVC080 \n TEMPO 0323/0401 3000 -TSRA SCT008CB BKN020 OVC070 \n BECMG 0406/0407 20012KT \n BECMG 0414/0415 4000 RA \n TEMPO 0421/0424 16010KT 2500 TSRA SCT008CB BKN020 OVC070"
"taf	RKSI	2020-08-03 18:09:00	TAF RKSI 031700Z 0318/0424 20015G25KT 4000 -RA BKN010 BKN020 OVC080 TN23/0321Z TX27/0406Z TN24/0421Z \n BECMG 0322/0323 6000 SCT010 BKN025 OVC080 \n TEMPO 0323/0401 3000 -TSRA SCT008CB BKN020 OVC070 \n BECMG 0406/0407 20012KT \n BECMG 0414/0415 4000 RA \n TEMPO 0421/0424 16010KT 2500 TSRA SCT008CB BKN020 OVC070"
"taf	RKSI	2020-08-04 00:00:00	TAF RKSI 042300Z 0500/0606 18010KT 4000 RA SCT010 BKN025 OVC080 TX28/0505Z TN23/0521Z TX27/0605Z \n BECMG 0504/0505 -RA \n BECMG 0512/0513 16015G25KT \n TEMPO 0518/0521 18025G35KT 2000 TSRA BKN005 SCT010CB BKN020 OVC070 \n BECMG 0522/0523 24020G30KT"
"taf	RKSI	2020-08-04 00:09:00	TAF RKSI 042300Z 0500/0606 18010KT 4000 RA SCT010 BKN025 OVC080 TX28/0505Z TN23/0521Z TX27/0605Z \n BECMG 0504/0505 -RA \n BECMG 0512/0513 16015G25KT \n TEMPO 0518/0521 18025G35KT 2000 TSRA BKN005 SCT010CB BKN020 OVC070 \n BECMG 0522/0523 24020G30KT"
"taf	RKSI	2020-08-04 06:00:00	TAF RKSI 040500Z 0406/0512 22010G20KT 6000 SCT010 BKN025 OVC080 TN24/0421Z TX28/0505Z \n TEMPO 0407/0410 -RA SCT015CB BKN025 OVC070 \n BECMG 0411/0412 19010KT 4000 -RA BKN008 BKN025 OVC080 \n TEMPO 0421/0500 2500 TSRA BKN008 SCT015CB BKN025 OVC070 \n BECMG 0500/0501 RA \n TEMPO 0510/0512 17015G25KT 2000 TSRA SCT007 BKN015CB BKN025 OVC060"
"taf	RKSI	2020-08-04 06:09:00	TAF RKSI 040500Z 0406/0512 22010G20KT 6000 SCT010 BKN025 OVC080 TN24/0421Z TX28/0505Z \n TEMPO 0407/0410 -RA SCT015CB BKN025 OVC070 \n BECMG 0411/0412 19010KT 4000 -RA BKN008 BKN025 OVC080 \n TEMPO 0421/0500 2500 TSRA BKN008 SCT015CB BKN025 OVC070 \n BECMG 0500/0501 RA \n TEMPO 0510/0512 17015G25KT 2000 TSRA SCT007 BKN015CB BKN025 OVC060"
"taf	RKSI	2020-08-04 12:00:00	TAF RKSI 041100Z 0412/0518 21010KT 6000 BKN030 OVC100 TN24/0421Z TX28/0505Z \n BECMG 0416/0417 18010KT 4000 -RA SCT010 BKN025 OVC080 \n TEMPO 0421/0424 18015G25KT 2500 TSRA BKN008 SCT015CB BKN025 OVC070 \n BECMG 0500/0501 RA BKN008 BKN025 OVC080 \n BECMG 0511/0512 16015G25KT \n TEMPO 0516/0518 17020G35KT 2000 +TSRA BKN006 BKN015CB OVC060"
"taf	RKSI	2020-08-04 12:09:00	TAF RKSI 041100Z 0412/0518 21010KT 6000 BKN030 OVC100 TN24/0421Z TX28/0505Z \n BECMG 0416/0417 18010KT 4000 -RA SCT010 BKN025 OVC080 \n TEMPO 0421/0424 18015G25KT 2500 TSRA BKN008 SCT015CB BKN025 OVC070 \n BECMG 0500/0501 RA BKN008 BKN025 OVC080 \n BECMG 0511/0512 16015G25KT \n TEMPO 0516/0518 17020G35KT 2000 +TSRA BKN006 BKN015CB OVC060"
"taf	RKSI	2020-08-04 13:11:00	TAF \n AMD RKSI 041311Z 0413/0518 21010KT 6000 -RA BKN030 OVC100 TN24/0421Z TX28/0505Z \n BECMG 0416/0417 18010KT 4000 SCT010 BKN025 OVC080 \n TEMPO 0421/0424 18015G25KT 2500 TSRA BKN008 SCT015CB BKN025 OVC070 \n BECMG 0500/0501 RA BKN008 BKN025 OVC080 \n BECMG 0511/0512 16015G25KT \n TEMPO 0516/0518 17020G35KT 2000 +TSRA BKN006 BKN015CB OVC060"
"taf	RKSI	2020-08-04 13:15:00	TAF \n AMD TAF \n AMD RKSI 041311Z 0413/0518 21010KT 6000 -RA BKN030 OVC100 TN24/0421Z TX28/0505Z \n BECMG 0416/0417 18010KT 4000 SCT010 BKN025 OVC080 \n TEMPO 0421/0424 18015G25KT 2500 TSRA BKN008 SCT015CB BKN025 OVC070 \n BECMG 0500/0501 RA BKN008 BKN025 OVC080 \n BECMG 0511/0512 16015G25KT \n TEMPO 0516/0518 17020G35KT 2000 +TSRA BKN006 BKN015CB OVC060"
"taf	RKSI	2020-08-04 18:00:00	TAF RKSI 041700Z 0418/0524 18010KT 4000 -RA SCT010 BKN025 OVC080 TN24/0421Z TX28/0505Z TN23/0521Z \n TEMPO 0421/0424 18015G25KT 2500 TSRA SCT015CB BKN025 OVC070 \n BECMG 0500/0501 RA BKN008 BKN025 OVC080 \n BECMG 0506/0507 -RA \n BECMG 0512/0513 16015G25KT \n TEMPO 0516/0520 18025G35KT 2000 TSRA BKN006 SCT010CB BKN020 OVC070"
"taf	RKSI	2020-08-04 18:09:00	TAF RKSI 041700Z 0418/0524 18010KT 4000 -RA SCT010 BKN025 OVC080 TN24/0421Z TX28/0505Z TN23/0521Z \n TEMPO 0421/0424 18015G25KT 2500 TSRA SCT015CB BKN025 OVC070 \n BECMG 0500/0501 RA BKN008 BKN025 OVC080 \n BECMG 0506/0507 -RA \n BECMG 0512/0513 16015G25KT \n TEMPO 0516/0520 18025G35KT 2000 TSRA BKN006 SCT010CB BKN020 OVC070"
"taf	RKSI	2020-08-05 00:00:00	TAF RKSI 052300Z 0600/0706 27015G25KT 6000 BKN005 BKN020 OVC080 TX27/0606Z TN23/0621Z TX25/0705Z \n TEMPO 0600/0603 -RA \n BECMG 0604/0605 BKN030 BKN150 \n BECMG 0608/0609 24010KT \n BECMG 0615/0616 4000 BR \n BECMG 0621/0622 17006KT 6000 NSW"
"taf	RKSI	2020-08-05 00:09:00	TAF TAF RKSI 052300Z 0600/0706 27015G25KT 6000 BKN005 BKN020 OVC080 TX27/0606Z TN23/0621Z TX25/0705Z \n TEMPO 0600/0603 -RA \n BECMG 0604/0605 BKN030 BKN150 \n BECMG 0608/0609 24010KT \n BECMG 0615/0616 4000 BR \n BECMG 0621/0622 17006KT 6000 NSW"
"taf	RKSI	2020-08-05 06:00:00	TAF RKSI 050500Z 0506/0612 18010KT 6000 -RA SCT010 BKN025 OVC080 TN23/0523Z TX27/0606Z \n BECMG 0512/0513 17015G25KT 4000 RA BKN010 BKN020 OVC080 \n TEMPO 0518/0522 22025G35KT 2000 +TSRA BKN005 SCT015CB BKN025 OVC070 \n BECMG 0522/0523 24018G35KT SCT008 BKN025 OVC080 \n BECMG 0600/0601 27015G30KT 6000 -RA \n BECMG 0607/0608 24010KT NSW"
"taf	RKSI	2020-08-05 06:09:00	TAF RKSI 050500Z 0506/0612 18010KT 6000 -RA SCT010 BKN025 OVC080 TN23/0523Z TX27/0606Z \n BECMG 0512/0513 17015G25KT 4000 RA BKN010 BKN020 OVC080 \n TEMPO 0518/0522 22025G35KT 2000 +TSRA BKN005 SCT015CB BKN025 OVC070 \n BECMG 0522/0523 24018G35KT SCT008 BKN025 OVC080 \n BECMG 0600/0601 27015G30KT 6000 -RA \n BECMG 0607/0608 24010KT NSW"
"taf	RKSI	2020-08-05 10:20:00	TAF \n AMD RKSI 051020Z 0510/0612 14010KT 2000 SHRA SCT005 BKN015CB BKN025 OVC070 TN23/0523Z TX27/0606Z \n BECMG 0512/0513 17015G25KT 4000 RA BKN010 BKN020 OVC080 \n TEMPO 0518/0522 22025G35KT 2000 +TSRA BKN005 SCT015CB BKN025 OVC070 \n BECMG 0522/0523 24018G35KT \n BECMG 0600/0601 27015G30KT 6000 -RA SCT008 BKN025 OVC080 \n BECMG 0607/0608 24010KT NSW"
"taf	RKSI	2020-08-05 10:24:00	TAF \n AMD TAF \n AMD RKSI 051020Z 0510/0612 14010KT 2000 SHRA SCT005 BKN015CB BKN025 OVC070 TN23/0523Z TX27/0606Z \n BECMG 0512/0513 17015G25KT 4000 RA BKN010 BKN020 OVC080 \n TEMPO 0518/0522 22025G35KT 2000 +TSRA BKN005 SCT015CB BKN025 OVC070 \n BECMG 0522/0523 24018G35KT \n BECMG 0600/0601 27015G30KT 6000 -RA SCT008 BKN025 OVC080 \n BECMG 0607/0608 24010KT NSW"
"taf	RKSI	2020-08-05 12:00:00	TAF RKSI 051100Z 0512/0618 16015G25KT 4000 RA BKN010 BKN020 OVC080 TN23/0523Z TX27/0606Z \n TEMPO 0512/0514 2000 SHRA BKN006 SCT015CB BKN025 OVC070 \n TEMPO 0518/0522 22025G35KT 2000 +TSRA BKN005 SCT015CB BKN025 OVC070 \n BECMG 0522/0523 23018G35KT \n BECMG 0600/0601 27015G30KT 6000 -RA SCT008 BKN025 OVC080 \n BECMG 0608/0609 24010KT NSW"
"taf	RKSI	2020-08-05 12:09:00	TAF TAF RKSI 051100Z 0512/0618 16015G25KT 4000 RA BKN010 BKN020 OVC080 TN23/0523Z TX27/0606Z \n TEMPO 0512/0514 2000 SHRA BKN006 SCT015CB BKN025 OVC070 \n TEMPO 0518/0522 22025G35KT 2000 +TSRA BKN005 SCT015CB BKN025 OVC070 \n BECMG 0522/0523 23018G35KT \n BECMG 0600/0601 27015G30KT 6000 -RA SCT008 BKN025 OVC080 \n BECMG 0608/0609 24010KT NSW"
"taf	RKSI	2020-08-05 14:45:00	TAF \n AMD RKSI 051345Z 0514/0618 16015G25KT 4000 RA BKN010 BKN020 OVC080 TN23/0523Z TX27/0606Z \n BECMG 0515/0516 17025G35KT \n TEMPO 0518/0522 2000 +TSRA BKN005 SCT015CB BKN025 OVC070 \n BECMG 0522/0523 23018G35KT \n BECMG 0600/0601 27015G30KT 6000 -RA SCT008 BKN025 OVC080 \n BECMG 0608/0609 24010KT NSW"
"taf	RKSI	2020-08-05 14:48:00	TAF \n AMD RKSI 051345Z 0514/0618 16015G25KT 4000 RA BKN010 BKN020 OVC080 TN23/0523Z TX27/0606Z \n BECMG 0515/0516 17025G35KT \n TEMPO 0518/0522 2000 +TSRA BKN005 SCT015CB BKN025 OVC070 \n BECMG 0522/0523 23018G35KT \n BECMG 0600/0601 27015G30KT 6000 -RA SCT008 BKN025 OVC080 \n BECMG 0608/0609 24010KT NSW"
"taf	RKSI	2020-08-05 18:00:00	TAF RKSI 051700Z 0518/0624 21025G35KT 4000 RA BKN008 BKN020 OVC080 TN23/0523Z TX27/0606Z TN23/0621Z \n BECMG 0600/0601 27015G25KT 6000 -RA SCT008 BKN025 OVC080 \n BECMG 0606/0607 NSW \n BECMG 0608/0609 24010KT SCT030 \n BECMG 0615/0616 4000 BR"
"taf	RKSI	2020-08-05 18:09:00	TAF RKSI 051700Z 0518/0624 21025G35KT 4000 RA BKN008 BKN020 OVC080 TN23/0523Z TX27/0606Z TN23/0621Z \n BECMG 0600/0601 27015G25KT 6000 -RA SCT008 BKN025 OVC080 \n BECMG 0606/0607 NSW \n BECMG 0608/0609 24010KT SCT030 \n BECMG 0615/0616 4000 BR"
"taf	RKSI	2020-08-06 00:00:00	TAF RKSI 062300Z 0700/0806 13006KT 7000 FEW010 SCT025 OVC120 TX25/0705Z TN22/0722Z TX26/0806Z \n BECMG 0702/0703 03010KT -RA SCT010 BKN025 OVC100 \n BECMG 0708/0709 09007KT NSW \n BECMG 0714/0715 06007KT 4000 -RA \n BECMG 0719/0720 16006KT \n BECMG 0802/0803 13007KT RA"
"taf	RKSI	2020-08-06 00:09:00	TAF RKSI 062300Z 0700/0806 13006KT 7000 FEW010 SCT025 OVC120 TX25/0705Z TN22/0722Z TX26/0806Z \n BECMG 0702/0703 03010KT -RA SCT010 BKN025 OVC100 \n BECMG 0708/0709 09007KT NSW \n BECMG 0714/0715 06007KT 4000 -RA \n BECMG 0719/0720 16006KT \n BECMG 0802/0803 13007KT RA"
"taf	RKSI	2020-08-06 06:00:00	TAF RKSI 060500Z 0606/0712 27010KT 6000 BKN030 BKN150 TN23/0621Z TX25/0705Z \n BECMG 0615/0616 24010KT 4000 BR SCT008 BKN030 BKN100 \n BECMG 0621/0622 17006KT 6000 NSW BKN030 BKN150 \n TEMPO 0706/0709 12008KT -RA"
"taf	RKSI	2020-08-06 06:09:00	TAF RKSI 060500Z 0606/0712 27010KT 6000 BKN030 BKN150 TN23/0621Z TX25/0705Z \n BECMG 0615/0616 24010KT 4000 BR SCT008 BKN030 BKN100 \n BECMG 0621/0622 17006KT 6000 NSW BKN030 BKN150 \n TEMPO 0706/0709 12008KT -RA"
"taf	RKSI	2020-08-06 12:00:00	TAF RKSI 061100Z 0612/0718 26010KT 9999 SCT030 BKN150 TN23/0621Z TX25/0705Z \n BECMG 0615/0616 23010KT 4000 BR SCT008 BKN025 BKN150 \n BECMG 0621/0622 17006KT 6000 NSW SCT030 BKN150 \n BECMG 0704/0705 12008KT -RA SCT010 BKN025 OVC100 \n BECMG 0711/0712 06007KT"
"taf	RKSI	2020-08-06 12:09:00	TAF RKSI 061100Z 0612/0718 26010KT 9999 SCT030 BKN150 TN23/0621Z TX25/0705Z \n BECMG 0615/0616 23010KT 4000 BR SCT008 BKN025 BKN150 \n BECMG 0621/0622 17006KT 6000 NSW SCT030 BKN150 \n BECMG 0704/0705 12008KT -RA SCT010 BKN025 OVC100 \n BECMG 0711/0712 06007KT"
"taf	RKSI	2020-08-06 18:00:00	TAF RKSI 061700Z 0618/0724 26005KT 6000 BKN006 BKN180 TN22/0621Z TX25/0705Z TN22/0722Z \n TEMPO 0620/0623 18005KT -RA \n BECMG 0623/0624 13006KT SCT008 BKN150 \n BECMG 0702/0703 08010KT -RA SCT010 BKN025 OVC080 \n BECMG 0714/0715 15007KT 4000 \n BECMG 0721/0722 05006KT 6000"
"taf	RKSI	2020-08-06 18:09:00	TAF RKSI 061700Z 0618/0724 26005KT 6000 BKN006 BKN180 TN22/0621Z TX25/0705Z TN22/0722Z \n TEMPO 0620/0623 18005KT -RA \n BECMG 0623/0624 13006KT SCT008 BKN150 \n BECMG 0702/0703 08010KT -RA SCT010 BKN025 OVC080 \n BECMG 0714/0715 15007KT 4000 \n BECMG 0721/0722 05006KT 6000"
"taf	RKSI	2020-08-07 00:00:00	TAF RKSI 072300Z 0800/0906 09008KT 9999 BKN030 BKN150 TX27/0806Z TN23/0821Z TX26/0904Z \n BECMG 0802/0803 14010KT 6000 -RA SCT010 BKN025 OVC100 \n BECMG 0812/0813 17009KT 4000 RA \n TEMPO 0816/0820 20010G20KT 2000 TSRA BKN005 SCT015CB BKN025 OVC070 \n BECMG 0820/0821 20016G30KT \n TEMPO 0905/0906 2500 TSRA SCT015CB BKN025 OVC080"
"taf	RKSI	2020-08-07 00:09:00	TAF RKSI 072300Z 0800/0906 09008KT 9999 BKN030 BKN150 TX27/0806Z TN23/0821Z TX26/0904Z \n BECMG 0802/0803 14010KT 6000 -RA SCT010 BKN025 OVC100 \n BECMG 0812/0813 17009KT 4000 RA \n TEMPO 0816/0820 20010G20KT 2000 TSRA BKN005 SCT015CB BKN025 OVC070 \n BECMG 0820/0821 20016G30KT \n TEMPO 0905/0906 2500 TSRA SCT015CB BKN025 OVC080"
"taf	RKSI	2020-08-07 00:35:00	TAF \n AMD RKSI 072335Z 0800/0906 14010KT 6000 -RA SCT010 BKN025 OVC100 TX27/0806Z TN23/0821Z TX26/0904Z \n BECMG 0812/0813 17009KT 4000 RA \n TEMPO 0816/0820 20010G20KT 2000 TSRA BKN005 SCT015CB BKN025 OVC070 \n BECMG 0820/0821 20016G30KT \n TEMPO 0905/0906 2500 TSRA SCT015CB BKN025 OVC080"
"taf	RKSI	2020-08-07 00:42:00	TAF \n AMD TAF \n AMD RKSI 072335Z 0800/0906 14010KT 6000 -RA SCT010 BKN025 OVC100 TX27/0806Z TN23/0821Z TX26/0904Z \n BECMG 0812/0813 17009KT 4000 RA \n TEMPO 0816/0820 20010G20KT 2000 TSRA BKN005 SCT015CB BKN025 OVC070 \n BECMG 0820/0821 20016G30KT \n TEMPO 0905/0906 2500 TSRA SCT015CB BKN025 OVC080"
"taf	RKSI	2020-08-07 03:01:00	TAF \n AMD RKSI 070301Z 0703/0806 13006KT 6000 FEW010 SCT025 OVC120 TX25/0705Z TN22/0722Z TX26/0806Z \n BECMG 0714/0715 06007KT 4000 -RA \n BECMG 0719/0720 16006KT \n BECMG 0802/0803 13007KT RA"
"taf	RKSI	2020-08-07 03:03:00	TAF \n AMD RKSI 070301Z 0703/0806 13006KT 6000 FEW010 SCT025 OVC120 TX25/0705Z TN22/0722Z TX26/0806Z \n BECMG 0714/0715 06007KT 4000 -RA \n BECMG 0719/0720 16006KT \n BECMG 0802/0803 13007KT RA"
"taf	RKSI	2020-08-07 03:16:00	TAF \n AMD RKSI 070316Z 0703/0806 13006KT 6000 FEW010 SCT025 OVC120 TX25/0705Z TN22/0722Z TX26/0806Z \n BECMG 0714/0715 06007KT 4000 -RA FEW010 BKN025 OVC100 \n BECMG 0719/0720 16006KT \n BECMG 0802/0803 13007KT RA"
"taf	RKSI	2020-08-07 03:18:00	TAF \n AMD TAF \n AMD RKSI 070316Z 0703/0806 13006KT 6000 FEW010 SCT025 OVC120 TX25/0705Z TN22/0722Z TX26/0806Z \n BECMG 0714/0715 06007KT 4000 -RA FEW010 BKN025 OVC100 \n BECMG 0719/0720 16006KT \n BECMG 0802/0803 13007KT RA"
"taf	RKSI	2020-08-07 06:00:00	TAF RKSI 070500Z 0706/0812 15008KT 6000 FEW015 SCT025 OVC120 TN22/0722Z TX26/0806Z \n TEMPO 0706/0708 -RA SCT010 BKN025 OVC100 \n BECMG 0714/0715 06007KT 4000 -RA SCT010 BKN025 OVC100 \n BECMG 0720/0721 14006KT 6000 NSW \n BECMG 0806/0807 17010KT 4000 -RA"
"taf	RKSI	2020-08-07 06:09:00	TAF RKSI 070500Z 0706/0812 15008KT 6000 FEW015 SCT025 OVC120 TN22/0722Z TX26/0806Z \n TEMPO 0706/0708 -RA SCT010 BKN025 OVC100 \n BECMG 0714/0715 06007KT 4000 -RA SCT010 BKN025 OVC100 \n BECMG 0720/0721 14006KT 6000 NSW \n BECMG 0806/0807 17010KT 4000 -RA"
"taf	RKSI	2020-08-07 12:00:00	TAF RKSI 071100Z 0712/0818 10005KT 6000 BKN025 BKN150 TN22/0722Z TX26/0806Z \n BECMG 0714/0715 06007KT 4000 -RA SCT010 BKN025 OVC100 \n BECMG 0720/0721 13006KT 6000 NSW SCT030 \n BECMG 0806/0807 16008KT 4000 -RA SCT010 BKN025 OVC100 \n BECMG 0812/0813 17015G25KT 2500 RA \n TEMPO 0815/0818 1200 TSRA SCT010CB BKN025 OVC080"
"taf	RKSI	2020-08-07 12:09:00	TAF TAF RKSI 071100Z 0712/0818 10005KT 6000 BKN025 BKN150 TN22/0722Z TX26/0806Z \n BECMG 0714/0715 06007KT 4000 -RA SCT010 BKN025 OVC100 \n BECMG 0720/0721 13006KT 6000 NSW SCT030 \n BECMG 0806/0807 16008KT 4000 -RA SCT010 BKN025 OVC100 \n BECMG 0812/0813 17015G25KT 2500 RA \n TEMPO 0815/0818 1200 TSRA SCT010CB BKN025 OVC080"
"taf	RKSI	2020-08-07 15:03:00	TAF \n AMD TAF \n AMD RKSI 071455Z 0715/0818 10005KT 6000 SCT025 BKN150 TN22/0722Z TX26/0806Z \n BECMG 0805/0806 16008KT 4000 -RA SCT010 BKN025 OVC100 \n BECMG 0812/0813 17015G25KT 2500 RA \n TEMPO 0815/0818 1200 TSRA SCT010CB BKN025 OVC080"
"taf	RKSI	2020-08-07 15:55:00	TAF \n AMD RKSI 071455Z 0715/0818 10005KT 6000 SCT025 BKN150 TN22/0722Z TX26/0806Z \n BECMG 0805/0806 16008KT 4000 -RA SCT010 BKN025 OVC100 \n BECMG 0812/0813 17015G25KT 2500 RA \n TEMPO 0815/0818 1200 TSRA SCT010CB BKN025 OVC080"
"taf	RKSI	2020-08-07 18:00:00	TAF RKSI 071700Z 0718/0824 03005KT CAVOK TN23/0722Z TX27/0806Z TN23/0821Z \n BECMG 0721/0722 09008KT 6000 SCT025 BKN150 \n BECMG 0804/0805 15010KT -RA SCT010 BKN025 OVC100 \n BECMG 0812/0813 12007KT 4000 RA \n TEMPO 0816/0820 15010G20KT 2000 TSRA BKN005 SCT015CB BKN025 OVC070 \n BECMG 0823/0824 19015G25KT 2500 +RA BKN006 BKN020 OVC080"
"taf	RKSI	2020-08-07 18:09:00	TAF TAF RKSI 071700Z 0718/0824 03005KT CAVOK TN23/0722Z TX27/0806Z TN23/0821Z \n BECMG 0721/0722 09008KT 6000 SCT025 BKN150 \n BECMG 0804/0805 15010KT -RA SCT010 BKN025 OVC100 \n BECMG 0812/0813 12007KT 4000 RA \n TEMPO 0816/0820 15010G20KT 2000 TSRA BKN005 SCT015CB BKN025 OVC070 \n BECMG 0823/0824 19015G25KT 2500 +RA BKN006 BKN020 OVC080"
"taf	RKSI	2020-08-08 00:00:00	TAF \n AMD RKSI 082340Z 0900/1006 20020G35KT 3500 RA SCT010 BKN025 OVC080 TX26/0904Z TN24/0921Z TX28/1006Z \n TEMPO 0906/0909 1500 TSRA FEW005 SCT008CB BKN020 OVC070 \n BECMG 0910/0911 20015G25KT \n BECMG 0918/0919 -RA \n BECMG 1001/1002 15010KT 6000"
"taf	RKSI	2020-08-08 00:09:00	TAF RKSI 082300Z 0900/1006 20015G25KT 3500 -RA SCT010 BKN025 OVC080 TX26/0904Z TN24/0921Z TX28/1006Z \n BECMG 0905/0906 20018G35KT RA \n TEMPO 0906/0909 1500 TSRA FEW005 SCT008CB BKN020 OVC070 \n BECMG 0918/0919 20015G25KT -RA \n BECMG 1001/1002 15010KT 6000"
"taf	RKSI	2020-08-08 00:40:00	TAF \n AMD RKSI 082340Z 0900/1006 20020G35KT 3500 RA SCT010 BKN025 OVC080 TX26/0904Z TN24/0921Z TX28/1006Z \n TEMPO 0906/0909 1500 TSRA FEW005 SCT008CB BKN020 OVC070 \n BECMG 0910/0911 20015G25KT \n BECMG 0918/0919 -RA \n BECMG 1001/1002 15010KT 6000"
"taf	RKSI	2020-08-08 00:42:00	TAF \n AMD TAF \n AMD RKSI 082340Z 0900/1006 20020G35KT 3500 RA SCT010 BKN025 OVC080 TX26/0904Z TN24/0921Z TX28/1006Z \n TEMPO 0906/0909 1500 TSRA FEW005 SCT008CB BKN020 OVC070 \n BECMG 0910/0911 20015G25KT \n BECMG 0918/0919 -RA \n BECMG 1001/1002 15010KT 6000"
"taf	RKSI	2020-08-08 06:00:00	TAF RKSI 080500Z 0806/0912 14010KT 6000 -RA SCT010 BKN030 OVC100 TN23/0821Z TX26/0904Z \n TEMPO 0807/0808 4000 TSRA FEW005 SCT008CB BKN020 OVC070 \n BECMG 0809/0810 18012KT 4000 RA \n BECMG 0813/0814 20017G30KT \n TEMPO 0815/0817 2000 TSRA FEW005 SCT008CB BKN020 OVC070 \n TEMPO 0910/0912 1400 TSRA FEW005 SCT008CB BKN020 OVC070"
"taf	RKSI	2020-08-08 06:09:00	TAF RKSI 080500Z 0806/0912 14010KT 6000 -RA SCT010 BKN030 OVC100 TN23/0821Z TX26/0904Z \n TEMPO 0807/0808 4000 TSRA FEW005 SCT008CB BKN020 OVC070 \n BECMG 0809/0810 18012KT 4000 RA \n BECMG 0813/0814 20017G30KT \n TEMPO 0815/0817 2000 TSRA FEW005 SCT008CB BKN020 OVC070 \n TEMPO 0910/0912 1400 TSRA FEW005 SCT008CB BKN020 OVC070"
"taf	RKSI	2020-08-08 12:00:00	TAF RKSI 081100Z 0812/0918 14010KT 4000 RA SCT010 BKN025 OVC080 TN23/0821Z TX26/0904Z \n TEMPO 0813/0817 18015G25KT 2000 TSRA FEW005 SCT008CB BKN020 OVC070 \n BECMG 0817/0818 20017G30KT 2500 \n BECMG 0902/0903 20012KT 4000 \n BECMG 0906/0907 20016G30KT \n TEMPO 0914/0918 2000 TSRA FEW005 SCT008CB BKN020 OVC070"
"taf	RKSI	2020-08-08 12:09:00	TAF RKSI 081100Z 0812/0918 14010KT 4000 RA SCT010 BKN025 OVC080 TN23/0821Z TX26/0904Z \n TEMPO 0813/0817 18015G25KT 2000 TSRA FEW005 SCT008CB BKN020 OVC070 \n BECMG 0817/0818 20017G30KT 2500 \n BECMG 0902/0903 20012KT 4000 \n BECMG 0906/0907 20016G30KT \n TEMPO 0914/0918 2000 TSRA FEW005 SCT008CB BKN020 OVC070"
"taf	RKSI	2020-08-08 14:29:00	TAF \n AMD RKSI 081429Z 0814/0918 14012G25KT 5000 -RA SCT010 BKN025 OVC080 TN23/0821Z TX26/0904Z \n BECMG 0817/0818 20017G30KT 2500 \n BECMG 0902/0903 20012KT 4000 \n BECMG 0906/0907 20016G30KT \n TEMPO 0914/0918 2000 TSRA FEW005 SCT008CB BKN020 OVC070"
"taf	RKSI	2020-08-08 14:33:00	TAF \n AMD TAF \n AMD RKSI 081429Z 0814/0918 14012G25KT 5000 -RA SCT010 BKN025 OVC080 TN23/0821Z TX26/0904Z \n BECMG 0817/0818 20017G30KT 2500 \n BECMG 0902/0903 20012KT 4000 \n BECMG 0906/0907 20016G30KT \n TEMPO 0914/0918 2000 TSRA FEW005 SCT008CB BKN020 OVC070"
"taf	RKSI	2020-08-08 18:00:00	TAF RKSI 081700Z 0818/0924 20015G25KT 4000 -RA SCT010 BKN025 OVC080 TN23/0821Z TX26/0904Z TN24/0921Z \n BECMG 0902/0903 20012KT 6000 \n BECMG 0906/0907 20016G30KT 4000 RA \n TEMPO 0912/0915 2000 TSRA FEW005 SCT008CB BKN020 OVC070 \n BECMG 0921/0922 -RA"
"taf	RKSI	2020-08-08 18:09:00	TAF RKSI 081700Z 0818/0924 20015G25KT 4000 -RA SCT010 BKN025 OVC080 TN23/0821Z TX26/0904Z TN24/0921Z \n BECMG 0902/0903 20012KT 6000 \n BECMG 0906/0907 20016G30KT 4000 RA \n TEMPO 0912/0915 2000 TSRA FEW005 SCT008CB BKN020 OVC070 \n BECMG 0921/0922 -RA"
"taf	RKSI	2020-08-09 00:00:00	TAF RKSI 092300Z 1000/1106 20010KT 6000 -RA SCT010 BKN025 OVC080 TX28/1005Z TN24/1021Z TX28/1106Z \n BECMG 1002/1003 12007KT \n BECMG 1008/1009 27007KT \n BECMG 1012/1013 24010KT 3500 RA \n TEMPO 1015/1017 24015G25KT 1200 TSRA FEW005 SCT008CB BKN020 OVC070 \n BECMG 1023/1024 20010KT 6000 -RA"
"taf	RKSI	2020-08-09 00:09:00	TAF RKSI 092300Z 1000/1106 20010KT 6000 -RA SCT010 BKN025 OVC080 TX28/1005Z TN24/1021Z TX28/1106Z \n BECMG 1002/1003 12007KT \n BECMG 1008/1009 27007KT \n BECMG 1012/1013 24010KT 3500 RA \n TEMPO 1015/1017 24015G25KT 1200 TSRA FEW005 SCT008CB BKN020 OVC070 \n BECMG 1023/1024 20010KT 6000 -RA"
"taf	RKSI	2020-08-09 01:12:00	TAF \n AMD TAF \n AMD RKSI 090115Z 0901/1006 20020G35KT 3500 RA SCT010 BKN025 OVC080 TX26/0904Z TN24/0921Z TX28/1006Z \n FM090300 20020G35KT 2000 TSRA FEW005 SCT008CB BKN020 OVC070 \n TEMPO 0906/0909 1500 TSRA FEW005 SCT008CB BKN020 OVC070 \n BECMG 0910/0911 20015G25KT \n BECMG 0918/0919 -RA \n BECMG 1001/1002 15010KT 6000"
"taf	RKSI	2020-08-09 01:15:00	TAF \n AMD RKSI 090115Z 0901/1006 20020G35KT 3500 RA SCT010 BKN025 OVC080 TX26/0904Z TN24/0921Z TX28/1006Z \n FM090300 20020G35KT 2000 TSRA FEW005 SCT008CB BKN020 OVC070 \n TEMPO 0906/0909 1500 TSRA FEW005 SCT008CB BKN020 OVC070 \n BECMG 0910/0911 20015G25KT \n BECMG 0918/0919 -RA \n BECMG 1001/1002 15010KT 6000"
"taf	RKSI	2020-08-09 01:18:00	TAF \n AMD TAF \n AMD RKSI 090120Z 0901/1006 20020G35KT 2000 TSRA FEW005 SCT008CB BKN020 OVC070 TX26/0904Z TN24/0921Z TX28/1006Z \n FM090300 20020G35KT 3500 RA SCT010 BKN025 OVC080 \n TEMPO 0906/0909 1500 TSRA FEW005 SCT008CB BKN020 OVC070 \n BECMG 0910/0911 20015G25KT \n BECMG 0918/0919 -RA \n BECMG 1001/1002 15010KT 6000"
"taf	RKSI	2020-08-09 01:20:00	TAF \n AMD RKSI 090120Z 0901/1006 20020G35KT 2000 TSRA FEW005 SCT008CB BKN020 OVC070 TX26/0904Z TN24/0921Z TX28/1006Z \n FM090300 20020G35KT 3500 RA SCT010 BKN025 OVC080 \n TEMPO 0906/0909 1500 TSRA FEW005 SCT008CB BKN020 OVC070 \n BECMG 0910/0911 20015G25KT \n BECMG 0918/0919 -RA \n BECMG 1001/1002 15010KT 6000"
"taf	RKSI	2020-08-09 06:00:00	TAF RKSI 090500Z 0906/1012 21017G35KT 4000 RA SCT010 BKN025 OVC080 TN26/0921Z TX28/1005Z \n TEMPO 0906/0909 2000 TSRA FEW005 SCT008CB BKN020 OVC070 \n BECMG 0914/0915 2500 \n BECMG 0920/0921 20015G25KT 4000 \n BECMG 1003/1004 25007KT 6000 -RA \n BECMG 1010/1011 19007KT 4000"
"taf	RKSI	2020-08-09 06:09:00	TAF RKSI 090500Z 0906/1012 21017G35KT 4000 RA SCT010 BKN025 OVC080 TN26/0921Z TX28/1005Z \n TEMPO 0906/0909 2000 TSRA FEW005 SCT008CB BKN020 OVC070 \n BECMG 0914/0915 2500 \n BECMG 0920/0921 20015G25KT 4000 \n BECMG 1003/1004 25007KT 6000 -RA \n BECMG 1010/1011 19007KT 4000"
"taf	RKSI	2020-08-09 12:00:00	TAF RKSI 091100Z 0912/1018 19017G35KT 4000 RA BKN010 BKN025 OVC080 TN24/0921Z TX28/1005Z \n BECMG 0914/0915 2500 \n TEMPO 0918/0920 1400 +TSRA FEW005 SCT008CB BKN020 OVC070 \n BECMG 0921/0922 20015G25KT 4000 \n BECMG 1003/1004 25007KT 6000 -RA SCT010 BKN025 OVC080 \n BECMG 1010/1011 19010KT 2500"
"taf	RKSI	2020-08-09 12:09:00	TAF RKSI 091100Z 0912/1018 19017G35KT 4000 RA BKN010 BKN025 OVC080 TN24/0921Z TX28/1005Z \n BECMG 0914/0915 2500 \n TEMPO 0918/0920 1400 +TSRA FEW005 SCT008CB BKN020 OVC070 \n BECMG 0921/0922 20015G25KT 4000 \n BECMG 1003/1004 25007KT 6000 -RA SCT010 BKN025 OVC080 \n BECMG 1010/1011 19010KT 2500"
"taf	RKSI	2020-08-09 15:45:00	TAF \n AMD TAF \n AMD RKSI 091445Z 0915/1018 19017G30KT 6000 -RA BKN010 BKN025 OVC080 TN24/0921Z TX28/1005Z \n TEMPO 0918/0920 1400 TSRA FEW005 SCT008CB BKN020 OVC070 \n BECMG 0921/0922 20015G25KT 4000 \n BECMG 1003/1004 25007KT 6000 SCT010 BKN025 OVC080 \n BECMG 1010/1011 19010KT 2500"
"taf	RKSI	2020-08-09 18:00:00	TAF \n AMD RKSI 091731Z 0918/1024 19016G30KT 4000 -RA SCT010 BKN025 OVC080 TN24/0921Z TX28/1005Z TN24/1021Z \n TEMPO 0918/0922 1500 RA \n BECMG 1002/1003 12007KT 6000 \n BECMG 1008/1009 30007KT 4000 \n BECMG 1012/1013 24010KT 2500 RA \n BECMG 1017/1018 20015G25KT -RA"
"taf	RKSI	2020-08-09 18:09:00	TAF RKSI 091700Z 0918/1024 19016G30KT 3500 -RA SCT010 BKN025 OVC080 TN24/0921Z TX28/1005Z TN24/1021Z \n BECMG 0923/0924 18012KT \n BECMG 1002/1003 12007KT 6000 \n BECMG 1008/1009 30007KT 4000 \n BECMG 1012/1013 24007KT 2500 RA \n BECMG 1017/1018 20010KT -RA"
"taf	RKSI	2020-08-09 18:30:00	TAF \n AMD TAF \n AMD RKSI 091731Z 0918/1024 19016G30KT 4000 -RA SCT010 BKN025 OVC080 TN24/0921Z TX28/1005Z TN24/1021Z \n TEMPO 0918/0922 1500 RA \n BECMG 1002/1003 12007KT 6000 \n BECMG 1008/1009 30007KT 4000 \n BECMG 1012/1013 24010KT 2500 RA \n BECMG 1017/1018 20015G25KT -RA"
"taf	RKSI	2020-08-09 18:31:00	TAF \n AMD RKSI 091731Z 0918/1024 19016G30KT 4000 -RA SCT010 BKN025 OVC080 TN24/0921Z TX28/1005Z TN24/1021Z \n TEMPO 0918/0922 1500 RA \n BECMG 1002/1003 12007KT 6000 \n BECMG 1008/1009 30007KT 4000 \n BECMG 1012/1013 24010KT 2500 RA \n BECMG 1017/1018 20015G25KT -RA"
"taf	RKSI	2020-08-10 00:00:00	TAF RKSI 102300Z 1100/1206 22008KT 6000 -RA SCT010 BKN025 OVC080 TX28/1106Z TN24/1120Z TX28/1206Z \n BECMG 1107/1108 NSW BKN025 \n BECMG 1115/1116 17005KT 4000 BR \n BECMG 1117/1118 2500 BKN005 BKN025 \n BECMG 1121/1122 4000 SCT010 BKN030 \n BECMG 1202/1203 24007KT 6000 NSW SCT025"
"taf	RKSI	2020-08-10 00:09:00	TAF TAF RKSI 102300Z 1100/1206 22008KT 6000 -RA SCT010 BKN025 OVC080 TX28/1106Z TN24/1120Z TX28/1206Z \n BECMG 1107/1108 NSW BKN025 \n BECMG 1115/1116 17005KT 4000 BR \n BECMG 1117/1118 2500 BKN005 BKN025 \n BECMG 1121/1122 4000 SCT010 BKN030 \n BECMG 1202/1203 24007KT 6000 NSW SCT025"
"taf	RKSI	2020-08-10 06:00:00	TAF RKSI 100500Z 1006/1112 19007KT 6000 -RA SCT010 BKN025 OVC080 TN24/1021Z TX28/1106Z \n BECMG 1012/1013 20015G25KT 3500 RA \n TEMPO 1015/1018 2000 TSRA FEW005 SCT008CB BKN020 OVC070 \n BECMG 1020/1021 -RA \n BECMG 1023/1024 24010KT 6000 \n BECMG 1109/1110 18005KT NSW SCT030"
"taf	RKSI	2020-08-10 06:09:00	TAF RKSI 100500Z 1006/1112 19007KT 6000 -RA SCT010 BKN025 OVC080 TN24/1021Z TX28/1106Z \n BECMG 1012/1013 20015G25KT 3500 RA \n TEMPO 1015/1018 2000 TSRA FEW005 SCT008CB BKN020 OVC070 \n BECMG 1020/1021 -RA \n BECMG 1023/1024 24010KT 6000 \n BECMG 1109/1110 18005KT NSW SCT030"
"taf	RKSI	2020-08-10 12:00:00	TAF RKSI 101100Z 1012/1118 20015G25KT 6000 -RA SCT010 BKN025 OVC080 TN24/1021Z TX28/1106Z \n TEMPO 1015/1018 2000 TSRA FEW005 SCT008CB BKN025 OVC070 \n BECMG 1018/1019 3500 \n BECMG 1023/1024 24010KT 6000 \n BECMG 1109/1110 18005KT NSW SCT030 \n BECMG 1115/1116 BKN030"
"taf	RKSI	2020-08-10 12:09:00	TAF RKSI 101100Z 1012/1118 20015G25KT 6000 -RA SCT010 BKN025 OVC080 TN24/1021Z TX28/1106Z \n TEMPO 1015/1018 2000 TSRA FEW005 SCT008CB BKN025 OVC070 \n BECMG 1018/1019 3500 \n BECMG 1023/1024 24010KT 6000 \n BECMG 1109/1110 18005KT NSW SCT030 \n BECMG 1115/1116 BKN030"
"taf	RKSI	2020-08-10 18:00:00	TAF RKSI 101700Z 1018/1124 23010KT 3500 RA SCT010 BKN025 OVC080 TN24/1021Z TX28/1106Z TN24/1120Z \n TEMPO 1018/1021 2000 TSRA FEW005 SCT008CB BKN020 OVC070 \n BECMG 1022/1023 6000 -RA \n BECMG 1108/1109 18005KT NSW SCT025 BKN050 \n BECMG 1115/1116 15005KT 3000 BR \n BECMG 1121/1122 18007KT 6000 NSW"
"taf	RKSI	2020-08-10 18:09:00	TAF RKSI 101700Z 1018/1124 23010KT 3500 RA SCT010 BKN025 OVC080 TN24/1021Z TX28/1106Z TN24/1120Z \n TEMPO 1018/1021 2000 TSRA FEW005 SCT008CB BKN020 OVC070 \n BECMG 1022/1023 6000 -RA \n BECMG 1108/1109 18005KT NSW SCT025 BKN050 \n BECMG 1115/1116 15005KT 3000 BR \n BECMG 1121/1122 18007KT 6000 NSW"
"taf	RKSI	2020-08-10 19:24:00	TAF \n AMD TAF \n AMD RKSI 101925Z 1019/1124 23010KT 3500 RA BKN010 BKN025 OVC080 TN24/1021Z TX28/1106Z TN24/1120Z \n TEMPO 1019/1021 2000 +TSRA FEW005 SCT008CB BKN020 OVC070 \n BECMG 1022/1023 6000 -RA SCT010 BKN025 OVC080 \n BECMG 1108/1109 18005KT NSW SCT025 BKN050 \n BECMG 1115/1116 15005KT 3000 BR \n BECMG 1121/1122 18007KT 6000 NSW"
"taf	RKSI	2020-08-10 19:25:00	TAF \n AMD RKSI 101925Z 1019/1124 23010KT 3500 RA BKN010 BKN025 OVC080 TN24/1021Z TX28/1106Z TN24/1120Z \n TEMPO 1019/1021 2000 +TSRA FEW005 SCT008CB BKN020 OVC070 \n BECMG 1022/1023 6000 -RA SCT010 BKN025 OVC080 \n BECMG 1108/1109 18005KT NSW SCT025 BKN050 \n BECMG 1115/1116 15005KT 3000 BR \n BECMG 1121/1122 18007KT 6000 NSW"
"taf	RKSI	2020-08-11 00:00:00	TAF RKSI 112300Z 1200/1306 12005KT 6000 BKN015 BKN030 TX28/1206Z TN25/1221Z TX29/1306Z \n BECMG 1202/1203 25006KT 9999 SCT025 BKN150 \n BECMG 1212/1213 16007KT 5000 BR SCT010 BKN025 OVC150 \n BECMG 1217/1218 19012KT 2500 BKN005 BKN020 OVC120 \n BECMG 1223/1224 4000 FEW015 BKN025 OVC080 \n BECMG 1302/1303 19015G25KT 6000 NSW"
"taf	RKSI	2020-08-11 00:09:00	TAF RKSI 112300Z 1200/1306 12005KT 6000 BKN015 BKN030 TX28/1206Z TN25/1221Z TX29/1306Z \n BECMG 1202/1203 25006KT 9999 SCT025 BKN150 \n BECMG 1212/1213 16007KT 5000 BR SCT010 BKN025 OVC150 \n BECMG 1217/1218 19012KT 2500 BKN005 BKN020 OVC120 \n BECMG 1223/1224 4000 FEW015 BKN025 OVC080 \n BECMG 1302/1303 19015G25KT 6000 NSW"
"taf	RKSI	2020-08-11 06:00:00	TAF RKSI 110500Z 1106/1212 24010KT 9999 FEW015 SCT040 BKN150 TN24/1120Z TX28/1206Z \n BECMG 1115/1116 17005KT 4000 BR \n BECMG 1117/1118 2500 BKN005 BKN020 \n BECMG 1123/1124 4000 \n BECMG 1202/1203 25006KT 6000 NSW SCT030"
"taf	RKSI	2020-08-11 06:09:00	TAF RKSI 110500Z 1106/1212 24010KT 9999 FEW015 SCT040 BKN150 TN24/1120Z TX28/1206Z \n BECMG 1115/1116 17005KT 4000 BR \n BECMG 1117/1118 2500 BKN005 BKN020 \n BECMG 1123/1124 4000 \n BECMG 1202/1203 25006KT 6000 NSW SCT030"
"taf	RKSI	2020-08-11 12:00:00	TAF RKSI 111100Z 1112/1218 17005KT 4000 BR SCT010 BKN030 TN24/1120Z TX28/1206Z \n BECMG 1117/1118 2500 BKN005 BKN020 \n BECMG 1123/1124 4000 \n BECMG 1202/1203 25006KT 6000 NSW SCT030 \n BECMG 1211/1212 18006KT SCT010 BKN025 BKN150"
"taf	RKSI	2020-08-11 12:09:00	TAF RKSI 111100Z 1112/1218 17005KT 4000 BR SCT010 BKN030 TN24/1120Z TX28/1206Z \n BECMG 1117/1118 2500 BKN005 BKN020 \n BECMG 1123/1124 4000 \n BECMG 1202/1203 25006KT 6000 NSW SCT030 \n BECMG 1211/1212 18006KT SCT010 BKN025 BKN150"
"taf	RKSI	2020-08-11 18:00:00	TAF RKSI 111700Z 1118/1224 16005KT 3500 BR BKN010 BKN030 TN24/1120Z TX28/1206Z TN25/1221Z \n BECMG 1122/1123 6000 NSW SCT010 BKN030 \n BECMG 1202/1203 25006KT 9999 SCT025 \n BECMG 1211/1212 16007KT 6000 SCT010 BKN025 BKN150 \n BECMG 1216/1217 19012KT 3500 BR BKN005 BKN020 OVC120 \n BECMG 1223/1224 6000 NSW SCT010 BKN025 OVC080"
"taf	RKSI	2020-08-11 18:09:00	TAF RKSI 111700Z 1118/1224 16005KT 3500 BR BKN010 BKN030 TN24/1120Z TX28/1206Z TN25/1221Z \n BECMG 1122/1123 6000 NSW SCT010 BKN030 \n BECMG 1202/1203 25006KT 9999 SCT025 \n BECMG 1211/1212 16007KT 6000 SCT010 BKN025 BKN150 \n BECMG 1216/1217 19012KT 3500 BR BKN005 BKN020 OVC120 \n BECMG 1223/1224 6000 NSW SCT010 BKN025 OVC080"
"taf	RKSI	2020-08-11 20:48:00	TAF \n AMD TAF \n AMD RKSI 112050Z 1120/1224 05005KT 3500 BR BKN010 BKN030 TN24/1120Z TX28/1206Z TN25/1221Z \n BECMG 1122/1123 6000 NSW SCT010 BKN030 \n BECMG 1202/1203 25006KT 9999 SCT025 \n BECMG 1211/1212 16007KT 6000 SCT010 BKN025 BKN150 \n BECMG 1216/1217 19012KT 3500 BR BKN005 BKN020 OVC120 \n BECMG 1223/1224 6000 NSW SCT010 BKN025 OVC080"
"taf	RKSI	2020-08-11 20:50:00	TAF \n AMD RKSI 112050Z 1120/1224 05005KT 3500 BR BKN010 BKN030 TN24/1120Z TX28/1206Z TN25/1221Z \n BECMG 1122/1123 6000 NSW SCT010 BKN030 \n BECMG 1202/1203 25006KT 9999 SCT025 \n BECMG 1211/1212 16007KT 6000 SCT010 BKN025 BKN150 \n BECMG 1216/1217 19012KT 3500 BR BKN005 BKN020 OVC120 \n BECMG 1223/1224 6000 NSW SCT010 BKN025 OVC080"
"taf	RKSI	2020-08-11 21:50:00	TAF COR RKSI 112050Z 1121/1224 05005KT 3500 BR BKN010 BKN030 TN24/1120Z TX28/1206Z TN25/1221Z \n BECMG 1122/1123 6000 NSW SCT010 BKN030 \n BECMG 1202/1203 25006KT 9999 SCT025 \n BECMG 1211/1212 16007KT 6000 SCT010 BKN025 BKN150 \n BECMG 1216/1217 19012KT 3500 BR BKN005 BKN020 OVC120 \n BECMG 1223/1224 6000 NSW SCT010 BKN025 OVC080"
"taf	RKSI	2020-08-11 21:57:00	TAF COR TAF COR RKSI 112050Z 1121/1224 05005KT 3500 BR BKN010 BKN030 TN24/1120Z TX28/1206Z TN25/1221Z \n BECMG 1122/1123 6000 NSW SCT010 BKN030 \n BECMG 1202/1203 25006KT 9999 SCT025 \n BECMG 1211/1212 16007KT 6000 SCT010 BKN025 BKN150 \n BECMG 1216/1217 19012KT 3500 BR BKN005 BKN020 OVC120 \n BECMG 1223/1224 6000 NSW SCT010 BKN025 OVC080"
"taf	RKSI	2020-08-12 00:00:00	TAF RKSI 122300Z 1300/1406 18008KT 9999 SCT010 BKN025 BKN100 TX29/1305Z TN25/1320Z TX26/1405Z \n BECMG 1303/1304 19015G25KT \n BECMG 1322/1323 4000 -RA BKN006 BKN025 OVC070 \n TEMPO 1400/1403 2500 TSRA BKN006 SCT010CB BKN025 OVC070 \n BECMG 1403/1404 23010KT 6000"
"taf	RKSI	2020-08-12 00:09:00	TAF RKSI 122300Z 1300/1406 18008KT 9999 SCT010 BKN025 BKN100 TX29/1305Z TN25/1320Z TX26/1405Z \n BECMG 1303/1304 19015G25KT \n BECMG 1322/1323 4000 -RA BKN006 BKN025 OVC070 \n TEMPO 1400/1403 2500 TSRA BKN006 SCT010CB BKN025 OVC070 \n BECMG 1403/1404 23010KT 6000"
"taf	RKSI	2020-08-12 06:00:00	TAF RKSI 120500Z 1206/1312 24005KT 7000 SCT020 BKN180 TN25/1219Z TX29/1304Z \n BECMG 1211/1212 18007KT 4000 BR SCT010 BKN025 BKN120 \n BECMG 1215/1216 2500 BKN005 BKN020 OVC100 \n BECMG 1219/1220 4000 SCT010 BKN025 OVC100 \n BECMG 1302/1303 19015G25KT 6000 NSW \n TEMPO 1304/1307 -SHRA"
"taf	RKSI	2020-08-12 06:09:00	TAF RKSI 120500Z 1206/1312 24005KT 7000 SCT020 BKN180 TN25/1219Z TX29/1304Z \n BECMG 1211/1212 18007KT 4000 BR SCT010 BKN025 BKN120 \n BECMG 1215/1216 2500 BKN005 BKN020 OVC100 \n BECMG 1219/1220 4000 SCT010 BKN025 OVC100 \n BECMG 1302/1303 19015G25KT 6000 NSW \n TEMPO 1304/1307 -SHRA"
"taf	RKSI	2020-08-12 12:00:00	TAF RKSI 121100Z 1212/1318 18007KT 6000 SCT030 BKN120 TN25/1219Z TX29/1304Z \n BECMG 1214/1215 4000 BR SCT010 BKN025 OVC100 \n TEMPO 1216/1219 2500 BKN005 BKN020 \n BECMG 1300/1301 6000 NSW \n TEMPO 1302/1305 18015G25KT 4000 -RA \n BECMG 1305/1306 19015G28KT"
"taf	RKSI	2020-08-12 12:09:00	TAF RKSI 121100Z 1212/1318 18007KT 6000 SCT030 BKN120 TN25/1219Z TX29/1304Z \n BECMG 1214/1215 4000 BR SCT010 BKN025 OVC100 \n TEMPO 1216/1219 2500 BKN005 BKN020 \n BECMG 1300/1301 6000 NSW \n TEMPO 1302/1305 18015G25KT 4000 -RA \n BECMG 1305/1306 19015G28KT"
"taf	RKSI	2020-08-12 18:00:00	TAF RKSI 121700Z 1218/1324 18008KT 7000 SCT010 BKN025 OVC100 TN25/1220Z TX29/1305Z TN25/1320Z \n TEMPO 1220/1221 4000 BR \n TEMPO 1303/1306 18015G25KT -SHRA \n BECMG 1306/1307 18015G28KT"
"taf	RKSI	2020-08-12 18:09:00	TAF RKSI 121700Z 1218/1324 18008KT 7000 SCT010 BKN025 OVC100 TN25/1220Z TX29/1305Z TN25/1320Z \n TEMPO 1220/1221 4000 BR \n TEMPO 1303/1306 18015G25KT -SHRA \n BECMG 1306/1307 18015G28KT"
"taf	RKSI	2020-08-13 00:00:00	TAF RKSI 132300Z 1400/1506 20015G25KT 6000 -RA SCT010 BKN025 OVC080 TX27/1401Z TN24/1420Z TX27/1506Z \n TEMPO 1401/1403 2500 TSRA BKN008 SCT015CB BKN025 OVC070 \n BECMG 1407/1408 23010KT \n BECMG 1413/1414 4000 \n BECMG 1420/1421 RA \n BECMG 1504/1505 20008KT 6000 -RA"
"taf	RKSI	2020-08-13 00:09:00	TAF RKSI 132300Z 1400/1506 20015G25KT 6000 -RA SCT010 BKN025 OVC080 TX27/1401Z TN24/1420Z TX27/1506Z \n TEMPO 1401/1403 2500 TSRA BKN008 SCT015CB BKN025 OVC070 \n BECMG 1407/1408 23010KT \n BECMG 1413/1414 4000 \n BECMG 1420/1421 RA \n BECMG 1504/1505 20008KT 6000 -RA"
"taf	RKSI	2020-08-13 06:00:00	TAF COR RKSI 130500Z 1306/1412 18015G25KT 9999 SCT015 BKN025 TN25/1321Z TX27/1404Z \n BECMG 1321/1322 21015G30KT 4000 -RA BKN010 BKN025 OVC080 \n TEMPO 1401/1404 24010G20KT 2500 TSRA BKN006 SCT015CB BKN025 OVC070 \n BECMG 1410/1411 22010KT RA"
"taf	RKSI	2020-08-13 06:09:00	TAF RKSI 130500Z 1306/1412 18015G25KT 9999 SCT015 BKN025 TN25/1321Z TX27/1404Z \n BECMG 1321/1322 21015G30KT 4000 -RA BKN010 BKN025 OVC080 \n TEMPO 1401/1404 24010G20KT 2500 TSRA BKN006 SCT015CB BKN025 OVC070 \n BECMG 0410/0411 22010KT RA"
"taf	RKSI	2020-08-13 06:39:00	TAF COR TAF COR RKSI 130500Z 1306/1412 18015G25KT 9999 SCT015 BKN025 TN25/1321Z TX27/1404Z \n BECMG 1321/1322 21015G30KT 4000 -RA BKN010 BKN025 OVC080 \n TEMPO 1401/1404 24010G20KT 2500 TSRA BKN006 SCT015CB BKN025 OVC070 \n BECMG 1410/1411 22010KT RA"
"taf	RKSI	2020-08-13 12:00:00	TAF RKSI 131100Z 1312/1418 18015G25KT 9999 FEW015 SCT025 BKN080 TN25/1321Z TX27/1404Z \n BECMG 1321/1322 21015G30KT 4000 -RA BKN010 BKN025 OVC080 \n TEMPO 1401/1404 24012G25KT 2500 TSRA BKN008 SCT015CB BKN025 OVC070 \n TEMPO 1408/1410 2500 TSRA BKN006 SCT015CB BKN025 OVC070 \n BECMG 1410/1411 22010KT RA"
"taf	RKSI	2020-08-13 12:09:00	TAF RKSI 131100Z 1312/1418 18015G25KT 9999 FEW015 SCT025 BKN080 TN25/1321Z TX27/1404Z \n BECMG 1321/1322 21015G30KT 4000 -RA BKN010 BKN025 OVC080 \n TEMPO 1401/1404 24012G25KT 2500 TSRA BKN008 SCT015CB BKN025 OVC070 \n TEMPO 1408/1410 2500 TSRA BKN006 SCT015CB BKN025 OVC070 \n BECMG 1410/1411 22010KT RA"
"taf	RKSI	2020-08-13 18:00:00	TAF RKSI 131700Z 1318/1424 18015G25KT 9999 FEW015 SCT025 BKN080 TN25/1320Z TX27/1404Z TN24/1420Z \n BECMG 1321/1322 21015G30KT 4000 -RA BKN010 BKN025 OVC080 \n TEMPO 1400/1403 2500 TSRA BKN008 SCT015CB BKN025 OVC070 \n BECMG 1406/1407 23012KT 6000 \n BECMG 1412/1413 4000 \n BECMG 1419/1420 20010KT 2500 RA"
"taf	RKSI	2020-08-13 18:09:00	TAF RKSI 131700Z 1318/1424 18015G25KT 9999 FEW015 SCT025 BKN080 TN25/1320Z TX27/1404Z TN24/1420Z \n BECMG 1321/1322 21015G30KT 4000 -RA BKN010 BKN025 OVC080 \n TEMPO 1400/1403 2500 TSRA BKN008 SCT015CB BKN025 OVC070 \n BECMG 1406/1407 23012KT 6000 \n BECMG 1412/1413 4000 \n BECMG 1419/1420 20010KT 2500 RA"
"taf	RKSI	2020-08-14 00:00:00	TAF RKSI 142300Z 1500/1606 22008KT 6000 RA SCT010 BKN025 OVC080 TX27/1506Z TN24/1521Z TX28/1605Z \n TEMPO 1500/1501 25006KT 4000 TSRA SCT015CB BKN025 OVC070 \n BECMG 1505/1506 NSW BKN025 OVC100 \n BECMG 1512/1513 19007KT 4000 BR SCT010 BKN180 \n BECMG 1518/1519 19015G30KT 6000 NSW \n BECMG 1603/1604 21010KT SCT010 BKN025"
"taf	RKSI	2020-08-14 00:09:00	TAF TAF RKSI 142300Z 1500/1606 22008KT 6000 RA SCT010 BKN025 OVC080 TX27/1506Z TN24/1521Z TX28/1605Z \n TEMPO 1500/1501 25006KT 4000 TSRA SCT015CB BKN025 OVC070 \n BECMG 1505/1506 NSW BKN025 OVC100 \n BECMG 1512/1513 19007KT 4000 BR SCT010 BKN180 \n BECMG 1518/1519 19015G30KT 6000 NSW \n BECMG 1603/1604 21010KT SCT010 BKN025"
"taf	RKSI	2020-08-14 01:45:00	TAF \n AMD TAF \n AMD RKSI 140045Z 1401/1506 20015G25KT 6000 SCT010 BKN025 OVC080 TX27/1401Z TN24/1420Z TX27/1506Z \n BECMG 1403/1404 -RA \n BECMG 1407/1408 23010KT \n BECMG 1413/1414 4000 \n BECMG 1420/1421 RA \n BECMG 1504/1505 20008KT 6000 -RA"
"taf	RKSI	2020-08-14 06:00:00	TAF RKSI 140500Z 1406/1512 23012G25KT 6000 SCT010 BKN025 OVC080 TN24/1420Z TX27/1506Z \n BECMG 1412/1413 20010KT 4000 -RA \n BECMG 1416/1417 2500 RA \n TEMPO 1417/1421 22015G25KT 1200 TSRA SCT010CB BKN025 OVC080 \n BECMG 1422/1423 4000 -RA \n BECMG 1506/1507 6000 NSW"
"taf	RKSI	2020-08-14 06:09:00	TAF RKSI 140500Z 1406/1512 23012G25KT 6000 SCT010 BKN025 OVC080 TN24/1420Z TX27/1506Z \n BECMG 1412/1413 20010KT 4000 -RA \n BECMG 1416/1417 2500 RA \n TEMPO 1417/1421 22015G25KT 1200 TSRA SCT010CB BKN025 OVC080 \n BECMG 1422/1423 4000 -RA \n BECMG 1506/1507 6000 NSW"
"taf	RKSI	2020-08-14 08:15:00	TAF COR RKSI 140815Z 1408/1512 23010KT 6000 SCT025 BKN150 TN24/1420Z TX27/1506Z \n BECMG 1412/1413 20010KT 4000 -RA SCT010 BKN025 OVC080 \n BECMG 1416/1417 2500 RA \n TEMPO 1417/1421 22015G25KT 1200 TSRA SCT010CB BKN025 OVC080 \n BECMG 1422/1423 4000 -RA \n BECMG 1506/1507 6000 NSW"
"taf	RKSI	2020-08-14 08:42:00	TAF COR TAF COR RKSI 140815Z 1408/1512 23010KT 6000 SCT025 BKN150 TN24/1420Z TX27/1506Z \n BECMG 1412/1413 20010KT 4000 -RA SCT010 BKN025 OVC080 \n BECMG 1416/1417 2500 RA \n TEMPO 1417/1421 22015G25KT 1200 TSRA SCT010CB BKN025 OVC080 \n BECMG 1422/1423 4000 -RA \n BECMG 1506/1507 6000 NSW"
"taf	RKSI	2020-08-14 12:00:00	TAF RKSI 141100Z 1412/1518 21007KT 6000 SCT010 BKN025 OVC080 TN24/1420Z TX27/1506Z \n BECMG 1414/1415 4000 -RA \n BECMG 1417/1418 2500 RA \n TEMPO 1419/1421 22013G25KT 1200 TSRA SCT010CB BKN025 OVC080 \n BECMG 1422/1423 4000 -RA \n BECMG 1503/1504 6000 NSW"
"taf	RKSI	2020-08-14 12:09:00	TAF RKSI 141100Z 1412/1518 21007KT 6000 SCT010 BKN025 OVC080 TN24/1420Z TX27/1506Z \n BECMG 1414/1415 4000 -RA \n BECMG 1417/1418 2500 RA \n TEMPO 1419/1421 22013G25KT 1200 TSRA SCT010CB BKN025 OVC080 \n BECMG 1422/1423 4000 -RA \n BECMG 1503/1504 6000 NSW"
"taf	RKSI	2020-08-14 18:00:00	TAF RKSI 141700Z 1418/1524 22007KT 4000 RA SCT010 BKN025 OVC080 TN24/1421Z TX27/1506Z TN24/1521Z \n TEMPO 1421/1424 2500 TSRA SCT015CB BKN025 OVC070 \n BECMG 1501/1502 6000 -RA \n BECMG 1504/1505 NSW BKN025 OVC100 \n BECMG 1512/1513 19008KT 4000 BR SCT010 BKN180 \n BECMG 1518/1519 19015G25KT 6000 NSW"
"taf	RKSI	2020-08-14 18:09:00	TAF RKSI 141700Z 1418/1524 22007KT 4000 RA SCT010 BKN025 OVC080 TN24/1421Z TX27/1506Z TN24/1521Z \n TEMPO 1421/1424 2500 TSRA SCT015CB BKN025 OVC070 \n BECMG 1501/1502 6000 -RA \n BECMG 1504/1505 NSW BKN025 OVC100 \n BECMG 1512/1513 19008KT 4000 BR SCT010 BKN180 \n BECMG 1518/1519 19015G25KT 6000 NSW"
"taf	RKSI	2020-08-15 00:00:00	TAF RKSI 152300Z 1600/1706 19015G30KT 9999 SCT010 BKN180 TX28/1604Z TN24/1620Z TX30/1705Z \n BECMG 1605/1606 20008KT SCT010 BKN025 \n BECMG 1613/1614 4000 BR \n BECMG 1621/1622 6000 NSW \n BECMG 1702/1703 SCT030"
"taf	RKSI	2020-08-15 00:09:00	TAF RKSI 152300Z 1600/1706 19015G30KT 9999 SCT010 BKN180 TX28/1604Z TN24/1620Z TX30/1705Z \n BECMG 1605/1606 20008KT SCT010 BKN025 \n BECMG 1613/1614 4000 BR \n BECMG 1621/1622 6000 NSW \n BECMG 1702/1703 SCT030"
"taf	RKSI	2020-08-15 01:28:00	TAF \n AMD RKSI 150128Z 1501/1606 22008KT 6000 -RA SCT010 BKN025 OVC080 TX27/1506Z TN24/1521Z TX28/1605Z \n BECMG 1505/1506 NSW BKN025 OVC100 \n BECMG 1512/1513 19007KT 4000 BR SCT010 BKN180 \n BECMG 1518/1519 19015G30KT 6000 NSW \n BECMG 1603/1604 21010KT SCT010 BKN025"
"taf	RKSI	2020-08-15 01:30:00	TAF \n AMD TAF \n AMD RKSI 150128Z 1501/1606 22008KT 6000 -RA SCT010 BKN025 OVC080 TX27/1506Z TN24/1521Z TX28/1605Z \n BECMG 1505/1506 NSW BKN025 OVC100 \n BECMG 1512/1513 19007KT 4000 BR SCT010 BKN180 \n BECMG 1518/1519 19015G30KT 6000 NSW \n BECMG 1603/1604 21010KT SCT010 BKN025"
"taf	RKSI	2020-08-15 06:00:00	TAF RKSI 150500Z 1506/1612 22010KT 6000 BKN025 OVC080 TN24/1521Z TX28/1605Z \n TEMPO 1506/1508 4000 -RA SCT008 BKN025 OVC080 \n BECMG 1512/1513 18007KT 4000 BR SCT010 BKN180 \n BECMG 1518/1519 19015G30KT 6000 NSW \n BECMG 1603/1604 21010KT SCT010 BKN025"
"taf	RKSI	2020-08-15 06:09:00	TAF RKSI 150500Z 1506/1612 22010KT 6000 BKN025 OVC080 TN24/1521Z TX28/1605Z \n TEMPO 1506/1508 4000 -RA SCT008 BKN025 OVC080 \n BECMG 1512/1513 18007KT 4000 BR SCT010 BKN180 \n BECMG 1518/1519 19015G30KT 6000 NSW \n BECMG 1603/1604 21010KT SCT010 BKN025"
"taf	RKSI	2020-08-15 12:00:00	TAF RKSI 151100Z 1512/1618 17006KT 6000 FEW010 BKN025 OVC080 TN24/1521Z TX28/1605Z \n BECMG 1513/1514 4000 BR SCT010 BKN180 \n BECMG 1518/1519 19015G30KT 6000 NSW \n BECMG 1603/1604 21010KT SCT010 BKN025 \n BECMG 1613/1614 4000 BR"
"taf	RKSI	2020-08-15 12:09:00	TAF RKSI 151100Z 1512/1618 17006KT 6000 FEW010 BKN025 OVC080 TN24/1521Z TX28/1605Z \n BECMG 1513/1514 4000 BR SCT010 BKN180 \n BECMG 1518/1519 19015G30KT 6000 NSW \n BECMG 1603/1604 21010KT SCT010 BKN025 \n BECMG 1613/1614 4000 BR"
"taf	RKSI	2020-08-15 18:00:00	TAF RKSI 151700Z 1518/1624 19015G28KT 8000 SCT008 BKN180 TN24/1521Z TX28/1604Z TN24/1620Z \n BECMG 1605/1606 21008KT SCT010 BKN025 \n BECMG 1613/1614 4000 BR \n BECMG 1621/1622 18005KT 6000 NSW"
"taf	RKSI	2020-08-15 18:09:00	TAF RKSI 151700Z 1518/1624 19015G28KT 8000 SCT008 BKN180 TN24/1521Z TX28/1604Z TN24/1620Z \n BECMG 1605/1606 21008KT SCT010 BKN025 \n BECMG 1613/1614 4000 BR \n BECMG 1621/1622 18005KT 6000 NSW"
"taf	RKSI	2020-08-16 00:00:00	TAF RKSI 162300Z 1700/1806 19006KT 9999 BKN025 TX31/1706Z TN24/1720Z TX30/1806Z \n BECMG 1703/1704 25008KT SCT025 \n BECMG 1715/1716 19006KT 6000 SCT010 BKN025 \n BECMG 1718/1719 13006KT 4000 BR \n BECMG 1721/1722 20007KT 6000 NSW BKN025 \n BECMG 1800/1801 SCT025"
"taf	RKSI	2020-08-16 00:06:00	TAF RKSI 162300Z 1700/1806 19006KT 9999 BKN025 TX31/1706Z TN24/1720Z TX30/1806Z \n BECMG 1703/1704 25008KT SCT025 \n BECMG 1715/1716 19006KT 6000 SCT010 BKN025 \n BECMG 1718/1719 13006KT 4000 BR \n BECMG 1721/1722 20007KT 6000 NSW BKN025 \n BECMG 1800/1801 SCT025"
"taf	RKSI	2020-08-16 04:10:00	TAF \n AMD RKSI 160410Z 1604/1706 22015G35KT 9999 SCT010 BKN180 TX28/1604Z TN24/1620Z TX30/1705Z \n BECMG 1607/1608 22010KT SCT010 BKN025 \n BECMG 1613/1614 4000 BR \n BECMG 1621/1622 6000 NSW \n BECMG 1702/1703 SCT030"
"taf	RKSI	2020-08-16 04:12:00	TAF \n AMD TAF \n AMD RKSI 160410Z 1604/1706 22015G35KT 9999 SCT010 BKN180 TX28/1604Z TN24/1620Z TX30/1705Z \n BECMG 1607/1608 22010KT SCT010 BKN025 \n BECMG 1613/1614 4000 BR \n BECMG 1621/1622 6000 NSW \n BECMG 1702/1703 SCT030"
"taf	RKSI	2020-08-16 06:00:00	TAF RKSI 160500Z 1606/1712 22015G35KT 9999 SCT015 BKN150 TN24/1620Z TX30/1705Z \n BECMG 1607/1608 22010KT SCT010 BKN025 \n BECMG 1613/1614 4000 BR \n BECMG 1622/1623 25007KT 6000 NSW \n BECMG 1701/1702 SCT030"
"taf	RKSI	2020-08-16 06:09:00	TAF RKSI 160500Z 1606/1712 22015G35KT 9999 SCT015 BKN150 TN24/1620Z TX30/1705Z \n BECMG 1607/1608 22010KT SCT010 BKN025 \n BECMG 1613/1614 4000 BR \n BECMG 1622/1623 25007KT 6000 NSW \n BECMG 1701/1702 SCT030"
"taf	RKSI	2020-08-16 12:00:00	TAF RKSI 161100Z 1612/1718 21008KT 6000 SCT015 BKN030 TN24/1620Z TX30/1705Z \n BECMG 1613/1614 4000 BR \n BECMG 1616/1617 2000 BKN005 BKN025 \n BECMG 1621/1622 4000 \n BECMG 1701/1702 24007KT 6000 NSW SCT030 \n BECMG 1713/1714 15006KT 4000 BR SCT010 BKN025"
"taf	RKSI	2020-08-16 12:06:00	TAF RKSI 161100Z 1612/1718 21008KT 6000 SCT015 BKN030 TN24/1620Z TX30/1705Z \n BECMG 1613/1614 4000 BR \n BECMG 1616/1617 2000 BKN005 BKN025 \n BECMG 1621/1622 4000 \n BECMG 1701/1702 24007KT 6000 NSW SCT030 \n BECMG 1713/1714 15006KT 4000 BR SCT010 BKN025"
"taf	RKSI	2020-08-16 12:09:00	TAF RKSI 161100Z 1612/1718 21008KT 6000 SCT015 BKN030 TN24/1620Z TX30/1705Z \n BECMG 1613/1614 4000 BR \n BECMG 1616/1617 2000 BKN005 BKN025 \n BECMG 1621/1622 4000 \n BECMG 1701/1702 24007KT 6000 NSW SCT030 \n BECMG 1713/1714 15006KT 4000 BR SCT010 BKN025"
"taf	RKSI	2020-08-16 14:08:00	TAF \n AMD RKSI 161408Z 1614/1718 21008KT 6000 SCT010 BKN030 TN24/1620Z TX30/1705Z \n BECMG 1616/1617 4000 BR \n TEMPO 1618/1621 2000 BKN010 BKN025 \n BECMG 1701/1702 24007KT 6000 NSW SCT030 \n BECMG 1713/1714 15006KT 4000 BR SCT010 BKN025"
"taf	RKSI	2020-08-16 14:09:00	TAF \n AMD TAF \n AMD RKSI 161408Z 1614/1718 21008KT 6000 SCT010 BKN030 TN24/1620Z TX30/1705Z \n BECMG 1616/1617 4000 BR \n TEMPO 1618/1621 2000 BKN010 BKN025 \n BECMG 1701/1702 24007KT 6000 NSW SCT030 \n BECMG 1713/1714 15006KT 4000 BR SCT010 BKN025"
"taf	RKSI	2020-08-16 18:00:00	TAF RKSI 161700Z 1618/1724 21008KT 6000 SCT005 BKN025 TN24/1620Z TX30/1705Z TN24/1720Z \n BECMG 1619/1620 4000 BR \n BECMG 1623/1624 24007KT 6000 NSW SCT030 \n BECMG 1715/1716 16006KT 4000 BR SCT010 BKN025 \n BECMG 1721/1722 20007KT 6000 NSW SCT025"
"taf	RKSI	2020-08-16 18:09:00	TAF RKSI 161700Z 1618/1724 21008KT 6000 SCT005 BKN025 TN24/1620Z TX30/1705Z TN24/1720Z \n BECMG 1619/1620 4000 BR \n BECMG 1623/1624 24007KT 6000 NSW SCT030 \n BECMG 1715/1716 16006KT 4000 BR SCT010 BKN025 \n BECMG 1721/1722 20007KT 6000 NSW SCT025"
"taf	RKSI	2020-08-16 21:33:00	TAF \n AMD TAF \n AMD RKSI 162035Z 1621/1724 22008KT 6000 SCT005 BKN025 TX31/1705Z TN24/1720Z \n BECMG 1623/1624 SCT030 \n BECMG 1715/1716 16006KT 4000 BR SCT010 BKN025 \n BECMG 1721/1722 20007KT 6000 NSW SCT025"
"taf	RKSI	2020-08-16 21:35:00	TAF \n AMD RKSI 162035Z 1621/1724 22008KT 6000 SCT005 BKN025 TX31/1705Z TN24/1720Z \n BECMG 1623/1624 SCT030 \n BECMG 1715/1716 16006KT 4000 BR SCT010 BKN025 \n BECMG 1721/1722 20007KT 6000 NSW SCT025"
"taf	RKSI	2020-08-17 00:00:00	TAF RKSI 172300Z 1800/1906 25005KT 7000 FEW010 BKN025 TX30/1806Z TN24/1820Z TX30/1906Z \n BECMG 1802/1803 18005KT SCT030 \n BECMG 1805/1806 29005KT \n BECMG 1816/1817 4000 BR SCT010 BKN025 \n BECMG 1821/1822 24005KT 6000 NSW BKN025 \n BECMG 1902/1903 SCT025"
"taf	RKSI	2020-08-17 00:09:00	TAF RKSI 172300Z 1800/1906 25005KT 7000 FEW010 BKN025 TX30/1806Z TN24/1820Z TX30/1906Z \n BECMG 1802/1803 18005KT SCT030 \n BECMG 1805/1806 29005KT \n BECMG 1816/1817 4000 BR SCT010 BKN025 \n BECMG 1821/1822 24005KT 6000 NSW BKN025 \n BECMG 1902/1903 SCT025"
"taf	RKSI	2020-08-17 06:00:00	TAF RKSI 170500Z 1706/1812 25008KT 9999 SCT025 TN25/1721Z TX30/1806Z \n BECMG 1714/1715 19006KT 6000 SCT010 BKN025 \n BECMG 1717/1718 15006KT 4000 BR \n BECMG 1721/1722 20007KT 6000 NSW BKN025 \n BECMG 1800/1801 SCT030 \n BECMG 1804/1805 26006KT"
"taf	RKSI	2020-08-17 06:09:00	TAF RKSI 170500Z 1706/1812 25008KT 9999 SCT025 TN25/1721Z TX30/1806Z \n BECMG 1714/1715 19006KT 6000 SCT010 BKN025 \n BECMG 1717/1718 15006KT 4000 BR \n BECMG 1721/1722 20007KT 6000 NSW BKN025 \n BECMG 1800/1801 SCT030 \n BECMG 1804/1805 26006KT"
"taf	RKSI	2020-08-17 12:00:00	TAF RKSI 171100Z 1712/1818 27007KT 9999 FEW025 TN25/1721Z TX30/1806Z \n BECMG 1714/1715 19006KT 6000 SCT010 BKN025 \n BECMG 1718/1719 15006KT 4000 BR \n BECMG 1721/1722 20007KT 6000 NSW BKN025 \n BECMG 1800/1801 SCT030 \n BECMG 1803/1804 26006KT"
"taf	RKSI	2020-08-17 12:06:00	TAF RKSI 171100Z 1712/1818 27007KT 9999 FEW025 TN25/1721Z TX30/1806Z \n BECMG 1714/1715 19006KT 6000 SCT010 BKN025 \n BECMG 1718/1719 15006KT 4000 BR \n BECMG 1721/1722 20007KT 6000 NSW BKN025 \n BECMG 1800/1801 SCT030 \n BECMG 1803/1804 26006KT"
"taf	RKSI	2020-08-17 18:00:00	TAF RKSI 171700Z 1718/1824 35005KT 6000 FEW030 TN25/1721Z TX30/1806Z TN24/1820Z \n BECMG 1719/1720 4000 BR \n BECMG 1721/1722 15006KT 6000 NSW \n BECMG 1803/1804 30006KT \n BECMG 1816/1817 23005KT 4000 BR SCT010 BKN025 \n BECMG 1821/1822 18005KT 6000 NSW SCT030"
"taf	RKSI	2020-08-17 18:09:00	TAF RKSI 171700Z 1718/1824 35005KT 6000 FEW030 TN25/1721Z TX30/1806Z TN24/1820Z \n BECMG 1719/1720 4000 BR \n BECMG 1721/1722 15006KT 6000 NSW \n BECMG 1803/1804 30006KT \n BECMG 1816/1817 23005KT 4000 BR SCT010 BKN025 \n BECMG 1821/1822 18005KT 6000 NSW SCT030"
"taf	RKSI	2020-08-17 19:01:00	TAF \n AMD RKSI 171901Z 1719/1824 35005KT 3500 BR SCT005 BKN025 TN25/1721Z TX30/1806Z TN24/1820Z \n BECMG 1721/1722 15006KT 6000 NSW BKN025 \n BECMG 1803/1804 30006KT SCT025 \n BECMG 1816/1817 23005KT 4000 BR SCT010 BKN025 \n BECMG 1821/1822 18005KT 6000 NSW SCT030"
"taf	RKSI	2020-08-17 19:03:00	TAF \n AMD TAF \n AMD RKSI 171901Z 1719/1824 35005KT 3500 BR SCT005 BKN025 TN25/1721Z TX30/1806Z TN24/1820Z \n BECMG 1721/1722 15006KT 6000 NSW BKN025 \n BECMG 1803/1804 30006KT SCT025 \n BECMG 1816/1817 23005KT 4000 BR SCT010 BKN025 \n BECMG 1821/1822 18005KT 6000 NSW SCT030"
"taf	RKSI	2020-08-17 21:15:00	TAF \n AMD TAF \n AMD RKSI 172115Z 1721/1824 29005KT 3000 BR SCT005 BKN025 TN25/1721Z TX30/1806Z TN24/1820Z \n BECMG 1723/1724 15006KT 6000 NSW BKN025 \n BECMG 1803/1804 30006KT SCT025 \n BECMG 1816/1817 23005KT 4000 BR SCT010 BKN025 \n BECMG 1821/1822 18005KT 6000 NSW SCT030"
"taf	RKSI	2020-08-18 00:00:00	TAF RKSI 182300Z 1900/2006 18010KT 6000 FEW010 BKN025 TX31/1906Z TN24/1921Z TX29/2006Z \n BECMG 1902/1903 24006KT 9999 SCT030 \n BECMG 1912/1913 30005KT 6000 \n BECMG 1915/1916 16005KT 3500 BR SCT010 BKN025 \n BECMG 1921/1922 20006KT 6000 NSW \n BECMG 2002/2003 26006KT 9999 SCT030"
"taf	RKSI	2020-08-18 00:09:00	TAF RKSI 182300Z 1900/2006 18010KT 6000 FEW010 BKN025 TX31/1906Z TN24/1921Z TX29/2006Z \n BECMG 1902/1903 24006KT 9999 SCT030 \n BECMG 1912/1913 30005KT 6000 \n BECMG 1915/1916 16005KT 3500 BR SCT010 BKN025 \n BECMG 1921/1922 20006KT 6000 NSW \n BECMG 2002/2003 26006KT 9999 SCT030"
"taf	RKSI	2020-08-18 06:00:00	TAF RKSI 180500Z 1806/1912 32006KT CAVOK TN24/1820Z TX31/1906Z \n BECMG 1814/1815 4000 BR SCT010 BKN025 \n BECMG 1817/1818 16005KT \n BECMG 1821/1822 24005KT 8000 NSW BKN030 \n BECMG 1902/1903 SCT030 \n BECMG 1906/1907 30006KT"
"taf	RKSI	2020-08-18 06:09:00	TAF RKSI 180500Z 1806/1912 32006KT CAVOK TN24/1820Z TX31/1906Z \n BECMG 1814/1815 4000 BR SCT010 BKN025 \n BECMG 1817/1818 16005KT \n BECMG 1821/1822 24005KT 8000 NSW BKN030 \n BECMG 1902/1903 SCT030 \n BECMG 1906/1907 30006KT"
"taf	RKSI	2020-08-18 12:00:00	TAF RKSI 181100Z 1812/1918 30005KT CAVOK TN24/1820Z TX31/1906Z \n BECMG 1814/1815 4000 BR SCT010 BKN025 \n BECMG 1817/1818 16005KT \n BECMG 1821/1822 25005KT 8000 NSW BKN030 \n BECMG 1901/1902 SCT030 \n BECMG 1906/1907 19005KT"
"taf	RKSI	2020-08-18 12:09:00	TAF RKSI 181100Z 1812/1918 30005KT CAVOK TN24/1820Z TX31/1906Z \n BECMG 1814/1815 4000 BR SCT010 BKN025 \n BECMG 1817/1818 16005KT \n BECMG 1821/1822 25005KT 8000 NSW BKN030 \n BECMG 1901/1902 SCT030 \n BECMG 1906/1907 19005KT"
"taf	RKSI	2020-08-18 18:00:00	TAF RKSI 181700Z 1818/1924 30005KT 4000 BR SCT010 BKN025 TN24/1820Z TX31/1906Z TN24/1921Z \n BECMG 1821/1822 24006KT 8000 NSW \n BECMG 1902/1903 SCT030 \n BECMG 1912/1913 30005KT \n BECMG 1914/1915 16005KT 4000 BR SCT010 BKN025 \n BECMG 1921/1922 20005KT 6000 NSW"
"taf	RKSI	2020-08-18 18:06:00	TAF RKSI 181700Z 1818/1924 30005KT 4000 BR SCT010 BKN025 TN24/1820Z TX31/1906Z TN24/1921Z \n BECMG 1821/1822 24006KT 8000 NSW \n BECMG 1902/1903 SCT030 \n BECMG 1912/1913 30005KT \n BECMG 1914/1915 16005KT 4000 BR SCT010 BKN025 \n BECMG 1921/1922 20005KT 6000 NSW"
"taf	RKSI	2020-08-19 00:00:00	TAF RKSI 192300Z 2000/2106 20007KT 6000 FEW010 BKN030 TX29/2006Z TN24/2021Z TX28/2106Z \n BECMG 2002/2003 26007KT 9999 SCT030 \n BECMG 2014/2015 29005KT 3500 BR SCT010 BKN025 \n BECMG 2021/2022 23007KT 6000 NSW \n BECMG 2101/2102 26008KT -RA"
"taf	RKSI	2020-08-19 00:06:00	TAF RKSI 192300Z 2000/2106 20007KT 6000 FEW010 BKN030 TX29/2006Z TN24/2021Z TX28/2106Z \n BECMG 2002/2003 26007KT 9999 SCT030 \n BECMG 2014/2015 29005KT 3500 BR SCT010 BKN025 \n BECMG 2021/2022 23007KT 6000 NSW \n BECMG 2101/2102 26008KT -RA"
"taf	RKSI	2020-08-19 06:00:00	TAF RKSI 190500Z 1906/2012 27010KT 9999 SCT030 TN24/1920Z TX29/2006Z \n BECMG 1912/1913 33005KT 6000 \n BECMG 1914/1915 3500 BR SCT010 BKN025 \n BECMG 1921/1922 18006KT 6000 NSW \n BECMG 2001/2002 26007KT 9999 SCT030 \n BECMG 2011/2012 18006KT BKN030"
"taf	RKSI	2020-08-19 06:06:00	TAF RKSI 190500Z 1906/2012 27010KT 9999 SCT030 TN24/1920Z TX29/2006Z \n BECMG 1912/1913 33005KT 6000 \n BECMG 1914/1915 3500 BR SCT010 BKN025 \n BECMG 1921/1922 18006KT 6000 NSW \n BECMG 2001/2002 26007KT 9999 SCT030 \n BECMG 2011/2012 18006KT BKN030"
"taf	RKSI	2020-08-19 12:00:00	TAF RKSI 191100Z 1912/2018 33005KT 6000 SCT030 TN24/1920Z TX29/2006Z \n BECMG 1914/1915 3500 BR SCT010 BKN025 \n BECMG 1921/1922 18006KT 6000 NSW \n BECMG 2001/2002 26007KT 9999 SCT030 \n BECMG 2011/2012 18006KT 6000 BKN030 \n BECMG 2014/2015 3500 BR SCT010 BKN025"
"taf	RKSI	2020-08-19 12:09:00	TAF TAF RKSI 191100Z 1912/2018 33005KT 6000 SCT030 TN24/1920Z TX29/2006Z \n BECMG 1914/1915 3500 BR SCT010 BKN025 \n BECMG 1921/1922 18006KT 6000 NSW \n BECMG 2001/2002 26007KT 9999 SCT030 \n BECMG 2011/2012 18006KT 6000 BKN030 \n BECMG 2014/2015 3500 BR SCT010 BKN025"
"taf	RKSI	2020-08-19 14:45:00	TAF \n AMD TAF \n AMD RKSI 191345Z 1914/2018 16005KT 3500 BR SCT010 BKN025 TN24/1920Z TX29/2006Z \n BECMG 1921/1922 20006KT 6000 NSW \n BECMG 2001/2002 26007KT 9999 SCT030 \n BECMG 2011/2012 18006KT 6000 BKN030 \n BECMG 2014/2015 3500 BR SCT010 BKN025"
"taf	RKSI	2020-08-19 18:00:00	TAF RKSI 191700Z 1918/2024 20005KT 3500 BR BKN005 BKN025 TN24/1920Z TX29/2006Z TN24/2021Z \n BECMG 1921/1922 6000 NSW SCT010 BKN025 \n BECMG 2002/2003 26007KT 9999 SCT030 \n BECMG 2012/2013 BKN030 \n BECMG 2014/2015 29005KT 3500 BR SCT010 BKN025 \n BECMG 2021/2022 6000 NSW"
"taf	RKSI	2020-08-19 18:06:00	TAF RKSI 191700Z 1918/2024 20005KT 3500 BR BKN005 BKN025 TN24/1920Z TX29/2006Z TN24/2021Z \n BECMG 1921/1922 6000 NSW SCT010 BKN025 \n BECMG 2002/2003 26007KT 9999 SCT030 \n BECMG 2012/2013 BKN030 \n BECMG 2014/2015 29005KT 3500 BR SCT010 BKN025 \n BECMG 2021/2022 6000 NSW"
"taf	RKSI	2020-08-20 00:00:00	TAF RKSI 202300Z 2100/2206 19010KT 6000 SCT010 BKN025 TX28/2106Z TN24/2120Z TX28/2205Z \n TEMPO 2100/2103 -RA \n BECMG 2104/2105 25007KT SCT030 \n BECMG 2116/2117 19005KT 4000 BR SCT010 BKN025 \n TEMPO 2121/2124 -RA BKN010 OVC025 \n BECMG 2200/2201 25005KT 6000 NSW SCT030 BKN120"
"taf	RKSI	2020-08-20 00:06:00	TAF RKSI 202300Z 2100/2206 19010KT 6000 SCT010 BKN025 TX28/2106Z TN24/2120Z TX28/2205Z \n TEMPO 2100/2103 -RA \n BECMG 2104/2105 25007KT SCT030 \n BECMG 2116/2117 19005KT 4000 BR SCT010 BKN025 \n TEMPO 2121/2124 -RA BKN010 OVC025 \n BECMG 2200/2201 25005KT 6000 NSW SCT030 BKN120"
"taf	RKSI	2020-08-20 06:00:00	TAF RKSI 200500Z 2006/2112 29006KT 9999 FEW030 TN24/2021Z TX28/2106Z \n BECMG 2014/2015 06005KT 3500 BR SCT010 BKN025 \n BECMG 2019/2020 20007KT -RA \n BECMG 2100/2101 6000 \n BECMG 2104/2105 NSW SCT030"
"taf	RKSI	2020-08-20 06:06:00	TAF RKSI 200500Z 2006/2112 29006KT 9999 FEW030 TN24/2021Z TX28/2106Z \n BECMG 2014/2015 06005KT 3500 BR SCT010 BKN025 \n BECMG 2019/2020 20007KT -RA \n BECMG 2100/2101 6000 \n BECMG 2104/2105 NSW SCT030"
"taf	RKSI	2020-08-20 12:00:00	TAF RKSI 201100Z 2012/2118 29006KT 7000 FEW030 SCT120 TN24/2020Z TX28/2105Z \n BECMG 2014/2015 06005KT 3500 BR SCT008 BKN020 \n BECMG 2019/2020 19008KT -RA \n BECMG 2100/2101 6000 \n BECMG 2104/2105 24007KT NSW SCT030 \n BECMG 2113/2114 21005KT 4000 BR SCT010 BKN025"
"taf	RKSI	2020-08-20 12:06:00	TAF RKSI 201100Z 2012/2118 29006KT 7000 FEW030 SCT120 TN24/2020Z TX28/2105Z \n BECMG 2014/2015 06005KT 3500 BR SCT008 BKN020 \n BECMG 2019/2020 19008KT -RA \n BECMG 2100/2101 6000 \n BECMG 2104/2105 24007KT NSW SCT030 \n BECMG 2113/2114 21005KT 4000 BR SCT010 BKN025"
"taf	RKSI	2020-08-20 18:00:00	TAF RKSI 201700Z 2018/2124 18008KT 6000 SCT012 BKN025 BKN100 TN24/2020Z TX28/2106Z TN24/2120Z \n BECMG 2020/2021 4000 -RA \n BECMG 2100/2101 21008KT 6000 \n BECMG 2104/2105 25007KT NSW SCT030 \n BECMG 2116/2117 19005KT 4000 BR SCT010 BKN025 \n BECMG 2121/2122 6000 NSW SCT030 BKN160"
"taf	RKSI	2020-08-20 18:06:00	TAF RKSI 201700Z 2018/2124 18008KT 6000 SCT012 BKN025 BKN100 TN24/2020Z TX28/2106Z TN24/2120Z \n BECMG 2020/2021 4000 -RA \n BECMG 2100/2101 21008KT 6000 \n BECMG 2104/2105 25007KT NSW SCT030 \n BECMG 2116/2117 19005KT 4000 BR SCT010 BKN025 \n BECMG 2121/2122 6000 NSW SCT030 BKN160"
"taf	RKSI	2020-08-21 00:00:00	TAF RKSI 212300Z 2200/2306 17007KT 7000 SCT030 BKN120 TX28/2206Z TN23/2221Z TX29/2305Z \n TEMPO 2206/2210 29007KT -SHRA BKN025 BKN080 \n BECMG 2211/2212 BKN025 BKN080 \n BECMG 2216/2217 14006KT 4000 BR SCT010 BKN025 \n BECMG 2221/2222 06006KT 7000 NSW SCT030 \n BECMG 2300/2301 18007KT"
"taf	RKSI	2020-08-21 00:09:00	TAF RKSI 212300Z 2200/2306 17007KT 7000 SCT030 BKN120 TX28/2206Z TN23/2221Z TX29/2305Z \n TEMPO 2206/2210 29007KT -SHRA BKN025 BKN080 \n BECMG 2211/2212 BKN025 BKN080 \n BECMG 2216/2217 14006KT 4000 BR SCT010 BKN025 \n BECMG 2221/2222 06006KT 7000 NSW SCT030 \n BECMG 2300/2301 18007KT"
"taf	RKSI	2020-08-21 06:00:00	TAF RKSI 210500Z 2106/2212 27007KT 7000 FEW007 SCT030 TN24/2121Z TX28/2206Z \n BECMG 2116/2117 18005KT 4000 BR SCT010 BKN020 OVC100 \n BECMG 2121/2122 -RA \n BECMG 2200/2201 6000 NSW \n BECMG 2204/2205 30005KT SCT030 BKN120"
"taf	RKSI	2020-08-21 06:06:00	TAF RKSI 210500Z 2106/2212 27007KT 7000 FEW007 SCT030 TN24/2121Z TX28/2206Z \n BECMG 2116/2117 18005KT 4000 BR SCT010 BKN020 OVC100 \n BECMG 2121/2122 -RA \n BECMG 2200/2201 6000 NSW \n BECMG 2204/2205 30005KT SCT030 BKN120"
"taf	RKSI	2020-08-21 09:00:00	TAF COR TAF COR RKSI 210845Z 2109/2212 07006KT 7000 FEW007 SCT030 TN24/2121Z TX28/2206Z \n BECMG 2111/2112 29005KT \n BECMG 2116/2117 18005KT 4000 BR SCT010 BKN020 OVC100 \n BECMG 2121/2122 -RA \n BECMG 2200/2201 6000 NSW \n BECMG 2204/2205 30005KT SCT030 BKN120"
"taf	RKSI	2020-08-21 09:45:00	TAF COR RKSI 210845Z 2109/2212 07006KT 7000 FEW007 SCT030 TN24/2121Z TX28/2206Z \n BECMG 2111/2112 29005KT \n BECMG 2116/2117 18005KT 4000 BR SCT010 BKN020 OVC100 \n BECMG 2121/2122 -RA \n BECMG 2200/2201 6000 NSW \n BECMG 2204/2205 30005KT SCT030 BKN120"
"taf	RKSI	2020-08-21 09:51:00	TAF \n AMD TAF \n AMD RKSI 210845Z 2109/2212 05006KT 7000 FEW007 SCT030 TN24/2121Z TX28/2206Z \n BECMG 2111/2112 29005KT \n BECMG 2116/2117 18005KT 4000 BR SCT010 BKN020 OVC100 \n BECMG 2121/2122 -RA \n BECMG 2200/2201 6000 NSW \n BECMG 2204/2205 30005KT SCT030 BKN120"
"taf	RKSI	2020-08-21 12:00:00	TAF RKSI 211100Z 2112/2218 29005KT 6000 FEW010 SCT120 TN24/2121Z TX28/2206Z \n BECMG 2116/2117 18005KT 4000 BR SCT010 BKN020 OVC100 \n BECMG 2121/2122 -RA \n BECMG 2200/2201 6000 NSW \n BECMG 2204/2205 30005KT SCT030 BKN120 \n TEMPO 2213/2216 -RA BKN030 OVC100"
"taf	RKSI	2020-08-21 12:06:00	TAF RKSI 211100Z 2112/2218 29005KT 6000 FEW010 SCT120 TN24/2121Z TX28/2206Z \n BECMG 2116/2117 18005KT 4000 BR SCT010 BKN020 OVC100 \n BECMG 2121/2122 -RA \n BECMG 2200/2201 6000 NSW \n BECMG 2204/2205 30005KT SCT030 BKN120 \n TEMPO 2213/2216 -RA BKN030 OVC100"
"taf	RKSI	2020-08-21 14:48:00	TAF \n AMD TAF \n AMD RKSI 211350Z 2114/2218 05007KT 6000 FEW010 SCT120 TN24/2121Z TX28/2206Z \n BECMG 2116/2117 18005KT 4000 BR SCT010 BKN020 OVC100 \n BECMG 2121/2122 -RA \n BECMG 2200/2201 6000 NSW \n BECMG 2204/2205 30005KT SCT030 BKN120 \n TEMPO 2213/2216 -RA BKN030 OVC100"
"taf	RKSI	2020-08-21 14:50:00	TAF \n AMD RKSI 211350Z 2114/2218 05007KT 6000 FEW010 SCT120 TN24/2121Z TX28/2206Z \n BECMG 2116/2117 18005KT 4000 BR SCT010 BKN020 OVC100 \n BECMG 2121/2122 -RA \n BECMG 2200/2201 6000 NSW \n BECMG 2204/2205 30005KT SCT030 BKN120 \n TEMPO 2213/2216 -RA BKN030 OVC100"
"taf	RKSI	2020-08-21 18:00:00	TAF RKSI 211700Z 2118/2224 06006KT 7000 FEW010 BKN030 BKN100 TN24/2121Z TX28/2206Z TN23/2221Z \n BECMG 2121/2122 14007KT 4000 -RA \n BECMG 2200/2201 18007KT 6000 NSW SCT030 BKN120 \n TEMPO 2206/2210 29007KT 4000 -SHRA BKN025 BKN100 \n BECMG 2216/2217 15006KT 4000 BR SCT010 BKN025 \n BECMG 2222/2223 25006KT 6000 NSW"
"taf	RKSI	2020-08-21 18:09:00	TAF RKSI 211700Z 2118/2224 06006KT 7000 FEW010 BKN030 BKN100 TN24/2121Z TX28/2206Z TN23/2221Z \n BECMG 2121/2122 14007KT 4000 -RA \n BECMG 2200/2201 18007KT 6000 NSW SCT030 BKN120 \n TEMPO 2206/2210 29007KT 4000 -SHRA BKN025 BKN100 \n BECMG 2216/2217 15006KT 4000 BR SCT010 BKN025 \n BECMG 2222/2223 25006KT 6000 NSW"
"taf	RKSI	2020-08-22 00:00:00	TAF \n AMD RKSI 222335Z 2300/2406 17006KT 7000 SCT010 BKN025 TX29/2305Z TN23/2320Z TX29/2405Z \n BECMG 2303/2304 26008KT SCT030 \n BECMG 2313/2314 16006KT \n BECMG 2317/2318 06005KT 4000 BR SCT010 BKN025 \n BECMG 2320/2321 15007KT 8000 NSW SCT030"
"taf	RKSI	2020-08-22 00:06:00	TAF RKSI 222300Z 2300/2406 17006KT 9999 SCT040 TX29/2305Z TN23/2320Z TX29/2405Z \n BECMG 2304/2305 26008KT \n BECMG 2313/2314 16006KT \n BECMG 2317/2318 06005KT 4000 BR SCT010 BKN025 \n BECMG 2320/2321 15007KT 8000 NSW SCT030"
"taf	RKSI	2020-08-22 00:35:00	TAF \n AMD RKSI 222335Z 2300/2406 17006KT 7000 SCT010 BKN025 TX29/2305Z TN23/2320Z TX29/2405Z \n BECMG 2303/2304 26008KT SCT030 \n BECMG 2313/2314 16006KT \n BECMG 2317/2318 06005KT 4000 BR SCT010 BKN025 \n BECMG 2320/2321 15007KT 8000 NSW SCT030"
"taf	RKSI	2020-08-22 00:39:00	TAF \n AMD TAF \n AMD RKSI 222335Z 2300/2406 17006KT 7000 SCT010 BKN025 TX29/2305Z TN23/2320Z TX29/2405Z \n BECMG 2303/2304 26008KT SCT030 \n BECMG 2313/2314 16006KT \n BECMG 2317/2318 06005KT 4000 BR SCT010 BKN025 \n BECMG 2320/2321 15007KT 8000 NSW SCT030"
"taf	RKSI	2020-08-22 06:00:00	TAF RKSI 220500Z 2206/2312 25009KT 6000 BKN025 BKN200 TN23/2221Z TX29/2305Z \n TEMPO 2206/2210 30010KT 3500 -SHRA SCT015 BKN025 OVC080 \n BECMG 2211/2212 14006KT \n BECMG 2215/2216 25006KT 4000 BR SCT010 BKN025 \n BECMG 2221/2222 17010KT 6000 NSW SCT030 \n BECMG 2307/2308 26006KT"
"taf	RKSI	2020-08-22 06:06:00	TAF RKSI 220500Z 2206/2312 25009KT 6000 BKN025 BKN200 TN23/2221Z TX29/2305Z \n TEMPO 2206/2210 30010KT 3500 -SHRA SCT015 BKN025 OVC080 \n BECMG 2211/2212 14006KT \n BECMG 2215/2216 25006KT 4000 BR SCT010 BKN025 \n BECMG 2221/2222 17010KT 6000 NSW SCT030 \n BECMG 2307/2308 26006KT"
"taf	RKSI	2020-08-22 12:00:00	TAF RKSI 221100Z 2212/2318 10005KT 6000 FEW010 BKN025 BKN150 TN23/2221Z TX29/2305Z \n TEMPO 2212/2217 17010G20KT 4000 -SHRA SCT015CB BKN025 OVC080 \n BECMG 2218/2219 17008KT 4000 BR \n BECMG 2221/2222 10008KT 6000 NSW SCT030 \n BECMG 2305/2306 26006KT \n BECMG 2317/2318 08006KT SCT010 BKN025"
"taf	RKSI	2020-08-22 12:09:00	TAF RKSI 221100Z 2212/2318 10005KT 6000 FEW010 BKN025 BKN150 TN23/2221Z TX29/2305Z \n TEMPO 2212/2217 17010G20KT 4000 -SHRA SCT015CB BKN025 OVC080 \n BECMG 2218/2219 17008KT 4000 BR \n BECMG 2221/2222 10008KT 6000 NSW SCT030 \n BECMG 2305/2306 26006KT \n BECMG 2317/2318 08006KT SCT010 BKN025"
"taf	RKSI	2020-08-22 18:00:00	TAF RKSI 221700Z 2218/2324 17007KT 7000 SCT010 BKN030 TN23/2220Z TX29/2305Z TN23/2320Z \n BECMG 2221/2222 SCT030 \n BECMG 2304/2305 26007KT \n BECMG 2313/2314 16006KT \n BECMG 2317/2318 06005KT 4000 BR SCT010 BKN025 \n BECMG 2321/2322 15005KT 8000 NSW SCT030"
"taf	RKSI	2020-08-22 18:06:00	TAF RKSI 221700Z 2218/2324 17007KT 7000 SCT010 BKN030 TN23/2220Z TX29/2305Z TN23/2320Z \n BECMG 2221/2222 SCT030 \n BECMG 2304/2305 26007KT \n BECMG 2313/2314 16006KT \n BECMG 2317/2318 06005KT 4000 BR SCT010 BKN025 \n BECMG 2321/2322 15005KT 8000 NSW SCT030"
"taf	RKSI	2020-08-23 00:00:00	TAF RKSI 232300Z 2400/2506 16007KT CAVOK TX30/2406Z TN25/2421Z TX31/2505Z \n BECMG 2404/2405 25008KT \n BECMG 2412/2413 18007KT 9999 SCT030 \n BECMG 2417/2418 15006KT 4000 BR SCT010 \n BECMG 2421/2422 7000 NSW NSC \n BECMG 2504/2505 25007KT"
"taf	RKSI	2020-08-23 00:06:00	TAF RKSI 232300Z 2400/2506 16007KT CAVOK TX30/2406Z TN25/2421Z TX31/2505Z \n BECMG 2404/2405 25008KT \n BECMG 2412/2413 18007KT 9999 SCT030 \n BECMG 2417/2418 15006KT 4000 BR SCT010 \n BECMG 2421/2422 7000 NSW NSC \n BECMG 2504/2505 25007KT"
"taf	RKSI	2020-08-23 01:40:00	TAF \n AMD RKSI 230040Z 2301/2406 27008KT 7000 SCT010 BKN025 TX29/2305Z TN23/2320Z TX29/2405Z \n BECMG 2303/2304 SCT030 \n BECMG 2313/2314 20006KT \n BECMG 2317/2318 08005KT 4000 BR SCT010 BKN025 \n BECMG 2320/2321 15007KT 8000 NSW SCT030"
"taf	RKSI	2020-08-23 01:42:00	TAF \n AMD TAF \n AMD RKSI 230040Z 2301/2406 27008KT 7000 SCT010 BKN025 TX29/2305Z TN23/2320Z TX29/2405Z \n BECMG 2303/2304 SCT030 \n BECMG 2313/2314 20006KT \n BECMG 2317/2318 08005KT 4000 BR SCT010 BKN025 \n BECMG 2320/2321 15007KT 8000 NSW SCT030"
"taf	RKSI	2020-08-23 06:00:00	TAF RKSI 230500Z 2306/2412 28008KT 9999 SCT030 TN23/2320Z TX29/2405Z \n BECMG 2313/2314 20006KT \n BECMG 2317/2318 08005KT 4000 BR SCT010 BKN025 \n BECMG 2320/2321 15007KT 7000 NSW \n BECMG 2400/2401 SCT030"
"taf	RKSI	2020-08-23 06:06:00	TAF RKSI 230500Z 2306/2412 28008KT 9999 SCT030 TN23/2320Z TX29/2405Z \n BECMG 2313/2314 20006KT \n BECMG 2317/2318 08005KT 4000 BR SCT010 BKN025 \n BECMG 2320/2321 15007KT 7000 NSW \n BECMG 2400/2401 SCT030"
"taf	RKSI	2020-08-23 12:00:00	TAF RKSI 231100Z 2312/2418 31006KT 7000 SCT030 BKN180 TN23/2320Z TX29/2405Z \n BECMG 2317/2318 08005KT 4000 BR BKN030 BKN180 \n BECMG 2320/2321 15008KT 6000 NSW \n BECMG 2403/2404 21010KT NSC \n BECMG 2412/2413 14008KT SCT030 \n BECMG 2417/2418 17008KT 4000 BR SCT010"
"taf	RKSI	2020-08-23 12:06:00	TAF RKSI 231100Z 2312/2418 31006KT 7000 SCT030 BKN180 TN23/2320Z TX29/2405Z \n BECMG 2317/2318 08005KT 4000 BR BKN030 BKN180 \n BECMG 2320/2321 15008KT 6000 NSW \n BECMG 2403/2404 21010KT NSC \n BECMG 2412/2413 14008KT SCT030 \n BECMG 2417/2418 17008KT 4000 BR SCT010"
"taf	RKSI	2020-08-23 18:00:00	TAF RKSI 231700Z 2318/2424 05005KT CAVOK TN23/2321Z TX29/2405Z TN24/2421Z \n BECMG 2323/2324 15007KT \n BECMG 2404/2405 25008KT \n BECMG 2412/2413 18007KT 9999 SCT030 \n BECMG 2417/2418 15006KT 4000 BR SCT010 \n BECMG 2421/2422 7000 NSW SCT030"
"taf	RKSI	2020-08-23 18:09:00	TAF RKSI 231700Z 2318/2424 05005KT CAVOK TN23/2321Z TX29/2405Z TN24/2421Z \n BECMG 2323/2324 15007KT \n BECMG 2404/2405 25008KT \n BECMG 2412/2413 18007KT 9999 SCT030 \n BECMG 2417/2418 15006KT 4000 BR SCT010 \n BECMG 2421/2422 7000 NSW SCT030"
"taf	RKSI	2020-08-24 00:00:00	TAF RKSI 242300Z 2500/2606 16010KT 6000 FEW030 BKN150 TX31/2505Z TN26/2521Z TX32/2606Z \n BECMG 2503/2504 24010KT \n BECMG 2508/2509 02007KT BKN030 BKN150 \n BECMG 2520/2521 08010KT \n BECMG 2602/2603 10015G25KT SCT030 BKN150"
"taf	RKSI	2020-08-24 00:06:00	TAF RKSI 242300Z 2500/2606 16010KT 6000 FEW030 BKN150 TX31/2505Z TN26/2521Z TX32/2606Z \n BECMG 2503/2504 24010KT \n BECMG 2508/2509 02007KT BKN030 BKN150 \n BECMG 2520/2521 08010KT \n BECMG 2602/2603 10015G25KT SCT030 BKN150"
"taf	RKSI	2020-08-24 06:00:00	TAF RKSI 240500Z 2406/2512 24008KT CAVOK TN25/2421Z TX31/2505Z \n BECMG 2411/2412 30006KT 6000 SCT030 \n BECMG 2417/2418 15010KT 4000 BR SCT010 \n BECMG 2421/2422 7000 NSW NSC \n BECMG 2503/2504 24007KT \n BECMG 2508/2509 01007KT BKN040"
"taf	RKSI	2020-08-24 06:06:00	TAF RKSI 240500Z 2406/2512 24008KT CAVOK TN25/2421Z TX31/2505Z \n BECMG 2411/2412 30006KT 6000 SCT030 \n BECMG 2417/2418 15010KT 4000 BR SCT010 \n BECMG 2421/2422 7000 NSW NSC \n BECMG 2503/2504 24007KT \n BECMG 2508/2509 01007KT BKN040"
"taf	RKSI	2020-08-24 12:00:00	TAF RKSI 241100Z 2412/2518 17010KT 6000 SCT030 TN25/2421Z TX31/2505Z \n BECMG 2417/2418 4000 BR SCT010 \n BECMG 2421/2422 7000 NSW NSC \n BECMG 2503/2504 24007KT \n BECMG 2508/2509 01007KT BKN040"
"taf	RKSI	2020-08-24 12:09:00	TAF RKSI 241100Z 2412/2518 17010KT 6000 SCT030 TN25/2421Z TX31/2505Z \n BECMG 2417/2418 4000 BR SCT010 \n BECMG 2421/2422 7000 NSW NSC \n BECMG 2503/2504 24007KT \n BECMG 2508/2509 01007KT BKN040"
"taf	RKSI	2020-08-24 18:00:00	TAF RKSI 241700Z 2418/2524 17008KT 4000 BR FEW030 SCT200 TN25/2421Z TX31/2505Z TN26/2521Z \n BECMG 2421/2422 6000 NSW \n BECMG 2503/2504 24010KT \n BECMG 2508/2509 02007KT BKN030 BKN150 \n BECMG 2518/2519 09010KT"
"taf	RKSI	2020-08-24 18:09:00	TAF RKSI 241700Z 2418/2524 17008KT 4000 BR FEW030 SCT200 TN25/2421Z TX31/2505Z TN26/2521Z \n BECMG 2421/2422 6000 NSW \n BECMG 2503/2504 24010KT \n BECMG 2508/2509 02007KT BKN030 BKN150 \n BECMG 2518/2519 09010KT"
"taf	RKSI	2020-08-25 00:00:00	TAF RKSI 252300Z 2600/2706 08012G25KT 6000 SCT030 BKN150 TX32/2606Z TN25/2621Z TX29/2705Z \n BECMG 2609/2610 09020G35KT -RA BKN030 OVC100 \n BECMG 2616/2617 14035G55KT 4000 RA SCT010 BKN025 OVC080 \n BECMG 2618/2619 16045G65KT 2000 +RA \n BECMG 2623/2624 18035G50KT 3500 -RA \n BECMG 2702/2703 18020G40KT 6000"
"taf	RKSI	2020-08-25 00:06:00	TAF RKSI 252300Z 2600/2706 08012G25KT 6000 SCT030 BKN150 TX32/2606Z TN25/2621Z TX29/2705Z \n BECMG 2609/2610 09020G35KT -RA BKN030 OVC100 \n BECMG 2616/2617 14035G55KT 4000 RA SCT010 BKN025 OVC080 \n BECMG 2618/2619 16045G65KT 2000 +RA \n BECMG 2623/2624 18035G50KT 3500 -RA \n BECMG 2702/2703 18020G40KT 6000"
"taf	RKSI	2020-08-25 06:00:00	TAF RKSI 250500Z 2506/2612 30010KT 9999 FEW030 TN25/2521Z TX32/2606Z \n BECMG 2509/2510 02007KT BKN040 BKN150 \n BECMG 2520/2521 08010KT 6000 SCT030 BKN150 \n BECMG 2602/2603 09015G25KT 9999 \n BECMG 2605/2606 BKN025 OVC080 \n BECMG 2608/2609 09020G35KT 6000 -RA"
"taf	RKSI	2020-08-25 06:09:00	TAF RKSI 250500Z 2506/2612 30010KT 9999 FEW030 TN25/2521Z TX32/2606Z \n BECMG 2509/2510 02007KT BKN040 BKN150 \n BECMG 2520/2521 08010KT 6000 SCT030 BKN150 \n BECMG 2602/2603 09015G25KT 9999 \n BECMG 2605/2606 BKN025 OVC080 \n BECMG 2608/2609 09020G35KT 6000 -RA"
"taf	RKSI	2020-08-25 12:00:00	TAF RKSI 251100Z 2512/2618 02008KT 6000 BKN040 BKN150 TN25/2521Z TX32/2606Z \n BECMG 2520/2521 08010KT SCT030 BKN150 \n BECMG 2604/2605 09015G25KT 9999 BKN025 OVC080 \n BECMG 2608/2609 6000 -RA \n BECMG 2611/2612 09025G35KT \n BECMG 2616/2617 15035G60KT 4000 RA SCT010 BKN020 OVC070"
"taf	RKSI	2020-08-25 12:09:00	TAF RKSI 251100Z 2512/2618 02008KT 6000 BKN040 BKN150 TN25/2521Z TX32/2606Z \n BECMG 2520/2521 08010KT SCT030 BKN150 \n BECMG 2604/2605 09015G25KT 9999 BKN025 OVC080 \n BECMG 2608/2609 6000 -RA \n BECMG 2611/2612 09025G35KT \n BECMG 2616/2617 15035G60KT 4000 RA SCT010 BKN020 OVC070"
"taf	RKSI	2020-08-25 18:00:00	TAF RKSI 251700Z 2518/2624 08009KT 6000 SCT030 BKN150 TN25/2521Z TX32/2606Z TN25/2621Z \n BECMG 2604/2605 09015G25KT \n BECMG 2610/2611 09020G35KT -RA BKN030 OVC100 \n BECMG 2616/2617 14035G60KT 4000 RA SCT010 BKN020 OVC070 \n BECMG 2618/2619 17045G65KT 2500 +RA \n BECMG 2623/2624 18035G55KT 3500 -RA"
"taf	RKSI	2020-08-25 18:09:00	TAF RKSI 251700Z 2518/2624 08009KT 6000 SCT030 BKN150 TN25/2521Z TX32/2606Z TN25/2621Z \n BECMG 2604/2605 09015G25KT \n BECMG 2610/2611 09020G35KT -RA BKN030 OVC100 \n BECMG 2616/2617 14035G60KT 4000 RA SCT010 BKN020 OVC070 \n BECMG 2618/2619 17045G65KT 2500 +RA \n BECMG 2623/2624 18035G55KT 3500 -RA"
"taf	RKSI	2020-08-26 00:00:00	TAF RKSI 262300Z 2700/2806 18025G40KT 6000 -RA SCT010 BKN030 OVC080 TX29/2705Z TN25/2720Z TX29/2704Z \n BECMG 2703/2704 21015G25KT \n BECMG 2711/2712 18010KT \n BECMG 2716/2717 4000 \n BECMG 2720/2721 14010KT 6000 \n BECMG 2803/2804 23008KT"
"taf	RKSI	2020-08-26 00:06:00	TAF RKSI 262300Z 2700/2806 18025G40KT 6000 -RA SCT010 BKN030 OVC080 TX29/2705Z TN25/2720Z TX29/2704Z \n BECMG 2703/2704 21015G25KT \n BECMG 2711/2712 18010KT \n BECMG 2716/2717 4000 \n BECMG 2720/2721 14010KT 6000 \n BECMG 2803/2804 23008KT"
"taf	RKSI	2020-08-26 06:00:00	TAF RKSI 260500Z 2606/2712 11015G25KT 9999 SCT030 BKN150 TN26/2621Z TX29/2705Z \n BECMG 2609/2610 12020G35KT 6000 -RA BKN030 OVC100 \n BECMG 2616/2617 14035G55KT 4000 RA SCT010 BKN025 OVC080 \n BECMG 2618/2619 15045G65KT 2500 \n BECMG 2700/2701 18020G40KT 6000 -RA \n BECMG 2703/2704 21015G25KT BKN030 OVC080"
"taf	RKSI	2020-08-26 06:09:00	TAF RKSI 260500Z 2606/2712 11015G25KT 9999 SCT030 BKN150 TN26/2621Z TX29/2705Z \n BECMG 2609/2610 12020G35KT 6000 -RA BKN030 OVC100 \n BECMG 2616/2617 14035G55KT 4000 RA SCT010 BKN025 OVC080 \n BECMG 2618/2619 15045G65KT 2500 \n BECMG 2700/2701 18020G40KT 6000 -RA \n BECMG 2703/2704 21015G25KT BKN030 OVC080"
"taf	RKSI	2020-08-26 12:00:00	TAF RKSI 261100Z 2612/2718 12020G35KT 6000 -RA BKN030 OVC100 TN26/2621Z TX29/2705Z \n BECMG 2616/2617 14030G55KT \n BECMG 2618/2619 15040G60KT 3500 RA SCT010 BKN025 OVC080 \n BECMG 2700/2701 18020G40KT 6000 -RA \n BECMG 2703/2704 21015G25KT \n BECMG 2711/2712 14010KT BKN030 OVC080"
"taf	RKSI	2020-08-26 12:09:00	TAF RKSI 261100Z 2612/2718 12020G35KT 6000 -RA BKN030 OVC100 TN26/2621Z TX29/2705Z \n BECMG 2616/2617 14030G55KT \n BECMG 2618/2619 15040G60KT 3500 RA SCT010 BKN025 OVC080 \n BECMG 2700/2701 18020G40KT 6000 -RA \n BECMG 2703/2704 21015G25KT \n BECMG 2711/2712 14010KT BKN030 OVC080"
"taf	RKSI	2020-08-26 18:00:00	TAF RKSI 261700Z 2618/2724 15040G60KT 3500 RA SCT010 BKN025 OVC070 TN26/2621Z TX29/2705Z TN25/2720Z \n BECMG 2700/2701 18020G40KT 6000 -RA \n BECMG 2703/2704 21015G25KT \n BECMG 2711/2712 14010KT BKN030 OVC080 \n BECMG 2715/2716 4000 \n BECMG 2720/2721 6000"
"taf	RKSI	2020-08-26 18:06:00	TAF RKSI 261700Z 2618/2724 15040G60KT 3500 RA SCT010 BKN025 OVC070 TN26/2621Z TX29/2705Z TN25/2720Z \n BECMG 2700/2701 18020G40KT 6000 -RA \n BECMG 2703/2704 21015G25KT \n BECMG 2711/2712 14010KT BKN030 OVC080 \n BECMG 2715/2716 4000 \n BECMG 2720/2721 6000"
"taf	RKSI	2020-08-27 00:00:00	TAF RKSI 272300Z 2800/2906 20007KT 6000 FEW010 BKN025 OVC080 TX29/2804Z TN25/2820Z TX29/2905Z \n TEMPO 2803/2806 -SHRA FEW005 SCT008CB BKN030 OVC100 \n BECMG 2806/2807 26007KT \n BECMG 2811/2812 17006KT 3500 BR BKN010 BKN020 \n BECMG 2821/2822 14005KT 6000 NSW FEW010 BKN020 OVC100 \n BECMG 2903/2904 24006KT -RA"
"taf	RKSI	2020-08-27 00:06:00	TAF RKSI 272300Z 2800/2906 20007KT 6000 FEW010 BKN025 OVC080 TX29/2804Z TN25/2820Z TX29/2905Z \n TEMPO 2803/2806 -SHRA FEW005 SCT008CB BKN030 OVC100 \n BECMG 2806/2807 26007KT \n BECMG 2811/2812 17006KT 3500 BR BKN010 BKN020 \n BECMG 2821/2822 14005KT 6000 NSW FEW010 BKN020 OVC100 \n BECMG 2903/2904 24006KT -RA"
"taf	RKSI	2020-08-27 02:20:00	TAF \n AMD RKSI 270220Z 2702/2806 20015G25KT 6000 SCT010 BKN030 OVC080 TX29/2705Z TN25/2720Z TX29/2804Z \n BECMG 2711/2712 18010KT \n BECMG 2716/2717 4000 -RA \n BECMG 2720/2721 14010KT 6000 \n BECMG 2803/2804 23008KT"
"taf	RKSI	2020-08-27 02:24:00	TAF \n AMD TAF \n AMD RKSI 270220Z 2702/2806 20015G25KT 6000 SCT010 BKN030 OVC080 TX29/2705Z TN25/2720Z TX29/2804Z \n BECMG 2711/2712 18010KT \n BECMG 2716/2717 4000 -RA \n BECMG 2720/2721 14010KT 6000 \n BECMG 2803/2804 23008KT"
"taf	RKSI	2020-08-27 06:00:00	TAF RKSI 270500Z 2706/2812 21015G25KT 7000 SCT015 BKN030 OVC070 TN25/2720Z TX29/2804Z \n BECMG 2712/2713 18010KT \n BECMG 2714/2715 15010KT 4000 -RA \n BECMG 2721/2722 19010KT 6000 \n BECMG 2806/2807 25008KT \n BECMG 2810/2811 20007KT 4000"
"taf	RKSI	2020-08-27 06:09:00	TAF RKSI 270500Z 2706/2812 21015G25KT 7000 SCT015 BKN030 OVC070 TN25/2720Z TX29/2804Z \n BECMG 2712/2713 18010KT \n BECMG 2714/2715 15010KT 4000 -RA \n BECMG 2721/2722 19010KT 6000 \n BECMG 2806/2807 25008KT \n BECMG 2810/2811 20007KT 4000"
"taf	RKSI	2020-08-27 12:00:00	TAF RKSI 271100Z 2712/2818 18006KT 7000 SCT015 BKN030 OVC100 TN25/2720Z TX29/2804Z \n BECMG 2715/2716 15007KT 4000 -RA \n BECMG 2721/2722 19008KT 6000 NSW \n TEMPO 2803/2806 -SHRA SCT010CB BKN030 OVC100 \n BECMG 2806/2807 25007KT \n BECMG 2810/2811 16006KT 4000 BR BKN010 BKN025"
"taf	RKSI	2020-08-27 12:06:00	TAF RKSI 271100Z 2712/2818 18006KT 7000 SCT015 BKN030 OVC100 TN25/2720Z TX29/2804Z \n BECMG 2715/2716 15007KT 4000 -RA \n BECMG 2721/2722 19008KT 6000 NSW \n TEMPO 2803/2806 -SHRA SCT010CB BKN030 OVC100 \n BECMG 2806/2807 25007KT \n BECMG 2810/2811 16006KT 4000 BR BKN010 BKN025"
"taf	RKSI	2020-08-27 18:00:00	TAF RKSI 271700Z 2718/2824 16007KT 4000 -RA SCT010 BKN025 OVC080 TN25/2720Z TX29/2804Z TN25/2820Z \n BECMG 2721/2722 19008KT 6000 NSW \n TEMPO 2803/2806 -SHRA FEW005 SCT008CB BKN030 OVC100 \n BECMG 2806/2807 25007KT \n BECMG 2810/2811 17006KT 3500 BR BKN010 BKN020 \n BECMG 2821/2822 6000 NSW FEW010 BKN020 OVC100"
"taf	RKSI	2020-08-27 18:06:00	TAF RKSI 271700Z 2718/2824 16007KT 4000 -RA SCT010 BKN025 OVC080 TN25/2720Z TX29/2804Z TN25/2820Z \n BECMG 2721/2722 19008KT 6000 NSW \n TEMPO 2803/2806 -SHRA FEW005 SCT008CB BKN030 OVC100 \n BECMG 2806/2807 25007KT \n BECMG 2810/2811 17006KT 3500 BR BKN010 BKN020 \n BECMG 2821/2822 6000 NSW FEW010 BKN020 OVC100"
"taf	RKSI	2020-08-28 00:00:00	TAF RKSI 282300Z 2900/3006 15007KT 7000 FEW010 SCT020 TX29/2906Z TN25/2920Z TX30/3005Z \n BECMG 2903/2904 30007KT SCT010 BKN025 \n BECMG 2908/2909 24005KT 4000 -RA BKN004 BKN020 OVC100 \n BECMG 2917/2918 02006KT BR \n BECMG 2922/2923 07006KT 6000 NSW \n BECMG 3001/3002 29006KT SCT007 BKN100"
"taf	RKSI	2020-08-28 00:09:00	TAF RKSI 282300Z 2900/3006 15007KT 7000 FEW010 SCT020 TX29/2906Z TN25/2920Z TX30/3005Z \n BECMG 2903/2904 30007KT SCT010 BKN025 \n BECMG 2908/2909 24005KT 4000 -RA BKN004 BKN020 OVC100 \n BECMG 2917/2918 02006KT BR \n BECMG 2922/2923 07006KT 6000 NSW \n BECMG 3001/3002 29006KT SCT007 BKN100"
"taf	RKSI	2020-08-28 06:00:00	TAF RKSI 280500Z 2806/2912 24007KT 8000 FEW010 BKN025 TN25/2820Z TX28/2903Z \n BECMG 2811/2812 18005KT 4000 BR BKN008 BKN020 \n BECMG 2821/2822 15005KT 6000 NSW \n BECMG 2900/2901 24006KT -RA SCT010 BKN020 OVC100 \n BECMG 2904/2905 30007KT NSW \n BECMG 2910/2911 17005KT 4000 -RA"
"taf	RKSI	2020-08-28 06:06:00	TAF RKSI 280500Z 2806/2912 24007KT 8000 FEW010 BKN025 TN25/2820Z TX28/2903Z \n BECMG 2811/2812 18005KT 4000 BR BKN008 BKN020 \n BECMG 2821/2822 15005KT 6000 NSW \n BECMG 2900/2901 24006KT -RA SCT010 BKN020 OVC100 \n BECMG 2904/2905 30007KT NSW \n BECMG 2910/2911 17005KT 4000 -RA"
"taf	RKSI	2020-08-28 12:00:00	TAF RKSI 281100Z 2812/2918 18005KT 6000 SCT008 BKN020 TN25/2820Z TX28/2906Z \n BECMG 2814/2815 4000 BR BKN005 BKN020 \n BECMG 2821/2822 15005KT 6000 NSW \n BECMG 2900/2901 24006KT -RA \n BECMG 2904/2905 30007KT NSW \n BECMG 2910/2911 24005KT 4000 -RA"
"taf	RKSI	2020-08-28 12:06:00	TAF RKSI 281100Z 2812/2918 18005KT 6000 SCT008 BKN020 TN25/2820Z TX28/2906Z \n BECMG 2814/2815 4000 BR BKN005 BKN020 \n BECMG 2821/2822 15005KT 6000 NSW \n BECMG 2900/2901 24006KT -RA \n BECMG 2904/2905 30007KT NSW \n BECMG 2910/2911 24005KT 4000 -RA"
"taf	RKSI	2020-08-28 18:00:00	TAF RKSI 281700Z 2818/2924 15005KT 6000 SCT005 BKN020 TN25/2820Z TX29/2906Z TN25/2920Z \n BECMG 2904/2905 30007KT \n BECMG 2908/2909 07007KT -RA BKN004 BKN020 OVC070 \n BECMG 2911/2912 16006KT 4000 \n BECMG 2917/2918 23005KT BR \n BECMG 2922/2923 6000 NSW"
"taf	RKSI	2020-08-28 18:06:00	TAF RKSI 281700Z 2818/2924 15005KT 6000 SCT005 BKN020 TN25/2820Z TX29/2906Z TN25/2920Z \n BECMG 2904/2905 30007KT \n BECMG 2908/2909 07007KT -RA BKN004 BKN020 OVC070 \n BECMG 2911/2912 16006KT 4000 \n BECMG 2917/2918 23005KT BR \n BECMG 2922/2923 6000 NSW"
"taf	RKSI	2020-08-29 00:00:00	TAF RKSI 292300Z 3000/3106 30006KT 7000 BKN004 BKN030 TX29/3006Z TN24/3020Z TX30/3105Z \n BECMG 3003/3004 SCT030 \n BECMG 3015/3016 07007KT BKN025 BKN100 \n BECMG 3102/3103 SCT030"
"taf	RKSI	2020-08-29 00:09:00	TAF RKSI 292300Z 3000/3106 30006KT 7000 BKN004 BKN030 TX29/3006Z TN24/3020Z TX30/3105Z \n BECMG 3003/3004 SCT030 \n BECMG 3015/3016 07007KT BKN025 BKN100 \n BECMG 3102/3103 SCT030"
"taf	RKSI	2020-08-29 02:40:00	TAF \n AMD RKSI 290140Z 2902/3006 30007KT 7000 SCT010 BKN025 TX29/2906Z TN25/2920Z TX30/3005Z \n TEMPO 2902/2905 15005KT 4000 -RA \n BECMG 2908/2909 24005KT 4000 -RA BKN004 BKN020 OVC100 \n BECMG 2917/2918 02006KT BR \n BECMG 2922/2923 07006KT 6000 NSW \n BECMG 3001/3002 29006KT SCT007 BKN100"
"taf	RKSI	2020-08-29 02:45:00	TAF \n AMD TAF \n AMD RKSI 290140Z 2902/3006 30007KT 7000 SCT010 BKN025 TX29/2906Z TN25/2920Z TX30/3005Z \n TEMPO 2902/2905 15005KT 4000 -RA \n BECMG 2908/2909 24005KT 4000 -RA BKN004 BKN020 OVC100 \n BECMG 2917/2918 02006KT BR \n BECMG 2922/2923 07006KT 6000 NSW \n BECMG 3001/3002 29006KT SCT007 BKN100"
"taf	RKSI	2020-08-29 06:00:00	TAF RKSI 290500Z 2906/3012 22006KT 8000 FEW010 BKN025 TN25/2921Z TX30/3004Z \n BECMG 2911/2912 19005KT 4000 -RA BKN006 BKN025 OVC100 \n BECMG 2917/2918 03005KT BR \n BECMG 2921/2922 10005KT 6000 NSW SCT010 BKN025 \n BECMG 3003/3004 30006KT SCT025 BKN120"
"taf	RKSI	2020-08-29 06:06:00	TAF RKSI 290500Z 2906/3012 22006KT 8000 FEW010 BKN025 TN25/2921Z TX30/3004Z \n BECMG 2911/2912 19005KT 4000 -RA BKN006 BKN025 OVC100 \n BECMG 2917/2918 03005KT BR \n BECMG 2921/2922 10005KT 6000 NSW SCT010 BKN025 \n BECMG 3003/3004 30006KT SCT025 BKN120"
"taf	RKSI	2020-08-29 12:00:00	TAF RKSI 291100Z 2912/3018 19005KT 7000 -RA SCT010 BKN025 OVC100 TN25/2921Z TX30/3004Z \n BECMG 2913/2914 4000 BKN006 BKN025 OVC080 \n BECMG 2917/2918 03005KT BR \n BECMG 2921/2922 30006KT 6000 NSW \n BECMG 3002/3003 SCT025 BKN120 \n BECMG 3015/3016 06006KT 4000 BR SCT010 BKN025"
"taf	RKSI	2020-08-29 12:09:00	TAF TAF RKSI 291100Z 2912/3018 19005KT 7000 -RA SCT010 BKN025 OVC100 TN25/2921Z TX30/3004Z \n BECMG 2913/2914 4000 BKN006 BKN025 OVC080 \n BECMG 2917/2918 03005KT BR \n BECMG 2921/2922 30006KT 6000 NSW \n BECMG 3002/3003 SCT025 BKN120 \n BECMG 3015/3016 06006KT 4000 BR SCT010 BKN025"
"taf	RKSI	2020-08-29 13:20:00	TAF \n AMD RKSI 291320Z 2913/3018 24005KT 7000 SCT010 BKN025 OVC100 TN25/2921Z TX30/3004Z \n TEMPO 2915/2917 -RA BKN006 BKN025 OVC080 \n BECMG 2917/2918 03005KT 4000 BR \n BECMG 2921/2922 30006KT 6000 NSW \n BECMG 3002/3003 SCT025 BKN120 \n BECMG 3015/3016 06006KT 4000 BR SCT010 BKN025"
"taf	RKSI	2020-08-29 13:24:00	TAF \n AMD TAF \n AMD RKSI 291320Z 2913/3018 24005KT 7000 SCT010 BKN025 OVC100 TN25/2921Z TX30/3004Z \n TEMPO 2915/2917 -RA BKN006 BKN025 OVC080 \n BECMG 2917/2918 03005KT 4000 BR \n BECMG 2921/2922 30006KT 6000 NSW \n BECMG 3002/3003 SCT025 BKN120 \n BECMG 3015/3016 06006KT 4000 BR SCT010 BKN025"
"taf	RKSI	2020-08-29 18:00:00	TAF RKSI 291700Z 2918/3024 24006KT 6000 BKN004 BKN025 OVC100 TN25/2921Z TX30/3004Z TN25/3021Z \n TEMPO 2918/2919 28006KT 4000 -DZ \n BECMG 2920/2921 30006KT \n BECMG 3002/3003 SCT025 \n BECMG 3015/3016 07007KT SCT010 BKN025"
"taf	RKSI	2020-08-29 18:06:00	TAF RKSI 291700Z 2918/3024 24006KT 6000 BKN004 BKN025 OVC100 TN25/2921Z TX30/3004Z TN25/3021Z \n TEMPO 2918/2919 28006KT 4000 -DZ \n BECMG 2920/2921 30006KT \n BECMG 3002/3003 SCT025 \n BECMG 3015/3016 07007KT SCT010 BKN025"
"taf	RKSI	2020-08-30 00:00:00	TAF RKSI 302300Z 3100/0106 07010KT 9999 SCT030 BKN100 TX30/3106Z TN24/3121Z TX29/0106Z \n BECMG 3102/3103 15007KT SCT030 \n BECMG 3109/3110 06005KT BKN025 BKN100 \n BECMG 3112/3113 15010KT \n BECMG 3121/3122 SCT030"
"taf	RKSI	2020-08-30 00:06:00	TAF RKSI 302300Z 3100/0106 07010KT 9999 SCT030 BKN100 TX30/3106Z TN24/3121Z TX29/0106Z \n BECMG 3102/3103 15007KT SCT030 \n BECMG 3109/3110 06005KT BKN025 BKN100 \n BECMG 3112/3113 15010KT \n BECMG 3121/3122 SCT030"
"taf	RKSI	2020-08-30 06:00:00	TAF RKSI 300500Z 3006/3112 28007KT 7000 SCT030 BKN150 TN25/3020Z TX30/3105Z \n BECMG 3015/3016 07007KT BKN025 BKN100 \n BECMG 3102/3103 SCT030 BKN120 \n BECMG 3108/3109 26006KT"
"taf	RKSI	2020-08-30 06:09:00	TAF RKSI 300500Z 3006/3112 28007KT 7000 SCT030 BKN150 TN25/3020Z TX30/3105Z \n BECMG 3015/3016 07007KT BKN025 BKN100 \n BECMG 3102/3103 SCT030 BKN120 \n BECMG 3108/3109 26006KT"
"taf	RKSI	2020-08-30 12:00:00	TAF RKSI 301100Z 3012/3118 34006KT 7000 SCT030 BKN150 TN25/3020Z TX30/3105Z \n BECMG 3014/3015 07007KT BKN025 BKN100 \n BECMG 3102/3103 16010KT SCT030 BKN120 \n BECMG 3113/3114 BKN025 BKN100"
"taf	RKSI	2020-08-30 12:09:00	TAF RKSI 301100Z 3012/3118 34006KT 7000 SCT030 BKN150 TN25/3020Z TX30/3105Z \n BECMG 3014/3015 07007KT BKN025 BKN100 \n BECMG 3102/3103 16010KT SCT030 BKN120 \n BECMG 3113/3114 BKN025 BKN100"
"taf	RKSI	2020-08-30 18:00:00	TAF RKSI 301700Z 3018/3124 07006KT 6000 FEW010 BKN030 TN25/3020Z TX30/3106Z TN24/3121Z \n BECMG 3102/3103 15010KT 9999 SCT030 BKN120 \n BECMG 3109/3110 BKN025 BKN100"
"taf	RKSI	2020-08-30 18:06:00	TAF RKSI 301700Z 3018/3124 07006KT 6000 FEW010 BKN030 TN25/3020Z TX30/3106Z TN24/3121Z \n BECMG 3102/3103 15010KT 9999 SCT030 BKN120 \n BECMG 3109/3110 BKN025 BKN100"
"taf	RKSI	2020-08-31 00:00:00	TAF RKSI 312300Z 0100/0206 15008KT 9999 SCT025 TX30/0106Z TN24/0121Z TX28/0204Z \n BECMG 0106/0107 33007KT \n BECMG 0114/0115 07005KT BKN030 OVC100 \n BECMG 0120/0121 14006KT 4000 -RA SCT010 BKN025 OVC080 \n BECMG 0201/0202 04005KT \n BECMG 0204/0205 01007KT RA"
"taf	RKSI	2020-08-31 00:09:00	TAF RKSI 312300Z 0100/0206 15008KT 9999 SCT025 TX30/0106Z TN24/0121Z TX28/0204Z \n BECMG 0106/0107 33007KT \n BECMG 0114/0115 07005KT BKN030 OVC100 \n BECMG 0120/0121 14006KT 4000 -RA SCT010 BKN025 OVC080 \n BECMG 0201/0202 04005KT \n BECMG 0204/0205 01007KT RA"
"taf	RKSI	2020-08-31 06:00:00	TAF RKSI 310500Z 3106/0112 15008KT 9999 SCT030 BKN120 TN24/3121Z TX29/0106Z \n BECMG 3109/3110 06005KT BKN025 BKN100 \n BECMG 3112/3113 15010KT \n BECMG 3121/3122 SCT030 \n BECMG 0106/0107 34007KT"
"taf	RKSI	2020-08-31 06:09:00	TAF RKSI 310500Z 3106/0112 15008KT 9999 SCT030 BKN120 TN24/3121Z TX29/0106Z \n BECMG 3109/3110 06005KT BKN025 BKN100 \n BECMG 3112/3113 15010KT \n BECMG 3121/3122 SCT030 \n BECMG 0106/0107 34007KT"
"taf	RKSI	2020-08-31 12:00:00	TAF \n AMD RKSI 311133Z 3112/0118 15010KT 9999 BKN025 BKN100 TN24/3121Z TX29/0106Z \n TEMPO 3112/3114 6000 -RA \n BECMG 3121/3122 SCT030 BKN120 \n BECMG 0105/0106 34007KT \n BECMG 0113/0114 BKN025 BKN100"
"taf	RKSI	2020-08-31 12:06:00	TAF RKSI 311100Z 3112/0118 15010KT 9999 BKN025 BKN100 TN24/3121Z TX29/0106Z \n BECMG 3121/3122 SCT030 BKN120 \n BECMG 0105/0106 34007KT \n BECMG 0113/0114 BKN025 BKN100"
"taf	RKSI	2020-08-31 12:33:00	TAF \n AMD RKSI 311133Z 3112/0118 15010KT 9999 BKN025 BKN100 TN24/3121Z TX29/0106Z \n TEMPO 3112/3114 6000 -RA \n BECMG 3121/3122 SCT030 BKN120 \n BECMG 0105/0106 34007KT \n BECMG 0113/0114 BKN025 BKN100"
"taf	RKSI	2020-08-31 12:36:00	TAF \n AMD RKSI 311133Z 3112/0118 15010KT 9999 BKN025 BKN100 TN24/3121Z TX29/0106Z \n TEMPO 3112/3114 6000 -RA \n BECMG 3121/3122 SCT030 BKN120 \n BECMG 0105/0106 34007KT \n BECMG 0113/0114 BKN025 BKN100"
"taf	RKSI	2020-08-31 15:35:00	TAF \n AMD RKSI 311435Z 3115/0118 15010KT 9999 BKN025 BKN100 TN24/3121Z TX29/0106Z \n TEMPO 3115/3118 6000 -RA \n BECMG 3121/3122 SCT030 BKN120 \n BECMG 0105/0106 34007KT \n BECMG 0113/0114 BKN025 BKN100"
"taf	RKSI	2020-08-31 15:36:00	TAF \n AMD TAF \n AMD RKSI 311435Z 3115/0118 15010KT 9999 BKN025 BKN100 TN24/3121Z TX29/0106Z \n TEMPO 3115/3118 6000 -RA \n BECMG 3121/3122 SCT030 BKN120 \n BECMG 0105/0106 34007KT \n BECMG 0113/0114 BKN025 BKN100"
"taf	RKSI	2020-08-31 18:00:00	TAF RKSI 311700Z 3118/0124 15010KT 9999 BKN025 BKN100 TN24/3120Z TX30/0106Z TN24/0121Z \n BECMG 0103/0104 24006KT SCT030 BKN120 \n BECMG 0107/0108 32007KT \n BECMG 0114/0115 07005KT BKN030 OVC100 \n BECMG 0120/0121 12006KT 4000 -RA SCT010 BKN025 OVC080"
"taf	RKSI	2020-08-31 18:06:00	TAF RKSI 311700Z 3118/0124 15010KT 9999 BKN025 BKN100 TN24/3120Z TX30/0106Z TN24/0121Z \n BECMG 0103/0104 24006KT SCT030 BKN120 \n BECMG 0107/0108 32007KT \n BECMG 0114/0115 07005KT BKN030 OVC100 \n BECMG 0120/0121 12006KT 4000 -RA SCT010 BKN025 OVC080"
"taf	RKSI	2020-09-01 00:00:00	TAF RKSI 012300Z 0200/0306 06010KT 9999 -RA BKN040 OVC100 TX26/0204Z TN22/0220Z TX26/0305Z \n BECMG 0208/0209 02015G25KT 4000 RA SCT005 BKN020 OVC080 \n BECMG 0214/0215 34025G35KT 2500 +RA BKN003 BKN020 OVC060 \n BECMG 0220/0221 31035G50KT 4000 RA SCT005 BKN020 OVC100 \n BECMG 0300/0301 26025G40KT 6000 -RA BKN030 OVC100 \n BECMG 0303/0304 NSW SCT030"
"taf	RKSI	2020-09-01 00:06:00	TAF RKSI 012300Z 0200/0306 06010KT 9999 -RA BKN040 OVC100 TX26/0204Z TN22/0220Z TX26/0305Z \n BECMG 0208/0209 02015G25KT 4000 RA SCT005 BKN020 OVC080 \n BECMG 0214/0215 34025G35KT 2500 +RA BKN003 BKN020 OVC060 \n BECMG 0220/0221 31035G50KT 4000 RA SCT005 BKN020 OVC100 \n BECMG 0300/0301 26025G40KT 6000 -RA BKN030 OVC100 \n BECMG 0303/0304 NSW SCT030"
"taf	RKSI	2020-09-01 06:00:00	TAF RKSI 010500Z 0106/0212 32008KT 9999 SCT025 TN24/0121Z TX26/0204Z \n BECMG 0114/0115 07005KT BKN030 OVC100 \n BECMG 0119/0120 14006KT 4000 -RA SCT005 BKN025 OVC080 \n BECMG 0201/0202 04010KT \n BECMG 0203/0204 01012KT RA \n BECMG 0210/0211 34015G25KT"
"taf	RKSI	2020-09-01 06:06:00	TAF RKSI 010500Z 0106/0212 32008KT 9999 SCT025 TN24/0121Z TX26/0204Z \n BECMG 0114/0115 07005KT BKN030 OVC100 \n BECMG 0119/0120 14006KT 4000 -RA SCT005 BKN025 OVC080 \n BECMG 0201/0202 04010KT \n BECMG 0203/0204 01012KT RA \n BECMG 0210/0211 34015G25KT"
"taf	RKSI	2020-09-01 12:00:00	TAF RKSI 011100Z 0112/0218 33008KT 9999 SCT025 TN24/0121Z TX26/0204Z \n BECMG 0114/0115 07005KT \n BECMG 0119/0120 14006KT 4000 -RA SCT005 BKN030 OVC100 \n BECMG 0201/0202 05010KT \n BECMG 0208/0209 02012KT RA \n BECMG 0210/0211 34015G25KT"
"taf	RKSI	2020-09-01 12:06:00	TAF RKSI 011100Z 0112/0218 33008KT 9999 SCT025 TN24/0121Z TX26/0204Z \n BECMG 0114/0115 07005KT \n BECMG 0119/0120 14006KT 4000 -RA SCT005 BKN030 OVC100 \n BECMG 0201/0202 05010KT \n BECMG 0208/0209 02012KT RA \n BECMG 0210/0211 34015G25KT"
"taf	RKSI	2020-09-01 13:05:00	TAF \n AMD RKSI 011305Z 0113/0218 33008KT 9999 -RA FEW010 BKN040 OVC100 TN24/0121Z TX26/0204Z \n BECMG 0114/0115 07005KT \n BECMG 0119/0120 14006KT 4000 \n BECMG 0201/0202 05010KT \n BECMG 0208/0209 02012KT RA \n BECMG 0210/0211 34015G25KT"
"taf	RKSI	2020-09-01 13:09:00	TAF \n AMD TAF \n AMD RKSI 011305Z 0113/0218 33008KT 9999 -RA FEW010 BKN040 OVC100 TN24/0121Z TX26/0204Z \n BECMG 0114/0115 07005KT \n BECMG 0119/0120 14006KT 4000 \n BECMG 0201/0202 05010KT \n BECMG 0208/0209 02012KT RA \n BECMG 0210/0211 34015G25KT"
"taf	RKSI	2020-09-01 18:00:00	TAF RKSI 011700Z 0118/0224 03007KT 6000 -RA FEW010 BKN040 OVC080 TN24/0121Z TX26/0204Z TN23/0220Z \n BECMG 0119/0120 14006KT \n BECMG 0201/0202 05010KT \n BECMG 0208/0209 02015G25KT 4000 RA BKN005 BKN020 OVC060 \n BECMG 0214/0215 34025G35KT 6000 \n BECMG 0220/0221 32035G45KT"
"taf	RKSI	2020-09-01 18:06:00	TAF RKSI 011700Z 0118/0224 03007KT 6000 -RA FEW010 BKN040 OVC080 TN24/0121Z TX26/0204Z TN23/0220Z \n BECMG 0119/0120 14006KT \n BECMG 0201/0202 05010KT \n BECMG 0208/0209 02015G25KT 4000 RA BKN005 BKN020 OVC060 \n BECMG 0214/0215 34025G35KT 6000 \n BECMG 0220/0221 32035G45KT"
"taf	RKSI	2020-09-02 00:00:00	TAF RKSI 022300Z 0300/0406 33027G40KT 4000 -RA SCT010 BKN025 OVC080 TX26/0305Z TN20/0320Z TX26/0405Z \n BECMG 0301/0302 26025G40KT 6000 \n BECMG 0303/0304 26017G27KT NSW SCT030 \n BECMG 0317/0318 23012KT"
"taf	RKSI	2020-09-02 00:06:00	TAF RKSI 022300Z 0300/0406 33027G40KT 4000 -RA SCT010 BKN025 OVC080 TX26/0305Z TN20/0320Z TX26/0405Z \n BECMG 0301/0302 26025G40KT 6000 \n BECMG 0303/0304 26017G27KT NSW SCT030 \n BECMG 0317/0318 23012KT"
"taf	RKSI	2020-09-02 06:00:00	TAF RKSI 020500Z 0206/0312 06010KT 7000 -RA SCT005 BKN025 OVC100 TN22/0220Z TX26/0305Z \n BECMG 0210/0211 02015G25KT 4000 RA \n BECMG 0214/0215 34025G35KT 2000 +RA \n BECMG 0220/0221 31025G45KT 4000 RA \n BECMG 0300/0301 26025G40KT 7000 -RA \n BECMG 0303/0304 30015G25KT NSW SCT030"
"taf	RKSI	2020-09-02 06:06:00	TAF RKSI 020500Z 0206/0312 06010KT 7000 -RA SCT005 BKN025 OVC100 TN22/0220Z TX26/0305Z \n BECMG 0210/0211 02015G25KT 4000 RA \n BECMG 0214/0215 34025G35KT 2000 +RA \n BECMG 0220/0221 31025G45KT 4000 RA \n BECMG 0300/0301 26025G40KT 7000 -RA \n BECMG 0303/0304 30015G25KT NSW SCT030"
"taf	RKSI	2020-09-02 12:00:00	TAF RKSI 021100Z 0212/0318 02015G25KT 4000 RA SCT005 BKN025 OVC080 TN22/0220Z TX26/0305Z \n BECMG 0214/0215 34025G35KT 2000 +RA \n BECMG 0220/0221 31025G45KT 4000 RA \n BECMG 0223/0224 26025G40KT 7000 -RA \n BECMG 0302/0303 26015G25KT NSW SCT030 \n BECMG 0316/0317 23013KT"
"taf	RKSI	2020-09-02 12:06:00	TAF RKSI 021100Z 0212/0318 02015G25KT 4000 RA SCT005 BKN025 OVC080 TN22/0220Z TX26/0305Z \n BECMG 0214/0215 34025G35KT 2000 +RA \n BECMG 0220/0221 31025G45KT 4000 RA \n BECMG 0223/0224 26025G40KT 7000 -RA \n BECMG 0302/0303 26015G25KT NSW SCT030 \n BECMG 0316/0317 23013KT"
"taf	RKSI	2020-09-02 18:00:00	TAF RKSI 021700Z 0218/0324 34025G35KT 2000 +RA BKN008 BKN020 OVC060 TN21/0219Z TX26/0305Z TN20/0320Z \n BECMG 0220/0221 31025G45KT 4000 RA SCT010 BKN025 OVC080 \n BECMG 0223/0224 26025G45KT 6000 -RA \n BECMG 0302/0303 25020G35KT NSW SCT030 \n BECMG 0311/0312 23015G25KT \n BECMG 0316/0317 22013KT"
"taf	RKSI	2020-09-02 18:06:00	TAF RKSI 021700Z 0218/0324 34025G35KT 2000 +RA BKN008 BKN020 OVC060 TN21/0219Z TX26/0305Z TN20/0320Z \n BECMG 0220/0221 31025G45KT 4000 RA SCT010 BKN025 OVC080 \n BECMG 0223/0224 26025G45KT 6000 -RA \n BECMG 0302/0303 25020G35KT NSW SCT030 \n BECMG 0311/0312 23015G25KT \n BECMG 0316/0317 22013KT"
"taf	RKSI	2020-09-02 21:24:00	TAF COR TAF COR RKSI 022125Z 0221/0324 32030G45KT 0400 +RA FG BKN008 BKN020 OVC060 TN21/0219Z TX26/0305Z TN20/0320Z \n BECMG 0300/0301 29025G35KT 2500 RA SCT010 BKN025 OVC080 \n BECMG 0302/0303 25020G35KT 6000 NSW SCT030 \n BECMG 0311/0312 23015G25KT \n BECMG 0316/0317 22013KT"
"taf	RKSI	2020-09-02 21:25:00	TAF COR RKSI 022125Z 0221/0324 32030G45KT 0400 +RA FG BKN008 BKN020 OVC060 TN21/0219Z TX26/0305Z TN20/0320Z \n BECMG 0300/0301 29025G35KT 2500 RA SCT010 BKN025 OVC080 \n BECMG 0302/0303 25020G35KT 6000 NSW SCT030 \n BECMG 0311/0312 23015G25KT \n BECMG 0316/0317 22013KT"
"taf	RKSI	2020-09-02 21:50:00	TAF \n AMD RKSI 022050Z 0221/0324 32030G45KT 0800 +RA FG BKN008 BKN020 OVC060 TN21/0219Z TX26/0305Z TN20/0320Z \n BECMG 0300/0301 29025G35KT 2500 RA SCT010 BKN025 OVC080 \n BECMG 0302/0303 25020G35KT 6000 NSW SCT030 \n BECMG 0311/0312 23015G25KT \n BECMG 0316/0317 22013KT"
"taf	RKSI	2020-09-02 21:54:00	TAF \n AMD TAF \n AMD RKSI 022050Z 0221/0324 32030G45KT 0800 +RA FG BKN008 BKN020 OVC060 TN21/0219Z TX26/0305Z TN20/0320Z \n BECMG 0300/0301 29025G35KT 2500 RA SCT010 BKN025 OVC080 \n BECMG 0302/0303 25020G35KT 6000 NSW SCT030 \n BECMG 0311/0312 23015G25KT \n BECMG 0316/0317 22013KT"
"taf	RKSI	2020-09-03 00:00:00	TAF RKSI 032300Z 0400/0506 23010KT 9999 SCT025 TX27/0405Z TN20/0420Z TX28/0505Z \n BECMG 0404/0405 30007KT \n BECMG 0407/0408 22010KT \n BECMG 0411/0412 16006KT \n BECMG 0503/0504 30006KT"
"taf	RKSI	2020-09-03 00:09:00	TAF RKSI 032300Z 0400/0506 23010KT 9999 SCT025 TX27/0405Z TN20/0420Z TX28/0505Z \n BECMG 0404/0405 30007KT \n BECMG 0407/0408 22010KT \n BECMG 0411/0412 16006KT \n BECMG 0503/0504 30006KT"
"taf	RKSI	2020-09-03 06:00:00	TAF RKSI 030500Z 0306/0412 28025G35KT 9999 SCT030 TN20/0320Z TX27/0405Z \n BECMG 0309/0310 26015G25KT \n BECMG 0312/0313 23013KT BKN030 \n TEMPO 0314/0316 6000 -RA \n BECMG 0319/0320 SCT030 \n BECMG 0409/0410 17007KT"
"taf	RKSI	2020-09-03 06:06:00	TAF RKSI 030500Z 0306/0412 28025G35KT 9999 SCT030 TN20/0320Z TX27/0405Z \n BECMG 0309/0310 26015G25KT \n BECMG 0312/0313 23013KT BKN030 \n TEMPO 0314/0316 6000 -RA \n BECMG 0319/0320 SCT030 \n BECMG 0409/0410 17007KT"
"taf	RKSI	2020-09-03 12:00:00	TAF RKSI 031100Z 0312/0418 25012KT 9999 BKN030 TN20/0320Z TX27/0405Z \n TEMPO 0312/0316 24015G25KT 4000 -RA SCT015CB BKN025 \n BECMG 0322/0323 SCT030 \n BECMG 0411/0412 16006KT"
"taf	RKSI	2020-09-03 12:09:00	TAF RKSI 031100Z 0312/0418 25012KT 9999 BKN030 TN20/0320Z TX27/0405Z \n TEMPO 0312/0316 24015G25KT 4000 -RA SCT015CB BKN025 \n BECMG 0322/0323 SCT030 \n BECMG 0411/0412 16006KT"
"taf	RKSI	2020-09-03 18:00:00	TAF RKSI 031700Z 0318/0424 21007KT CAVOK TN20/0320Z TX27/0405Z TN20/0420Z \n BECMG 0404/0405 30007KT \n BECMG 0407/0408 22010KT \n BECMG 0411/0412 16006KT"
"taf	RKSI	2020-09-03 18:06:00	TAF RKSI 031700Z 0318/0424 21007KT CAVOK TN20/0320Z TX27/0405Z TN20/0420Z \n BECMG 0404/0405 30007KT \n BECMG 0407/0408 22010KT \n BECMG 0411/0412 16006KT"
"taf	RKSI	2020-09-04 00:00:00	TAF RKSI 042300Z 0500/0606 07005KT 9999 SCT025 BKN150 TX28/0506Z TN22/0521Z TX28/0605Z \n BECMG 0504/0505 28006KT \n BECMG 0511/0512 13005KT \n BECMG 0602/0603 06008KT"
"taf	RKSI	2020-09-04 00:06:00	TAF RKSI 042300Z 0500/0606 07005KT 9999 SCT025 BKN150 TX28/0506Z TN22/0521Z TX28/0605Z \n BECMG 0504/0505 28006KT \n BECMG 0511/0512 13005KT \n BECMG 0602/0603 06008KT"
"taf	RKSI	2020-09-04 06:00:00	TAF RKSI 040500Z 0406/0512 29010KT 9999 FEW025 TN20/0421Z TX27/0506Z \n BECMG 0407/0408 22010KT \n BECMG 0410/0411 16005KT \n BECMG 0503/0504 30006KT"
"taf	RKSI	2020-09-04 06:06:00	TAF RKSI 040500Z 0406/0512 29010KT 9999 FEW025 TN20/0421Z TX27/0506Z \n BECMG 0407/0408 22010KT \n BECMG 0410/0411 16005KT \n BECMG 0503/0504 30006KT"
"taf	RKSI	2020-09-04 12:00:00	TAF RKSI 041100Z 0412/0518 18005KT CAVOK TN20/0421Z TX27/0506Z \n BECMG 0418/0419 06005KT 9999 SCT025 \n BECMG 0500/0501 16006KT \n BECMG 0504/0505 29006KT \n BECMG 0514/0515 07005KT"
"taf	RKSI	2020-09-04 12:06:00	TAF RKSI 041100Z 0412/0518 18005KT CAVOK TN20/0421Z TX27/0506Z \n BECMG 0418/0419 06005KT 9999 SCT025 \n BECMG 0500/0501 16006KT \n BECMG 0504/0505 29006KT \n BECMG 0514/0515 07005KT"
"taf	RKSI	2020-09-04 18:00:00	TAF RKSI 041700Z 0418/0524 06005KT 9999 SCT025 BKN180 TN20/0421Z TX28/0506Z TN22/0521Z \n BECMG 0420/0421 16006KT \n BECMG 0504/0505 28006KT \n BECMG 0511/0512 13005KT"
"taf	RKSI	2020-09-04 18:09:00	TAF RKSI 041700Z 0418/0524 06005KT 9999 SCT025 BKN180 TN20/0421Z TX28/0506Z TN22/0521Z \n BECMG 0420/0421 16006KT \n BECMG 0504/0505 28006KT \n BECMG 0511/0512 13005KT"
"taf	RKSI	2020-09-05 00:00:00	TAF RKSI 052300Z 0600/0706 05010KT 9999 FEW025 BKN180 TX27/0605Z TN20/0622Z TX23/0706Z \n BECMG 0610/0611 02012KT 6000 -RA BKN025 OVC100 \n BECMG 0617/0618 02018G30KT 4000 SCT010 BKN025 OVC080 \n BECMG 0620/0621 01025G40KT RA \n BECMG 0703/0704 36035G50KT +RA"
"taf	RKSI	2020-09-05 00:09:00	TAF RKSI 052300Z 0600/0706 05010KT 9999 FEW025 BKN180 TX27/0605Z TN20/0622Z TX23/0706Z \n BECMG 0610/0611 02012KT 6000 -RA BKN025 OVC100 \n BECMG 0617/0618 02018G30KT 4000 SCT010 BKN025 OVC080 \n BECMG 0620/0621 01025G40KT RA \n BECMG 0703/0704 36035G50KT +RA"
"taf	RKSI	2020-09-05 06:00:00	TAF RKSI 050500Z 0506/0612 14007KT 9999 FEW025 BKN150 TN21/0521Z TX28/0605Z \n BECMG 0600/0601 05008KT \n BECMG 0610/0611 05015G25KT -RA BKN025 OVC080"
"taf	RKSI	2020-09-05 06:06:00	TAF RKSI 050500Z 0506/0612 14007KT 9999 FEW025 BKN150 TN21/0521Z TX28/0605Z \n BECMG 0600/0601 05008KT \n BECMG 0610/0611 05015G25KT -RA BKN025 OVC080"
"taf	RKSI	2020-09-05 12:00:00	TAF RKSI 051100Z 0512/0618 14007KT 9999 FEW025 BKN150 TN21/0521Z TX28/0605Z \n BECMG 0600/0601 05010KT \n BECMG 0611/0612 6000 -RA BKN025 OVC100 \n BECMG 0614/0615 03015G25KT SCT010 BKN025 OVC080"
"taf	RKSI	2020-09-05 12:06:00	TAF RKSI 051100Z 0512/0618 14007KT 9999 FEW025 BKN150 TN21/0521Z TX28/0605Z \n BECMG 0600/0601 05010KT \n BECMG 0611/0612 6000 -RA BKN025 OVC100 \n BECMG 0614/0615 03015G25KT SCT010 BKN025 OVC080"
"taf	RKSI	2020-09-05 18:00:00	TAF RKSI 051700Z 0518/0624 13005KT CAVOK TN21/0521Z TX27/0605Z TN20/0622Z \n BECMG 0521/0522 05010KT 9999 FEW025 BKN180 \n BECMG 0610/0611 02012KT 6000 -RA BKN025 OVC100 \n BECMG 0617/0618 02015G25KT 4000 \n BECMG 0620/0621 01025G40KT RA SCT010 BKN025 OVC080"
"taf	RKSI	2020-09-05 18:06:00	TAF RKSI 051700Z 0518/0624 13005KT CAVOK TN21/0521Z TX27/0605Z TN20/0622Z \n BECMG 0521/0522 05010KT 9999 FEW025 BKN180 \n BECMG 0610/0611 02012KT 6000 -RA BKN025 OVC100 \n BECMG 0617/0618 02015G25KT 4000 \n BECMG 0620/0621 01025G40KT RA SCT010 BKN025 OVC080"
"taf	RKSI	2020-09-06 00:00:00	TAF RKSI 062300Z 0700/0806 36025G40KT 4000 +RA SCT010 BKN025 OVC080 TX23/0707Z TN20/0719Z TX26/0805Z \n BECMG 0702/0703 33030G50KT RA \n BECMG 0708/0709 27025G45KT 6000 -RA \n BECMG 0718/0719 28020G35KT \n BECMG 0720/0721 25020G30KT NSW \n BECMG 0803/0804 SCT030 BKN100"
"taf	RKSI	2020-09-06 00:06:00	TAF RKSI 062300Z 0700/0806 36025G40KT 4000 +RA SCT010 BKN025 OVC080 TX23/0707Z TN20/0719Z TX26/0805Z \n BECMG 0702/0703 33030G50KT RA \n BECMG 0708/0709 27025G45KT 6000 -RA \n BECMG 0718/0719 28020G35KT \n BECMG 0720/0721 25020G30KT NSW \n BECMG 0803/0804 SCT030 BKN100"
"taf	RKSI	2020-09-06 03:55:00	TAF \n AMD RKSI 060255Z 0603/0706 05010KT 9999 FEW025 BKN120 TX26/0605Z TN20/0622Z TX23/0706Z \n TEMPO 0603/0606 -RA FEW025 BKN080 \n BECMG 0610/0611 02012KT 6000 -RA BKN025 OVC100 \n BECMG 0617/0618 02018G30KT 4000 SCT010 BKN025 OVC080 \n BECMG 0620/0621 01025G40KT RA \n BECMG 0703/0704 36035G50KT +RA"
"taf	RKSI	2020-09-06 03:57:00	TAF \n AMD TAF \n AMD RKSI 060255Z 0603/0706 05010KT 9999 FEW025 BKN120 TX26/0605Z TN20/0622Z TX23/0706Z \n TEMPO 0603/0606 -RA FEW025 BKN080 \n BECMG 0610/0611 02012KT 6000 -RA BKN025 OVC100 \n BECMG 0617/0618 02018G30KT 4000 SCT010 BKN025 OVC080 \n BECMG 0620/0621 01025G40KT RA \n BECMG 0703/0704 36035G50KT +RA"
"taf	RKSI	2020-09-06 06:00:00	TAF RKSI 060500Z 0606/0712 03012KT 9999 -RA BKN030 OVC100 TN20/0622Z TX23/0706Z \n BECMG 0617/0618 02018G30KT 4000 SCT010 BKN025 OVC080 \n BECMG 0620/0621 36025G40KT RA \n BECMG 0703/0704 34035G50KT 2500 +RA \n BECMG 0709/0710 28030G40KT 4000 RA"
"taf	RKSI	2020-09-06 06:06:00	TAF RKSI 060500Z 0606/0712 03012KT 9999 -RA BKN030 OVC100 TN20/0622Z TX23/0706Z \n BECMG 0617/0618 02018G30KT 4000 SCT010 BKN025 OVC080 \n BECMG 0620/0621 36025G40KT RA \n BECMG 0703/0704 34035G50KT 2500 +RA \n BECMG 0709/0710 28030G40KT 4000 RA"
"taf	RKSI	2020-09-06 12:00:00	TAF RKSI 061100Z 0612/0718 04012KT 6000 -RA BKN030 OVC100 TN20/0622Z TX23/0706Z \n BECMG 0617/0618 02018G30KT 4000 SCT010 BKN025 OVC080 \n BECMG 0621/0622 01025G40KT RA \n BECMG 0702/0703 33035G50KT +RA \n BECMG 0708/0709 27030G40KT 6000 -RA \n BECMG 0717/0718 25020G35KT"
"taf	RKSI	2020-09-06 12:06:00	TAF RKSI 061100Z 0612/0718 04012KT 6000 -RA BKN030 OVC100 TN20/0622Z TX23/0706Z \n BECMG 0617/0618 02018G30KT 4000 SCT010 BKN025 OVC080 \n BECMG 0621/0622 01025G40KT RA \n BECMG 0702/0703 33035G50KT +RA \n BECMG 0708/0709 27030G40KT 6000 -RA \n BECMG 0717/0718 25020G35KT"
"taf	RKSI	2020-09-06 18:00:00	TAF RKSI 061700Z 0618/0724 02018G30KT 6000 -RA SCT010 BKN025 OVC080 TN19/0622Z TX23/0707Z TN20/0719Z \n BECMG 0621/0622 36025G40KT 4000 RA \n BECMG 0702/0703 33035G50KT +RA \n BECMG 0708/0709 27030G45KT 6000 -RA \n BECMG 0718/0719 28025G35KT \n BECMG 0720/0721 25020G30KT NSW"
"taf	RKSI	2020-09-06 18:09:00	TAF RKSI 061700Z 0618/0724 02018G30KT 6000 -RA SCT010 BKN025 OVC080 TN19/0622Z TX23/0707Z TN20/0719Z \n BECMG 0621/0622 36025G40KT 4000 RA \n BECMG 0702/0703 33035G50KT +RA \n BECMG 0708/0709 27030G45KT 6000 -RA \n BECMG 0718/0719 28025G35KT \n BECMG 0720/0721 25020G30KT NSW"
"taf	RKSI	2020-09-07 00:00:00	TAF RKSI 072300Z 0800/0906 26017G25KT 9999 SCT030 TX26/0805Z TN21/0821Z TX25/0906Z \n TEMPO 0800/0801 26025G35KT \n BECMG 0808/0809 25010KT \n BECMG 0818/0819 19007KT 4000 -RA SCT010 BKN030 OVC080 \n BECMG 0903/0904 23010KT 6000 NSW"
"taf	RKSI	2020-09-07 00:09:00	TAF TAF RKSI 072300Z 0800/0906 26017G25KT 9999 SCT030 TX26/0805Z TN21/0821Z TX25/0906Z \n TEMPO 0800/0801 26025G35KT \n BECMG 0808/0809 25010KT \n BECMG 0818/0819 19007KT 4000 -RA SCT010 BKN030 OVC080 \n BECMG 0903/0904 23010KT 6000 NSW"
"taf	RKSI	2020-09-07 00:58:00	TAF COR RKSI 080058Z 0800/0906 26015G25KT 9999 SCT030 TX26/0805Z TN21/0821Z TX25/0906Z \n TEMPO 0800/0801 26025G35KT \n BECMG 0808/0809 25010KT \n BECMG 0818/0819 19007KT 4000 -RA SCT010 BKN030 OVC080 \n BECMG 0903/0904 23010KT 6000 NSW"
"taf	RKSI	2020-09-07 06:00:00	TAF RKSI 070500Z 0706/0812 32025G40KT 3500 -RA SCT008 BKN030 OVC060 TN20/0719Z TX26/0805Z \n BECMG 0709/0710 28025G35KT 6000 \n BECMG 0720/0721 25020G30KT NSW \n BECMG 0800/0801 SCT030 BKN120 \n BECMG 0808/0809 25010G20KT"
"taf	RKSI	2020-09-07 06:06:00	TAF RKSI 070500Z 0706/0812 32025G40KT 3500 -RA SCT008 BKN030 OVC060 TN20/0719Z TX26/0805Z \n BECMG 0709/0710 28025G35KT 6000 \n BECMG 0720/0721 25020G30KT NSW \n BECMG 0800/0801 SCT030 BKN120 \n BECMG 0808/0809 25010G20KT"
"taf	RKSI	2020-09-07 12:00:00	TAF RKSI 071100Z 0712/0818 27020G30KT 6000 -RA FEW010 BKN030 OVC080 TN20/0719Z TX26/0805Z \n BECMG 0718/0719 NSW \n BECMG 0723/0724 SCT030 \n BECMG 0808/0809 25010KT \n BECMG 0815/0816 22007KT -RA BKN030 OVC100"
"taf	RKSI	2020-09-07 12:06:00	TAF RKSI 071100Z 0712/0818 27020G30KT 6000 -RA FEW010 BKN030 OVC080 TN20/0719Z TX26/0805Z \n BECMG 0718/0719 NSW \n BECMG 0723/0724 SCT030 \n BECMG 0808/0809 25010KT \n BECMG 0815/0816 22007KT -RA BKN030 OVC100"
"taf	RKSI	2020-09-07 12:09:00	TAF RKSI 071100Z 0712/0818 27020G30KT 6000 -RA FEW010 BKN030 OVC080 TN20/0719Z TX26/0805Z \n BECMG 0718/0719 NSW \n BECMG 0723/0724 SCT030 \n BECMG 0808/0809 25010KT \n BECMG 0815/0816 22007KT -RA BKN030 OVC100"
"taf	RKSI	2020-09-07 12:28:00	TAF \n AMD RKSI 071228Z 0712/0818 27020G30KT 6000 -RA FEW010 BKN030 OVC080 TN20/0719Z TX26/0805Z \n TEMPO 0712/0718 28030G40KT \n BECMG 0719/0720 NSW \n BECMG 0723/0724 SCT030 \n BECMG 0808/0809 25010KT \n BECMG 0815/0816 22007KT -RA BKN030 OVC100"
"taf	RKSI	2020-09-07 12:30:00	TAF \n AMD TAF \n AMD RKSI 071228Z 0712/0818 27020G30KT 6000 -RA FEW010 BKN030 OVC080 TN20/0719Z TX26/0805Z \n TEMPO 0712/0718 28030G40KT \n BECMG 0719/0720 NSW \n BECMG 0723/0724 SCT030 \n BECMG 0808/0809 25010KT \n BECMG 0815/0816 22007KT -RA BKN030 OVC100"
"taf	RKSI	2020-09-07 18:00:00	TAF RKSI 071700Z 0718/0824 26015G25KT 9999 SCT030 TN20/0720Z TX26/0805Z TN21/0821Z \n TEMPO 0718/0723 26020G35KT \n BECMG 0807/0808 25010KT \n BECMG 0818/0819 19007KT BKN030 OVC100 \n TEMPO 0821/0824 4000 -RA SCT010 BKN025 OVC080"
"taf	RKSI	2020-09-07 18:09:00	TAF RKSI 071700Z 0718/0824 26015G25KT 9999 SCT030 TN20/0720Z TX26/0805Z TN21/0821Z \n TEMPO 0718/0723 26020G35KT \n BECMG 0807/0808 25010KT \n BECMG 0818/0819 19007KT BKN030 OVC100 \n TEMPO 0821/0824 4000 -RA SCT010 BKN025 OVC080"
"taf	RKSI	2020-09-07 22:39:00	TAF \n AMD TAF \n AMD RKSI 072140Z 0722/0824 26015G25KT 9999 SCT030 TN20/0720Z TX26/0805Z TN21/0821Z \n TEMPO 0722/0801 26025G35KT \n BECMG 0807/0808 25010KT \n BECMG 0818/0819 19007KT BKN030 OVC100 \n TEMPO 0821/0824 4000 -RA SCT010 BKN025 OVC080"
"taf	RKSI	2020-09-07 22:40:00	TAF \n AMD RKSI 072140Z 0722/0824 26015G25KT 9999 SCT030 TN20/0720Z TX26/0805Z TN21/0821Z \n TEMPO 0722/0801 26025G35KT \n BECMG 0807/0808 25010KT \n BECMG 0818/0819 19007KT BKN030 OVC100 \n TEMPO 0821/0824 4000 -RA SCT010 BKN025 OVC080"
"taf	RKSI	2020-09-08 00:00:00	TAF RKSI 082300Z 0900/1006 23008KT 6000 BKN030 BKN080 TX25/0906Z TN20/0920Z TX26/1005Z \n TEMPO 0903/0906 20008KT 4000 -SHRA SCT010CB BKN030 OVC080 \n TEMPO 0914/0917 4000 -SHRA SCT010CB BKN030 OVC080 \n BECMG 0918/0919 4000 BR \n BECMG 0922/0923 6000 NSW \n BECMG 1002/1003 SCT030"
"taf	RKSI	2020-09-08 00:09:00	TAF TAF RKSI 082300Z 0900/1006 23008KT 6000 BKN030 BKN080 TX25/0906Z TN20/0920Z TX26/1005Z \n TEMPO 0903/0906 20008KT 4000 -SHRA SCT010CB BKN030 OVC080 \n TEMPO 0914/0917 4000 -SHRA SCT010CB BKN030 OVC080 \n BECMG 0918/0919 4000 BR \n BECMG 0922/0923 6000 NSW \n BECMG 1002/1003 SCT030"
"taf	RKSI	2020-09-08 06:00:00	TAF RKSI 080500Z 0806/0912 26015G25KT 9999 FEW030 SCT120 TN20/0821Z TX25/0906Z \n BECMG 0809/0810 25010KT \n BECMG 0819/0820 19007KT 4000 -RA SCT010 BKN030 OVC080 \n BECMG 0903/0904 23010KT 6000 NSW BKN030 BKN120"
"taf	RKSI	2020-09-08 06:09:00	TAF RKSI 080500Z 0806/0912 26015G25KT 9999 FEW030 SCT120 TN20/0821Z TX25/0906Z \n BECMG 0809/0810 25010KT \n BECMG 0819/0820 19007KT 4000 -RA SCT010 BKN030 OVC080 \n BECMG 0903/0904 23010KT 6000 NSW BKN030 BKN120"
"taf	RKSI	2020-09-08 12:00:00	TAF RKSI 081100Z 0812/0918 23008KT 9999 FEW030 SCT150 TN20/0821Z TX25/0906Z \n BECMG 0818/0819 19007KT 6000 -RA SCT010 BKN030 OVC080 \n BECMG 0905/0906 23008KT NSW BKN030"
"taf	RKSI	2020-09-08 12:09:00	TAF RKSI 081100Z 0812/0918 23008KT 9999 FEW030 SCT150 TN20/0821Z TX25/0906Z \n BECMG 0818/0819 19007KT 6000 -RA SCT010 BKN030 OVC080 \n BECMG 0905/0906 23008KT NSW BKN030"
"taf	RKSI	2020-09-08 15:42:00	TAF \n AMD TAF \n AMD RKSI 081445Z 0815/0918 23008KT 6000 FEW030 SCT150 TN20/0821Z TX25/0906Z \n TEMPO 0815/0818 -RA BKN030 OVC100 \n BECMG 0819/0820 19007KT -RA SCT010 BKN030 OVC080 \n BECMG 0905/0906 23008KT NSW BKN030"
"taf	RKSI	2020-09-08 15:45:00	TAF \n AMD RKSI 081445Z 0815/0918 23008KT 6000 FEW030 SCT150 TN20/0821Z TX25/0906Z \n TEMPO 0815/0818 -RA BKN030 OVC100 \n BECMG 0819/0820 19007KT -RA SCT010 BKN030 OVC080 \n BECMG 0905/0906 23008KT NSW BKN030"
"taf	RKSI	2020-09-08 18:00:00	TAF RKSI 081700Z 0818/0924 19007KT 6000 -RA SCT010 BKN030 OVC080 TN20/0821Z TX25/0906Z TN20/0920Z \n BECMG 0905/0906 23008KT NSW BKN030"
"taf	RKSI	2020-09-08 18:06:00	TAF RKSI 081700Z 0818/0924 19007KT 6000 -RA SCT010 BKN030 OVC080 TN20/0821Z TX25/0906Z TN20/0920Z \n BECMG 0905/0906 23008KT NSW BKN030"
"taf	RKSI	2020-09-08 18:09:00	TAF RKSI 081700Z 0818/0924 19007KT 6000 -RA SCT010 BKN030 OVC080 TN20/0821Z TX25/0906Z TN20/0920Z \n BECMG 0905/0906 23008KT NSW BKN030"
"taf	RKSI	2020-09-08 21:25:00	TAF \n AMD RKSI 082125Z 0821/0924 23008KT 6000 BKN030 BKN080 TX25/0906Z TN20/0920Z \n TEMPO 0900/0906 20008KT -RA SCT010 BKN030 OVC080"
"taf	RKSI	2020-09-08 21:27:00	TAF \n AMD TAF \n AMD RKSI 082125Z 0821/0924 23008KT 6000 BKN030 BKN080 TX25/0906Z TN20/0920Z \n TEMPO 0900/0906 20008KT -RA SCT010 BKN030 OVC080"
"taf	RKSI	2020-09-09 00:00:00	TAF RKSI 092300Z 1000/1106 21007KT 6000 NSC TX26/1005Z TN20/1020Z TX26/1105Z \n BECMG 1014/1015 15006KT 4000 BR \n BECMG 1020/1021 07007KT 6000 NSW SCT030 BKN120 \n TEMPO 1103/1106 -SHRA SCT010 BKN025 OVC100"
"taf	RKSI	2020-09-09 00:09:00	TAF RKSI 092300Z 1000/1106 21007KT 6000 NSC TX26/1005Z TN20/1020Z TX26/1105Z \n BECMG 1014/1015 15006KT 4000 BR \n BECMG 1020/1021 07007KT 6000 NSW SCT030 BKN120 \n TEMPO 1103/1106 -SHRA SCT010 BKN025 OVC100"
"taf	RKSI	2020-09-09 04:25:00	TAF COR RKSI 090425Z 0904/1006 23008KT 6000 BKN030 BKN080 TX25/0906Z TN20/0920Z TX26/1005Z \n TEMPO 0906/0909 20008KT 3000 -TSRA SCT010CB BKN030 OVC080 \n TEMPO 0914/0917 4000 -SHRA SCT010CB BKN030 OVC080 \n BECMG 0918/0919 4000 BR \n BECMG 0922/0923 6000 NSW \n BECMG 1002/1003 SCT030"
"taf	RKSI	2020-09-09 04:27:00	TAF \n AMD TAF \n AMD RKSI 090425Z 0904/1006 23008KT 6000 BKN030 BKN080 TX25/0906Z TN20/0920Z TX26/1005Z \n TEMPO 0906/0900 20008KT 3000 -TSRA SCT010CB BKN030 OVC080 \n TEMPO 0914/0917 4000 -SHRA SCT010CB BKN030 OVC080 \n BECMG 0918/0919 4000 BR \n BECMG 0922/0923 6000 NSW \n BECMG 1002/1003 SCT030"
"taf	RKSI	2020-09-09 04:30:00	TAF COR TAF COR RKSI 090425Z 0904/1006 23008KT 6000 BKN030 BKN080 TX25/0906Z TN20/0920Z TX26/1005Z \n TEMPO 0906/0909 20008KT 3000 -TSRA SCT010CB BKN030 OVC080 \n TEMPO 0914/0917 4000 -SHRA SCT010CB BKN030 OVC080 \n BECMG 0918/0919 4000 BR \n BECMG 0922/0923 6000 NSW \n BECMG 1002/1003 SCT030"
"taf	RKSI	2020-09-09 06:00:00	TAF RKSI 090500Z 0906/1012 23015G25KT 7000 SCT008CB BKN030 OVC080 TN20/0920Z TX27/1005Z \n TEMPO 0906/0909 3000 TSRA \n BECMG 0910/0911 23008KT \n TEMPO 0914/0917 -SHRA \n BECMG 0920/0921 20006KT 4000 BR SCT030 BKN150 \n BECMG 0922/0923 6000 NSW"
"taf	RKSI	2020-09-09 06:09:00	TAF RKSI 090500Z 0906/1012 23015G25KT 7000 SCT008CB BKN030 OVC080 TN20/0920Z TX27/1005Z \n TEMPO 0906/0909 3000 TSRA \n BECMG 0910/0911 23008KT \n TEMPO 0914/0917 -SHRA \n BECMG 0920/0921 20006KT 4000 BR SCT030 BKN150 \n BECMG 0922/0923 6000 NSW"
"taf	RKSI	2020-09-09 12:00:00	TAF RKSI 091100Z 0912/1018 14006KT 7000 SCT030 BKN150 TN20/0920Z TX27/1005Z \n TEMPO 0914/0917 -SHRA SCT008CB BKN030 OVC080 \n BECMG 0920/0921 4000 BR \n BECMG 0922/0923 20006KT 7000 NSW \n BECMG 1014/1015 15006KT 4000 BR"
"taf	RKSI	2020-09-09 12:09:00	TAF RKSI 091100Z 0912/1018 14006KT 7000 SCT030 BKN150 TN20/0920Z TX27/1005Z \n TEMPO 0914/0917 -SHRA SCT008CB BKN030 OVC080 \n BECMG 0920/0921 4000 BR \n BECMG 0922/0923 20006KT 7000 NSW \n BECMG 1014/1015 15006KT 4000 BR"
"taf	RKSI	2020-09-09 18:00:00	TAF RKSI 091700Z 0918/1024 17007KT 4000 BR SCT010 BKN030 BKN110 TN20/0920Z TX26/1005Z TN20/1020Z \n BECMG 0921/0922 21007KT 7000 NSW SCT030 BKN180 \n BECMG 1014/1015 15006KT 4000 BR \n BECMG 1020/1021 10008KT 6000 NSW"
"taf	RKSI	2020-09-09 18:06:00	TAF RKSI 091700Z 0918/1024 17007KT 4000 BR SCT010 BKN030 BKN110 TN20/0920Z TX26/1005Z TN20/1020Z \n BECMG 0921/0922 21007KT 7000 NSW SCT030 BKN180 \n BECMG 1014/1015 15006KT 4000 BR \n BECMG 1020/1021 10008KT 6000 NSW"
"taf	RKSI	2020-09-09 18:09:00	TAF TAF RKSI 091700Z 0918/1024 17007KT 4000 BR SCT010 BKN030 BKN110 TN20/0920Z TX26/1005Z TN20/1020Z \n BECMG 0921/0922 21007KT 7000 NSW SCT030 BKN180 \n BECMG 1014/1015 15006KT 4000 BR \n BECMG 1020/1021 10008KT 6000 NSW"
"taf	RKSI	2020-09-10 00:00:00	TAF RKSI 102300Z 1100/1206 05006KT 7000 NSC TX25/1105Z TN19/1120Z TX26/1205Z \n BECMG 1105/1106 11007KT \n BECMG 1112/1113 05008KT SCT030 OVC100 \n BECMG 1121/1122 03015G25KT"
"taf	RKSI	2020-09-10 00:09:00	TAF RKSI 102300Z 1100/1206 05006KT 7000 NSC TX25/1105Z TN19/1120Z TX26/1205Z \n BECMG 1105/1106 11007KT \n BECMG 1112/1113 05008KT SCT030 OVC100 \n BECMG 1121/1122 03015G25KT"
"taf	RKSI	2020-09-10 06:00:00	TAF RKSI 100500Z 1006/1112 21007KT 8000 SCT030 BKN150 TN20/1020Z TX26/1105Z \n BECMG 1013/1014 15006KT 4000 BR \n BECMG 1020/1021 07007KT 6000 NSW \n TEMPO 1105/1109 -SHRA SCT008CB BKN025 OVC100"
"taf	RKSI	2020-09-10 06:09:00	TAF RKSI 100500Z 1006/1112 21007KT 8000 SCT030 BKN150 TN20/1020Z TX26/1105Z \n BECMG 1013/1014 15006KT 4000 BR \n BECMG 1020/1021 07007KT 6000 NSW \n TEMPO 1105/1109 -SHRA SCT008CB BKN025 OVC100"
"taf	RKSI	2020-09-10 12:00:00	TAF RKSI 101100Z 1012/1118 28007KT 8000 SCT030 BKN120 TN20/1020Z TX26/1105Z \n BECMG 1013/1014 15006KT 4000 BR \n BECMG 1020/1021 07007KT 7000 NSW \n TEMPO 1106/1107 -SHRA SCT008CB BKN025 OVC100 \n BECMG 1116/1117 07015G25KT"
"taf	RKSI	2020-09-10 12:06:00	TAF RKSI 101100Z 1012/1118 28007KT 8000 SCT030 BKN120 TN20/1020Z TX26/1105Z \n BECMG 1013/1014 15006KT 4000 BR \n BECMG 1020/1021 07007KT 7000 NSW \n TEMPO 1106/1107 -SHRA SCT008CB BKN025 OVC100 \n BECMG 1116/1117 07015G25KT"
"taf	RKSI	2020-09-10 12:09:00	TAF RKSI 101100Z 1012/1118 28007KT 8000 SCT030 BKN120 TN20/1020Z TX26/1105Z \n BECMG 1013/1014 15006KT 4000 BR \n BECMG 1020/1021 07007KT 7000 NSW \n TEMPO 1106/1107 -SHRA SCT008CB BKN025 OVC100 \n BECMG 1116/1117 07015G25KT"
"taf	RKSI	2020-09-10 18:00:00	TAF RKSI 101700Z 1018/1124 07006KT 4000 BR SCT025 BKN180 TN20/1020Z TX26/1105Z TN19/1120Z \n BECMG 1020/1021 11007KT 6000 NSW \n BECMG 1112/1113 05008KT \n BECMG 1115/1116 SCT030 OVC100 \n BECMG 1121/1122 05015G25KT"
"taf	RKSI	2020-09-10 18:06:00	TAF RKSI 101700Z 1018/1124 07006KT 4000 BR SCT025 BKN180 TN20/1020Z TX26/1105Z TN19/1120Z \n BECMG 1020/1021 11007KT 6000 NSW \n BECMG 1112/1113 05008KT \n BECMG 1115/1116 SCT030 OVC100 \n BECMG 1121/1122 05015G25KT"
"taf	RKSI	2020-09-11 00:00:00	TAF RKSI 112300Z 1200/1306 03010KT 7000 -RA FEW008 BKN025 OVC100 TX25/1206Z TN16/1221Z TX25/1306Z \n BECMG 1201/1202 07007KT NSW \n BECMG 1204/1205 SCT030 BKN130 \n BECMG 1302/1303 30006KT NSC"
"taf	RKSI	2020-09-11 00:06:00	TAF RKSI 112300Z 1200/1306 03010KT 7000 -RA FEW008 BKN025 OVC100 TX25/1206Z TN16/1221Z TX25/1306Z \n BECMG 1201/1202 07007KT NSW \n BECMG 1204/1205 SCT030 BKN130 \n BECMG 1302/1303 30006KT NSC"
"taf	RKSI	2020-09-11 06:00:00	TAF RKSI 110500Z 1106/1212 15010KT 9999 SCT030 BKN130 TN19/1120Z TX26/1206Z \n TEMPO 1106/1109 6000 -RA \n BECMG 1110/1111 09006KT \n BECMG 1113/1114 03010G20KT BKN040 OVC100 \n TEMPO 1120/1123 6000 -RA"
"taf	RKSI	2020-09-11 06:06:00	TAF RKSI 110500Z 1106/1212 15010KT 9999 SCT030 BKN130 TN19/1120Z TX26/1206Z \n TEMPO 1106/1109 6000 -RA \n BECMG 1110/1111 09006KT \n BECMG 1113/1114 03010G20KT BKN040 OVC100 \n TEMPO 1120/1123 6000 -RA"
"taf	RKSI	2020-09-11 09:50:00	TAF \n AMD RKSI 110850Z 1109/1212 05006KT 9999 BKN030 OVC100 TN19/1120Z TX26/1206Z \n TEMPO 1109/1110 -RA \n BECMG 1117/1118 02010G20KT 6000 -RA \n BECMG 1202/1203 NSW"
"taf	RKSI	2020-09-11 09:57:00	TAF \n AMD TAF \n AMD RKSI 110850Z 1109/1212 05006KT 9999 BKN030 OVC100 TN19/1120Z TX26/1206Z \n TEMPO 1109/1110 -RA \n BECMG 1117/1118 02010G20KT 6000 -RA \n BECMG 1202/1203 NSW"
"taf	RKSI	2020-09-11 12:00:00	TAF RKSI 111100Z 1112/1218 05006KT 9999 BKN030 OVC100 TN19/1120Z TX26/1207Z \n BECMG 1114/1115 02010G20KT 6000 -RA \n BECMG 1120/1121 NSW \n TEMPO 1123/1202 -RA"
"taf	RKSI	2020-09-11 12:06:00	TAF RKSI 111100Z 1112/1218 05006KT 9999 BKN030 OVC100 TN19/1120Z TX26/1207Z \n BECMG 1114/1115 02010G20KT 6000 -RA \n BECMG 1120/1121 NSW \n TEMPO 1123/1202 -RA"
"taf	RKSI	2020-09-11 12:09:00	TAF RKSI 111100Z 1112/1218 05006KT 9999 BKN030 OVC100 TN19/1120Z TX26/1207Z \n BECMG 1114/1115 02010G20KT 6000 -RA \n BECMG 1120/1121 NSW \n TEMPO 1123/1202 -RA"
"taf	RKSI	2020-09-11 18:00:00	TAF RKSI 111700Z 1118/1224 03010KT 7000 -RA FEW008 BKN025 OVC100 TN19/1120Z TX25/1206Z TN16/1221Z \n BECMG 1122/1123 07007KT NSW \n BECMG 1204/1205 SCT030 BKN130"
"taf	RKSI	2020-09-11 18:06:00	TAF RKSI 111700Z 1118/1224 03010KT 7000 -RA FEW008 BKN025 OVC100 TN19/1120Z TX25/1206Z TN16/1221Z \n BECMG 1122/1123 07007KT NSW \n BECMG 1204/1205 SCT030 BKN130"
"taf	RKSI	2020-09-12 00:00:00	TAF RKSI 122300Z 1300/1406 03007KT 8000 NSC TX24/1306Z TN19/1321Z TX25/1405Z \n BECMG 1302/1303 29010KT \n BECMG 1317/1318 13006KT \n BECMG 1319/1320 4000 BR \n BECMG 1321/1322 8000 NSW \n BECMG 1402/1403 26010KT"
"taf	RKSI	2020-09-12 00:06:00	TAF RKSI 122300Z 1300/1406 03007KT 8000 NSC TX24/1306Z TN19/1321Z TX25/1405Z \n BECMG 1302/1303 29010KT \n BECMG 1317/1318 13006KT \n BECMG 1319/1320 4000 BR \n BECMG 1321/1322 8000 NSW \n BECMG 1402/1403 26010KT"
"taf	RKSI	2020-09-12 01:18:00	TAF \n AMD TAF \n AMD RKSI 120120Z 1201/1306 03010KT 7000 -RA FEW008 BKN025 OVC100 TX25/1206Z TN16/1221Z TX25/1306Z \n BECMG 1204/1205 07007KT NSW \n BECMG 1206/1207 SCT030 BKN130 \n BECMG 1302/1303 30006KT NSC"
"taf	RKSI	2020-09-12 01:20:00	TAF \n AMD RKSI 120120Z 1201/1306 03010KT 7000 -RA FEW008 BKN025 OVC100 TX25/1206Z TN16/1221Z TX25/1306Z \n BECMG 1204/1205 07007KT NSW \n BECMG 1206/1207 SCT030 BKN130 \n BECMG 1302/1303 30006KT NSC"
"taf	RKSI	2020-09-12 04:40:00	TAF \n AMD RKSI 120340Z 1204/1306 03010KT 9999 BKN030 OVC080 TX25/1206Z TN16/1221Z TX25/1306Z \n TEMPO 1204/1209 -RA \n BECMG 1209/1210 07007KT 6000 SCT040 BKN120 \n BECMG 1302/1303 30006KT NSC"
"taf	RKSI	2020-09-12 04:42:00	TAF \n AMD TAF \n AMD RKSI 120340Z 1204/1306 03010KT 9999 BKN030 OVC080 TX25/1206Z TN16/1221Z TX25/1306Z \n TEMPO 1204/1209 -RA \n BECMG 1209/1210 07007KT 6000 SCT040 BKN120 \n BECMG 1302/1303 30006KT NSC"
"taf	RKSI	2020-09-12 06:00:00	TAF RKSI 120500Z 1206/1312 03010KT 9999 BKN030 OVC080 TN17/1221Z TX24/1306Z \n TEMPO 1206/1209 -RA \n BECMG 1211/1212 SCT040 BKN120 \n BECMG 1220/1221 09005KT 6000 \n BECMG 1301/1302 29008KT NSC"
"taf	RKSI	2020-09-12 06:06:00	TAF RKSI 120500Z 1206/1312 03010KT 9999 BKN030 OVC080 TN17/1221Z TX24/1306Z \n TEMPO 1206/1209 -RA \n BECMG 1211/1212 SCT040 BKN120 \n BECMG 1220/1221 09005KT 6000 \n BECMG 1301/1302 29008KT NSC"
"taf	RKSI	2020-09-12 09:50:00	TAF \n AMD RKSI 120850Z 1209/1312 03010KT 9999 BKN030 OVC080 TN17/1221Z TX24/1306Z \n TEMPO 1209/1211 -RA \n BECMG 1211/1212 SCT040 BKN120 \n BECMG 1220/1221 09005KT 6000 \n BECMG 1301/1302 29008KT NSC"
"taf	RKSI	2020-09-12 09:51:00	TAF \n AMD TAF \n AMD RKSI 120850Z 1209/1312 03010KT 9999 BKN030 OVC080 TN17/1221Z TX24/1306Z \n TEMPO 1209/1211 -RA \n BECMG 1211/1212 SCT040 BKN120 \n BECMG 1220/1221 09005KT 6000 \n BECMG 1301/1302 29008KT NSC"
"taf	RKSI	2020-09-12 12:00:00	TAF RKSI 121100Z 1212/1318 03007KT 8000 SCT030 BKN080 TN17/1221Z TX24/1306Z \n BECMG 1217/1218 SCT040 BKN120 \n BECMG 1302/1303 29010KT NSC"
"taf	RKSI	2020-09-12 12:06:00	TAF RKSI 121100Z 1212/1318 03007KT 8000 SCT030 BKN080 TN17/1221Z TX24/1306Z \n BECMG 1217/1218 SCT040 BKN120 \n BECMG 1302/1303 29010KT NSC"
"taf	RKSI	2020-09-12 18:00:00	TAF RKSI 121700Z 1218/1324 03007KT 8000 NSC TN17/1221Z TX24/1306Z TX19/1321Z \n BECMG 1302/1303 29010KT \n BECMG 1317/1318 13006KT"
"taf	RKSI	2020-09-12 18:06:00	TAF RKSI 121700Z 1218/1324 03007KT 8000 NSC TN17/1221Z TX24/1306Z TX19/1321Z \n BECMG 1302/1303 29010KT \n BECMG 1317/1318 13006KT"
"taf	RKSI	2020-09-13 00:00:00	TAF RKSI 132300Z 1400/1506 27010KT 9999 FEW030 BKN160 TX25/1404Z TN18/1420Z TX25/1505Z \n BECMG 1413/1414 33005KT 6000 \n BECMG 1419/1420 07005KT \n BECMG 1502/1503 25006KT CAVOK"
"taf	RKSI	2020-09-13 00:09:00	TAF RKSI 132300Z 1400/1506 27010KT 9999 FEW030 BKN160 TX25/1404Z TN18/1420Z TX25/1505Z \n BECMG 1413/1414 33005KT 6000 \n BECMG 1419/1420 07005KT \n BECMG 1502/1503 25006KT CAVOK"
"taf	RKSI	2020-09-13 06:00:00	TAF RKSI 130500Z 1306/1412 31007KT 9999 SCT030 TN19/1321Z TX25/1405Z \n BECMG 1318/1319 BKN030 \n BECMG 1322/1323 07006KT SCT030 \n BECMG 1402/1403 27008KT"
"taf	RKSI	2020-09-13 06:09:00	TAF RKSI 130500Z 1306/1412 31007KT 9999 SCT030 TN19/1321Z TX25/1405Z \n BECMG 1318/1319 BKN030 \n BECMG 1322/1323 07006KT SCT030 \n BECMG 1402/1403 27008KT"
"taf	RKSI	2020-09-13 12:00:00	TAF RKSI 131100Z 1312/1418 31007KT 9999 SCT030 TN19/1321Z TX25/1405Z \n BECMG 1318/1319 BKN030 \n BECMG 1322/1323 07006KT SCT030 \n BECMG 1402/1403 26007KT \n BECMG 1413/1414 07006KT"
"taf	RKSI	2020-09-13 12:09:00	TAF RKSI 131100Z 1312/1418 31007KT 9999 SCT030 TN19/1321Z TX25/1405Z \n BECMG 1318/1319 BKN030 \n BECMG 1322/1323 07006KT SCT030 \n BECMG 1402/1403 26007KT \n BECMG 1413/1414 07006KT"
"taf	RKSI	2020-09-13 18:00:00	TAF RKSI 131700Z 1318/1424 31008KT 9999 SCT030 TN19/1321Z TX25/1404Z TN17/1421Z \n BECMG 1320/1321 07005KT \n BECMG 1322/1323 27010KT CAVOK \n BECMG 1413/1414 33005KT 9999 FEW030 BKN160 \n BECMG 1419/1420 07005KT 6000"
"taf	RKSI	2020-09-13 18:06:00	TAF RKSI 131700Z 1318/1424 31008KT 9999 SCT030 TN19/1321Z TX25/1404Z TN17/1421Z \n BECMG 1320/1321 07005KT \n BECMG 1322/1323 27010KT CAVOK \n BECMG 1413/1414 33005KT 9999 FEW030 BKN160 \n BECMG 1419/1420 07005KT 6000"
"taf	RKSI	2020-09-14 00:00:00	TAF RKSI 142300Z 1500/1606 18006KT 6000 FEW010 SCT025 TX25/1505Z TN19/1521Z TX24/1605Z \n BECMG 1505/1506 26005KT CAVOK \n BECMG 1514/1515 17007KT 6000 FEW030 BKN160 \n BECMG 1518/1519 SCT030 BKN100 \n BECMG 1600/1601 4000 -RA SCT010 BKN025 OVC080"
"taf	RKSI	2020-09-14 00:06:00	TAF RKSI 142300Z 1500/1606 18006KT 6000 FEW010 SCT025 TX25/1505Z TN19/1521Z TX24/1605Z \n BECMG 1505/1506 26005KT CAVOK \n BECMG 1514/1515 17007KT 6000 FEW030 BKN160 \n BECMG 1518/1519 SCT030 BKN100 \n BECMG 1600/1601 4000 -RA SCT010 BKN025 OVC080"
"taf	RKSI	2020-09-14 06:00:00	TAF RKSI 140500Z 1406/1512 26010G20KT 9999 SCT030 BKN160 TN18/1420Z TX25/1505Z \n BECMG 1412/1413 33005KT 6000 \n BECMG 1419/1420 16005KT \n BECMG 1502/1503 25006KT CAVOK"
"taf	RKSI	2020-09-14 06:06:00	TAF RKSI 140500Z 1406/1512 26010G20KT 9999 SCT030 BKN160 TN18/1420Z TX25/1505Z \n BECMG 1412/1413 33005KT 6000 \n BECMG 1419/1420 16005KT \n BECMG 1502/1503 25006KT CAVOK"
"taf	RKSI	2020-09-14 12:00:00	TAF RKSI 141100Z 1412/1518 30005KT 6000 SCT030 BKN180 TN18/1420Z TX25/1505Z \n BECMG 1418/1419 19005KT \n BECMG 1504/1505 26007KT CAVOK \n BECMG 1513/1514 17006KT"
"taf	RKSI	2020-09-14 12:06:00	TAF RKSI 141100Z 1412/1518 30005KT 6000 SCT030 BKN180 TN18/1420Z TX25/1505Z \n BECMG 1418/1419 19005KT \n BECMG 1504/1505 26007KT CAVOK \n BECMG 1513/1514 17006KT"
"taf	RKSI	2020-09-14 18:00:00	TAF RKSI 141700Z 1418/1524 06005KT 9999 FEW030 BKN160 TN18/1420Z TX25/1505Z TN19/1521Z \n BECMG 1500/1501 19006KT \n BECMG 1505/1506 26005KT \n BECMG 1514/1515 17007KT 6000 \n BECMG 1518/1519 SCT030 BKN100"
"taf	RKSI	2020-09-14 18:09:00	TAF RKSI 141700Z 1418/1524 06005KT 9999 FEW030 BKN160 TN18/1420Z TX25/1505Z TN19/1521Z \n BECMG 1500/1501 19006KT \n BECMG 1505/1506 26005KT \n BECMG 1514/1515 17007KT 6000 \n BECMG 1518/1519 SCT030 BKN100"
"taf	RKSI	2020-09-15 00:00:00	TAF RKSI 152300Z 1600/1706 18008KT 6000 -RA SCT010 BKN030 OVC080 TX25/1605Z TN19/1621Z TX24/1705Z \n TEMPO 1602/1606 20015G25KT 4000 SCT010CB BKN025 OVC080 \n BECMG 1611/1612 30007KT NSW \n BECMG 1615/1616 SCT030 BKN200 \n BECMG 1702/1703 24013KT"
"taf	RKSI	2020-09-15 00:06:00	TAF RKSI 152300Z 1600/1706 18008KT 6000 -RA SCT010 BKN030 OVC080 TX25/1605Z TN19/1621Z TX24/1705Z \n TEMPO 1602/1606 20015G25KT 4000 SCT010CB BKN025 OVC080 \n BECMG 1611/1612 30007KT NSW \n BECMG 1615/1616 SCT030 BKN200 \n BECMG 1702/1703 24013KT"
"taf	RKSI	2020-09-15 06:00:00	TAF RKSI 150500Z 1506/1612 26006KT 9999 FEW030 SCT180 TN19/1521Z TX24/1605Z \n BECMG 1512/1513 19007KT 6000 \n BECMG 1519/1520 SCT030 BKN100 \n BECMG 1600/1601 21015G25KT 4000 -RA SCT010 BKN025 OVC080 \n BECMG 1608/1609 21010KT"
"taf	RKSI	2020-09-15 06:06:00	TAF RKSI 150500Z 1506/1612 26006KT 9999 FEW030 SCT180 TN19/1521Z TX24/1605Z \n BECMG 1512/1513 19007KT 6000 \n BECMG 1519/1520 SCT030 BKN100 \n BECMG 1600/1601 21015G25KT 4000 -RA SCT010 BKN025 OVC080 \n BECMG 1608/1609 21010KT"
"taf	RKSI	2020-09-15 12:00:00	TAF RKSI 151100Z 1512/1618 31007KT CAVOK TN19/1521Z TX24/1605Z \n BECMG 1516/1517 17008KT 9999 SCT030 BKN100 \n BECMG 1522/1523 4000 -RA SCT010 BKN025 OVC080 \n BECMG 1603/1604 21015G25KT 6000 \n BECMG 1609/1610 23010KT \n BECMG 1615/1616 30008KT NSW BKN030 OVC100"
"taf	RKSI	2020-09-15 12:09:00	TAF RKSI 151100Z 1512/1618 31007KT CAVOK TN19/1521Z TX24/1605Z \n BECMG 1516/1517 17008KT 9999 SCT030 BKN100 \n BECMG 1522/1523 4000 -RA SCT010 BKN025 OVC080 \n BECMG 1603/1604 21015G25KT 6000 \n BECMG 1609/1610 23010KT \n BECMG 1615/1616 30008KT NSW BKN030 OVC100"
"taf	RKSI	2020-09-15 18:00:00	TAF RKSI 151700Z 1518/1624 18010KT 6000 BKN030 OVC100 TN20/1521Z TX24/1605Z TN19/1621Z \n TEMPO 1518/1524 -RA \n BECMG 1601/1602 19015G25KT 4000 -RA SCT010CB BKN025 OVC070 \n BECMG 1607/1608 23010KT 6000 SCT010 BKN025 OVC080 \n BECMG 1615/1616 30007KT NSW BKN030 OVC100 \n BECMG 1618/1619 SCT030"
"taf	RKSI	2020-09-15 18:06:00	TAF RKSI 151700Z 1518/1624 18010KT 6000 BKN030 OVC100 TN20/1521Z TX24/1605Z TN19/1621Z \n TEMPO 1518/1524 -RA \n BECMG 1601/1602 19015G25KT 4000 -RA SCT010CB BKN025 OVC070 \n BECMG 1607/1608 23010KT 6000 SCT010 BKN025 OVC080 \n BECMG 1615/1616 30007KT NSW BKN030 OVC100 \n BECMG 1618/1619 SCT030"
"taf	RKSI	2020-09-16 00:00:00	TAF RKSI 162300Z 1700/1806 31010KT 9999 FEW030 BKN180 TX24/1705Z TN19/1721Z TX24/1805Z \n BECMG 1703/1704 25010KT \n BECMG 1713/1714 31010KT \n BECMG 1800/1801 25012KT"
"taf	RKSI	2020-09-16 00:06:00	TAF RKSI 162300Z 1700/1806 31010KT 9999 FEW030 BKN180 TX24/1705Z TN19/1721Z TX24/1805Z \n BECMG 1703/1704 25010KT \n BECMG 1713/1714 31010KT \n BECMG 1800/1801 25012KT"
"taf	RKSI	2020-09-16 06:00:00	TAF RKSI 160500Z 1606/1712 24008KT 6000 FEW010 BKN025 BKN100 TN20/1620Z TX24/1705Z \n TEMPO 1606/1611 21008KT -RA \n BECMG 1615/1616 31007KT FEW030 BKN180 \n BECMG 1702/1703 25010KT 9999"
"taf	RKSI	2020-09-16 06:06:00	TAF RKSI 160500Z 1606/1712 24008KT 6000 FEW010 BKN025 BKN100 TN20/1620Z TX24/1705Z \n TEMPO 1606/1611 21008KT -RA \n BECMG 1615/1616 31007KT FEW030 BKN180 \n BECMG 1702/1703 25010KT 9999"
"taf	RKSI	2020-09-16 07:15:00	TAF \n AMD RKSI 160715Z 1607/1712 20008KT 9999 FEW010 BKN025 BKN100 TN20/1620Z TX24/1705Z \n BECMG 1615/1616 31007KT 6000 FEW030 BKN180 \n BECMG 1702/1703 25010KT 9999"
"taf	RKSI	2020-09-16 12:00:00	TAF RKSI 161100Z 1612/1718 18007KT 9999 FEW010 BKN025 TN20/1621Z TX24/1705Z \n BECMG 1615/1616 31007KT 6000 FEW030 BKN180 \n TEMPO 1617/1619 -SHRA SCT010 BKN025 \n BECMG 1702/1703 25010KT 9999 \n BECMG 1709/1710 31010KT"
"taf	RKSI	2020-09-16 12:09:00	TAF RKSI 161100Z 1612/1718 18007KT 9999 FEW010 BKN025 TN20/1621Z TX24/1705Z \n BECMG 1615/1616 31007KT 6000 FEW030 BKN180 \n TEMPO 1617/1619 -SHRA SCT010 BKN025 \n BECMG 1702/1703 25010KT 9999 \n BECMG 1709/1710 31010KT"
"taf	RKSI	2020-09-16 18:00:00	TAF RKSI 161700Z 1618/1724 31007KT 6000 FEW030 BKN180 TN20/1621Z TX24/1705Z TN19/1721Z \n TEMPO 1618/1620 25010G20KT -RA SCT010 BKN025 \n BECMG 1702/1703 25010KT 9999 \n BECMG 1710/1711 31010KT \n BECMG 1723/1724 25007KT"
"taf	RKSI	2020-09-16 18:09:00	TAF RKSI 161700Z 1618/1724 31007KT 6000 FEW030 BKN180 TN20/1621Z TX24/1705Z TN19/1721Z \n TEMPO 1618/1620 25010G20KT -RA SCT010 BKN025 \n BECMG 1702/1703 25010KT 9999 \n BECMG 1710/1711 31010KT \n BECMG 1723/1724 25007KT"
"taf	RKSI	2020-09-17 00:00:00	TAF RKSI 172300Z 1800/1906 32010KT CAVOK TX23/1805Z TN18/1821Z TX24/1905Z \n BECMG 1803/1804 27015G25KT \n BECMG 1809/1810 29010KT \n TEMPO 1822/1902 23007KT 9999 SCT040 BKN100"
"taf	RKSI	2020-09-17 00:09:00	TAF RKSI 172300Z 1800/1906 32010KT CAVOK TX23/1805Z TN18/1821Z TX24/1905Z \n BECMG 1803/1804 27015G25KT \n BECMG 1809/1810 29010KT \n TEMPO 1822/1902 23007KT 9999 SCT040 BKN100"
"taf	RKSI	2020-09-17 06:00:00	TAF RKSI 170500Z 1706/1812 25010KT 9999 FEW030 BKN180 TN19/1721Z TX23/1805Z \n BECMG 1713/1714 32010KT \n BECMG 1800/1801 26012KT \n BECMG 1808/1809 32012KT"
"taf	RKSI	2020-09-17 06:06:00	TAF RKSI 170500Z 1706/1812 25010KT 9999 FEW030 BKN180 TN19/1721Z TX23/1805Z \n BECMG 1713/1714 32010KT \n BECMG 1800/1801 26012KT \n BECMG 1808/1809 32012KT"
"taf	RKSI	2020-09-17 12:00:00	TAF RKSI 171100Z 1712/1818 32010KT 9999 SCT030 BKN180 TN19/1721Z TX23/1805Z \n BECMG 1800/1801 26012KT \n TEMPO 1804/1807 27015G25KT \n BECMG 1808/1809 32012KT"
"taf	RKSI	2020-09-17 12:06:00	TAF RKSI 171100Z 1712/1818 32010KT 9999 SCT030 BKN180 TN19/1721Z TX23/1805Z \n BECMG 1800/1801 26012KT \n TEMPO 1804/1807 27015G25KT \n BECMG 1808/1809 32012KT"
"taf	RKSI	2020-09-17 18:00:00	TAF RKSI 171700Z 1718/1824 30010KT CAVOK TN19/1721Z TX23/1805Z TN18/1821Z \n BECMG 1802/1803 27015G25KT \n BECMG 1810/1811 30010KT \n BECMG 1822/1823 24008KT 9999 FEW040"
"taf	RKSI	2020-09-17 18:09:00	TAF RKSI 171700Z 1718/1824 30010KT CAVOK TN19/1721Z TX23/1805Z TN18/1821Z \n BECMG 1802/1803 27015G25KT \n BECMG 1810/1811 30010KT \n BECMG 1822/1823 24008KT 9999 FEW040"
"taf	RKSI	2020-09-18 00:00:00	TAF RKSI 182300Z 1900/2006 29007KT 9999 SCT030 TX24/1905Z TN17/1921Z TX23/2005Z \n TEMPO 1900/1901 -SHRA SCT010 BKN030 \n BECMG 1903/1904 30015G25KT CAVOK \n BECMG 1912/1913 32010KT"
"taf	RKSI	2020-09-18 00:06:00	TAF RKSI 182300Z 1900/2006 29007KT 9999 SCT030 TX24/1905Z TN17/1921Z TX23/2005Z \n TEMPO 1900/1901 -SHRA SCT010 BKN030 \n BECMG 1903/1904 30015G25KT CAVOK \n BECMG 1912/1913 32010KT"
"taf	RKSI	2020-09-18 06:00:00	TAF RKSI 180500Z 1806/1912 26015G25KT 9999 SCT030 TN19/1821Z TX24/1905Z \n BECMG 1809/1810 29010KT \n BECMG 1819/1820 23007KT BKN040 BKN100 \n BECMG 1823/1824 30015G25KT CAVOK"
"taf	RKSI	2020-09-18 06:09:00	TAF RKSI 180500Z 1806/1912 26015G25KT 9999 SCT030 TN19/1821Z TX24/1905Z \n BECMG 1809/1810 29010KT \n BECMG 1819/1820 23007KT BKN040 BKN100 \n BECMG 1823/1824 30015G25KT CAVOK"
"taf	RKSI	2020-09-18 12:00:00	TAF RKSI 181100Z 1812/1918 29010KT 9999 SCT030 TN19/1821Z TX24/1905Z \n BECMG 1819/1820 23007KT BKN040 BKN100 \n TEMPO 1821/1822 -RA \n BECMG 1823/1824 30015G25KT CAVOK \n BECMG 1910/1911 30013KT"
"taf	RKSI	2020-09-18 12:06:00	TAF RKSI 181100Z 1812/1918 29010KT 9999 SCT030 TN19/1821Z TX24/1905Z \n BECMG 1819/1820 23007KT BKN040 BKN100 \n TEMPO 1821/1822 -RA \n BECMG 1823/1824 30015G25KT CAVOK \n BECMG 1910/1911 30013KT"
"taf	RKSI	2020-09-18 18:00:00	TAF RKSI 181700Z 1818/1924 26008KT 9999 BKN030 BKN080 TN19/1821Z TX24/1905Z TN17/1921Z \n TEMPO 1821/1823 29008KT -RA \n BECMG 1901/1902 29015G25KT CAVOK \n BECMG 1910/1911 32010KT"
"taf	RKSI	2020-09-18 18:06:00	TAF RKSI 181700Z 1818/1924 26008KT 9999 BKN030 BKN080 TN19/1821Z TX24/1905Z TN17/1921Z \n TEMPO 1821/1823 29008KT -RA \n BECMG 1901/1902 29015G25KT CAVOK \n BECMG 1910/1911 32010KT"
"taf	RKSI	2020-09-18 19:10:00	TAF \n AMD RKSI 181910Z 1819/1924 26008KT 9999 BKN030 BKN080 TN19/1821Z TX24/1905Z TN17/1921Z \n TEMPO 1819/1820 33015KT -TSRA SCT015CB BKN025 OVC080 \n BECMG 1901/1902 29015G25KT CAVOK \n BECMG 1910/1911 32010KT"
"taf	RKSI	2020-09-18 19:12:00	TAF \n AMD TAF \n AMD RKSI 181910Z 1819/1924 26008KT 9999 BKN030 BKN080 TN19/1821Z TX24/1905Z TN17/1921Z \n TEMPO 1819/1820 33015KT -TSRA SCT015CB BKN025 OVC080 \n BECMG 1901/1902 29015G25KT CAVOK \n BECMG 1910/1911 32010KT"
"taf	RKSI	2020-09-19 00:00:00	TAF RKSI 192300Z 2000/2106 31008KT CAVOK TX23/2006Z TN15/2021Z TX23/2106Z \n BECMG 2014/2015 07005KT \n BECMG 2101/2102 32006KT"
"taf	RKSI	2020-09-19 00:09:00	TAF RKSI 192300Z 2000/2106 31008KT CAVOK TX23/2006Z TN15/2021Z TX23/2106Z \n BECMG 2014/2015 07005KT \n BECMG 2101/2102 32006KT"
"taf	RKSI	2020-09-19 06:00:00	TAF RKSI 190500Z 1906/2012 32010KT 9999 FEW030 TN17/1921Z TX23/2006Z \n TEMPO 1906/1910 30015G25KT \n BECMG 2003/2004 31015G25KT CAVOK \n BECMG 2007/2008 33009KT"
"taf	RKSI	2020-09-19 06:06:00	TAF RKSI 190500Z 1906/2012 32010KT 9999 FEW030 TN17/1921Z TX23/2006Z \n TEMPO 1906/1910 30015G25KT \n BECMG 2003/2004 31015G25KT CAVOK \n BECMG 2007/2008 33009KT"
"taf	RKSI	2020-09-19 12:00:00	TAF RKSI 191100Z 1912/2018 32010KT CAVOK TN17/1921Z TX23/2006Z \n BECMG 2003/2004 31015G25KT \n BECMG 2007/2008 33010KT \n BECMG 2016/2017 05005KT"
"taf	RKSI	2020-09-19 12:06:00	TAF RKSI 191100Z 1912/2018 32010KT CAVOK TN17/1921Z TX23/2006Z \n BECMG 2003/2004 31015G25KT \n BECMG 2007/2008 33010KT \n BECMG 2016/2017 05005KT"
"taf	RKSI	2020-09-19 18:00:00	TAF RKSI 191700Z 1918/2024 32007KT CAVOK TN17/1921Z TX23/2006Z TN15/2021Z \n BECMG 1920/1921 07007KT \n BECMG 2002/2003 31008KT \n BECMG 2014/2015 07005KT"
"taf	RKSI	2020-09-19 18:06:00	TAF RKSI 191700Z 1918/2024 32007KT CAVOK TN17/1921Z TX23/2006Z TN15/2021Z \n BECMG 1920/1921 07007KT \n BECMG 2002/2003 31008KT \n BECMG 2014/2015 07005KT"
"taf	RKSI	2020-09-19 22:09:00	TAF \n AMD TAF \n AMD RKSI 192210Z 1922/2024 31008KT CAVOK TN17/1921Z TX23/2006Z TN15/2021Z \n BECMG 2014/2015 07005KT"
"taf	RKSI	2020-09-19 22:10:00	TAF \n AMD RKSI 192210Z 1922/2024 31008KT CAVOK TN17/1921Z TX23/2006Z TN15/2021Z \n BECMG 2014/2015 07005KT"
"taf	RKSI	2020-09-20 00:00:00	TAF RKSI 202300Z 2100/2206 07006KT CAVOK TX23/2104Z TN15/2120Z TX24/2205Z \n BECMG 2101/2102 28006KT \n BECMG 2111/2112 12006KT 9999 SCT030 BKN200 \n BECMG 2201/2202 06010KT"
"taf	RKSI	2020-09-20 00:06:00	TAF RKSI 202300Z 2100/2206 07006KT CAVOK TX23/2104Z TN15/2120Z TX24/2205Z \n BECMG 2101/2102 28006KT \n BECMG 2111/2112 12006KT 9999 SCT030 BKN200 \n BECMG 2201/2202 06010KT"
"taf	RKSI	2020-09-20 06:00:00	TAF RKSI 200500Z 2006/2112 30008KT CAVOK TN15/2021Z TX23/2104Z \n BECMG 2009/2010 24005KT \n BECMG 2011/2012 34006KT \n BECMG 2020/2021 07005KT \n BECMG 2102/2103 32006KT 9999 FEW030"
"taf	RKSI	2020-09-20 06:09:00	TAF RKSI 200500Z 2006/2112 30008KT CAVOK TN15/2021Z TX23/2104Z \n BECMG 2009/2010 24005KT \n BECMG 2011/2012 34006KT \n BECMG 2020/2021 07005KT \n BECMG 2102/2103 32006KT 9999 FEW030"
"taf	RKSI	2020-09-20 12:00:00	TAF RKSI 201100Z 2012/2118 34006KT CAVOK TN15/2020Z TX23/2104Z \n BECMG 2018/2019 07005KT \n BECMG 2101/2102 32006KT 9999 FEW030 BKN160 \n BECMG 2112/2113 07005KT \n BECMG 2116/2117 15010KT"
"taf	RKSI	2020-09-20 12:09:00	TAF RKSI 201100Z 2012/2118 34006KT CAVOK TN15/2020Z TX23/2104Z \n BECMG 2018/2019 07005KT \n BECMG 2101/2102 32006KT 9999 FEW030 BKN160 \n BECMG 2112/2113 07005KT \n BECMG 2116/2117 15010KT"
"taf	RKSI	2020-09-20 18:00:00	TAF RKSI 201700Z 2018/2124 07006KT CAVOK TN14/2020Z TX23/2104Z TN15/2120Z \n BECMG 2101/2102 28006KT \n BECMG 2111/2112 12006KT 9999 SCT030 BKN160"
"taf	RKSI	2020-09-20 18:06:00	TAF RKSI 201700Z 2018/2124 07006KT CAVOK TN14/2020Z TX23/2104Z TN15/2120Z \n BECMG 2101/2102 28006KT \n BECMG 2111/2112 12006KT 9999 SCT030 BKN160"
"taf	RKSI	2020-09-21 00:00:00	TAF RKSI 212300Z 2200/2306 07006KT CAVOK TX24/2206Z TN15/2221Z TX24/2305Z \n BECMG 2204/2205 32006KT \n BECMG 2213/2214 12007KT 9999 SCT030 BKN150 \n BECMG 2217/2218 06007KT"
"taf	RKSI	2020-09-21 00:09:00	TAF RKSI 212300Z 2200/2306 07006KT CAVOK TX24/2206Z TN15/2221Z TX24/2305Z \n BECMG 2204/2205 32006KT \n BECMG 2213/2214 12007KT 9999 SCT030 BKN150 \n BECMG 2217/2218 06007KT"
"taf	RKSI	2020-09-21 06:00:00	TAF RKSI 210500Z 2106/2212 31006KT CAVOK TN15/2120Z TX24/2205Z \n BECMG 2114/2115 14007KT 9999 SCT030 BKN200 \n BECMG 2202/2203 02007KT"
"taf	RKSI	2020-09-21 06:06:00	TAF RKSI 210500Z 2106/2212 31006KT CAVOK TN15/2120Z TX24/2205Z \n BECMG 2114/2115 14007KT 9999 SCT030 BKN200 \n BECMG 2202/2203 02007KT"
"taf	RKSI	2020-09-21 12:00:00	TAF RKSI 211100Z 2112/2218 33005KT CAVOK TN15/2120Z TX24/2205Z \n BECMG 2114/2115 12007KT 9999 SCT030 BKN200 \n BECMG 2202/2203 01007KT \n BECMG 2211/2212 07008KT"
"taf	RKSI	2020-09-21 12:06:00	TAF RKSI 211100Z 2112/2218 33005KT CAVOK TN15/2120Z TX24/2205Z \n BECMG 2114/2115 12007KT 9999 SCT030 BKN200 \n BECMG 2202/2203 01007KT \n BECMG 2211/2212 07008KT"
"taf	RKSI	2020-09-22 00:00:00	TAF RKSI 222300Z 2300/2406 06008KT 9999 SCT030 BKN150 TX23/2306Z TN16/2321Z TX24/2405Z \n TEMPO 2312/2315 05015G25KT \n BECMG 2404/2405 BKN030 BKN120"
"taf	RKSI	2020-09-22 00:06:00	TAF RKSI 222300Z 2300/2406 06008KT 9999 SCT030 BKN150 TX23/2306Z TN16/2321Z TX24/2405Z \n TEMPO 2312/2315 05015G25KT \n BECMG 2404/2405 BKN030 BKN120"
"taf	RKSI	2020-09-22 06:00:00	TAF RKSI 220500Z 2206/2312 36007KT CAVOK TN15/2221Z TX24/2305Z \n BECMG 2211/2212 12006KT \n BECMG 2215/2216 06007KT 9999 SCT030 BKN150 \n BECMG 2311/2312 06015G25KT"
"taf	RKSI	2020-09-22 06:09:00	TAF RKSI 220500Z 2206/2312 36007KT CAVOK TN15/2221Z TX24/2305Z \n BECMG 2211/2212 12006KT \n BECMG 2215/2216 06007KT 9999 SCT030 BKN150 \n BECMG 2311/2312 06015G25KT"
"taf	RKSI	2020-09-22 12:00:00	TAF RKSI 221100Z 2212/2318 05008KT 9999 SCT030 BKN150 TN15/2221Z TX24/2305Z \n BECMG 2312/2313 04015G25KT"
"taf	RKSI	2020-09-22 12:09:00	TAF RKSI 221100Z 2212/2318 05008KT 9999 SCT030 BKN150 TN15/2221Z TX24/2305Z \n BECMG 2312/2313 04015G25KT"
"taf	RKSI	2020-09-22 18:00:00	TAF RKSI 221700Z 2218/2324 06008KT 9999 SCT030 BKN130 TN15/2221Z TX23/2306Z TN16/2321Z \n TEMPO 2312/2315 05015G25KT"
"taf	RKSI	2020-09-22 18:06:00	TAF RKSI 221700Z 2218/2324 06008KT 9999 SCT030 BKN130 TN15/2221Z TX23/2306Z TN16/2321Z \n TEMPO 2312/2315 05015G25KT"
"taf	RKSI	2020-09-23 00:00:00	TAF RKSI 232300Z 2400/2506 04012KT 9999 FEW040 BKN080 BKN150 TX24/2405Z TN16/2421Z TX25/2506Z \n BECMG 2409/2410 SCT030 BKN150 \n BECMG 2418/2419 BKN030 BKN120 \n BECMG 2422/2423 SCT030"
"taf	RKSI	2020-09-23 00:09:00	TAF RKSI 232300Z 2400/2506 04012KT 9999 FEW040 BKN080 BKN150 TX24/2405Z TN16/2421Z TX25/2506Z \n BECMG 2409/2410 SCT030 BKN150 \n BECMG 2418/2419 BKN030 BKN120 \n BECMG 2422/2423 SCT030"
"taf	RKSI	2020-09-23 06:00:00	TAF RKSI 230500Z 2306/2412 06010KT 9999 SCT030 BKN180 TN15/2321Z TX24/2405Z \n TEMPO 2404/2407 BKN030 BKN120 \n BECMG 2409/2410 04015G25KT"
"taf	RKSI	2020-09-23 06:06:00	TAF RKSI 230500Z 2306/2412 06010KT 9999 SCT030 BKN180 TN15/2321Z TX24/2405Z \n TEMPO 2404/2407 BKN030 BKN120 \n BECMG 2409/2410 04015G25KT"
"taf	RKSI	2020-09-23 12:00:00	TAF RKSI 231100Z 2312/2418 06010KT 9999 FEW030 BKN180 TN15/2321Z TX24/2405Z \n TEMPO 2405/2407 BKN030 BKN120 \n BECMG 2409/2410 05015G25KT \n BECMG 2414/2415 01010KT \n BECMG 2417/2418 BKN030 BKN120"
"taf	RKSI	2020-09-23 12:06:00	TAF RKSI 231100Z 2312/2418 06010KT 9999 FEW030 BKN180 TN15/2321Z TX24/2405Z \n TEMPO 2405/2407 BKN030 BKN120 \n BECMG 2409/2410 05015G25KT \n BECMG 2414/2415 01010KT \n BECMG 2417/2418 BKN030 BKN120"
"taf	RKSI	2020-09-23 18:00:00	TAF RKSI 231700Z 2318/2424 05010KT 9999 FEW030 BKN180 TN15/2321Z TX24/2405Z TN16/2421Z \n BECMG 2409/2410 05015G25KT \n BECMG 2414/2415 02010KT \n BECMG 2418/2419 BKN030 BKN120 \n BECMG 2422/2423 SCT030"
"taf	RKSI	2020-09-23 18:06:00	TAF RKSI 231700Z 2318/2424 05010KT 9999 FEW030 BKN180 TN15/2321Z TX24/2405Z TN16/2421Z \n BECMG 2409/2410 05015G25KT \n BECMG 2414/2415 02010KT \n BECMG 2418/2419 BKN030 BKN120 \n BECMG 2422/2423 SCT030"
"taf	RKSI	2020-09-24 00:00:00	TAF RKSI 242300Z 2500/2606 04012KT 9999 FEW030 SCT070 BKN150 TX25/2506Z TN16/2521Z TX25/2605Z \n BECMG 2503/2504 BKN030 BKN120 \n BECMG 2507/2508 SCT030 \n BECMG 2603/2604 BKN030"
"taf	RKSI	2020-09-24 00:06:00	TAF RKSI 242300Z 2500/2606 04012KT 9999 FEW030 SCT070 BKN150 TX25/2506Z TN16/2521Z TX25/2605Z \n BECMG 2503/2504 BKN030 BKN120 \n BECMG 2507/2508 SCT030 \n BECMG 2603/2604 BKN030"
"taf	RKSI	2020-09-24 06:00:00	TAF RKSI 240500Z 2406/2512 04010KT 9999 FEW030 BKN070 TN16/2421Z TX25/2506Z \n BECMG 2409/2410 SCT030 BKN150 \n BECMG 2418/2419 BKN030 BKN120 \n BECMG 2422/2423 SCT030 \n TEMPO 2504/2510 BKN030"
"taf	RKSI	2020-09-24 06:06:00	TAF RKSI 240500Z 2406/2512 04010KT 9999 FEW030 BKN070 TN16/2421Z TX25/2506Z \n BECMG 2409/2410 SCT030 BKN150 \n BECMG 2418/2419 BKN030 BKN120 \n BECMG 2422/2423 SCT030 \n TEMPO 2504/2510 BKN030"
"taf	RKSI	2020-09-24 12:00:00	TAF RKSI 241100Z 2412/2518 03012KT 9999 SCT040 BKN160 TN16/2421Z TX25/2506Z \n BECMG 2418/2419 BKN030 BKN120 \n BECMG 2422/2423 SCT030 \n TEMPO 2505/2508 BKN030"
"taf	RKSI	2020-09-24 12:06:00	TAF RKSI 241100Z 2412/2518 03012KT 9999 SCT040 BKN160 TN16/2421Z TX25/2506Z \n BECMG 2418/2419 BKN030 BKN120 \n BECMG 2422/2423 SCT030 \n TEMPO 2505/2508 BKN030"
"taf	RKSI	2020-09-24 18:00:00	TAF RKSI 241700Z 2418/2524 04012KT 9999 BKN030 BKN120 TN16/2421Z TX25/2506Z TN16/2521Z \n BECMG 2422/2423 SCT030 \n TEMPO 2505/2508 BKN030"
"taf	RKSI	2020-09-24 18:09:00	TAF RKSI 241700Z 2418/2524 04012KT 9999 BKN030 BKN120 TN16/2421Z TX25/2506Z TN16/2521Z \n BECMG 2422/2423 SCT030 \n TEMPO 2505/2508 BKN030"
"taf	RKSI	2020-09-25 00:00:00	TAF RKSI 252300Z 2600/2706 04008KT CAVOK TX25/2605Z TN15/2621Z TX23/2705Z \n BECMG 2605/2606 9999 BKN030 \n BECMG 2608/2609 SCT030 \n BECMG 2701/2702 10007KT \n BECMG 2704/2705 35008KT"
"taf	RKSI	2020-09-25 00:06:00	TAF RKSI 252300Z 2600/2706 04008KT CAVOK TX25/2605Z TN15/2621Z TX23/2705Z \n BECMG 2605/2606 9999 BKN030 \n BECMG 2608/2609 SCT030 \n BECMG 2701/2702 10007KT \n BECMG 2704/2705 35008KT"
"taf	RKSI	2020-09-25 06:00:00	TAF RKSI 250500Z 2506/2612 04012KT 9999 SCT030 BKN120 TN15/2521Z TX25/2605Z \n BECMG 2603/2604 BKN030 \n BECMG 2608/2609 SCT030"
"taf	RKSI	2020-09-25 06:09:00	TAF RKSI 250500Z 2506/2612 04012KT 9999 SCT030 BKN120 TN15/2521Z TX25/2605Z \n BECMG 2603/2604 BKN030 \n BECMG 2608/2609 SCT030"
"taf	RKSI	2020-09-25 12:00:00	TAF RKSI 251100Z 2512/2618 04012KT 9999 SCT030 BKN150 TN15/2521Z TX25/2605Z \n BECMG 2604/2605 BKN030 \n BECMG 2607/2608 SCT030"
"taf	RKSI	2020-09-25 12:06:00	TAF RKSI 251100Z 2512/2618 04012KT 9999 SCT030 BKN150 TN15/2521Z TX25/2605Z \n BECMG 2604/2605 BKN030 \n BECMG 2607/2608 SCT030"
"taf	RKSI	2020-09-25 18:00:00	TAF RKSI 251700Z 2518/2624 04012KT CAVOK TN16/2521Z TX25/2605Z TN15/2621Z \n BECMG 2605/2606 9999 BKN030 \n BECMG 2608/2609 SCT030"
"taf	RKSI	2020-09-25 18:09:00	TAF RKSI 251700Z 2518/2624 04012KT CAVOK TN16/2521Z TX25/2605Z TN15/2621Z \n BECMG 2605/2606 9999 BKN030 \n BECMG 2608/2609 SCT030"
"taf	RKSI	2020-09-26 00:00:00	TAF RKSI 262300Z 2700/2806 06010KT CAVOK TX24/2705Z TN16/2721Z TX23/2805Z \n BECMG 2703/2704 33007KT \n BECMG 2716/2717 16006KT \n BECMG 2803/2804 29007KT"
"taf	RKSI	2020-09-26 00:06:00	TAF RKSI 262300Z 2700/2806 06010KT CAVOK TX24/2705Z TN16/2721Z TX23/2805Z \n BECMG 2703/2704 33007KT \n BECMG 2716/2717 16006KT \n BECMG 2803/2804 29007KT"
"taf	RKSI	2020-09-26 06:00:00	TAF RKSI 260500Z 2606/2712 04015G25KT CAVOK TN14/2621Z TX23/2705Z \n BECMG 2608/2609 04008KT \n BECMG 2701/2702 10007KT \n BECMG 2704/2705 30008KT"
"taf	RKSI	2020-09-26 06:06:00	TAF RKSI 260500Z 2606/2712 04015G25KT CAVOK TN14/2621Z TX23/2705Z \n BECMG 2608/2609 04008KT \n BECMG 2701/2702 10007KT \n BECMG 2704/2705 30008KT"
"taf	RKSI	2020-09-26 12:00:00	TAF RKSI 261100Z 2612/2718 04008KT CAVOK TN14/2621Z TX23/2705Z \n BECMG 2701/2702 10007KT \n BECMG 2704/2705 31008KT \n BECMG 2711/2712 15006KT"
"taf	RKSI	2020-09-26 12:09:00	TAF RKSI 261100Z 2612/2718 04008KT CAVOK TN14/2621Z TX23/2705Z \n BECMG 2701/2702 10007KT \n BECMG 2704/2705 31008KT \n BECMG 2711/2712 15006KT"
"taf	RKSI	2020-09-26 18:00:00	TAF RKSI 261700Z 2618/2724 04008KT CAVOK TN14/2621Z TX24/2705Z TN16/2721Z \n BECMG 2701/2702 10007KT \n BECMG 2704/2705 31010KT \n BECMG 2714/2715 05006KT \n BECMG 2721/2722 15007KT"
"taf	RKSI	2020-09-26 18:09:00	TAF RKSI 261700Z 2618/2724 04008KT CAVOK TN14/2621Z TX24/2705Z TN16/2721Z \n BECMG 2701/2702 10007KT \n BECMG 2704/2705 31010KT \n BECMG 2714/2715 05006KT \n BECMG 2721/2722 15007KT"
"taf	RKSI	2020-09-27 00:00:00	TAF RKSI 272300Z 2800/2906 07007KT CAVOK TX23/2805Z TN16/2821Z TX22/2905Z \n BECMG 2804/2805 30007KT \n BECMG 2815/2816 11005KT 6000 NSC \n BECMG 2904/2905 28007KT 9999 SCT030 BKN170"
"taf	RKSI	2020-09-27 00:06:00	TAF RKSI 272300Z 2800/2906 07007KT CAVOK TX23/2805Z TN16/2821Z TX22/2905Z \n BECMG 2804/2805 30007KT \n BECMG 2815/2816 11005KT 6000 NSC \n BECMG 2904/2905 28007KT 9999 SCT030 BKN170"
"taf	RKSI	2020-09-27 06:00:00	TAF RKSI 270500Z 2706/2812 32010KT 9999 FEW030 TN16/2721Z TX23/2805Z \n BECMG 2714/2715 04005KT CAVOK \n BECMG 2723/2724 14005KT \n BECMG 2804/2805 30007KT"
"taf	RKSI	2020-09-27 06:09:00	TAF RKSI 270500Z 2706/2812 32010KT 9999 FEW030 TN16/2721Z TX23/2805Z \n BECMG 2714/2715 04005KT CAVOK \n BECMG 2723/2724 14005KT \n BECMG 2804/2805 30007KT"
"taf	RKSI	2020-09-27 12:00:00	TAF RKSI 271100Z 2712/2818 33010KT CAVOK TN16/2721Z TX23/2805Z \n BECMG 2714/2715 04005KT \n BECMG 2723/2724 16005KT \n BECMG 2804/2805 30007KT 9999 FEW030"
"taf	RKSI	2020-09-27 12:06:00	TAF RKSI 271100Z 2712/2818 33010KT CAVOK TN16/2721Z TX23/2805Z \n BECMG 2714/2715 04005KT \n BECMG 2723/2724 16005KT \n BECMG 2804/2805 30007KT 9999 FEW030"
"taf	RKSI	2020-09-28 00:00:00	TAF RKSI 282300Z 2900/3006 05005KT 6000 NSC TX22/2905Z TN17/2921Z TX22/3005Z \n BECMG 2903/2904 31010KT 9999 SCT030 BKN180 \n BECMG 2911/2912 01006KT \n BECMG 2922/2923 07005KT BKN030 BKN100 \n BECMG 3001/3002 30008KT \n BECMG 3003/3004 SCT030 BKN150"
"taf	RKSI	2020-09-28 00:06:00	TAF RKSI 282300Z 2900/3006 05005KT 6000 NSC TX22/2905Z TN17/2921Z TX22/3005Z \n BECMG 2903/2904 31010KT 9999 SCT030 BKN180 \n BECMG 2911/2912 01006KT \n BECMG 2922/2923 07005KT BKN030 BKN100 \n BECMG 3001/3002 30008KT \n BECMG 3003/3004 SCT030 BKN150"
"taf	RKSI	2020-09-28 06:00:00	TAF RKSI 280500Z 2806/2912 30007KT CAVOK TN15/2820Z TX23/2905Z \n BECMG 2817/2818 11005KT 6000 NSC \n BECMG 2821/2822 02005KT \n BECMG 2904/2905 30010KT 9999 SCT030 BKN180"
"taf	RKSI	2020-09-28 06:06:00	TAF RKSI 280500Z 2806/2912 30007KT CAVOK TN15/2820Z TX23/2905Z \n BECMG 2817/2818 11005KT 6000 NSC \n BECMG 2821/2822 02005KT \n BECMG 2904/2905 30010KT 9999 SCT030 BKN180"
"taf	RKSI	2020-09-28 12:00:00	TAF RKSI 281100Z 2812/2918 29005KT CAVOK TN15/2820Z TX23/2904Z \n BECMG 2814/2815 23005KT 6000 NSC \n BECMG 2818/2819 02005KT \n BECMG 2903/2904 30010KT 9999 SCT030 BKN180 \n BECMG 2915/2916 36005KT BKN030 BKN100"
"taf	RKSI	2020-09-28 12:09:00	TAF RKSI 281100Z 2812/2918 29005KT CAVOK TN15/2820Z TX23/2904Z \n BECMG 2814/2815 23005KT 6000 NSC \n BECMG 2818/2819 02005KT \n BECMG 2903/2904 30010KT 9999 SCT030 BKN180 \n BECMG 2915/2916 36005KT BKN030 BKN100"
"taf	RKSI	2020-09-28 18:00:00	TAF RKSI 281700Z 2818/2924 05005KT 6000 NSC TN16/2820Z TX22/2905Z TN17/2921Z \n BECMG 2903/2904 30010KT 9999 SCT030 BKN180 \n BECMG 2910/2911 36006KT \n BECMG 2920/2921 BKN030 BKN100 \n BECMG 2922/2923 07005KT"
"taf	RKSI	2020-09-28 18:06:00	TAF RKSI 281700Z 2818/2924 05005KT 6000 NSC TN16/2820Z TX22/2905Z TN17/2921Z \n BECMG 2903/2904 30010KT 9999 SCT030 BKN180 \n BECMG 2910/2911 36006KT \n BECMG 2920/2921 BKN030 BKN100 \n BECMG 2922/2923 07005KT"
"taf	RKSI	2020-09-29 00:00:00	TAF RKSI 292300Z 3000/0106 06005KT 6000 SCT030 BKN160 TX23/3005Z TN17/3017Z TX23/0104Z \n BECMG 3001/3002 16005KT \n TEMPO 3004/3007 28007KT -SHRA FEW010CB BKN025 OVC100 \n BECMG 3007/3008 29006KT \n BECMG 3015/3016 15007KT BKN030 \n BECMG 0102/0103 21010KT 9999 SCT030 BKN120"
"taf	RKSI	2020-09-29 00:06:00	TAF RKSI 292300Z 3000/0106 06005KT 6000 SCT030 BKN160 TX23/3005Z TN17/3017Z TX23/0104Z \n BECMG 3001/3002 16005KT \n TEMPO 3004/3007 28007KT -SHRA FEW010CB BKN025 OVC100 \n BECMG 3007/3008 29006KT \n BECMG 3015/3016 15007KT BKN030 \n BECMG 0102/0103 21010KT 9999 SCT030 BKN120"
"taf	RKSI	2020-09-29 06:00:00	TAF RKSI 290500Z 2906/3012 33007KT 9999 SCT030 BKN180 TN17/2921Z TX22/3005Z \n BECMG 2918/2919 4000 BR SCT010 \n BECMG 2922/2923 28007KT 6000 NSW SCT030 BKN120 \n TEMPO 3004/3007 -SHRA FEW010CB BKN025 OVC100 \n BECMG 3010/3011 22006KT"
"taf	RKSI	2020-09-29 06:06:00	TAF RKSI 290500Z 2906/3012 33007KT 9999 SCT030 BKN180 TN17/2921Z TX22/3005Z \n BECMG 2918/2919 4000 BR SCT010 \n BECMG 2922/2923 28007KT 6000 NSW SCT030 BKN120 \n TEMPO 3004/3007 -SHRA FEW010CB BKN025 OVC100 \n BECMG 3010/3011 22006KT"
"taf	RKSI	2020-09-29 12:00:00	TAF RKSI 291100Z 2912/3018 33007KT 9999 SCT030 BKN180 TN17/2921Z TX23/3005Z \n BECMG 2919/2920 4000 BR SCT010 \n BECMG 2922/2923 27007KT 6000 NSW SCT030 BKN120 \n TEMPO 3004/3007 -SHRA FEW010CB BKN025 OVC100 \n BECMG 3010/3011 18006KT \n BECMG 3014/3015 BKN030"
"taf	RKSI	2020-09-29 12:09:00	TAF RKSI 291100Z 2912/3018 33007KT 9999 SCT030 BKN180 TN17/2921Z TX23/3005Z \n BECMG 2919/2920 4000 BR SCT010 \n BECMG 2922/2923 27007KT 6000 NSW SCT030 BKN120 \n TEMPO 3004/3007 -SHRA FEW010CB BKN025 OVC100 \n BECMG 3010/3011 18006KT \n BECMG 3014/3015 BKN030"
"taf	RKSI	2020-09-29 18:00:00	TAF RKSI 291700Z 2918/3024 02006KT 6000 SCT030 BKN160 TN16/2920Z TX23/3005Z TN17/3016Z \n BECMG 3000/3001 16005KT \n TEMPO 3004/3007 27007KT -SHRA FEW015CB BKN025 OVC100 \n BECMG 3007/3008 29006KT \n BECMG 3013/3014 17006KT BKN030 BKN120"
"taf	RKSI	2020-09-29 18:09:00	TAF RKSI 291700Z 2918/3024 02006KT 6000 SCT030 BKN160 TN16/2920Z TX23/3005Z TN17/3016Z \n BECMG 3000/3001 16005KT \n TEMPO 3004/3007 27007KT -SHRA FEW015CB BKN025 OVC100 \n BECMG 3007/3008 29006KT \n BECMG 3013/3014 17006KT BKN030 BKN120"
"taf	RKSI	2020-09-30 00:00:00	TAF RKSI 302300Z 0100/0206 15008KT 9999 BKN030 TX23/0106Z TN17/0116Z TX23/0203Z \n BECMG 0103/0104 21010KT SCT030 BKN150 \n BECMG 0122/0123 20015G25KT BKN030 BKN120 \n BECMG 0204/0205 23016G30KT 6000 -RA SCT010 BKN025 OVC100"
"taf	RKSI	2020-09-30 00:06:00	TAF RKSI 302300Z 0100/0206 15008KT 9999 BKN030 TX23/0106Z TN17/0116Z TX23/0203Z \n BECMG 0103/0104 21010KT SCT030 BKN150 \n BECMG 0122/0123 20015G25KT BKN030 BKN120 \n BECMG 0204/0205 23016G30KT 6000 -RA SCT010 BKN025 OVC100"
"taf	RKSI	2020-09-30 06:00:00	TAF RKSI 300500Z 3006/0112 06006KT 6000 SCT030 BKN160 TN16/3020Z TX23/0104Z \n TEMPO 3006/3009 28010G20KT -SHRA FEW010CB BKN025 OVC100 \n BECMG 3015/3016 15008KT BKN030 \n BECMG 0102/0103 21010KT 9999 SCT030 BKN150"
"taf	RKSI	2020-09-30 06:06:00	TAF RKSI 300500Z 3006/0112 06006KT 6000 SCT030 BKN160 TN16/3020Z TX23/0104Z \n TEMPO 3006/3009 28010G20KT -SHRA FEW010CB BKN025 OVC100 \n BECMG 3015/3016 15008KT BKN030 \n BECMG 0102/0103 21010KT 9999 SCT030 BKN150"
"taf	RKSI	2020-09-30 12:00:00	TAF RKSI 301100Z 3012/0118 06006KT 6000 SCT030 BKN160 TN16/3020Z TX23/0104Z \n BECMG 3016/3017 15008KT BKN030 \n BECMG 0102/0103 21010KT 9999 SCT030 BKN150 \n BECMG 0115/0116 BKN030 BKN120"
"taf	RKSI	2020-09-30 12:09:00	TAF RKSI 301100Z 3012/0118 06006KT 6000 SCT030 BKN160 TN16/3020Z TX23/0104Z \n BECMG 3016/3017 15008KT BKN030 \n BECMG 0102/0103 21010KT 9999 SCT030 BKN150 \n BECMG 0115/0116 BKN030 BKN120"
"taf	RKSI	2020-09-30 18:00:00	TAF RKSI 301700Z 3018/0124 15008KT 9999 SCT030 BKN150 TN16/3021Z TX23/0106Z TN17/0115Z \n BECMG 0103/0104 21010KT \n BECMG 0121/0122 BKN030 BKN100 \n TEMPO 0122/0124 20015G25KT"
"taf	RKSI	2020-09-30 18:06:00	TAF RKSI 301700Z 3018/0124 15008KT 9999 SCT030 BKN150 TN16/3021Z TX23/0106Z TN17/0115Z \n BECMG 0103/0104 21010KT \n BECMG 0121/0122 BKN030 BKN100 \n TEMPO 0122/0124 20015G25KT"
"taf	RKSI	2020-10-01 00:00:00	TAF RKSI 012300Z 0200/0306 19015G25KT 9999 BKN030 BKN120 TX22/0204Z TN16/0221Z TX21/0305Z \n BECMG 0204/0205 22017G30KT 6000 -RA SCT010 BKN025 OVC100 \n BECMG 0208/0209 27015G25KT NSW \n BECMG 0210/0211 31008KT 9999 SCT030 BKN180 \n BECMG 0219/0220 07006KT \n BECMG 0302/0303 29007KT"
"taf	RKSI	2020-10-01 00:09:00	TAF RKSI 012300Z 0200/0306 19015G25KT 9999 BKN030 BKN120 TX22/0204Z TN16/0221Z TX21/0305Z \n BECMG 0204/0205 22017G30KT 6000 -RA SCT010 BKN025 OVC100 \n BECMG 0208/0209 27015G25KT NSW \n BECMG 0210/0211 31008KT 9999 SCT030 BKN180 \n BECMG 0219/0220 07006KT \n BECMG 0302/0303 29007KT"
"taf	RKSI	2020-10-01 06:00:00	TAF RKSI 010500Z 0106/0212 20010KT 9999 SCT030 TN17/0116Z TX22/0204Z \n BECMG 0122/0123 20015G25KT BKN030 BKN120 \n BECMG 0204/0205 23017G30KT 6000 -RA SCT010 BKN025 OVC100 \n BECMG 0208/0209 26015G25KT NSW \n BECMG 0211/0212 30008KT 9999 SCT030 BKN180"
"taf	RKSI	2020-10-01 06:09:00	TAF RKSI 010500Z 0106/0212 20010KT 9999 SCT030 TN17/0116Z TX22/0204Z \n BECMG 0122/0123 20015G25KT BKN030 BKN120 \n BECMG 0204/0205 23017G30KT 6000 -RA SCT010 BKN025 OVC100 \n BECMG 0208/0209 26015G25KT NSW \n BECMG 0211/0212 30008KT 9999 SCT030 BKN180"
"taf	RKSI	2020-10-01 12:00:00	TAF RKSI 011100Z 0112/0218 20008KT CAVOK TN17/0118Z TX22/0204Z \n BECMG 0122/0123 20015G25KT 9999 BKN030 BKN120 \n BECMG 0205/0206 23015G25KT 6000 -RA SCT010 BKN025 OVC100 \n BECMG 0208/0209 26015G25KT NSW \n BECMG 0211/0212 31008KT 9999 SCT030 BKN180"
"taf	RKSI	2020-10-01 12:06:00	TAF RKSI 011100Z 0112/0218 20008KT CAVOK TN17/0118Z TX22/0204Z \n BECMG 0122/0123 20015G25KT 9999 BKN030 BKN120 \n BECMG 0205/0206 23015G25KT 6000 -RA SCT010 BKN025 OVC100 \n BECMG 0208/0209 26015G25KT NSW \n BECMG 0211/0212 31008KT 9999 SCT030 BKN180"
"taf	RKSI	2020-10-01 18:00:00	TAF RKSI 011700Z 0118/0224 20010KT 9999 BKN030 BKN120 TN17/0120Z TX22/0204Z TN16/0221Z \n BECMG 0122/0123 20015G25KT \n BECMG 0205/0206 23015G25KT 6000 -RA SCT010 BKN025 OVC100 \n BECMG 0208/0209 26015G25KT NSW \n BECMG 0211/0212 31007KT 9999 SCT030 BKN180 \n BECMG 0219/0220 07006KT"
"taf	RKSI	2020-10-01 18:09:00	TAF RKSI 011700Z 0118/0224 20010KT 9999 BKN030 BKN120 TN17/0120Z TX22/0204Z TN16/0221Z \n BECMG 0122/0123 20015G25KT \n BECMG 0205/0206 23015G25KT 6000 -RA SCT010 BKN025 OVC100 \n BECMG 0208/0209 26015G25KT NSW \n BECMG 0211/0212 31007KT 9999 SCT030 BKN180 \n BECMG 0219/0220 07006KT"
"taf	RKSI	2020-10-02 00:00:00	TAF RKSI 022300Z 0300/0406 29007KT 9999 SCT030 BKN180 TX22/0305Z TN15/0320Z TX22/0405Z \n BECMG 0403/0404 28015G30KT BKN030"
"taf	RKSI	2020-10-02 00:09:00	TAF RKSI 022300Z 0300/0406 29007KT 9999 SCT030 BKN180 TX22/0305Z TN15/0320Z TX22/0405Z \n BECMG 0403/0404 28015G30KT BKN030"
"taf	RKSI	2020-10-02 06:00:00	TAF RKSI 020500Z 0206/0312 22015G25KT 6000 -RA SCT010 BKN025 OVC100 TN16/0221Z TX21/0305Z \n BECMG 0207/0208 25015G25KT 9999 NSW BKN030 BKN120 \n BECMG 0211/0212 31008KT SCT030 BKN180 \n BECMG 0219/0220 07006KT \n BECMG 0302/0303 29007KT"
"taf	RKSI	2020-10-02 06:06:00	TAF RKSI 020500Z 0206/0312 22015G25KT 6000 -RA SCT010 BKN025 OVC100 TN16/0221Z TX21/0305Z \n BECMG 0207/0208 25015G25KT 9999 NSW BKN030 BKN120 \n BECMG 0211/0212 31008KT SCT030 BKN180 \n BECMG 0219/0220 07006KT \n BECMG 0302/0303 29007KT"
"taf	RKSI	2020-10-02 12:00:00	TAF RKSI 021100Z 0212/0318 22010KT 9999 SCT010 BKN025 OVC100 TN16/0221Z TX22/0305Z \n BECMG 0214/0215 35007KT \n BECMG 0219/0220 07006KT SCT030 BKN180 \n BECMG 0302/0303 30007KT"
"taf	RKSI	2020-10-02 12:09:00	TAF RKSI 021100Z 0212/0318 22010KT 9999 SCT010 BKN025 OVC100 TN16/0221Z TX22/0305Z \n BECMG 0214/0215 35007KT \n BECMG 0219/0220 07006KT SCT030 BKN180 \n BECMG 0302/0303 30007KT"
"taf	RKSI	2020-10-02 18:00:00	TAF RKSI 021700Z 0218/0324 31006KT 9999 SCT010 BKN030 OVC100 TN16/0221Z TX22/0305Z TN15/0320Z \n TEMPO 0218/0219 -RA \n BECMG 0221/0222 SCT030 BKN180 \n BECMG 0312/0313 07005KT \n BECMG 0322/0323 26006KT"
"taf	RKSI	2020-10-02 18:09:00	TAF RKSI 021700Z 0218/0324 31006KT 9999 SCT010 BKN030 OVC100 TN16/0221Z TX22/0305Z TN15/0320Z \n TEMPO 0218/0219 -RA \n BECMG 0221/0222 SCT030 BKN180 \n BECMG 0312/0313 07005KT \n BECMG 0322/0323 26006KT"
"taf	RKSI	2020-10-03 00:00:00	TAF RKSI 032300Z 0400/0506 29007KT CAVOK TX22/0405Z TN12/0420Z TX18/0505Z \n BECMG 0403/0404 27015G25KT \n TEMPO 0407/0409 32017G30KT 6000 -RA FEW010 BKN030 BKN100 \n BECMG 0409/0410 33015G27KT \n BECMG 0414/0415 33010KT \n BECMG 0502/0503 32015G25KT 9999 SCT030"
"taf	RKSI	2020-10-03 00:06:00	TAF RKSI 032300Z 0400/0506 29007KT CAVOK TX22/0405Z TN12/0420Z TX18/0505Z \n BECMG 0403/0404 27015G25KT \n TEMPO 0407/0409 32017G30KT 6000 -RA FEW010 BKN030 BKN100 \n BECMG 0409/0410 33015G27KT \n BECMG 0414/0415 33010KT \n BECMG 0502/0503 32015G25KT 9999 SCT030"
"taf	RKSI	2020-10-03 06:00:00	TAF RKSI 030500Z 0306/0412 28007KT 9999 SCT030 BKN180 TN15/0320Z TX22/0405Z \n BECMG 0403/0404 27015G30KT \n BECMG 0408/0409 33017G30KT"
"taf	RKSI	2020-10-03 06:06:00	TAF RKSI 030500Z 0306/0412 28007KT 9999 SCT030 BKN180 TN15/0320Z TX22/0405Z \n BECMG 0403/0404 27015G30KT \n BECMG 0408/0409 33017G30KT"
"taf	RKSI	2020-10-03 12:00:00	TAF RKSI 031100Z 0312/0418 28007KT 9999 SCT030 BKN150 TN15/0320Z TX22/0405Z \n BECMG 0315/0316 13005KT \n BECMG 0401/0402 26010KT \n BECMG 0403/0404 27015G30KT \n BECMG 0408/0409 33017G30KT \n BECMG 0413/0414 33014KT"
"taf	RKSI	2020-10-03 12:06:00	TAF RKSI 031100Z 0312/0418 28007KT 9999 SCT030 BKN150 TN15/0320Z TX22/0405Z \n BECMG 0315/0316 13005KT \n BECMG 0401/0402 26010KT \n BECMG 0403/0404 27015G30KT \n BECMG 0408/0409 33017G30KT \n BECMG 0413/0414 33014KT"
"taf	RKSI	2020-10-03 18:00:00	TAF RKSI 031700Z 0318/0424 29007KT 9999 BKN040 OVC120 TN16/0320Z TX22/0405Z TN12/0420Z \n BECMG 0320/0321 SCT030 \n BECMG 0403/0404 27015G25KT \n TEMPO 0406/0409 31017G35KT 6000 -RA FEW010 BKN030 BKN100 \n BECMG 0410/0411 33017G30KT \n BECMG 0414/0415 33012KT"
"taf	RKSI	2020-10-03 18:06:00	TAF RKSI 031700Z 0318/0424 29007KT 9999 BKN040 OVC120 TN16/0320Z TX22/0405Z TN12/0420Z \n BECMG 0320/0321 SCT030 \n BECMG 0403/0404 27015G25KT \n TEMPO 0406/0409 31017G35KT 6000 -RA FEW010 BKN030 BKN100 \n BECMG 0410/0411 33017G30KT \n BECMG 0414/0415 33012KT"
"taf	RKSI	2020-10-04 00:00:00	TAF RKSI 042300Z 0500/0606 33012KT CAVOK TX18/0505Z TN10/0520Z TX18/0605Z \n BECMG 0502/0503 33015G25KT \n BECMG 0511/0512 34010KT"
"taf	RKSI	2020-10-04 00:06:00	TAF RKSI 042300Z 0500/0606 33012KT CAVOK TX18/0505Z TN10/0520Z TX18/0605Z \n BECMG 0502/0503 33015G25KT \n BECMG 0511/0512 34010KT"
"taf	RKSI	2020-10-04 04:25:00	TAF COR RKSI 040425Z 0404/0506 26008KT CAVOK TN13/0420Z TX17/0505Z \n TEMPO 0406/0409 33016G35KT 6000 -RA FEW010 BKN030 BKN100 \n BECMG 0413/0414 33012KT \n BECMG 0502/0503 32015G25KT SCT030"
"taf	RKSI	2020-10-04 04:36:00	TAF COR TAF COR RKSI 040425Z 0404/0506 26008KT CAVOK TN13/0420Z TX17/0505Z \n TEMPO 0406/0409 33016G35KT 6000 -RA FEW010 BKN030 BKN100 \n BECMG 0413/0414 33012KT \n BECMG 0502/0503 32015G25KT SCT030"
"taf	RKSI	2020-10-04 05:25:00	TAF \n AMD RKSI 040525Z 0405/0506 26008KT CAVOK TN13/0420Z TX17/0505Z \n TEMPO 0406/0409 33016G35KT 6000 -RA FEW010 BKN030 BKN100 \n BECMG 0413/0414 33012KT \n BECMG 0502/0503 32015G25KT SCT030"
"taf	RKSI	2020-10-04 05:30:00	TAF \n AMD TAF \n AMD RKSI 040525Z 0405/0506 26008KT CAVOK TN13/0420Z TX17/0505Z \n TEMPO 0406/0409 33016G35KT 6000 -RA FEW010 BKN030 BKN100 \n BECMG 0413/0414 33012KT \n BECMG 0502/0503 32015G25KT SCT030"
"taf	RKSI	2020-10-04 06:00:00	TAF RKSI 040500Z 0406/0512 33017G35KT CAVOK TN13/0420Z TX17/0505Z \n TEMPO 0407/0409 6000 -RA FEW010 BKN030 BKN100 \n BECMG 0413/0414 33012KT \n BECMG 0502/0503 32015G25KT \n BECMG 0509/0510 32010KT"
"taf	RKSI	2020-10-04 06:09:00	TAF RKSI 040500Z 0406/0512 33017G35KT CAVOK TN13/0420Z TX17/0505Z \n TEMPO 0407/0409 6000 -RA FEW010 BKN030 BKN100 \n BECMG 0413/0414 33012KT \n BECMG 0502/0503 32015G25KT \n BECMG 0509/0510 32010KT"
"taf	RKSI	2020-10-04 08:05:00	TAF \n AMD RKSI 040805Z 0408/0512 33017G35KT CAVOK TN13/0420Z TX17/0505Z \n TEMPO 0408/0409 9999 FEW010 BKN030 BKN100 \n BECMG 0413/0414 33012KT \n BECMG 0502/0503 32015G25KT \n BECMG 0509/0510 32010KT"
"taf	RKSI	2020-10-04 08:06:00	TAF \n AMD TAF \n AMD RKSI 040805Z 0408/0512 33017G35KT CAVOK TN13/0420Z TX17/0505Z \n TEMPO 0408/0409 9999 FEW010 BKN030 BKN100 \n BECMG 0413/0414 33012KT \n BECMG 0502/0503 32015G25KT \n BECMG 0509/0510 32010KT"
"taf	RKSI	2020-10-04 09:09:00	TAF \n AMD TAF \n AMD RKSI 040915Z 0409/0512 33015G25KT CAVOK TN13/0420Z TX17/0505Z \n BECMG 0413/0414 33012KT \n BECMG 0502/0503 32015G25KT \n BECMG 0509/0510 32010KT"
"taf	RKSI	2020-10-04 09:15:00	TAF \n AMD RKSI 040915Z 0409/0512 33015G25KT CAVOK TN13/0420Z TX17/0505Z \n BECMG 0413/0414 33012KT \n BECMG 0502/0503 32015G25KT \n BECMG 0509/0510 32010KT"
"taf	RKSI	2020-10-04 12:00:00	TAF RKSI 041100Z 0412/0518 33015G25KT CAVOK TN13/0420Z TX17/0505Z \n BECMG 0415/0416 33013KT \n BECMG 0502/0503 32015G25KT \n BECMG 0509/0510 33010KT"
"taf	RKSI	2020-10-04 12:06:00	TAF RKSI 041100Z 0412/0518 33015G25KT CAVOK TN13/0420Z TX17/0505Z \n BECMG 0415/0416 33013KT \n BECMG 0502/0503 32015G25KT \n BECMG 0509/0510 33010KT"
"taf	RKSI	2020-10-04 18:00:00	TAF RKSI 041700Z 0418/0524 34012KT CAVOK TN11/0420Z TX18/0505Z TN10/0520Z \n BECMG 0423/0424 33015G25KT \n BECMG 0511/0512 34012KT"
"taf	RKSI	2020-10-04 18:06:00	TAF RKSI 041700Z 0418/0524 34012KT CAVOK TN11/0420Z TX18/0505Z TN10/0520Z \n BECMG 0423/0424 33015G25KT \n BECMG 0511/0512 34012KT"
"taf	RKSI	2020-10-05 06:00:00	TAF RKSI 050500Z 0506/0612 33015G25KT 9999 SCT040 TN10/0520Z TX18/0605Z \n BECMG 0511/0512 33011KT CAVOK"
"taf	RKSI	2020-10-05 06:06:00	TAF RKSI 050500Z 0506/0612 33015G25KT 9999 SCT040 TN10/0520Z TX18/0605Z \n BECMG 0511/0512 33011KT CAVOK"
"taf	RKSI	2020-10-05 12:00:00	TAF RKSI 051100Z 0512/0618 34010KT CAVOK TN10/0520Z TX19/0605Z \n BECMG 0616/0617 04008KT"
"taf	RKSI	2020-10-05 12:06:00	TAF RKSI 051100Z 0512/0618 34010KT CAVOK TN10/0520Z TX19/0605Z \n BECMG 0616/0617 04008KT"
"taf	RKSI	2020-10-05 18:00:00	TAF RKSI 051700Z 0518/0624 34010KT CAVOK TN10/0520Z TX18/0605Z TN11/0621Z \n BECMG 0619/0620 04008KT 9999 FEW030 BKN180"
"taf	RKSI	2020-10-05 18:06:00	TAF RKSI 051700Z 0518/0624 34010KT CAVOK TN10/0520Z TX18/0605Z TN11/0621Z \n BECMG 0619/0620 04008KT 9999 FEW030 BKN180"
"taf	RKSI	2020-10-06 00:00:00	TAF RKSI 062300Z 0700/0806 04010KT 9999 FEW030 BKN180 TX20/0705Z TN10/0721Z TX23/0805Z \n BECMG 0705/0706 34010KT \n BECMG 0708/0709 05010KT CAVOK"
"taf	RKSI	2020-10-06 00:06:00	TAF RKSI 062300Z 0700/0806 04010KT 9999 FEW030 BKN180 TX20/0705Z TN10/0721Z TX23/0805Z \n BECMG 0705/0706 34010KT \n BECMG 0708/0709 05010KT CAVOK"
"taf	RKSI	2020-10-06 06:00:00	TAF RKSI 060500Z 0606/0712 34010KT CAVOK TN11/0621Z TX20/0706Z \n BECMG 0615/0616 04007KT 9999 FEW030 BKN160 \n BECMG 0704/0705 34010KT \n BECMG 0710/0711 04008KT"
"taf	RKSI	2020-10-06 06:06:00	TAF RKSI 060500Z 0606/0712 34010KT CAVOK TN11/0621Z TX20/0706Z \n BECMG 0615/0616 04007KT 9999 FEW030 BKN160 \n BECMG 0704/0705 34010KT \n BECMG 0710/0711 04008KT"
"taf	RKSI	2020-10-06 12:00:00	TAF RKSI 061100Z 0612/0718 34010KT CAVOK TN11/0621Z TX20/0706Z \n BECMG 0615/0616 04007KT 9999 FEW030 BKN160 \n BECMG 0704/0705 34010KT \n BECMG 0710/0711 04008KT CAVOK"
"taf	RKSI	2020-10-06 12:06:00	TAF RKSI 061100Z 0612/0718 34010KT CAVOK TN11/0621Z TX20/0706Z \n BECMG 0615/0616 04007KT 9999 FEW030 BKN160 \n BECMG 0704/0705 34010KT \n BECMG 0710/0711 04008KT CAVOK"
"taf	RKSI	2020-10-06 18:00:00	TAF RKSI 061700Z 0618/0724 04010KT 9999 FEW030 BKN180 TN11/0621Z TX20/0705Z TN10/0721Z \n BECMG 0705/0706 34010KT \n BECMG 0708/0709 05010KT CAVOK"
"taf	RKSI	2020-10-06 18:09:00	TAF RKSI 061700Z 0618/0724 04010KT 9999 FEW030 BKN180 TN11/0621Z TX20/0705Z TN10/0721Z \n BECMG 0705/0706 34010KT \n BECMG 0708/0709 05010KT CAVOK"
"taf	RKSI	2020-10-07 00:00:00	TAF RKSI 072300Z 0800/0906 06010KT CAVOK TX23/0806Z TN12/0821Z TX24/0906Z"
"taf	RKSI	2020-10-07 00:06:00	TAF RKSI 072300Z 0800/0906 06010KT CAVOK TX23/0806Z TN12/0821Z TX24/0906Z"
"taf	RKSI	2020-10-07 06:00:00	TAF RKSI 070500Z 0706/0812 35008KT 9999 FEW030 BKN180 TN11/0721Z TX23/0805Z \n BECMG 0709/0710 05011KT CAVOK"
"taf	RKSI	2020-10-07 06:06:00	TAF RKSI 070500Z 0706/0812 35008KT 9999 FEW030 BKN180 TN11/0721Z TX23/0805Z \n BECMG 0709/0710 05011KT CAVOK"
"taf	RKSI	2020-10-07 12:00:00	TAF RKSI 071100Z 0712/0818 05010KT CAVOK TN10/0721Z TX23/0805Z"
"taf	RKSI	2020-10-07 12:06:00	TAF RKSI 071100Z 0712/0818 05010KT CAVOK TN10/0721Z TX23/0805Z"
"taf	RKSI	2020-10-07 18:00:00	TAF RKSI 071700Z 0718/0824 05010KT CAVOK TN12/0721Z TX24/0806Z TN12/0821Z"
"taf	RKSI	2020-10-07 18:09:00	TAF RKSI 071700Z 0718/0824 05010KT CAVOK TN12/0721Z TX24/0806Z TN12/0821Z"
"taf	RKSI	2020-10-08 00:00:00	TAF RKSI 082300Z 0900/1006 07008KT CAVOK TX24/0906Z TN12/0920Z TX23/1005Z \n BECMG 0906/0907 32007KT \n BECMG 0909/0910 06010KT"
"taf	RKSI	2020-10-08 00:06:00	TAF RKSI 082300Z 0900/1006 07008KT CAVOK TX24/0906Z TN12/0920Z TX23/1005Z \n BECMG 0906/0907 32007KT \n BECMG 0909/0910 06010KT"
"taf	RKSI	2020-10-08 06:00:00	TAF RKSI 080500Z 0806/0912 05010KT CAVOK TN12/0821Z TX24/0906Z"
"taf	RKSI	2020-10-08 06:09:00	TAF RKSI 080500Z 0806/0912 05010KT CAVOK TN12/0821Z TX24/0906Z"
"taf	RKSI	2020-10-08 12:00:00	TAF RKSI 081100Z 0812/0918 06010KT CAVOK TN12/0821Z TX24/0906Z"
"taf	RKSI	2020-10-08 12:06:00	TAF RKSI 081100Z 0812/0918 06010KT CAVOK TN12/0821Z TX24/0906Z"
"taf	RKSI	2020-10-08 18:00:00	TAF RKSI 081700Z 0818/0924 06010KT CAVOK TN12/0821Z TX24/0906Z TN12/0920Z \n TEMPO 0906/0909 32007KT"
"taf	RKSI	2020-10-08 18:06:00	TAF RKSI 081700Z 0818/0924 06010KT CAVOK TN12/0821Z TX24/0906Z TN12/0920Z \n TEMPO 0906/0909 32007KT"
"taf	RKSI	2020-10-09 00:00:00	TAF RKSI 092300Z 1000/1106 06010KT CAVOK TX22/1005Z TN12/1020Z TX21/1105Z \n BECMG 1003/1004 36010KT \n BECMG 1011/1012 06007KT \n BECMG 1023/1024 12005KT \n BECMG 1102/1103 28007KT"
"taf	RKSI	2020-10-09 00:06:00	TAF RKSI 092300Z 1000/1106 06010KT CAVOK TX22/1005Z TN12/1020Z TX21/1105Z \n BECMG 1003/1004 36010KT \n BECMG 1011/1012 06007KT \n BECMG 1023/1024 12005KT \n BECMG 1102/1103 28007KT"
"taf	RKSI	2020-10-09 06:00:00	TAF RKSI 090500Z 0906/1012 08010KT CAVOK TN12/0920Z TX22/1005Z \n BECMG 0907/0908 32007KT \n BECMG 0909/0910 06010KT \n BECMG 1003/1004 36008KT"
"taf	RKSI	2020-10-09 06:06:00	TAF RKSI 090500Z 0906/1012 08010KT CAVOK TN12/0920Z TX22/1005Z \n BECMG 0907/0908 32007KT \n BECMG 0909/0910 06010KT \n BECMG 1003/1004 36008KT"
"taf	RKSI	2020-10-09 12:00:00	TAF RKSI 091100Z 0912/1018 06008KT CAVOK TN12/0920Z TX22/1005Z \n BECMG 1003/1004 36010KT \n BECMG 1011/1012 06008KT"
"taf	RKSI	2020-10-09 12:09:00	TAF RKSI 091100Z 0912/1018 06008KT CAVOK TN12/0920Z TX22/1005Z \n BECMG 1003/1004 36010KT \n BECMG 1011/1012 06008KT"
"taf	RKSI	2020-10-09 18:00:00	TAF RKSI 091700Z 0918/1024 07007KT CAVOK TN12/0920Z TX22/1005Z TN12/1021Z \n BECMG 1003/1004 36010KT \n BECMG 1011/1012 06007KT \n BECMG 1022/1023 12005KT"
"taf	RKSI	2020-10-09 18:06:00	TAF RKSI 091700Z 0918/1024 07007KT CAVOK TN12/0920Z TX22/1005Z TN12/1021Z \n BECMG 1003/1004 36010KT \n BECMG 1011/1012 06007KT \n BECMG 1022/1023 12005KT"
"taf	RKSI	2020-10-10 00:00:00	TAF RKSI 102300Z 1100/1206 07006KT CAVOK TX21/1105Z TN14/1120Z TX20/1205Z \n BECMG 1104/1105 33006KT \n BECMG 1119/1120 9999 SCT030 BKN100 \n BECMG 1123/1124 CAVOK \n BECMG 1202/1203 32015G25KT"
"taf	RKSI	2020-10-10 00:09:00	TAF RKSI 102300Z 1100/1206 07006KT CAVOK TX21/1105Z TN14/1120Z TX20/1205Z \n BECMG 1104/1105 33006KT \n BECMG 1119/1120 9999 SCT030 BKN100 \n BECMG 1123/1124 CAVOK \n BECMG 1202/1203 32015G25KT"
"taf	RKSI	2020-10-10 06:00:00	TAF RKSI 100500Z 1006/1112 35010KT CAVOK TN12/1020Z TX21/1105Z \n BECMG 1012/1013 06007KT \n BECMG 1023/1024 12005KT \n BECMG 1103/1104 33007KT"
"taf	RKSI	2020-10-10 06:06:00	TAF RKSI 100500Z 1006/1112 35010KT CAVOK TN12/1020Z TX21/1105Z \n BECMG 1012/1013 06007KT \n BECMG 1023/1024 12005KT \n BECMG 1103/1104 33007KT"
"taf	RKSI	2020-10-10 12:00:00	TAF RKSI 101100Z 1012/1118 05007KT CAVOK TN12/1020Z TX21/1105Z \n BECMG 1017/1018 11005KT \n BECMG 1103/1104 33007KT"
"taf	RKSI	2020-10-10 12:06:00	TAF RKSI 101100Z 1012/1118 05007KT CAVOK TN12/1020Z TX21/1105Z \n BECMG 1017/1018 11005KT \n BECMG 1103/1104 33007KT"
"taf	RKSI	2020-10-10 18:00:00	TAF RKSI 101700Z 1018/1124 06006KT CAVOK TN12/1020Z TX21/1105Z TN14/1120Z \n BECMG 1023/1024 12006KT \n BECMG 1103/1104 33007KT \n BECMG 1119/1120 9999 SCT030 BKN100 \n BECMG 1123/1124 CAVOK"
"taf	RKSI	2020-10-10 18:06:00	TAF RKSI 101700Z 1018/1124 06006KT CAVOK TN12/1020Z TX21/1105Z TN14/1120Z \n BECMG 1023/1024 12006KT \n BECMG 1103/1104 33007KT \n BECMG 1119/1120 9999 SCT030 BKN100 \n BECMG 1123/1124 CAVOK"
"taf	RKSI	2020-10-11 00:00:00	TAF RKSI 112300Z 1200/1306 35006KT CAVOK TX20/1205Z TN09/1220Z TX19/1305Z \n BECMG 1201/1202 9999 BKN030 \n BECMG 1204/1205 33015G25KT CAVOK \n BECMG 1214/1215 34010KT"
"taf	RKSI	2020-10-11 00:06:00	TAF RKSI 112300Z 1200/1306 35006KT CAVOK TX20/1205Z TN09/1220Z TX19/1305Z \n BECMG 1201/1202 9999 BKN030 \n BECMG 1204/1205 33015G25KT CAVOK \n BECMG 1214/1215 34010KT"
"taf	RKSI	2020-10-11 06:00:00	TAF RKSI 110500Z 1106/1212 33006KT 9999 SCT030 BKN130 TN14/1120Z TX20/1205Z \n BECMG 1202/1203 32015G25KT"
"taf	RKSI	2020-10-11 06:06:00	TAF RKSI 110500Z 1106/1212 33006KT 9999 SCT030 BKN130 TN14/1120Z TX20/1205Z \n BECMG 1202/1203 32015G25KT"
"taf	RKSI	2020-10-11 12:00:00	TAF RKSI 111100Z 1112/1218 33006KT 9999 SCT030 BKN130 TN14/1120Z TX20/1205Z \n BECMG 1202/1203 33015G25KT BKN030 BKN130 \n BECMG 1205/1206 CAVOK"
"taf	RKSI	2020-10-11 12:06:00	TAF RKSI 111100Z 1112/1218 33006KT 9999 SCT030 BKN130 TN14/1120Z TX20/1205Z \n BECMG 1202/1203 33015G25KT BKN030 BKN130 \n BECMG 1205/1206 CAVOK"
"taf	RKSI	2020-10-11 18:00:00	TAF RKSI 111700Z 1118/1224 34006KT CAVOK TN14/1120Z TX20/1205Z TN09/1220Z \n BECMG 1202/1203 33015G25KT 9999 BKN030 BKN120 \n BECMG 1205/1206 CAVOK \n BECMG 1218/1219 34010KT"
"taf	RKSI	2020-10-11 18:06:00	TAF RKSI 111700Z 1118/1224 34006KT CAVOK TN14/1120Z TX20/1205Z TN09/1220Z \n BECMG 1202/1203 33015G25KT 9999 BKN030 BKN120 \n BECMG 1205/1206 CAVOK \n BECMG 1218/1219 34010KT"
"taf	RKSI	2020-10-12 00:00:00	TAF RKSI 122300Z 1300/1406 35008KT CAVOK TX19/1305Z TN11/1320Z TX16/1405Z \n BECMG 1305/1306 34015G25KT \n BECMG 1312/1313 35010KT 9999 FEW040 BKN120 \n BECMG 1403/1404 34015G25KT"
"taf	RKSI	2020-10-12 00:06:00	TAF RKSI 122300Z 1300/1406 35008KT CAVOK TX19/1305Z TN11/1320Z TX16/1405Z \n BECMG 1305/1306 34015G25KT \n BECMG 1312/1313 35010KT 9999 FEW040 BKN120 \n BECMG 1403/1404 34015G25KT"
"taf	RKSI	2020-10-12 06:00:00	TAF RKSI 120500Z 1206/1312 32010KT CAVOK TN08/1220Z TX20/1305Z \n BECMG 1207/1208 33015G25KT \n BECMG 1220/1221 33010KT"
"taf	RKSI	2020-10-12 06:09:00	TAF RKSI 120500Z 1206/1312 32010KT CAVOK TN08/1220Z TX20/1305Z \n BECMG 1207/1208 33015G25KT \n BECMG 1220/1221 33010KT"
"taf	RKSI	2020-10-12 12:00:00	TAF RKSI 121100Z 1212/1318 33015G25KT CAVOK TN08/1220Z TX20/1305Z \n BECMG 1220/1221 33010KT \n BECMG 1311/1312 07006KT \n BECMG 1316/1317 34010KT 9999 FEW040 BKN130"
"taf	RKSI	2020-10-12 12:09:00	TAF RKSI 121100Z 1212/1318 33015G25KT CAVOK TN08/1220Z TX20/1305Z \n BECMG 1220/1221 33010KT \n BECMG 1311/1312 07006KT \n BECMG 1316/1317 34010KT 9999 FEW040 BKN130"
"taf	RKSI	2020-10-12 18:00:00	TAF RKSI 121700Z 1218/1324 34010KT CAVOK TN10/1220Z TX20/1305Z TN11/1320Z \n BECMG 1302/1303 33015G25KT \n BECMG 1309/1310 33010KT \n BECMG 1316/1317 9999 SCT030 BKN100 \n BECMG 1320/1321 35015G25KT FEW040 BKN130"
"taf	RKSI	2020-10-12 18:09:00	TAF RKSI 121700Z 1218/1324 34010KT CAVOK TN10/1220Z TX20/1305Z TN11/1320Z \n BECMG 1302/1303 33015G25KT \n BECMG 1309/1310 33010KT \n BECMG 1316/1317 9999 SCT030 BKN100 \n BECMG 1320/1321 35015G25KT FEW040 BKN130"
"taf	RKSI	2020-10-13 00:00:00	TAF RKSI 132300Z 1400/1506 07006KT 9999 FEW030 BKN120 TX15/1406Z TN06/1421Z TX17/1505Z \n BECMG 1404/1405 33015G25KT \n BECMG 1409/1410 33008KT CAVOK \n BECMG 1422/1423 07006KT \n BECMG 1501/1502 33008KT"
"taf	RKSI	2020-10-13 00:09:00	TAF RKSI 132300Z 1400/1506 07006KT 9999 FEW030 BKN120 TX15/1406Z TN06/1421Z TX17/1505Z \n BECMG 1404/1405 33015G25KT \n BECMG 1409/1410 33008KT CAVOK \n BECMG 1422/1423 07006KT \n BECMG 1501/1502 33008KT"
"taf	RKSI	2020-10-13 06:00:00	TAF RKSI 130500Z 1306/1412 34008KT CAVOK TN11/1322Z TX16/1406Z \n BECMG 1322/1323 9999 FEW030 BKN100 \n BECMG 1403/1404 33015G25KT \n BECMG 1409/1410 35010KT"
"taf	RKSI	2020-10-13 06:06:00	TAF RKSI 130500Z 1306/1412 34008KT CAVOK TN11/1322Z TX16/1406Z \n BECMG 1322/1323 9999 FEW030 BKN100 \n BECMG 1403/1404 33015G25KT \n BECMG 1409/1410 35010KT"
"taf	RKSI	2020-10-13 12:00:00	TAF RKSI 131100Z 1312/1418 35008KT 9999 FEW030 BKN120 TN11/1322Z TX15/1406Z \n BECMG 1404/1405 33015G25KT \n BECMG 1409/1410 35009KT CAVOK"
"taf	RKSI	2020-10-13 12:06:00	TAF RKSI 131100Z 1312/1418 35008KT 9999 FEW030 BKN120 TN11/1322Z TX15/1406Z \n BECMG 1404/1405 33015G25KT \n BECMG 1409/1410 35009KT CAVOK"
"taf	RKSI	2020-10-13 18:00:00	TAF RKSI 131700Z 1318/1424 35008KT 9999 FEW030 BKN120 TN11/1322Z TX15/1406Z TN06/1421Z \n BECMG 1404/1405 33015G25KT \n BECMG 1409/1410 35008KT CAVOK"
"taf	RKSI	2020-10-13 18:06:00	TAF RKSI 131700Z 1318/1424 35008KT 9999 FEW030 BKN120 TN11/1322Z TX15/1406Z TN06/1421Z \n BECMG 1404/1405 33015G25KT \n BECMG 1409/1410 35008KT CAVOK"
"taf	RKSI	2020-10-14 00:00:00	TAF RKSI 142300Z 1500/1606 07006KT CAVOK TX16/1506Z TN11/1521Z TX16/1605Z \n BECMG 1502/1503 30008KT \n BECMG 1514/1515 07005KT 9999 FEW030 BKN130 \n BECMG 1602/1603 33006KT"
"taf	RKSI	2020-10-14 00:09:00	TAF RKSI 142300Z 1500/1606 07006KT CAVOK TX16/1506Z TN11/1521Z TX16/1605Z \n BECMG 1502/1503 30008KT \n BECMG 1514/1515 07005KT 9999 FEW030 BKN130 \n BECMG 1602/1603 33006KT"
"taf	RKSI	2020-10-14 06:00:00	TAF RKSI 140500Z 1406/1512 30015G25KT 9999 FEW030 SCT120 TN07/1421Z TX17/1506Z \n BECMG 1409/1410 34008KT CAVOK \n BECMG 1422/1423 07006KT \n BECMG 1500/1501 30007KT"
"taf	RKSI	2020-10-14 06:06:00	TAF RKSI 140500Z 1406/1512 30015G25KT 9999 FEW030 SCT120 TN07/1421Z TX17/1506Z \n BECMG 1409/1410 34008KT CAVOK \n BECMG 1422/1423 07006KT \n BECMG 1500/1501 30007KT"
"taf	RKSI	2020-10-14 12:00:00	TAF RKSI 141100Z 1412/1518 35008KT CAVOK TN07/1421Z TX16/1506Z \n BECMG 1422/1423 07006KT \n BECMG 1500/1501 31008KT \n BECMG 1515/1516 07005KT"
"taf	RKSI	2020-10-14 12:06:00	TAF RKSI 141100Z 1412/1518 35008KT CAVOK TN07/1421Z TX16/1506Z \n BECMG 1422/1423 07006KT \n BECMG 1500/1501 31008KT \n BECMG 1515/1516 07005KT"
"taf	RKSI	2020-10-14 18:00:00	TAF RKSI 141700Z 1418/1524 35008KT CAVOK TN07/1421Z TX16/1506Z TN11/1521Z \n BECMG 1421/1422 07006KT \n BECMG 1502/1503 31008KT \n BECMG 1514/1515 07005KT 9999 FEW030 BKN130"
"taf	RKSI	2020-10-14 18:06:00	TAF RKSI 141700Z 1418/1524 35008KT CAVOK TN07/1421Z TX16/1506Z TN11/1521Z \n BECMG 1421/1422 07006KT \n BECMG 1502/1503 31008KT \n BECMG 1514/1515 07005KT 9999 FEW030 BKN130"
"taf	RKSI	2020-10-15 00:00:00	TAF RKSI 152300Z 1600/1706 07007KT CAVOK TX17/1605Z TN10/1621Z TX17/1706Z \n BECMG 1602/1603 27007KT 9999 SCT030 BKN120 \n BECMG 1609/1610 BKN025 OVC100 \n BECMG 1613/1614 24005KT 6000 -RA \n BECMG 1618/1619 07005KT NSW SCT030 \n BECMG 1701/1702 34007KT CAVOK"
"taf	RKSI	2020-10-15 00:09:00	TAF RKSI 152300Z 1600/1706 07007KT CAVOK TX17/1605Z TN10/1621Z TX17/1706Z \n BECMG 1602/1603 27007KT 9999 SCT030 BKN120 \n BECMG 1609/1610 BKN025 OVC100 \n BECMG 1613/1614 24005KT 6000 -RA \n BECMG 1618/1619 07005KT NSW SCT030 \n BECMG 1701/1702 34007KT CAVOK"
"taf	RKSI	2020-10-15 06:00:00	TAF RKSI 150500Z 1506/1612 30007KT CAVOK TN10/1521Z TX17/1605Z \n BECMG 1514/1515 07005KT \n BECMG 1603/1604 28006KT 9999 FEW030 BKN140 \n BECMG 1610/1611 BKN030 OVC100"
"taf	RKSI	2020-10-15 06:09:00	TAF RKSI 150500Z 1506/1612 30007KT CAVOK TN10/1521Z TX17/1605Z \n BECMG 1514/1515 07005KT \n BECMG 1603/1604 28006KT 9999 FEW030 BKN140 \n BECMG 1610/1611 BKN030 OVC100"
"taf	RKSI	2020-10-15 12:00:00	TAF RKSI 151100Z 1512/1618 33006KT CAVOK TN10/1521Z TX17/1605Z \n BECMG 1522/1523 15006KT \n BECMG 1603/1604 26006KT 9999 FEW030 BKN140 \n BECMG 1611/1612 BKN025 OVC100 \n TEMPO 1613/1616 30006KT 6000 -RA \n BECMG 1617/1618 32010KT SCT030"
"taf	RKSI	2020-10-15 12:09:00	TAF RKSI 151100Z 1512/1618 33006KT CAVOK TN10/1521Z TX17/1605Z \n BECMG 1522/1523 15006KT \n BECMG 1603/1604 26006KT 9999 FEW030 BKN140 \n BECMG 1611/1612 BKN025 OVC100 \n TEMPO 1613/1616 30006KT 6000 -RA \n BECMG 1617/1618 32010KT SCT030"
"taf	RKSI	2020-10-15 18:00:00	TAF RKSI 151700Z 1518/1624 16005KT CAVOK TN10/1521Z TX17/1605Z TN10/1621Z \n BECMG 1603/1604 27007KT 9999 FEW030 BKN120 \n BECMG 1610/1611 BKN025 OVC100 \n TEMPO 1613/1617 32005KT 6000 -RA \n BECMG 1618/1619 07005KT SCT030 \n BECMG 1621/1622 34007KT"
"taf	RKSI	2020-10-15 18:09:00	TAF RKSI 151700Z 1518/1624 16005KT CAVOK TN10/1521Z TX17/1605Z TN10/1621Z \n BECMG 1603/1604 27007KT 9999 FEW030 BKN120 \n BECMG 1610/1611 BKN025 OVC100 \n TEMPO 1613/1617 32005KT 6000 -RA \n BECMG 1618/1619 07005KT SCT030 \n BECMG 1621/1622 34007KT"
"taf	RKSI	2020-10-15 22:40:00	TAF \n AMD RKSI 152140Z 1522/1624 07005KT CAVOK TN10/1521Z TX17/1605Z TN10/1621Z \n BECMG 1603/1604 27007KT 9999 FEW030 BKN120 \n BECMG 1610/1611 BKN025 OVC100 \n TEMPO 1613/1617 32005KT 6000 -RA \n BECMG 1618/1619 07005KT SCT030 \n BECMG 1621/1622 34007KT"
"taf	RKSI	2020-10-15 22:42:00	TAF \n AMD TAF \n AMD RKSI 152140Z 1522/1624 07005KT CAVOK TN10/1521Z TX17/1605Z TN10/1621Z \n BECMG 1603/1604 27007KT 9999 FEW030 BKN120 \n BECMG 1610/1611 BKN025 OVC100 \n TEMPO 1613/1617 32005KT 6000 -RA \n BECMG 1618/1619 07005KT SCT030 \n BECMG 1621/1622 34007KT"
"taf	RKSI	2020-10-16 00:00:00	TAF RKSI 162300Z 1700/1806 07005KT 9999 FEW030 TX18/1706Z TN09/1721Z TX19/1805Z \n BECMG 1702/1703 30006KT CAVOK \n BECMG 1712/1713 07005KT \n BECMG 1800/1801 30008KT"
"taf	RKSI	2020-10-16 00:09:00	TAF RKSI 162300Z 1700/1806 07005KT 9999 FEW030 TX18/1706Z TN09/1721Z TX19/1805Z \n BECMG 1702/1703 30006KT CAVOK \n BECMG 1712/1713 07005KT \n BECMG 1800/1801 30008KT"
"taf	RKSI	2020-10-16 06:00:00	TAF RKSI 160500Z 1606/1712 25006KT 9999 SCT030 BKN120 TN10/1622Z TX17/1706Z \n BECMG 1609/1610 BKN025 OVC100 \n BECMG 1612/1613 28006KT 6000 -RA \n BECMG 1617/1618 07006KT NSW SCT030 \n BECMG 1700/1701 33007KT CAVOK"
"taf	RKSI	2020-10-16 06:06:00	TAF RKSI 160500Z 1606/1712 25006KT 9999 SCT030 BKN120 TN10/1622Z TX17/1706Z \n BECMG 1609/1610 BKN025 OVC100 \n BECMG 1612/1613 28006KT 6000 -RA \n BECMG 1617/1618 07006KT NSW SCT030 \n BECMG 1700/1701 33007KT CAVOK"
"taf	RKSI	2020-10-16 12:00:00	TAF RKSI 161100Z 1612/1718 31006KT 6000 -RA BKN030 OVC100 TN10/1622Z TX17/1706Z \n BECMG 1617/1618 07006KT NSW SCT030 \n BECMG 1700/1701 32007KT CAVOK \n BECMG 1712/1713 07006KT"
"taf	RKSI	2020-10-16 12:06:00	TAF RKSI 161100Z 1612/1718 31006KT 6000 -RA BKN030 OVC100 TN10/1622Z TX17/1706Z \n BECMG 1617/1618 07006KT NSW SCT030 \n BECMG 1700/1701 32007KT CAVOK \n BECMG 1712/1713 07006KT"
"taf	RKSI	2020-10-16 14:10:00	TAF \n AMD RKSI 161410Z 1614/1718 31006KT 9999 BKN030 OVC100 TN10/1622Z TX17/1706Z \n TEMPO 1614/1617 6000 -RA \n BECMG 1617/1618 07006KT SCT030 \n BECMG 1700/1701 32007KT CAVOK \n BECMG 1712/1713 07006KT"
"taf	RKSI	2020-10-16 14:15:00	TAF \n AMD TAF \n AMD RKSI 161410Z 1614/1718 31006KT 9999 BKN030 OVC100 TN10/1622Z TX17/1706Z \n TEMPO 1614/1617 6000 -RA \n BECMG 1617/1618 07006KT SCT030 \n BECMG 1700/1701 32007KT CAVOK \n BECMG 1712/1713 07006KT"
"taf	RKSI	2020-10-16 18:00:00	TAF RKSI 161700Z 1618/1724 07006KT 6000 -RA BKN030 OVC100 TN10/1622Z TX18/1706Z TN09/1721Z \n BECMG 1619/1620 NSW \n BECMG 1621/1622 SCT030 \n BECMG 1701/1702 30006KT CAVOK \n BECMG 1712/1713 07005KT"
"taf	RKSI	2020-10-16 18:06:00	TAF RKSI 161700Z 1618/1724 07006KT 6000 -RA BKN030 OVC100 TN10/1622Z TX18/1706Z TN09/1721Z \n BECMG 1619/1620 NSW \n BECMG 1621/1622 SCT030 \n BECMG 1701/1702 30006KT CAVOK \n BECMG 1712/1713 07005KT"
"taf	RKSI	2020-10-17 00:00:00	TAF RKSI 172300Z 1800/1906 07006KT CAVOK TX19/1805Z TN10/1821Z TX19/1905Z \n BECMG 1801/1802 28006KT \n BECMG 1823/1824 11006KT \n BECMG 1903/1904 27006KT"
"taf	RKSI	2020-10-17 00:06:00	TAF RKSI 172300Z 1800/1906 07006KT CAVOK TX19/1805Z TN10/1821Z TX19/1905Z \n BECMG 1801/1802 28006KT \n BECMG 1823/1824 11006KT \n BECMG 1903/1904 27006KT"
"taf	RKSI	2020-10-17 06:00:00	TAF RKSI 170500Z 1706/1812 30007KT CAVOK TN09/1721Z TX19/1805Z \n BECMG 1712/1713 07005KT \n BECMG 1800/1801 28008KT"
"taf	RKSI	2020-10-17 06:09:00	TAF RKSI 170500Z 1706/1812 30007KT CAVOK TN09/1721Z TX19/1805Z \n BECMG 1712/1713 07005KT \n BECMG 1800/1801 28008KT"
"taf	RKSI	2020-10-17 12:00:00	TAF RKSI 171100Z 1712/1818 28006KT CAVOK TN09/1721Z TX19/1805Z \n BECMG 1715/1716 07005KT \n BECMG 1800/1801 28007KT"
"taf	RKSI	2020-10-17 12:06:00	TAF RKSI 171100Z 1712/1818 28006KT CAVOK TN09/1721Z TX19/1805Z \n BECMG 1715/1716 07005KT \n BECMG 1800/1801 28007KT"
"taf	RKSI	2020-10-17 18:00:00	TAF RKSI 171700Z 1718/1824 07006KT CAVOK TN09/1721Z TX19/1805Z TN11/1821Z \n BECMG 1800/1801 28007KT \n BECMG 1818/1819 07005KT"
"taf	RKSI	2020-10-17 18:09:00	TAF RKSI 171700Z 1718/1824 07006KT CAVOK TN09/1721Z TX19/1805Z TN11/1821Z \n BECMG 1800/1801 28007KT \n BECMG 1818/1819 07005KT"
"taf	RKSI	2020-10-18 00:00:00	TAF RKSI 182300Z 1900/2006 12006KT 6000 NSC TX19/1905Z TN11/1920Z TX19/2005Z \n BECMG 1902/1903 28006KT CAVOK \n BECMG 1917/1918 06005KT 4000 BR NSC \n BECMG 1923/1924 09006KT 6000 NSW \n BECMG 2002/2003 29006KT CAVOK"
"taf	RKSI	2020-10-18 00:09:00	TAF RKSI 182300Z 1900/2006 12006KT 6000 NSC TX19/1905Z TN11/1920Z TX19/2005Z \n BECMG 1902/1903 28006KT CAVOK \n BECMG 1917/1918 06005KT 4000 BR NSC \n BECMG 1923/1924 09006KT 6000 NSW \n BECMG 2002/2003 29006KT CAVOK"
"taf	RKSI	2020-10-18 06:00:00	TAF RKSI 180500Z 1806/1912 28010KT 9999 FEW030 TN11/1821Z TX19/1905Z \n BECMG 1812/1813 05006KT CAVOK \n BECMG 1822/1823 14006KT 6000 NSC \n BECMG 1902/1903 28006KT CAVOK"
"taf	RKSI	2020-10-18 06:06:00	TAF RKSI 180500Z 1806/1912 28010KT 9999 FEW030 TN11/1821Z TX19/1905Z \n BECMG 1812/1813 05006KT CAVOK \n BECMG 1822/1823 14006KT 6000 NSC \n BECMG 1902/1903 28006KT CAVOK"
"taf	RKSI	2020-10-18 12:00:00	TAF RKSI 181100Z 1812/1918 27010KT CAVOK TN11/1821Z TX19/1905Z \n BECMG 1814/1815 05006KT \n BECMG 1821/1822 14006KT 6000 NSC \n BECMG 1902/1903 28007KT CAVOK \n BECMG 1916/1917 35006KT 4000 BR NSC"
"taf	RKSI	2020-10-18 12:09:00	TAF RKSI 181100Z 1812/1918 27010KT CAVOK TN11/1821Z TX19/1905Z \n BECMG 1814/1815 05006KT \n BECMG 1821/1822 14006KT 6000 NSC \n BECMG 1902/1903 28007KT CAVOK \n BECMG 1916/1917 35006KT 4000 BR NSC"
"taf	RKSI	2020-10-18 18:00:00	TAF RKSI 181700Z 1818/1924 06005KT 6000 NSC TN11/1821Z TX19/1905Z TN11/1920Z \n BECMG 1819/1820 4000 BR \n BECMG 1822/1823 12006KT 6000 NSW \n BECMG 1902/1903 28006KT CAVOK \n BECMG 1918/1919 07006KT 4000 BR NSC \n BECMG 1922/1923 6000 NSW"
"taf	RKSI	2020-10-18 18:06:00	TAF RKSI 181700Z 1818/1924 06005KT 6000 NSC TN11/1821Z TX19/1905Z TN11/1920Z \n BECMG 1819/1820 4000 BR \n BECMG 1822/1823 12006KT 6000 NSW \n BECMG 1902/1903 28006KT CAVOK \n BECMG 1918/1919 07006KT 4000 BR NSC \n BECMG 1922/1923 6000 NSW"
"taf	RKSI	2020-10-19 00:00:00	TAF RKSI 192300Z 2000/2106 06006KT 0400 FG VV001 TX19/2005Z TN13/2020Z TX18/2104Z \n FM200100 12006KT 1800 BR SCT005 \n BECMG 2002/2003 29006KT 6000 NSW NSC \n BECMG 2011/2012 07006KT \n BECMG 2018/2019 16010KT FEW030 BKN120"
"taf	RKSI	2020-10-19 00:06:00	TAF RKSI 192300Z 2000/2106 06006KT 0400 FG VV001 TX19/2005Z TN13/2020Z TX18/2104Z \n FM200100 12006KT 1800 BR SCT005 \n BECMG 2002/2003 29006KT 6000 NSW NSC \n BECMG 2011/2012 07006KT \n BECMG 2018/2019 16010KT FEW030 BKN120"
"taf	RKSI	2020-10-19 06:00:00	TAF RKSI 190500Z 1906/2012 28006KT 6000 SCT030 TN08/1920Z TX20/2005Z \n BECMG 1917/1918 06005KT 3000 BR \n BECMG 1923/1924 09006KT 6000 NSW \n BECMG 2003/2004 29006KT CAVOK"
"taf	RKSI	2020-10-19 06:09:00	TAF RKSI 190500Z 1906/2012 28006KT 6000 SCT030 TN08/1920Z TX20/2005Z \n BECMG 1917/1918 06005KT 3000 BR \n BECMG 1923/1924 09006KT 6000 NSW \n BECMG 2003/2004 29006KT CAVOK"
"taf	RKSI	2020-10-19 12:00:00	TAF RKSI 191100Z 1912/2018 28006KT 6000 SCT030 TN08/1920Z TX20/2005Z \n BECMG 1917/1918 06005KT 3000 BR \n TEMPO 1920/1921 1200 SCT002 \n BECMG 1923/1924 09006KT 6000 NSW \n BECMG 2003/2004 29006KT CAVOK \n BECMG 2014/2015 07006KT 6000 FEW030 BKN130"
"taf	RKSI	2020-10-19 12:21:00	TAF RKSI 191100Z 1912/2018 28006KT 6000 SCT030 TN08/1920Z TX20/2005Z \n BECMG 1917/1918 06005KT 3000 BR \n TEMPO 1920/1921 1200 SCT002 \n BECMG 1923/1924 09006KT 6000 NSW \n BECMG 2003/2004 29006KT CAVOK \n BECMG 2014/2015 07006KT 6000 FEW030 BKN130"
"taf	RKSI	2020-10-19 18:00:00	TAF RKSI 191700Z 1918/2024 07005KT 1800 BR NSC TN10/1920Z TX19/2005Z TN13/2020Z \n TEMPO 1920/1923 0800 FG SCT002 \n BECMG 2000/2001 12006KT 6000 NSW \n BECMG 2003/2004 28006KT CAVOK \n BECMG 2011/2012 08006KT 6000 NSC \n BECMG 2018/2019 16010KT FEW030 BKN120"
"taf	RKSI	2020-10-19 18:06:00	TAF RKSI 191700Z 1918/2024 07005KT 1800 BR NSC TN10/1920Z TX19/2005Z TN13/2020Z \n TEMPO 1920/1923 0800 FG SCT002 \n BECMG 2000/2001 12006KT 6000 NSW \n BECMG 2003/2004 28006KT CAVOK \n BECMG 2011/2012 08006KT 6000 NSC \n BECMG 2018/2019 16010KT FEW030 BKN120"
"taf	RKSI	2020-10-19 18:30:00	TAF \n AMD RKSI 191830Z 1918/2024 07005KT 1800 BR NSC TN10/1920Z TX19/2005Z TN13/2020Z \n TEMPO 1919/1923 0400 FG BKN002 \n BECMG 2000/2001 12006KT 6000 NSW \n BECMG 2003/2004 28006KT CAVOK \n BECMG 2011/2012 08006KT 6000 NSC \n BECMG 2018/2019 16010KT FEW030 BKN120"
"taf	RKSI	2020-10-19 18:33:00	TAF \n AMD TAF \n AMD RKSI 191830Z 1918/2024 07005KT 1800 BR NSC TN10/1920Z TX19/2005Z TN13/2020Z \n TEMPO 1919/1923 0400 FG BKN002 \n BECMG 2000/2001 12006KT 6000 NSW \n BECMG 2003/2004 28006KT CAVOK \n BECMG 2011/2012 08006KT 6000 NSC \n BECMG 2018/2019 16010KT FEW030 BKN120"
"taf	RKSI	2020-10-19 22:15:00	TAF \n AMD RKSI 192215Z 1922/2024 07005KT 0400 FG BKN001 TN10/1920Z TX19/2005Z TN13/2020Z \n BECMG 2001/2002 12006KT 2500 BR SCT005 \n BECMG 2003/2004 28006KT 6000 NSW \n BECMG 2011/2012 08006KT \n BECMG 2018/2019 16010KT FEW030 BKN120"
"taf	RKSI	2020-10-19 22:18:00	TAF \n AMD TAF \n AMD RKSI 192215Z 1922/2024 07005KT 0400 FG BKN001 TN10/1920Z TX19/2005Z TN13/2020Z \n BECMG 2001/2002 12006KT 2500 BR SCT005 \n BECMG 2003/2004 28006KT 6000 NSW \n BECMG 2011/2012 08006KT \n BECMG 2018/2019 16010KT FEW030 BKN120"
"taf	RKSI	2020-10-20 00:00:00	TAF RKSI 202300Z 2100/2206 17012KT 8000 FEW030 BKN180 TX18/2106Z TN13/2120Z TX17/2205Z \n BECMG 2107/2108 FEW010 BKN025 OVC100 \n BECMG 2114/2115 21008KT 4000 -RA \n BECMG 2118/2119 32008KT BR \n BECMG 2122/2123 6000 NSW SCT030 BKN180 \n BECMG 2202/2203 32015G25KT CAVOK"
"taf	RKSI	2020-10-20 00:06:00	TAF RKSI 202300Z 2100/2206 17012KT 8000 FEW030 BKN180 TX18/2106Z TN13/2120Z TX17/2205Z \n BECMG 2107/2108 FEW010 BKN025 OVC100 \n BECMG 2114/2115 21008KT 4000 -RA \n BECMG 2118/2119 32008KT BR \n BECMG 2122/2123 6000 NSW SCT030 BKN180 \n BECMG 2202/2203 32015G25KT CAVOK"
"taf	RKSI	2020-10-20 06:00:00	TAF RKSI 200500Z 2006/2112 31006KT 8000 NSC TN13/2016Z TX19/2104Z \n BECMG 2011/2012 07006KT \n BECMG 2018/2019 16010KT FEW030 BKN120 \n BECMG 2105/2106 18015G25KT \n BECMG 2107/2108 FEW010 BKN025 BKN100"
"taf	RKSI	2020-10-20 06:09:00	TAF RKSI 200500Z 2006/2112 31006KT 8000 NSC TN13/2016Z TX19/2104Z \n BECMG 2011/2012 07006KT \n BECMG 2018/2019 16010KT FEW030 BKN120 \n BECMG 2105/2106 18015G25KT \n BECMG 2107/2108 FEW010 BKN025 BKN100"
"taf	RKSI	2020-10-20 12:00:00	TAF RKSI 201100Z 2012/2118 07006KT 8000 NSC TN13/2016Z TX18/2104Z \n BECMG 2018/2019 16010KT FEW030 BKN120 \n BECMG 2104/2105 18015G25KT \n BECMG 2107/2108 18010KT SCT010 BKN025 OVC100 \n BECMG 2114/2115 24010KT -RA \n BECMG 2116/2117 33008KT 4000"
"taf	RKSI	2020-10-20 12:06:00	TAF RKSI 201100Z 2012/2118 07006KT 8000 NSC TN13/2016Z TX18/2104Z \n BECMG 2018/2019 16010KT FEW030 BKN120 \n BECMG 2104/2105 18015G25KT \n BECMG 2107/2108 18010KT SCT010 BKN025 OVC100 \n BECMG 2114/2115 24010KT -RA \n BECMG 2116/2117 33008KT 4000"
"taf	RKSI	2020-10-20 18:00:00	TAF RKSI 201700Z 2018/2124 16008KT 7000 FEW030 BKN120 TN13/2020Z TX18/2104Z TN13/2120Z \n BECMG 2103/2104 17015G25KT \n BECMG 2107/2108 18010KT SCT010 BKN025 OVC100 \n BECMG 2114/2115 24008KT 4000 -RA \n BECMG 2118/2119 33008KT BR \n BECMG 2121/2122 6000 NSW SCT030 BKN180"
"taf	RKSI	2020-10-20 18:06:00	TAF RKSI 201700Z 2018/2124 16008KT 7000 FEW030 BKN120 TN13/2020Z TX18/2104Z TN13/2120Z \n BECMG 2103/2104 17015G25KT \n BECMG 2107/2108 18010KT SCT010 BKN025 OVC100 \n BECMG 2114/2115 24008KT 4000 -RA \n BECMG 2118/2119 33008KT BR \n BECMG 2121/2122 6000 NSW SCT030 BKN180"
"taf	RKSI	2020-10-21 00:00:00	TAF RKSI 212300Z 2200/2306 23006KT 3000 BR FEW010 SCT030 TX16/2203Z TN05/2221Z TX12/2305Z \n BECMG 2201/2202 31008KT 6000 NSW \n BECMG 2203/2204 33017G30KT CAVOK"
"taf	RKSI	2020-10-21 00:06:00	TAF RKSI 212300Z 2200/2306 23006KT 3000 BR FEW010 SCT030 TX16/2203Z TN05/2221Z TX12/2305Z \n BECMG 2201/2202 31008KT 6000 NSW \n BECMG 2203/2204 33017G30KT CAVOK"
"taf	RKSI	2020-10-21 06:00:00	TAF RKSI 210500Z 2106/2212 17010KT 6000 BKN025 OVC100 TN11/2122Z TX17/2204Z \n TEMPO 2109/2110 -RA \n BECMG 2114/2115 20007KT 4000 -RA SCT010 BKN025 \n BECMG 2118/2119 31008KT 6000 NSW \n BECMG 2122/2123 SCT030 BKN180 \n BECMG 2202/2203 32015G25KT CAVOK"
"taf	RKSI	2020-10-21 06:06:00	TAF RKSI 210500Z 2106/2212 17010KT 6000 BKN025 OVC100 TN11/2122Z TX17/2204Z \n TEMPO 2109/2110 -RA \n BECMG 2114/2115 20007KT 4000 -RA SCT010 BKN025 \n BECMG 2118/2119 31008KT 6000 NSW \n BECMG 2122/2123 SCT030 BKN180 \n BECMG 2202/2203 32015G25KT CAVOK"
"taf	RKSI	2020-10-21 12:00:00	TAF RKSI 211100Z 2112/2218 16008KT 7000 SCT025 BKN120 TN11/2122Z TX17/2205Z \n BECMG 2115/2116 20008KT 4000 -RA SCT010 BKN025 \n BECMG 2119/2120 31008KT 6000 NSW \n BECMG 2122/2123 SCT030 BKN180 \n BECMG 2203/2204 32015G25KT CAVOK"
"taf	RKSI	2020-10-21 12:06:00	TAF RKSI 211100Z 2112/2218 16008KT 7000 SCT025 BKN120 TN11/2122Z TX17/2205Z \n BECMG 2115/2116 20008KT 4000 -RA SCT010 BKN025 \n BECMG 2119/2120 31008KT 6000 NSW \n BECMG 2122/2123 SCT030 BKN180 \n BECMG 2203/2204 32015G25KT CAVOK"
"taf	RKSI	2020-10-21 12:09:00	TAF RKSI 211100Z 2112/2218 16008KT 7000 SCT025 BKN120 TN11/2122Z TX17/2205Z \n BECMG 2115/2116 20008KT 4000 -RA SCT010 BKN025 \n BECMG 2119/2120 31008KT 6000 NSW \n BECMG 2122/2123 SCT030 BKN180 \n BECMG 2203/2204 32015G25KT CAVOK"
"taf	RKSI	2020-10-21 18:00:00	TAF RKSI 211700Z 2118/2224 23008KT 6000 -RA FEW010 BKN020 OVC100 TN12/2122Z TX16/2203Z TN05/2221Z \n BECMG 2119/2120 31008KT NSW SCT025 \n BECMG 2203/2204 33017G30KT CAVOK"
"taf	RKSI	2020-10-21 18:09:00	TAF RKSI 211700Z 2118/2224 23008KT 6000 -RA FEW010 BKN020 OVC100 TN12/2122Z TX16/2203Z TN05/2221Z \n BECMG 2119/2120 31008KT NSW SCT025 \n BECMG 2203/2204 33017G30KT CAVOK"
"taf	RKSI	2020-10-21 20:10:00	TAF \n AMD RKSI 212010Z 2120/2224 23008KT 3000 -RA FEW010 BKN020 OVC100 TN12/2122Z TX16/2203Z TN05/2221Z \n BECMG 2121/2122 31008KT 6000 NSW SCT025 \n BECMG 2203/2204 33017G30KT CAVOK"
"taf	RKSI	2020-10-21 20:12:00	TAF \n AMD TAF \n AMD RKSI 212010Z 2120/2224 23008KT 3000 -RA FEW010 BKN020 OVC100 TN12/2122Z TX16/2203Z TN05/2221Z \n BECMG 2121/2122 31008KT 6000 NSW SCT025 \n BECMG 2203/2204 33017G30KT CAVOK"
"taf	RKSI	2020-10-21 22:55:00	TAF \n AMD RKSI 212155Z 2122/2224 23008KT 3000 BR FEW010 SCT030 TX16/2203Z TN05/2221Z \n BECMG 2123/2124 31008KT 6000 NSW \n BECMG 2203/2204 33017G30KT CAVOK"
"taf	RKSI	2020-10-21 22:57:00	TAF \n AMD TAF \n AMD RKSI 212155Z 2122/2224 23008KT 3000 BR FEW010 SCT030 TX16/2203Z TN05/2221Z \n BECMG 2123/2124 31008KT 6000 NSW \n BECMG 2203/2204 33017G30KT CAVOK"
"taf	RKSI	2020-10-22 00:00:00	TAF RKSI 222300Z 2300/2406 33017G27KT CAVOK TX13/2305Z TN04/2321Z TX13/2405Z \n BECMG 2323/2324 33020G37KT \n BECMG 2404/2405 32015G25KT"
"taf	RKSI	2020-10-22 00:09:00	TAF RKSI 222300Z 2300/2406 33017G27KT CAVOK TX13/2305Z TN04/2321Z TX13/2405Z \n BECMG 2323/2324 33020G37KT \n BECMG 2404/2405 32015G25KT"
"taf	RKSI	2020-10-22 06:00:00	TAF RKSI 220500Z 2206/2312 32017G30KT CAVOK TN06/2221Z TX13/2306Z"
"taf	RKSI	2020-10-22 06:09:00	TAF RKSI 220500Z 2206/2312 32017G30KT CAVOK TN06/2221Z TX13/2306Z"
"taf	RKSI	2020-10-22 12:00:00	TAF RKSI 221100Z 2212/2318 32025G37KT CAVOK TN06/2221Z TX13/2306Z \n BECMG 2221/2222 33017G27KT \n BECMG 2308/2309 32022G37KT"
"taf	RKSI	2020-10-22 12:09:00	TAF RKSI 221100Z 2212/2318 32025G37KT CAVOK TN06/2221Z TX13/2306Z \n BECMG 2221/2222 33017G27KT \n BECMG 2308/2309 32022G37KT"
"taf	RKSI	2020-10-22 18:00:00	TAF RKSI 221700Z 2218/2324 33017G27KT CAVOK TN06/2221Z TX13/2306Z TN04/2321Z \n BECMG 2322/2323 33020G37KT"
"taf	RKSI	2020-10-22 18:06:00	TAF RKSI 221700Z 2218/2324 33017G27KT CAVOK TN06/2221Z TX13/2306Z TN04/2321Z \n BECMG 2322/2323 33020G37KT"
"taf	RKSI	2020-10-23 00:00:00	TAF RKSI 232300Z 2400/2506 32015G25KT CAVOK TX15/2406Z TN10/2421Z TX18/2505Z \n BECMG 2408/2409 31010KT \n BECMG 2415/2416 07005KT \n BECMG 2500/2501 29006KT 9999 FEW030 BKN180"
"taf	RKSI	2020-10-23 00:09:00	TAF RKSI 232300Z 2400/2506 32015G25KT CAVOK TX15/2406Z TN10/2421Z TX18/2505Z \n BECMG 2408/2409 31010KT \n BECMG 2415/2416 07005KT \n BECMG 2500/2501 29006KT 9999 FEW030 BKN180"
"taf	RKSI	2020-10-23 06:00:00	TAF RKSI 230500Z 2306/2412 33015G25KT CAVOK TN05/2321Z TX14/2405Z \n BECMG 2321/2322 32020G35KT \n BECMG 2401/2402 31015G25KT \n BECMG 2407/2408 31012KT"
"taf	RKSI	2020-10-23 06:09:00	TAF RKSI 230500Z 2306/2412 33015G25KT CAVOK TN05/2321Z TX14/2405Z \n BECMG 2321/2322 32020G35KT \n BECMG 2401/2402 31015G25KT \n BECMG 2407/2408 31012KT"
"taf	RKSI	2020-10-23 12:00:00	TAF RKSI 231100Z 2312/2418 33015G25KT CAVOK TN05/2321Z TX14/2405Z \n BECMG 2321/2322 32022G35KT \n BECMG 2401/2402 31015G25KT \n BECMG 2407/2408 30010KT \n BECMG 2415/2416 02006KT"
"taf	RKSI	2020-10-23 12:09:00	TAF RKSI 231100Z 2312/2418 33015G25KT CAVOK TN05/2321Z TX14/2405Z \n BECMG 2321/2322 32022G35KT \n BECMG 2401/2402 31015G25KT \n BECMG 2407/2408 30010KT \n BECMG 2415/2416 02006KT"
"taf	RKSI	2020-10-23 18:00:00	TAF RKSI 231700Z 2318/2424 32015G25KT CAVOK TN05/2321Z TX15/2406Z TN09/2421Z \n TEMPO 2321/2324 33020G35KT \n BECMG 2408/2409 31010KT \n BECMG 2415/2416 07005KT"
"taf	RKSI	2020-10-23 18:09:00	TAF RKSI 231700Z 2318/2424 32015G25KT CAVOK TN05/2321Z TX15/2406Z TN09/2421Z \n TEMPO 2321/2324 33020G35KT \n BECMG 2408/2409 31010KT \n BECMG 2415/2416 07005KT"
"taf	RKSI	2020-10-24 00:00:00	TAF RKSI 242300Z 2500/2606 29007KT 9999 FEW030 BKN160 TX18/2505Z TN10/2521Z TX18/2605Z \n BECMG 2521/2522 07005KT 6000 \n BECMG 2602/2603 28006KT"
"taf	RKSI	2020-10-24 00:06:00	TAF RKSI 242300Z 2500/2606 29007KT 9999 FEW030 BKN160 TX18/2505Z TN10/2521Z TX18/2605Z \n BECMG 2521/2522 07005KT 6000 \n BECMG 2602/2603 28006KT"
"taf	RKSI	2020-10-24 06:00:00	TAF RKSI 240500Z 2406/2512 31015G25KT CAVOK TN10/2421Z TX18/2505Z \n BECMG 2408/2409 31010KT \n BECMG 2415/2416 05005KT \n BECMG 2502/2503 28010KT 9999 FEW030 BKN180"
"taf	RKSI	2020-10-24 06:09:00	TAF RKSI 240500Z 2406/2512 31015G25KT CAVOK TN10/2421Z TX18/2505Z \n BECMG 2408/2409 31010KT \n BECMG 2415/2416 05005KT \n BECMG 2502/2503 28010KT 9999 FEW030 BKN180"
"taf	RKSI	2020-10-24 12:00:00	TAF RKSI 241100Z 2412/2518 31007KT CAVOK TN09/2421Z TX18/2505Z \n BECMG 2421/2422 07006KT \n BECMG 2502/2503 28007KT 9999 FEW030 BKN180"
"taf	RKSI	2020-10-24 12:06:00	TAF RKSI 241100Z 2412/2518 31007KT CAVOK TN09/2421Z TX18/2505Z \n BECMG 2421/2422 07006KT \n BECMG 2502/2503 28007KT 9999 FEW030 BKN180"
"taf	RKSI	2020-10-24 18:00:00	TAF RKSI 241700Z 2418/2524 32007KT CAVOK TN10/2421Z TX18/2505Z TN10/2521Z \n BECMG 2420/2421 07005KT \n BECMG 2500/2501 29007KT 9999 FEW030 BKN160 \n BECMG 2521/2522 07005KT"
"taf	RKSI	2020-10-24 18:06:00	TAF RKSI 241700Z 2418/2524 32007KT CAVOK TN10/2421Z TX18/2505Z TN10/2521Z \n BECMG 2420/2421 07005KT \n BECMG 2500/2501 29007KT 9999 FEW030 BKN160 \n BECMG 2521/2522 07005KT"
"taf	RKSI	2020-10-25 00:00:00	TAF RKSI 252300Z 2600/2706 28006KT CAVOK TX18/2605Z TN10/2621Z TX18/2705Z \n BECMG 2617/2618 32005KT 4000 BR NSC \n BECMG 2619/2620 06005KT 1500 \n BECMG 2623/2624 13006KT 4000 \n BECMG 2701/2702 6000 NSW \n BECMG 2703/2704 27006KT CAVOK"
"taf	RKSI	2020-10-25 00:06:00	TAF RKSI 252300Z 2600/2706 28006KT CAVOK TX18/2605Z TN10/2621Z TX18/2705Z \n BECMG 2617/2618 32005KT 4000 BR NSC \n BECMG 2619/2620 06005KT 1500 \n BECMG 2623/2624 13006KT 4000 \n BECMG 2701/2702 6000 NSW \n BECMG 2703/2704 27006KT CAVOK"
"taf	RKSI	2020-10-25 06:00:00	TAF RKSI 250500Z 2506/2612 31008KT CAVOK TN10/2521Z TX18/2605Z \n BECMG 2521/2522 07005KT 6000 NSC \n BECMG 2602/2603 28006KT CAVOK"
"taf	RKSI	2020-10-25 06:06:00	TAF RKSI 250500Z 2506/2612 31008KT CAVOK TN10/2521Z TX18/2605Z \n BECMG 2521/2522 07005KT 6000 NSC \n BECMG 2602/2603 28006KT CAVOK"
"taf	RKSI	2020-10-25 12:00:00	TAF RKSI 251100Z 2512/2618 29006KT CAVOK TN10/2521Z TX18/2605Z \n BECMG 2520/2521 07006KT 6000 NSC \n BECMG 2602/2603 28006KT CAVOK \n BECMG 2617/2618 32005KT 4000 BR NSC"
"taf	RKSI	2020-10-25 12:06:00	TAF RKSI 251100Z 2512/2618 29006KT CAVOK TN10/2521Z TX18/2605Z \n BECMG 2520/2521 07006KT 6000 NSC \n BECMG 2602/2603 28006KT CAVOK \n BECMG 2617/2618 32005KT 4000 BR NSC"
"taf	RKSI	2020-10-25 18:00:00	TAF RKSI 251700Z 2518/2624 07006KT 6000 NSC TN10/2521Z TX19/2605Z TN10/2621Z \n BECMG 2602/2603 28006KT CAVOK \n BECMG 2617/2618 32005KT 4000 BR NSC \n BECMG 2619/2620 06005KT 2000 \n BECMG 2621/2622 12006KT 4000 \n BECMG 2623/2624 6000 NSW"
"taf	RKSI	2020-10-25 18:09:00	TAF RKSI 251700Z 2518/2624 07006KT 6000 NSC TN10/2521Z TX19/2605Z TN10/2621Z \n BECMG 2602/2603 28006KT CAVOK \n BECMG 2617/2618 32005KT 4000 BR NSC \n BECMG 2619/2620 06005KT 2000 \n BECMG 2621/2622 12006KT 4000 \n BECMG 2623/2624 6000 NSW"
"taf	RKSI	2020-10-26 00:00:00	TAF RKSI 262300Z 2700/2806 14005KT 3000 BR NSC TX18/2705Z TN10/2722Z TX16/2805Z \n BECMG 2702/2703 26006KT 6000 NSW \n BECMG 2713/2714 33010KT 4000 BR BKN030 \n BECMG 2718/2719 6000 NSW SCT030 \n BECMG 2800/2801 33015G25KT CAVOK"
"taf	RKSI	2020-10-26 00:09:00	TAF RKSI 262300Z 2700/2806 14005KT 3000 BR NSC TX18/2705Z TN10/2722Z TX16/2805Z \n BECMG 2702/2703 26006KT 6000 NSW \n BECMG 2713/2714 33010KT 4000 BR BKN030 \n BECMG 2718/2719 6000 NSW SCT030 \n BECMG 2800/2801 33015G25KT CAVOK"
"taf	RKSI	2020-10-26 06:00:00	TAF RKSI 260500Z 2606/2712 28007KT CAVOK TN10/2621Z TX18/2705Z \n BECMG 2617/2618 32005KT 4000 BR NSC \n BECMG 2619/2620 06005KT 0800 FG BKN001 \n BECMG 2623/2624 13006KT 2500 BR NSC \n BECMG 2701/2702 6000 NSW \n BECMG 2703/2704 28006KT CAVOK"
"taf	RKSI	2020-10-26 06:06:00	TAF RKSI 260500Z 2606/2712 28007KT CAVOK TN10/2621Z TX18/2705Z \n BECMG 2617/2618 32005KT 4000 BR NSC \n BECMG 2619/2620 06005KT 0800 FG BKN001 \n BECMG 2623/2624 13006KT 2500 BR NSC \n BECMG 2701/2702 6000 NSW \n BECMG 2703/2704 28006KT CAVOK"
"taf	RKSI	2020-10-26 12:00:00	TAF RKSI 261100Z 2612/2718 27005KT CAVOK TN10/2621Z TX18/2705Z \n BECMG 2617/2618 33005KT 4000 BR NSC \n BECMG 2619/2620 06005KT 1200 \n BECMG 2623/2624 13006KT 3000 \n BECMG 2702/2703 27007KT 6000 NSW \n BECMG 2714/2715 33010KT BKN030"
"taf	RKSI	2020-10-26 12:09:00	TAF RKSI 261100Z 2612/2718 27005KT CAVOK TN10/2621Z TX18/2705Z \n BECMG 2617/2618 33005KT 4000 BR NSC \n BECMG 2619/2620 06005KT 1200 \n BECMG 2623/2624 13006KT 3000 \n BECMG 2702/2703 27007KT 6000 NSW \n BECMG 2714/2715 33010KT BKN030"
"taf	RKSI	2020-10-26 18:00:00	TAF RKSI 261700Z 2618/2724 07005KT 3000 BR FEW010 TN10/2621Z TX18/2705Z TN10/2722Z \n BECMG 2620/2621 1200 \n BECMG 2623/2624 13006KT 3000 NSC \n BECMG 2702/2703 26007KT 6000 NSW \n BECMG 2713/2714 33011KT 4000 BR BKN030 \n BECMG 2718/2719 6000 NSW SCT030"
"taf	RKSI	2020-10-26 18:06:00	TAF RKSI 261700Z 2618/2724 07005KT 3000 BR FEW010 TN10/2621Z TX18/2705Z TN10/2722Z \n BECMG 2620/2621 1200 \n BECMG 2623/2624 13006KT 3000 NSC \n BECMG 2702/2703 26007KT 6000 NSW \n BECMG 2713/2714 33011KT 4000 BR BKN030 \n BECMG 2718/2719 6000 NSW SCT030"
"taf	RKSI	2020-10-26 19:18:00	TAF \n AMD TAF \n AMD RKSI 261920Z 2619/2724 07005KT 2000 BR FEW010 TN09/2621Z TX18/2705Z TN10/2722Z \n BECMG 2620/2621 0400 FG BKN001 \n BECMG 2623/2624 13006KT 3000 BR NSC \n BECMG 2702/2703 26007KT 6000 NSW \n BECMG 2713/2714 33011KT 4000 BR BKN030 \n BECMG 2718/2719 6000 NSW SCT030"
"taf	RKSI	2020-10-26 19:20:00	TAF \n AMD RKSI 261920Z 2619/2724 07005KT 2000 BR FEW010 TN09/2621Z TX18/2705Z TN10/2722Z \n BECMG 2620/2621 0400 FG BKN001 \n BECMG 2623/2624 13006KT 3000 BR NSC \n BECMG 2702/2703 26007KT 6000 NSW \n BECMG 2713/2714 33011KT 4000 BR BKN030 \n BECMG 2718/2719 6000 NSW SCT030"
"taf	RKSI	2020-10-27 00:00:00	TAF RKSI 272300Z 2800/2906 33010KT 6000 NSC TX16/2805Z TN06/2821Z TX15/2904Z \n BECMG 2802/2803 33015G25KT CAVOK \n BECMG 2814/2815 34010KT"
"taf	RKSI	2020-10-27 00:06:00	TAF RKSI 272300Z 2800/2906 33010KT 6000 NSC TX16/2805Z TN06/2821Z TX15/2904Z \n BECMG 2802/2803 33015G25KT CAVOK \n BECMG 2814/2815 34010KT"
"taf	RKSI	2020-10-27 06:00:00	TAF RKSI 270500Z 2706/2812 26006KT 6000 NSC TN10/2722Z TX16/2805Z \n BECMG 2714/2715 33010KT 4000 BR BKN030 \n BECMG 2718/2719 6000 NSW SCT030 \n BECMG 2800/2801 33015G25KT CAVOK \n BECMG 2809/2810 34010KT"
"taf	RKSI	2020-10-27 06:06:00	TAF RKSI 270500Z 2706/2812 26006KT 6000 NSC TN10/2722Z TX16/2805Z \n BECMG 2714/2715 33010KT 4000 BR BKN030 \n BECMG 2718/2719 6000 NSW SCT030 \n BECMG 2800/2801 33015G25KT CAVOK \n BECMG 2809/2810 34010KT"
"taf	RKSI	2020-10-27 12:00:00	TAF RKSI 271100Z 2712/2818 28006KT 6000 NSC TN10/2722Z TX16/2805Z \n BECMG 2714/2715 34010KT 4000 BR BKN030 \n BECMG 2718/2719 6000 NSW SCT030 \n BECMG 2800/2801 33015G25KT CAVOK \n BECMG 2809/2810 34010KT"
"taf	RKSI	2020-10-27 12:06:00	TAF RKSI 271100Z 2712/2818 28006KT 6000 NSC TN10/2722Z TX16/2805Z \n BECMG 2714/2715 34010KT 4000 BR BKN030 \n BECMG 2718/2719 6000 NSW SCT030 \n BECMG 2800/2801 33015G25KT CAVOK \n BECMG 2809/2810 34010KT"
"taf	RKSI	2020-10-27 18:00:00	TAF RKSI 271700Z 2718/2824 33010KT 6000 SCT030 BKN200 TN11/2721Z TX16/2805Z TN05/2821Z \n BECMG 2800/2801 33015G25KT CAVOK \n BECMG 2814/2815 34010KT"
"taf	RKSI	2020-10-27 18:06:00	TAF RKSI 271700Z 2718/2824 33010KT 6000 SCT030 BKN200 TN11/2721Z TX16/2805Z TN05/2821Z \n BECMG 2800/2801 33015G25KT CAVOK \n BECMG 2814/2815 34010KT"
"taf	RKSI	2020-10-28 00:00:00	TAF RKSI 282300Z 2900/3006 35010KT CAVOK TX15/2904Z TN06/2921Z TX16/3005Z \n BECMG 2905/2906 35015G25KT \n BECMG 2913/2914 01007KT"
"taf	RKSI	2020-10-28 00:09:00	TAF RKSI 282300Z 2900/3006 35010KT CAVOK TX15/2904Z TN06/2921Z TX16/3005Z \n BECMG 2905/2906 35015G25KT \n BECMG 2913/2914 01007KT"
"taf	RKSI	2020-10-28 06:00:00	TAF RKSI 280500Z 2806/2912 33015G25KT CAVOK TN06/2821Z TX16/2905Z \n BECMG 2814/2815 34010KT"
"taf	RKSI	2020-10-28 06:09:00	TAF RKSI 280500Z 2806/2912 33015G25KT CAVOK TN06/2821Z TX16/2905Z \n BECMG 2814/2815 34010KT"
"taf	RKSI	2020-10-28 12:00:00	TAF RKSI 281100Z 2812/2918 34010KT CAVOK TN06/2821Z TX16/2904Z \n BECMG 2915/2916 04006KT"
"taf	RKSI	2020-10-28 12:09:00	TAF RKSI 281100Z 2812/2918 34010KT CAVOK TN06/2821Z TX16/2904Z \n BECMG 2915/2916 04006KT"
"taf	RKSI	2020-10-28 18:00:00	TAF RKSI 281700Z 2818/2924 35010KT CAVOK TN06/2821Z TX15/2904Z TN06/2921Z \n BECMG 2903/2904 35015G25KT \n BECMG 2914/2915 01008KT"
"taf	RKSI	2020-10-28 18:09:00	TAF RKSI 281700Z 2818/2924 35010KT CAVOK TN06/2821Z TX15/2904Z TN06/2921Z \n BECMG 2903/2904 35015G25KT \n BECMG 2914/2915 01008KT"
"taf	RKSI	2020-10-29 00:00:00	TAF RKSI 292300Z 3000/3106 07007KT CAVOK TX17/3005Z TN08/3016Z TX17/3106Z \n BECMG 3004/3005 33007KT \n BECMG 3010/3011 07007KT \n BECMG 3016/3017 13010KT 9999 SCT030 BKN150 \n BECMG 3101/3102 19010KT \n BECMG 3103/3104 BKN025 BKN100"
"taf	RKSI	2020-10-29 00:09:00	TAF RKSI 292300Z 3000/3106 07007KT CAVOK TX17/3005Z TN08/3016Z TX17/3106Z \n BECMG 3004/3005 33007KT \n BECMG 3010/3011 07007KT \n BECMG 3016/3017 13010KT 9999 SCT030 BKN150 \n BECMG 3101/3102 19010KT \n BECMG 3103/3104 BKN025 BKN100"
"taf	RKSI	2020-10-29 06:00:00	TAF RKSI 290500Z 2906/3012 33010KT CAVOK TN06/2921Z TX16/3005Z \n BECMG 2919/2920 03005KT \n BECMG 3003/3004 32010KT \n BECMG 3010/3011 07005KT"
"taf	RKSI	2020-10-29 06:06:00	TAF RKSI 290500Z 2906/3012 33010KT CAVOK TN06/2921Z TX16/3005Z \n BECMG 2919/2920 03005KT \n BECMG 3003/3004 32010KT \n BECMG 3010/3011 07005KT"
"taf	RKSI	2020-10-29 12:00:00	TAF RKSI 291100Z 2912/3018 34010KT CAVOK TN07/2921Z TX17/3005Z \n BECMG 2919/2920 04006KT \n BECMG 3003/3004 31010KT \n BECMG 3010/3011 06005KT \n BECMG 3015/3016 13008KT"
"taf	RKSI	2020-10-29 12:06:00	TAF RKSI 291100Z 2912/3018 34010KT CAVOK TN07/2921Z TX17/3005Z \n BECMG 2919/2920 04006KT \n BECMG 3003/3004 31010KT \n BECMG 3010/3011 06005KT \n BECMG 3015/3016 13008KT"
"taf	RKSI	2020-10-29 18:00:00	TAF RKSI 291700Z 2918/3024 36007KT CAVOK TN06/2921Z TX17/3005Z TN08/3016Z \n BECMG 2923/2924 07006KT \n BECMG 3003/3004 33007KT \n BECMG 3010/3011 07007KT \n BECMG 3016/3017 13010KT 9999 SCT030 BKN150"
"taf	RKSI	2020-10-29 18:09:00	TAF RKSI 291700Z 2918/3024 36007KT CAVOK TN06/2921Z TX17/3005Z TN08/3016Z \n BECMG 2923/2924 07006KT \n BECMG 3003/3004 33007KT \n BECMG 3010/3011 07007KT \n BECMG 3016/3017 13010KT 9999 SCT030 BKN150"
"taf	RKSI	2020-10-30 00:00:00	TAF RKSI 302300Z 3100/0106 13013KT CAVOK TX17/3105Z TN13/3115Z TX16/0105Z \n BECMG 3101/3102 19013KT 9999 SCT030 BKN160 \n BECMG 3104/3105 22015G25KT BKN025 BKN100 \n BECMG 3121/3122 25013KT 3000 -RA SCT010 BKN020 OVC100 \n BECMG 0103/0104 26015G25KT 6000"
"taf	RKSI	2020-10-30 00:06:00	TAF RKSI 302300Z 3100/0106 13013KT CAVOK TX17/3105Z TN13/3115Z TX16/0105Z \n BECMG 3101/3102 19013KT 9999 SCT030 BKN160 \n BECMG 3104/3105 22015G25KT BKN025 BKN100 \n BECMG 3121/3122 25013KT 3000 -RA SCT010 BKN020 OVC100 \n BECMG 0103/0104 26015G25KT 6000"
"taf	RKSI	2020-10-30 06:00:00	TAF RKSI 300500Z 3006/3112 33006KT CAVOK TN09/3015Z TX17/3105Z \n BECMG 3014/3015 13009KT \n BECMG 3100/3101 19010KT 9999 SCT030 BKN160 \n BECMG 3105/3106 20015G25KT BKN025 BKN120 \n BECMG 3109/3110 20010KT"
"taf	RKSI	2020-10-30 06:09:00	TAF RKSI 300500Z 3006/3112 33006KT CAVOK TN09/3015Z TX17/3105Z \n BECMG 3014/3015 13009KT \n BECMG 3100/3101 19010KT 9999 SCT030 BKN160 \n BECMG 3105/3106 20015G25KT BKN025 BKN120 \n BECMG 3109/3110 20010KT"
"taf	RKSI	2020-10-30 12:00:00	TAF RKSI 301100Z 3012/3118 06006KT CAVOK TN09/3014Z TX17/3105Z \n BECMG 3014/3015 13008KT 6000 NSC \n BECMG 3100/3101 19010KT 9999 SCT030 BKN160 \n BECMG 3104/3105 20015G25KT BKN025 BKN120 \n BECMG 3107/3108 20010KT"
"taf	RKSI	2020-10-30 12:09:00	TAF RKSI 301100Z 3012/3118 06006KT CAVOK TN09/3014Z TX17/3105Z \n BECMG 3014/3015 13008KT 6000 NSC \n BECMG 3100/3101 19010KT 9999 SCT030 BKN160 \n BECMG 3104/3105 20015G25KT BKN025 BKN120 \n BECMG 3107/3108 20010KT"
"taf	RKSI	2020-10-31 00:00:00	TAF RKSI 312300Z 0100/0206 21015G25KT 6000 -RA SCT010 BKN025 OVC070 TX17/0103Z TN07/0122Z TX14/0206Z \n TEMPO 0101/0103 4000 RA \n BECMG 0107/0108 27008KT NSW SCT030 BKN150 \n BECMG 0111/0112 33010KT \n BECMG 0121/0122 03005KT \n BECMG 0201/0202 32010KT CAVOK"
"taf	RKSI	2020-10-31 00:06:00	TAF RKSI 312300Z 0100/0206 21015G25KT 6000 -RA SCT010 BKN025 OVC070 TX17/0103Z TN07/0122Z TX14/0206Z \n TEMPO 0101/0103 4000 RA \n BECMG 0107/0108 27008KT NSW SCT030 BKN150 \n BECMG 0111/0112 33010KT \n BECMG 0121/0122 03005KT \n BECMG 0201/0202 32010KT CAVOK"
"taf	RKSI	2020-10-31 06:00:00	TAF RKSI 310500Z 3106/0112 22013G25KT 9999 BKN025 BKN120 TN13/3121Z TX17/0105Z \n BECMG 3121/3122 6000 -RA SCT010 BKN020 OVC100 \n BECMG 3123/3124 26010KT 3000 \n BECMG 0103/0104 6000 \n BECMG 0106/0107 NSW FEW030 BKN120 \n BECMG 0110/0111 32010KT"
"taf	RKSI	2020-10-31 06:06:00	TAF RKSI 310500Z 3106/0112 22013G25KT 9999 BKN025 BKN120 TN13/3121Z TX17/0105Z \n BECMG 3121/3122 6000 -RA SCT010 BKN020 OVC100 \n BECMG 3123/3124 26010KT 3000 \n BECMG 0103/0104 6000 \n BECMG 0106/0107 NSW FEW030 BKN120 \n BECMG 0110/0111 32010KT"
"taf	RKSI	2020-10-31 12:00:00	TAF RKSI 311100Z 3112/0118 21012KT 6000 BKN025 OVC100 TN13/3121Z TX17/0105Z \n BECMG 3116/3117 -RA SCT010 BKN020 OVC100 \n BECMG 3123/3124 26010KT 3000 \n BECMG 0103/0104 6000 \n BECMG 0106/0107 NSW FEW030 BKN120 \n BECMG 0110/0111 32010KT"
"taf	RKSI	2020-10-31 12:09:00	TAF RKSI 311100Z 3112/0118 21012KT 6000 BKN025 OVC100 TN13/3121Z TX17/0105Z \n BECMG 3116/3117 -RA SCT010 BKN020 OVC100 \n BECMG 3123/3124 26010KT 3000 \n BECMG 0103/0104 6000 \n BECMG 0106/0107 NSW FEW030 BKN120 \n BECMG 0110/0111 32010KT"
"taf	RKSI	2020-10-31 18:00:00	TAF RKSI 311700Z 3118/0124 21010KT 6000 -RA SCT010 BKN025 OVC080 TN13/3121Z TX17/0103Z TN07/0122Z \n TEMPO 3122/0104 21015G25KT 4000 \n BECMG 0107/0108 27008KT NSW FEW030 BKN150 \n BECMG 0111/0112 33010KT \n BECMG 0121/0122 03005KT"
"taf	RKSI	2020-10-31 18:09:00	TAF RKSI 311700Z 3118/0124 21010KT 6000 -RA SCT010 BKN025 OVC080 TN13/3121Z TX17/0103Z TN07/0122Z \n TEMPO 3122/0104 21015G25KT 4000 \n BECMG 0107/0108 27008KT NSW FEW030 BKN150 \n BECMG 0111/0112 33010KT \n BECMG 0121/0122 03005KT"
"taf	RKSI	2020-11-01 00:00:00	TAF RKSI 012300Z 0200/0306 33010KT CAVOK TX15/0206Z TN03/0222Z TX10/0303Z \n BECMG 0206/0207 27007KT \n BECMG 0211/0212 33015G25KT 9999 BKN030 OVC100 \n TEMPO 0213/0216 6000 -RA \n BECMG 0219/0220 34010KT SCT030 \n BECMG 0301/0302 31020G35KT"
"taf	RKSI	2020-11-01 00:09:00	TAF RKSI 012300Z 0200/0306 33010KT CAVOK TX15/0206Z TN03/0222Z TX10/0303Z \n BECMG 0206/0207 27007KT \n BECMG 0211/0212 33015G25KT 9999 BKN030 OVC100 \n TEMPO 0213/0216 6000 -RA \n BECMG 0219/0220 34010KT SCT030 \n BECMG 0301/0302 31020G35KT"
"taf	RKSI	2020-11-01 03:09:00	TAF \n AMD TAF \n AMD RKSI 010310Z 0103/0206 26010KT 4000 -RA SCT010 BKN025 OVC070 TX17/0105Z TN07/0122Z TX14/0206Z \n TEMPO 0103/0105 23012KT 2000 \n BECMG 0107/0108 6000 NSW SCT030 BKN150 \n BECMG 0111/0112 33010KT \n BECMG 0121/0122 03005KT \n BECMG 0201/0202 32010KT CAVOK"
"taf	RKSI	2020-11-01 03:10:00	TAF \n AMD RKSI 010310Z 0103/0206 26010KT 4000 -RA SCT010 BKN025 OVC070 TX17/0105Z TN07/0122Z TX14/0206Z \n TEMPO 0103/0105 23012KT 2000 \n BECMG 0107/0108 6000 NSW SCT030 BKN150 \n BECMG 0111/0112 33010KT \n BECMG 0121/0122 03005KT \n BECMG 0201/0202 32010KT CAVOK"
"taf	RKSI	2020-11-01 03:39:00	TAF \n AMD TAF \n AMD RKSI 010240Z 0103/0206 26015G25KT 4000 -RA SCT010 BKN025 OVC070 TX17/0104Z TN07/0122Z TX14/0206Z \n TEMPO 0103/0104 RA \n BECMG 0107/0108 6000 NSW SCT030 BKN150 \n BECMG 0111/0112 33010KT \n BECMG 0121/0122 03005KT \n BECMG 0201/0202 32010KT CAVOK"
"taf	RKSI	2020-11-01 03:40:00	TAF \n AMD RKSI 010240Z 0103/0206 26015G25KT 4000 -RA SCT010 BKN025 OVC070 TX17/0104Z TN07/0122Z TX14/0206Z \n TEMPO 0103/0104 RA \n BECMG 0107/0108 6000 NSW SCT030 BKN150 \n BECMG 0111/0112 33010KT \n BECMG 0121/0122 03005KT \n BECMG 0201/0202 32010KT CAVOK"
"taf	RKSI	2020-11-01 06:00:00	TAF RKSI 010500Z 0106/0212 26008KT 3000 -RA SCT010 BKN030 OVC080 TN08/0122Z TX14/0206Z \n BECMG 0107/0108 33010KT 6000 NSW SCT030 BKN150 \n BECMG 0121/0122 03006KT \n BECMG 0201/0202 32010KT CAVOK \n BECMG 0205/0206 26007KT \n BECMG 0211/0212 9999 BKN030"
"taf	RKSI	2020-11-01 06:09:00	TAF RKSI 010500Z 0106/0212 26008KT 3000 -RA SCT010 BKN030 OVC080 TN08/0122Z TX14/0206Z \n BECMG 0107/0108 33010KT 6000 NSW SCT030 BKN150 \n BECMG 0121/0122 03006KT \n BECMG 0201/0202 32010KT CAVOK \n BECMG 0205/0206 26007KT \n BECMG 0211/0212 9999 BKN030"
"taf	RKSI	2020-11-01 08:15:00	TAF \n AMD TAF \n AMD RKSI 010815Z 0108/0212 27008KT 2500 BR SCT030 BKN150 TN08/0122Z TX14/0206Z \n BECMG 0112/0113 33010KT 6000 NSW \n BECMG 0121/0122 03006KT \n BECMG 0201/0202 32010KT CAVOK \n BECMG 0205/0206 26007KT \n BECMG 0211/0212 9999 BKN030"
"taf	RKSI	2020-11-01 12:00:00	TAF RKSI 011100Z 0112/0218 32010KT 6000 FEW030 BKN180 TN08/0122Z TX14/0206Z \n BECMG 0121/0122 03006KT \n BECMG 0201/0202 33010KT CAVOK \n BECMG 0205/0206 27010KT \n BECMG 0211/0212 33012KT 9999 BKN030 \n BECMG 0215/0216 33015G25KT SCT030"
"taf	RKSI	2020-11-01 12:09:00	TAF RKSI 011100Z 0112/0218 32010KT 6000 FEW030 BKN180 TN08/0122Z TX14/0206Z \n BECMG 0121/0122 03006KT \n BECMG 0201/0202 33010KT CAVOK \n BECMG 0205/0206 27010KT \n BECMG 0211/0212 33012KT 9999 BKN030 \n BECMG 0215/0216 33015G25KT SCT030"
"taf	RKSI	2020-11-01 18:00:00	TAF RKSI 011700Z 0118/0224 33007KT 9999 FEW030 SCT180 TN08/0122Z TX14/0206Z TN03/0222Z \n BECMG 0205/0206 27010KT CAVOK \n BECMG 0211/0212 33010KT 9999 BKN030 OVC100 \n TEMPO 0213/0217 33015G25KT 6000 -RA \n BECMG 0218/0219 SCT030"
"taf	RKSI	2020-11-01 18:09:00	TAF RKSI 011700Z 0118/0224 33007KT 9999 FEW030 SCT180 TN08/0122Z TX14/0206Z TN03/0222Z \n BECMG 0205/0206 27010KT CAVOK \n BECMG 0211/0212 33010KT 9999 BKN030 OVC100 \n TEMPO 0213/0217 33015G25KT 6000 -RA \n BECMG 0218/0219 SCT030"
"taf	RKSI	2020-11-02 00:00:00	TAF RKSI 022300Z 0300/0406 33015G25KT 9999 SCT030 TX09/0303Z TN01/0321Z TX10/0405Z \n BECMG 0302/0303 32020G35KT \n BECMG 0311/0312 33015G25KT \n BECMG 0315/0316 33010KT \n BECMG 0323/0324 07006KT \n BECMG 0402/0403 30007KT"
"taf	RKSI	2020-11-02 00:09:00	TAF RKSI 022300Z 0300/0406 33015G25KT 9999 SCT030 TX09/0303Z TN01/0321Z TX10/0405Z \n BECMG 0302/0303 32020G35KT \n BECMG 0311/0312 33015G25KT \n BECMG 0315/0316 33010KT \n BECMG 0323/0324 07006KT \n BECMG 0402/0403 30007KT"
"taf	RKSI	2020-11-02 06:00:00	TAF RKSI 020500Z 0206/0312 29010KT CAVOK TN03/0222Z TX09/0303Z \n BECMG 0211/0212 9999 FEW012 BKN030 OVC100 \n TEMPO 0213/0216 33015G25KT 6000 -RA \n BECMG 0216/0217 33015G25KT \n BECMG 0219/0220 34012KT SCT030 \n BECMG 0301/0302 32020G35KT"
"taf	RKSI	2020-11-02 06:09:00	TAF RKSI 020500Z 0206/0312 29010KT CAVOK TN03/0222Z TX09/0303Z \n BECMG 0211/0212 9999 FEW012 BKN030 OVC100 \n TEMPO 0213/0216 33015G25KT 6000 -RA \n BECMG 0216/0217 33015G25KT \n BECMG 0219/0220 34012KT SCT030 \n BECMG 0301/0302 32020G35KT"
"taf	RKSI	2020-11-02 12:00:00	TAF RKSI 021100Z 0212/0318 26008KT 9999 FEW012 BKN030 OVC100 TN03/0222Z TX09/0303Z \n TEMPO 0213/0216 33012KT 6000 -RA \n BECMG 0216/0217 33015G25KT \n BECMG 0219/0220 SCT030 \n BECMG 0301/0302 32020G35KT \n BECMG 0311/0312 33012KT"
"taf	RKSI	2020-11-02 12:06:00	TAF RKSI 021100Z 0212/0318 26008KT 9999 FEW012 BKN030 OVC100 TN03/0222Z TX09/0303Z \n TEMPO 0213/0216 33012KT 6000 -RA \n BECMG 0216/0217 33015G25KT \n BECMG 0219/0220 SCT030 \n BECMG 0301/0302 32020G35KT \n BECMG 0311/0312 33012KT"
"taf	RKSI	2020-11-02 14:36:00	TAF \n AMD TAF \n AMD RKSI 021337Z 0214/0318 33015G25KT 9999 FEW012 BKN030 OVC100 TN03/0222Z TX09/0303Z \n TEMPO 0214/0218 33020G35KT 6000 -RA \n BECMG 0219/0220 SCT030 \n BECMG 0301/0302 32020G35KT \n BECMG 0311/0312 33012KT"
"taf	RKSI	2020-11-02 14:37:00	TAF \n AMD RKSI 021337Z 0214/0318 33015G25KT 9999 FEW012 BKN030 OVC100 TN03/0222Z TX09/0303Z \n TEMPO 0214/0218 33020G35KT 6000 -RA \n BECMG 0219/0220 SCT030 \n BECMG 0301/0302 32020G35KT \n BECMG 0311/0312 33012KT"
"taf	RKSI	2020-11-02 18:00:00	TAF RKSI 021700Z 0218/0324 33015G25KT 9999 SCT030 TN03/0222Z TX09/0303Z TN01/0321Z \n TEMPO 0218/0220 33018G35KT \n BECMG 0301/0302 32020G35KT \n BECMG 0311/0312 33015G25KT \n BECMG 0315/0316 33010KT \n BECMG 0322/0323 03007KT"
"taf	RKSI	2020-11-02 18:06:00	TAF RKSI 021700Z 0218/0324 33015G25KT 9999 SCT030 TN03/0222Z TX09/0303Z TN01/0321Z \n TEMPO 0218/0220 33018G35KT \n BECMG 0301/0302 32020G35KT \n BECMG 0311/0312 33015G25KT \n BECMG 0315/0316 33010KT \n BECMG 0322/0323 03007KT"
"taf	RKSI	2020-11-03 00:00:00	TAF RKSI 032300Z 0400/0506 35010KT CAVOK TX10/0405Z TN06/0421Z TX15/0505Z \n BECMG 0403/0404 27007KT \n BECMG 0418/0419 16008KT 4000 BR BKN030 BKN200 \n BECMG 0423/0424 6000 NSW \n BECMG 0503/0504 22010KT SCT030 BKN150"
"taf	RKSI	2020-11-03 00:06:00	TAF RKSI 032300Z 0400/0506 35010KT CAVOK TX10/0405Z TN06/0421Z TX15/0505Z \n BECMG 0403/0404 27007KT \n BECMG 0418/0419 16008KT 4000 BR BKN030 BKN200 \n BECMG 0423/0424 6000 NSW \n BECMG 0503/0504 22010KT SCT030 BKN150"
"taf	RKSI	2020-11-03 06:00:00	TAF RKSI 030500Z 0306/0412 32018G35KT 9999 SCT040 TN01/0321Z TX10/0405Z \n BECMG 0311/0312 33015G25KT \n BECMG 0317/0318 35010KT \n BECMG 0403/0404 29007KT \n BECMG 0408/0409 23007KT"
"taf	RKSI	2020-11-03 06:06:00	TAF RKSI 030500Z 0306/0412 32018G35KT 9999 SCT040 TN01/0321Z TX10/0405Z \n BECMG 0311/0312 33015G25KT \n BECMG 0317/0318 35010KT \n BECMG 0403/0404 29007KT \n BECMG 0408/0409 23007KT"
"taf	RKSI	2020-11-03 12:00:00	TAF RKSI 031100Z 0312/0418 33015G25KT 9999 SCT040 TN01/0321Z TX10/0405Z \n BECMG 0318/0319 35010KT \n BECMG 0402/0403 29007KT \n BECMG 0408/0409 23008KT \n BECMG 0414/0415 BKN030 BKN200"
"taf	RKSI	2020-11-03 12:09:00	TAF RKSI 031100Z 0312/0418 33015G25KT 9999 SCT040 TN01/0321Z TX10/0405Z \n BECMG 0318/0319 35010KT \n BECMG 0402/0403 29007KT \n BECMG 0408/0409 23008KT \n BECMG 0414/0415 BKN030 BKN200"
"taf	RKSI	2020-11-03 18:00:00	TAF RKSI 031700Z 0318/0424 34010KT CAVOK TN01/0321Z TX10/0405Z TN06/0421Z \n BECMG 0402/0403 27007KT \n BECMG 0415/0416 9999 BKN030 BKN200 \n BECMG 0417/0418 16007KT 6000 \n BECMG 0422/0423 SCT030 BKN200"
"taf	RKSI	2020-11-03 18:09:00	TAF RKSI 031700Z 0318/0424 34010KT CAVOK TN01/0321Z TX10/0405Z TN06/0421Z \n BECMG 0402/0403 27007KT \n BECMG 0415/0416 9999 BKN030 BKN200 \n BECMG 0417/0418 16007KT 6000 \n BECMG 0422/0423 SCT030 BKN200"
"taf	RKSI	2020-11-04 00:00:00	TAF RKSI 042300Z 0500/0606 15008KT CAVOK TX14/0505Z TN09/0521Z TX15/0605Z \n BECMG 0503/0504 22010KT 9999 SCT030 BKN150 \n BECMG 0511/0512 16007KT \n BECMG 0523/0524 FEW010 BKN030 OVC100 \n TEMPO 0604/0606 18015G25KT 6000 -RA"
"taf	RKSI	2020-11-04 00:09:00	TAF RKSI 042300Z 0500/0606 15008KT CAVOK TX14/0505Z TN09/0521Z TX15/0605Z \n BECMG 0503/0504 22010KT 9999 SCT030 BKN150 \n BECMG 0511/0512 16007KT \n BECMG 0523/0524 FEW010 BKN030 OVC100 \n TEMPO 0604/0606 18015G25KT 6000 -RA"
"taf	RKSI	2020-11-04 06:00:00	TAF RKSI 040500Z 0406/0512 27007KT CAVOK TN06/0421Z TX15/0505Z \n BECMG 0420/0421 16008KT 6000 BKN030 BKN150 \n BECMG 0423/0424 SCT030 BKN150 \n BECMG 0502/0503 22010KT \n BECMG 0510/0511 16006KT"
"taf	RKSI	2020-11-04 06:06:00	TAF RKSI 040500Z 0406/0512 27007KT CAVOK TN06/0421Z TX15/0505Z \n BECMG 0420/0421 16008KT 6000 BKN030 BKN150 \n BECMG 0423/0424 SCT030 BKN150 \n BECMG 0502/0503 22010KT \n BECMG 0510/0511 16006KT"
"taf	RKSI	2020-11-04 12:00:00	TAF RKSI 041100Z 0412/0518 26007KT CAVOK TN06/0421Z TX15/0505Z \n BECMG 0420/0421 16008KT 6000 BKN030 BKN150 \n BECMG 0423/0424 SCT030 BKN150 \n BECMG 0502/0503 22010KT \n BECMG 0512/0513 16006KT"
"taf	RKSI	2020-11-04 12:09:00	TAF RKSI 041100Z 0412/0518 26007KT CAVOK TN06/0421Z TX15/0505Z \n BECMG 0420/0421 16008KT 6000 BKN030 BKN150 \n BECMG 0423/0424 SCT030 BKN150 \n BECMG 0502/0503 22010KT \n BECMG 0512/0513 16006KT"
"taf	RKSI	2020-11-04 18:00:00	TAF RKSI 041700Z 0418/0524 15008KT 6000 BKN040 TN06/0421Z TX15/0505Z TN09/0521Z \n BECMG 0423/0424 SCT030 BKN150 \n BECMG 0503/0504 21010KT \n BECMG 0511/0512 15007KT \n BECMG 0522/0523 SCT030 OVC100"
"taf	RKSI	2020-11-04 18:06:00	TAF RKSI 041700Z 0418/0524 15008KT 6000 BKN040 TN06/0421Z TX15/0505Z TN09/0521Z \n BECMG 0423/0424 SCT030 BKN150 \n BECMG 0503/0504 21010KT \n BECMG 0511/0512 15007KT \n BECMG 0522/0523 SCT030 OVC100"
"taf	RKSI	2020-11-05 00:00:00	TAF RKSI 052300Z 0600/0706 18008KT 6000 BKN030 OVC080 TX16/0605Z TN12/0622Z TX17/0705Z \n BECMG 0610/0611 3500 BR SCT010 BKN025 OVC070 \n TEMPO 0612/0620 22008KT 2000 -RA \n BECMG 0622/0623 28010KT 6000 NSW SCT030 \n BECMG 0704/0705 28015G25KT CAVOK"
"taf	RKSI	2020-11-05 00:06:00	TAF RKSI 052300Z 0600/0706 18008KT 6000 BKN030 OVC080 TX16/0605Z TN12/0622Z TX17/0705Z \n BECMG 0610/0611 3500 BR SCT010 BKN025 OVC070 \n TEMPO 0612/0620 22008KT 2000 -RA \n BECMG 0622/0623 28010KT 6000 NSW SCT030 \n BECMG 0704/0705 28015G25KT CAVOK"
"taf	RKSI	2020-11-05 06:00:00	TAF RKSI 050500Z 0506/0612 20010KT 9999 FEW030 BKN180 TN09/0521Z TX15/0605Z \n BECMG 0511/0512 14007KT \n BECMG 0600/0601 FEW010 BKN030 OVC100 \n BECMG 0605/0606 19015G25KT \n BECMG 0607/0608 6000 -RA \n BECMG 0610/0611 20012KT NSW"
"taf	RKSI	2020-11-05 06:06:00	TAF RKSI 050500Z 0506/0612 20010KT 9999 FEW030 BKN180 TN09/0521Z TX15/0605Z \n BECMG 0511/0512 14007KT \n BECMG 0600/0601 FEW010 BKN030 OVC100 \n BECMG 0605/0606 19015G25KT \n BECMG 0607/0608 6000 -RA \n BECMG 0610/0611 20012KT NSW"
"taf	RKSI	2020-11-05 12:00:00	TAF RKSI 051100Z 0512/0618 13007KT 9999 FEW030 BKN180 TN09/0521Z TX15/0605Z \n BECMG 0600/0601 FEW010 BKN030 OVC100 \n BECMG 0605/0606 19010KT \n BECMG 0607/0608 6000 -RA \n BECMG 0610/0611 22012KT 3000 BR"
"taf	RKSI	2020-11-05 12:09:00	TAF RKSI 051100Z 0512/0618 13007KT 9999 FEW030 BKN180 TN09/0521Z TX15/0605Z \n BECMG 0600/0601 FEW010 BKN030 OVC100 \n BECMG 0605/0606 19010KT \n BECMG 0607/0608 6000 -RA \n BECMG 0610/0611 22012KT 3000 BR"
"taf	RKSI	2020-11-05 18:00:00	TAF RKSI 051700Z 0518/0624 16008KT 6000 FEW030 BKN140 TN09/0521Z TX16/0605Z TN12/0622Z \n BECMG 0600/0601 BKN030 OVC080 \n BECMG 0606/0607 19010KT -RA \n BECMG 0610/0611 4000 SCT010 BKN025 OVC070 \n BECMG 0614/0615 22010KT 2000 \n BECMG 0620/0621 30012KT 6000 NSW SCT030"
"taf	RKSI	2020-11-05 18:09:00	TAF RKSI 051700Z 0518/0624 16008KT 6000 FEW030 BKN140 TN09/0521Z TX16/0605Z TN12/0622Z \n BECMG 0600/0601 BKN030 OVC080 \n BECMG 0606/0607 19010KT -RA \n BECMG 0610/0611 4000 SCT010 BKN025 OVC070 \n BECMG 0614/0615 22010KT 2000 \n BECMG 0620/0621 30012KT 6000 NSW SCT030"
"taf	RKSI	2020-11-06 00:00:00	TAF RKSI 062300Z 0700/0806 31010KT 6000 FEW010 SCT030 TX17/0705Z TN05/0722Z TX09/0805Z \n BECMG 0709/0710 32015G25KT CAVOK \n BECMG 0711/0712 33013KT \n BECMG 0713/0714 33017G28KT"
"taf	RKSI	2020-11-06 00:06:00	TAF RKSI 062300Z 0700/0806 31010KT 6000 FEW010 SCT030 TX17/0705Z TN05/0722Z TX09/0805Z \n BECMG 0709/0710 32015G25KT CAVOK \n BECMG 0711/0712 33013KT \n BECMG 0713/0714 33017G28KT"
"taf	RKSI	2020-11-06 06:00:00	TAF RKSI 060500Z 0606/0712 18008KT 6000 BKN030 OVC100 TN12/0622Z TX17/0705Z \n TEMPO 0610/0613 21010KT -RA \n BECMG 0613/0614 23008KT 4000 BR SCT010 BKN020 OVC070 \n TEMPO 0615/0617 2500 -RA \n BECMG 0621/0622 28010KT 6000 NSW SCT030 \n BECMG 0702/0703 28015G35KT CAVOK"
"taf	RKSI	2020-11-06 06:07:00	TAF COR RKSI 060607Z 0606/0712 18008KT 6000 BKN030 OVC100 TN12/0622Z TX17/0705Z \n TEMPO 0610/0613 21010KT -RA \n BECMG 0613/0614 23008KT 4000 BR SCT010 BKN020 OVC070 \n TEMPO 0615/0617 2500 -RA \n BECMG 0621/0622 28010KT 6000 NSW SCT030 \n BECMG 0702/0703 28015G25KT CAVOK"
"taf	RKSI	2020-11-06 06:09:00	TAF COR TAF COR RKSI 060607Z 0606/0712 18008KT 6000 BKN030 OVC100 TN12/0622Z TX17/0705Z \n TEMPO 0610/0613 21010KT -RA \n BECMG 0613/0614 23008KT 4000 BR SCT010 BKN020 OVC070 \n TEMPO 0615/0617 2500 -RA \n BECMG 0621/0622 28010KT 6000 NSW SCT030 \n BECMG 0702/0703 28015G25KT CAVOK"
"taf	RKSI	2020-11-06 12:00:00	TAF RKSI 061100Z 0612/0718 20008KT 6000 FEW010 BKN025 OVC080 TN13/0622Z TX17/0705Z \n BECMG 0613/0614 23010KT 4000 BR \n TEMPO 0615/0618 -RA \n BECMG 0621/0622 28010KT 6000 NSW SCT030 \n BECMG 0703/0704 28015G25KT CAVOK \n BECMG 0712/0713 30008KT"
"taf	RKSI	2020-11-06 12:12:00	TAF RKSI 061100Z 0612/0718 20008KT 6000 FEW010 BKN025 OVC080 TN13/0622Z TX17/0705Z \n BECMG 0613/0614 23010KT 4000 BR \n TEMPO 0615/0618 -RA \n BECMG 0621/0622 28010KT 6000 NSW SCT030 \n BECMG 0703/0704 28015G25KT CAVOK \n BECMG 0712/0713 30008KT"
"taf	RKSI	2020-11-06 18:00:00	TAF RKSI 061700Z 0618/0724 23008KT 6000 FEW010 BKN025 OVC080 TN14/0622Z TX16/0705Z TN05/0722Z \n BECMG 0620/0621 31010KT CAVOK \n BECMG 0709/0710 31015G25KT \n BECMG 0711/0712 33013KT \n BECMG 0713/0714 33017G28KT"
"taf	RKSI	2020-11-06 18:09:00	TAF RKSI 061700Z 0618/0724 23008KT 6000 FEW010 BKN025 OVC080 TN14/0622Z TX16/0705Z TN05/0722Z \n BECMG 0620/0621 31010KT CAVOK \n BECMG 0709/0710 31015G25KT \n BECMG 0711/0712 33013KT \n BECMG 0713/0714 33017G28KT"
"taf	RKSI	2020-11-06 22:55:00	TAF \n AMD RKSI 062155Z 0622/0724 23008KT 4000 BR FEW010 BKN025 OVC080 TN14/0622Z TX16/0705Z TN05/0722Z \n BECMG 0700/0701 31010KT 7000 NSW \n BECMG 0709/0710 31015G25KT \n BECMG 0711/0712 33013KT \n BECMG 0713/0714 33017G28KT"
"taf	RKSI	2020-11-06 22:57:00	TAF \n AMD TAF \n AMD RKSI 062155Z 0622/0724 23008KT 4000 BR FEW010 BKN025 OVC080 TN14/0622Z TX16/0705Z TN05/0722Z \n BECMG 0700/0701 31010KT 7000 NSW \n BECMG 0709/0710 31015G25KT \n BECMG 0711/0712 33013KT \n BECMG 0713/0714 33017G28KT"
"taf	RKSI	2020-11-07 00:00:00	TAF RKSI 072300Z 0800/0906 33015G25KT CAVOK TX10/0806Z TN01/0821Z TX12/0905Z \n BECMG 0818/0819 34010KT \n BECMG 0902/0903 06007KT \n BECMG 0904/0905 18006KT 6000 SCT030"
"taf	RKSI	2020-11-07 00:09:00	TAF RKSI 072300Z 0800/0906 33015G25KT CAVOK TX10/0806Z TN01/0821Z TX12/0905Z \n BECMG 0818/0819 34010KT \n BECMG 0902/0903 06007KT \n BECMG 0904/0905 18006KT 6000 SCT030"
"taf	RKSI	2020-11-07 06:00:00	TAF RKSI 070500Z 0706/0812 30010KT CAVOK TN06/0722Z TX10/0806Z \n TEMPO 0706/0709 27015G25KT 9999 FEW030 \n BECMG 0717/0718 33017G30KT"
"taf	RKSI	2020-11-07 06:09:00	TAF RKSI 070500Z 0706/0812 30010KT CAVOK TN06/0722Z TX10/0806Z \n TEMPO 0706/0709 27015G25KT 9999 FEW030 \n BECMG 0717/0718 33017G30KT"
"taf	RKSI	2020-11-07 12:00:00	TAF RKSI 071100Z 0712/0818 30012KT 6000 NSC TN06/0722Z TX10/0806Z \n BECMG 0718/0719 33017G30KT CAVOK \n BECMG 0816/0817 34012KT"
"taf	RKSI	2020-11-07 12:06:00	TAF RKSI 071100Z 0712/0818 30012KT 6000 NSC TN06/0722Z TX10/0806Z \n BECMG 0718/0719 33017G30KT CAVOK \n BECMG 0816/0817 34012KT"
"taf	RKSI	2020-11-07 18:00:00	TAF RKSI 071700Z 0718/0824 33017G30KT CAVOK TN06/0722Z TX10/0806Z TN00/0821Z \n BECMG 0816/0817 34010KT"
"taf	RKSI	2020-11-07 18:06:00	TAF RKSI 071700Z 0718/0824 33017G30KT CAVOK TN06/0722Z TX10/0806Z TN00/0821Z \n BECMG 0816/0817 34010KT"
"taf	RKSI	2020-11-08 00:00:00	TAF RKSI 082300Z 0900/1006 34007KT CAVOK TX11/0906Z TN03/0920Z TX12/1005Z \n BECMG 0903/0904 24006KT 9999 BKN030 \n BECMG 0908/0909 05005KT SCT040 \n BECMG 0912/0913 34010KT"
"taf	RKSI	2020-11-08 00:06:00	TAF RKSI 082300Z 0900/1006 34007KT CAVOK TX11/0906Z TN03/0920Z TX12/1005Z \n BECMG 0903/0904 24006KT 9999 BKN030 \n BECMG 0908/0909 05005KT SCT040 \n BECMG 0912/0913 34010KT"
"taf	RKSI	2020-11-08 06:00:00	TAF RKSI 080500Z 0806/0912 33015G25KT CAVOK TN01/0821Z TX10/0905Z \n BECMG 0818/0819 34010KT \n BECMG 0900/0901 07006KT \n BECMG 0904/0905 26006KT 9999 BKN030 \n BECMG 0907/0908 SCT040"
"taf	RKSI	2020-11-08 06:06:00	TAF RKSI 080500Z 0806/0912 33015G25KT CAVOK TN01/0821Z TX10/0905Z \n BECMG 0818/0819 34010KT \n BECMG 0900/0901 07006KT \n BECMG 0904/0905 26006KT 9999 BKN030 \n BECMG 0907/0908 SCT040"
"taf	RKSI	2020-11-08 12:00:00	TAF RKSI 081100Z 0812/0918 33015G25KT CAVOK TN02/0821Z TX10/0905Z \n BECMG 0819/0820 34010KT \n BECMG 0900/0901 06006KT \n BECMG 0904/0905 24006KT 9999 BKN030 \n BECMG 0907/0908 SCT040 \n BECMG 0911/0912 34007KT"
"taf	RKSI	2020-11-08 12:09:00	TAF RKSI 081100Z 0812/0918 33015G25KT CAVOK TN02/0821Z TX10/0905Z \n BECMG 0819/0820 34010KT \n BECMG 0900/0901 06006KT \n BECMG 0904/0905 24006KT 9999 BKN030 \n BECMG 0907/0908 SCT040 \n BECMG 0911/0912 34007KT"
"taf	RKSI	2020-11-08 18:00:00	TAF RKSI 081700Z 0818/0924 34010KT CAVOK TN01/0822Z TX10/0906Z TN03/0920Z \n BECMG 0903/0904 28006KT 9999 SCT040 \n TEMPO 0905/0908 BKN030 \n BECMG 0908/0909 07005KT \n BECMG 0911/0912 34008KT"
"taf	RKSI	2020-11-08 18:06:00	TAF RKSI 081700Z 0818/0924 34010KT CAVOK TN01/0822Z TX10/0906Z TN03/0920Z \n BECMG 0903/0904 28006KT 9999 SCT040 \n TEMPO 0905/0908 BKN030 \n BECMG 0908/0909 07005KT \n BECMG 0911/0912 34008KT"
"taf	RKSI	2020-11-09 00:00:00	TAF RKSI 092300Z 1000/1106 07005KT CAVOK TX12/1006Z TN04/1020Z TX14/1106Z \n BECMG 1001/1002 32010KT \n BECMG 1015/1016 06006KT 6000 NSC \n BECMG 1102/1103 13005KT CAVOK"
"taf	RKSI	2020-11-09 00:06:00	TAF RKSI 092300Z 1000/1106 07005KT CAVOK TX12/1006Z TN04/1020Z TX14/1106Z \n BECMG 1001/1002 32010KT \n BECMG 1015/1016 06006KT 6000 NSC \n BECMG 1102/1103 13005KT CAVOK"
"taf	RKSI	2020-11-09 06:00:00	TAF RKSI 090500Z 0906/1012 27006KT 9999 BKN030 TN03/0920Z TX12/1005Z \n BECMG 0909/0910 07006KT SCT040 \n BECMG 0912/0913 34008KT"
"taf	RKSI	2020-11-09 06:06:00	TAF RKSI 090500Z 0906/1012 27006KT 9999 BKN030 TN03/0920Z TX12/1005Z \n BECMG 0909/0910 07006KT SCT040 \n BECMG 0912/0913 34008KT"
"taf	RKSI	2020-11-09 07:10:00	TAF \n AMD RKSI 090710Z 0907/1012 27007KT 9999 BKN030 TN03/0920Z TX12/1005Z \n TEMPO 0908/0911 24007KT -RA \n BECMG 0911/0912 07007KT SCT040 \n BECMG 0913/0914 34008KT"
"taf	RKSI	2020-11-09 07:15:00	TAF \n AMD TAF \n AMD RKSI 090710Z 0907/1012 27007KT 9999 BKN030 TN03/0920Z TX12/1005Z \n TEMPO 0908/0911 24007KT -RA \n BECMG 0911/0912 07007KT SCT040 \n BECMG 0913/0914 34008KT"
"taf	RKSI	2020-11-09 12:00:00	TAF RKSI 091100Z 0912/1018 07006KT 9999 FEW040 TN03/0920Z TX12/1005Z \n BECMG 0914/0915 34007KT \n BECMG 1015/1016 07005KT 6000 NSC"
"taf	RKSI	2020-11-09 12:06:00	TAF RKSI 091100Z 0912/1018 07006KT 9999 FEW040 TN03/0920Z TX12/1005Z \n BECMG 0914/0915 34007KT \n BECMG 1015/1016 07005KT 6000 NSC"
"taf	RKSI	2020-11-09 18:00:00	TAF RKSI 091700Z 0918/1024 07005KT 9999 FEW040 TN03/0921Z TX12/1006Z TN04/1020Z \n BECMG 0921/0922 33007KT CAVOK \n BECMG 1016/1017 07005KT 6000 NSC"
"taf	RKSI	2020-11-09 18:09:00	TAF RKSI 091700Z 0918/1024 07005KT 9999 FEW040 TN03/0921Z TX12/1006Z TN04/1020Z \n BECMG 0921/0922 33007KT CAVOK \n BECMG 1016/1017 07005KT 6000 NSC"
"taf	RKSI	2020-11-10 00:00:00	TAF RKSI 102300Z 1100/1206 07006KT CAVOK TX14/1106Z TN06/1121Z TX15/1205Z \n BECMG 1104/1105 30006KT \n BECMG 1115/1116 07006KT 6000 NSC \n BECMG 1119/1120 4000 BR \n BECMG 1123/1124 10006KT 6000 NSW \n BECMG 1203/1204 28006KT CAVOK"
"taf	RKSI	2020-11-10 00:09:00	TAF RKSI 102300Z 1100/1206 07006KT CAVOK TX14/1106Z TN06/1121Z TX15/1205Z \n BECMG 1104/1105 30006KT \n BECMG 1115/1116 07006KT 6000 NSC \n BECMG 1119/1120 4000 BR \n BECMG 1123/1124 10006KT 6000 NSW \n BECMG 1203/1204 28006KT CAVOK"
"taf	RKSI	2020-11-10 06:00:00	TAF RKSI 100500Z 1006/1112 31010KT CAVOK TN04/1021Z TX14/1106Z \n BECMG 1015/1016 06006KT 6000 NSC \n BECMG 1101/1102 13005KT CAVOK \n BECMG 1107/1108 31006KT"
"taf	RKSI	2020-11-10 06:06:00	TAF RKSI 100500Z 1006/1112 31010KT CAVOK TN04/1021Z TX14/1106Z \n BECMG 1015/1016 06006KT 6000 NSC \n BECMG 1101/1102 13005KT CAVOK \n BECMG 1107/1108 31006KT"
"taf	RKSI	2020-11-10 12:00:00	TAF RKSI 101100Z 1012/1118 33010KT CAVOK TN05/1020Z TX14/1106Z \n BECMG 1015/1016 06006KT \n BECMG 1101/1102 13006KT \n BECMG 1107/1108 30006KT \n BECMG 1115/1116 07006KT 6000 NSC"
"taf	RKSI	2020-11-10 12:06:00	TAF RKSI 101100Z 1012/1118 33010KT CAVOK TN05/1020Z TX14/1106Z \n BECMG 1015/1016 06006KT \n BECMG 1101/1102 13006KT \n BECMG 1107/1108 30006KT \n BECMG 1115/1116 07006KT 6000 NSC"
"taf	RKSI	2020-11-10 18:00:00	TAF RKSI 101700Z 1018/1124 07006KT CAVOK TN05/1020Z TX14/1106Z TN07/1121Z \n BECMG 1104/1105 30006KT \n BECMG 1115/1116 07006KT 6000 NSC \n BECMG 1119/1120 4000 BR \n BECMG 1123/1124 12006KT 6000 NSW"
"taf	RKSI	2020-11-10 18:06:00	TAF RKSI 101700Z 1018/1124 07006KT CAVOK TN05/1020Z TX14/1106Z TN07/1121Z \n BECMG 1104/1105 30006KT \n BECMG 1115/1116 07006KT 6000 NSC \n BECMG 1119/1120 4000 BR \n BECMG 1123/1124 12006KT 6000 NSW"
"taf	RKSI	2020-11-11 00:00:00	TAF RKSI 112300Z 1200/1306 15005KT CAVOK TX15/1206Z TN10/1221Z TX16/1305Z \n BECMG 1203/1204 25006KT \n BECMG 1217/1218 20007KT 4000 BR BKN030 BKN080 \n BECMG 1222/1223 32007KT 2000 SCT010 BKN030 \n BECMG 1302/1303 6000 NSW SCT030"
"taf	RKSI	2020-11-11 00:06:00	TAF RKSI 112300Z 1200/1306 15005KT CAVOK TX15/1206Z TN10/1221Z TX16/1305Z \n BECMG 1203/1204 25006KT \n BECMG 1217/1218 20007KT 4000 BR BKN030 BKN080 \n BECMG 1222/1223 32007KT 2000 SCT010 BKN030 \n BECMG 1302/1303 6000 NSW SCT030"
"taf	RKSI	2020-11-11 06:00:00	TAF RKSI 110500Z 1106/1212 30006KT CAVOK TN07/1120Z TX15/1206Z \n BECMG 1113/1114 07006KT 6000 NSC \n BECMG 1118/1119 4000 BR \n BECMG 1123/1124 11006KT 6000 NSW \n BECMG 1203/1204 29006KT CAVOK \n BECMG 1211/1212 07006KT"
"taf	RKSI	2020-11-11 06:06:00	TAF RKSI 110500Z 1106/1212 30006KT CAVOK TN07/1120Z TX15/1206Z \n BECMG 1113/1114 07006KT 6000 NSC \n BECMG 1118/1119 4000 BR \n BECMG 1123/1124 11006KT 6000 NSW \n BECMG 1203/1204 29006KT CAVOK \n BECMG 1211/1212 07006KT"
"taf	RKSI	2020-11-11 12:00:00	TAF RKSI 111100Z 1112/1218 07006KT CAVOK TN06/1120Z TX16/1206Z \n BECMG 1118/1119 4000 BR NSC \n BECMG 1123/1124 11006KT 6000 NSW \n BECMG 1203/1204 29006KT CAVOK \n BECMG 1213/1214 07006KT 6000 NSC \n BECMG 1217/1218 4000 BR SCT030 BKN120"
"taf	RKSI	2020-11-11 12:06:00	TAF RKSI 111100Z 1112/1218 07006KT CAVOK TN06/1120Z TX16/1206Z \n BECMG 1118/1119 4000 BR NSC \n BECMG 1123/1124 11006KT 6000 NSW \n BECMG 1203/1204 29006KT CAVOK \n BECMG 1213/1214 07006KT 6000 NSC \n BECMG 1217/1218 4000 BR SCT030 BKN120"
"taf	RKSI	2020-11-11 18:00:00	TAF RKSI 111700Z 1118/1224 15006KT 6000 NSC TN05/1121Z TX15/1206Z TN09/1221Z \n BECMG 1204/1205 25006KT CAVOK \n BECMG 1217/1218 22007KT 4000 BR BKN030 \n BECMG 1221/1222 2000 \n BECMG 1223/1224 30007KT 6000 NSW SCT030"
"taf	RKSI	2020-11-11 18:09:00	TAF RKSI 111700Z 1118/1224 15006KT 6000 NSC TN05/1121Z TX15/1206Z TN09/1221Z \n BECMG 1204/1205 25006KT CAVOK \n BECMG 1217/1218 22007KT 4000 BR BKN030 \n BECMG 1221/1222 2000 \n BECMG 1223/1224 30007KT 6000 NSW SCT030"
"taf	RKSI	2020-11-12 00:00:00	TAF RKSI 122300Z 1300/1406 16006KT 2500 BR SCT030 TX16/1306Z TN06/1320Z TX16/1405Z \n BECMG 1301/1302 6000 NSW NSC \n BECMG 1306/1307 33007KT \n BECMG 1316/1317 06006KT 3000 BR \n TEMPO 1320/1324 1400 FEW010 \n BECMG 1401/1402 14006KT 5000"
"taf	RKSI	2020-11-12 00:09:00	TAF RKSI 122300Z 1300/1406 16006KT 2500 BR SCT030 TX16/1306Z TN06/1320Z TX16/1405Z \n BECMG 1301/1302 6000 NSW NSC \n BECMG 1306/1307 33007KT \n BECMG 1316/1317 06006KT 3000 BR \n TEMPO 1320/1324 1400 FEW010 \n BECMG 1401/1402 14006KT 5000"
"taf	RKSI	2020-11-12 06:00:00	TAF RKSI 120500Z 1206/1312 23006KT CAVOK TN10/1221Z TX16/1305Z \n BECMG 1217/1218 20007KT 4000 BR BKN030 BKN100 \n BECMG 1222/1223 2000 SCT010 BKN030 \n BECMG 1300/1301 27005KT 4000 BKN030 \n BECMG 1302/1303 33007KT 6000 NSW SCT030"
"taf	RKSI	2020-11-12 06:09:00	TAF RKSI 120500Z 1206/1312 23006KT CAVOK TN10/1221Z TX16/1305Z \n BECMG 1217/1218 20007KT 4000 BR BKN030 BKN100 \n BECMG 1222/1223 2000 SCT010 BKN030 \n BECMG 1300/1301 27005KT 4000 BKN030 \n BECMG 1302/1303 33007KT 6000 NSW SCT030"
"taf	RKSI	2020-11-12 12:00:00	TAF RKSI 121100Z 1212/1318 23006KT 6000 NSC TN10/1221Z TX16/1305Z \n BECMG 1214/1215 20007KT 4000 BR BKN030 BKN100 \n BECMG 1222/1223 2000 SCT010 BKN030 \n BECMG 1300/1301 03005KT 4000 BKN030 \n BECMG 1302/1303 33007KT 6000 NSW SCT030 \n BECMG 1316/1317 03006KT 3000 BR"
"taf	RKSI	2020-11-12 12:42:00	TAF TAF RKSI 121100Z 1212/1318 23006KT 6000 NSC TN10/1221Z TX16/1305Z \n BECMG 1214/1215 20007KT 4000 BR BKN030 BKN100 \n BECMG 1222/1223 2000 SCT010 BKN030 \n BECMG 1300/1301 03005KT 4000 BKN030 \n BECMG 1302/1303 33007KT 6000 NSW SCT030 \n BECMG 1316/1317 03006KT 3000 BR"
"taf	RKSI	2020-11-12 18:00:00	TAF RKSI 121700Z 1218/1324 15006KT 3000 BR FEW010 BKN030 TN09/1220Z TX16/1306Z TN06/1321Z \n BECMG 1301/1302 6000 NSW NSC \n BECMG 1306/1307 33006KT \n BECMG 1312/1313 07006KT \n BECMG 1316/1317 4000 BR \n BECMG 1320/1321 11007KT 2000"
"taf	RKSI	2020-11-12 18:06:00	TAF RKSI 121700Z 1218/1324 15006KT 3000 BR FEW010 BKN030 TN09/1220Z TX16/1306Z TN06/1321Z \n BECMG 1301/1302 6000 NSW NSC \n BECMG 1306/1307 33006KT \n BECMG 1312/1313 07006KT \n BECMG 1316/1317 4000 BR \n BECMG 1320/1321 11007KT 2000"
"taf	RKSI	2020-11-12 19:09:00	TAF \n AMD TAF \n AMD RKSI 121910Z 1219/1324 15006KT 2000 BR FEW010 BKN030 TN09/1220Z TX16/1306Z TN06/1321Z \n BECMG 1301/1302 6000 NSW NSC \n BECMG 1306/1307 33006KT \n BECMG 1312/1313 07006KT \n BECMG 1316/1317 4000 BR \n BECMG 1320/1321 11007KT 2000"
"taf	RKSI	2020-11-12 19:10:00	TAF \n AMD RKSI 121910Z 1219/1324 15006KT 2000 BR FEW010 BKN030 TN09/1220Z TX16/1306Z TN06/1321Z \n BECMG 1301/1302 6000 NSW NSC \n BECMG 1306/1307 33006KT \n BECMG 1312/1313 07006KT \n BECMG 1316/1317 4000 BR \n BECMG 1320/1321 11007KT 2000"
"taf	RKSI	2020-11-13 00:00:00	TAF RKSI 132300Z 1400/1506 06006KT 1500 BR SCT001 TX16/1406Z TN08/1421Z TX15/1505Z \n BECMG 1401/1402 15006KT 3000 NSC \n BECMG 1403/1404 23005KT 5000 \n BECMG 1409/1410 33005KT 3000 \n TEMPO 1416/1424 06005KT 0800 FG SCT010 BKN025 \n BECMG 1500/1501 15006KT 5000 SCT010 BKN025"
"taf	RKSI	2020-11-13 00:09:00	TAF RKSI 132300Z 1400/1506 06006KT 1500 BR SCT001 TX16/1406Z TN08/1421Z TX15/1505Z \n BECMG 1401/1402 15006KT 3000 NSC \n BECMG 1403/1404 23005KT 5000 \n BECMG 1409/1410 33005KT 3000 \n TEMPO 1416/1424 06005KT 0800 FG SCT010 BKN025 \n BECMG 1500/1501 15006KT 5000 SCT010 BKN025"
"taf	RKSI	2020-11-13 06:00:00	TAF RKSI 130500Z 1306/1412 22006KT 6000 SCT030 TN06/1320Z TX16/1405Z \n BECMG 1315/1316 06006KT 3000 BR \n BECMG 1317/1318 1400 BKN005 \n BECMG 1319/1320 0700 FG \n BECMG 1401/1402 3000 BR SCT030 \n BECMG 1403/1404 33006KT 6000 NSW"
"taf	RKSI	2020-11-13 06:09:00	TAF RKSI 130500Z 1306/1412 22006KT 6000 SCT030 TN06/1320Z TX16/1405Z \n BECMG 1315/1316 06006KT 3000 BR \n BECMG 1317/1318 1400 BKN005 \n BECMG 1319/1320 0700 FG \n BECMG 1401/1402 3000 BR SCT030 \n BECMG 1403/1404 33006KT 6000 NSW"
"taf	RKSI	2020-11-13 12:00:00	TAF RKSI 131100Z 1312/1418 30006KT 3000 BR FEW030 TN06/1320Z TX16/1405Z \n BECMG 1315/1316 06005KT 1000 BKN001 \n BECMG 1317/1318 0200 FG \n BECMG 1401/1402 14006KT 3000 BR SCT030 \n BECMG 1403/1404 25006KT 6000 NSW \n BECMG 1415/1416 34005KT 4000 BR"
"taf	RKSI	2020-11-13 12:06:00	TAF RKSI 131100Z 1312/1418 30006KT 3000 BR FEW030 TN06/1320Z TX16/1405Z \n BECMG 1315/1316 06005KT 1000 BKN001 \n BECMG 1317/1318 0200 FG \n BECMG 1401/1402 14006KT 3000 BR SCT030 \n BECMG 1403/1404 25006KT 6000 NSW \n BECMG 1415/1416 34005KT 4000 BR"
"taf	RKSI	2020-11-13 13:50:00	TAF \n AMD RKSI 131250Z 1313/1418 30006KT 1500 BR FEW030 TN06/1320Z TX16/1405Z \n BECMG 1314/1315 06005KT 0200 FG BKN001 \n BECMG 1323/1324 1000 BR \n BECMG 1401/1402 14006KT 3000 SCT030 \n BECMG 1403/1404 25006KT 6000 NSW \n BECMG 1415/1416 34005KT 4000 BR"
"taf	RKSI	2020-11-13 13:54:00	TAF \n AMD TAF \n AMD RKSI 131250Z 1313/1418 30006KT 1500 BR FEW030 TN06/1320Z TX16/1405Z \n BECMG 1314/1315 06005KT 0200 FG BKN001 \n BECMG 1323/1324 1000 BR \n BECMG 1401/1402 14006KT 3000 SCT030 \n BECMG 1403/1404 25006KT 6000 NSW \n BECMG 1415/1416 34005KT 4000 BR"
"taf	RKSI	2020-11-13 18:00:00	TAF RKSI 131700Z 1318/1424 06005KT 0400 FG SCT001 TN06/1320Z TX16/1406Z TN08/1421Z \n BECMG 1400/1401 15006KT 2000 BR NSC \n BECMG 1403/1404 23005KT 5000 \n BECMG 1409/1410 33005KT 3000 \n BECMG 1415/1416 06005KT 1000 SCT010 BKN025 \n BECMG 1423/1424 15006KT 2000"
"taf	RKSI	2020-11-13 18:09:00	TAF RKSI 131700Z 1318/1424 06005KT 0400 FG SCT001 TN06/1320Z TX16/1406Z TN08/1421Z \n BECMG 1400/1401 15006KT 2000 BR NSC \n BECMG 1403/1404 23005KT 5000 \n BECMG 1409/1410 33005KT 3000 \n BECMG 1415/1416 06005KT 1000 SCT010 BKN025 \n BECMG 1423/1424 15006KT 2000"
"taf	RKSI	2020-11-13 19:00:00	TAF \n AMD RKSI 131900Z 1319/1424 06005KT 2000 BR SCT001 TN06/1320Z TX16/1406Z TN08/1421Z \n BECMG 1403/1404 23005KT 5000 NSC \n BECMG 1409/1410 33005KT 3000 \n BECMG 1415/1416 06005KT 1000 SCT010 BKN025 \n BECMG 1423/1424 15006KT 2000"
"taf	RKSI	2020-11-13 19:06:00	TAF \n AMD TAF \n AMD RKSI 131900Z 1319/1424 06005KT 2000 BR SCT001 TN06/1320Z TX16/1406Z TN08/1421Z \n BECMG 1403/1404 23005KT 5000 NSC \n BECMG 1409/1410 33005KT 3000 \n BECMG 1415/1416 06005KT 1000 SCT010 BKN025 \n BECMG 1423/1424 15006KT 2000"
"taf	RKSI	2020-11-13 20:05:00	TAF \n AMD RKSI 132005Z 1320/1424 15005KT 2000 BR SCT001 TN06/1320Z TX16/1406Z TN08/1421Z \n TEMPO 1320/1401 0050 FG \n BECMG 1403/1404 23005KT 5000 NSC \n BECMG 1409/1410 33005KT 3000 \n BECMG 1415/1416 06005KT 1000 SCT010 BKN025 \n BECMG 1423/1424 15006KT 2000"
"taf	RKSI	2020-11-13 20:09:00	TAF \n AMD TAF \n AMD RKSI 132005Z 1320/1424 15005KT 2000 BR SCT001 TN06/1320Z TX16/1406Z TN08/1421Z \n TEMPO 1320/1401 0050 FG \n BECMG 1403/1404 23005KT 5000 NSC \n BECMG 1409/1410 33005KT 3000 \n BECMG 1415/1416 06005KT 1000 SCT010 BKN025 \n BECMG 1423/1424 15006KT 2000"
"taf	RKSI	2020-11-13 20:33:00	TAF \n AMD TAF \n AMD RKSI 131935Z 1320/1424 06005KT 2000 BR SCT001 TN06/1320Z TX16/1406Z TN08/1421Z \n TEMPO 1320/1401 0200 FG \n BECMG 1403/1404 23005KT 5000 NSC \n BECMG 1409/1410 33005KT 3000 \n BECMG 1415/1416 06005KT 1000 SCT010 BKN025 \n BECMG 1423/1424 15006KT 2000"
"taf	RKSI	2020-11-13 20:35:00	TAF \n AMD RKSI 131935Z 1320/1424 06005KT 2000 BR SCT001 TN06/1320Z TX16/1406Z TN08/1421Z \n TEMPO 1320/1401 0200 FG \n BECMG 1403/1404 23005KT 5000 NSC \n BECMG 1409/1410 33005KT 3000 \n BECMG 1415/1416 06005KT 1000 SCT010 BKN025 \n BECMG 1423/1424 15006KT 2000"
"taf	RKSI	2020-11-14 00:00:00	TAF RKSI 142300Z 1500/1606 21006KT 0800 FG BKN010 BKN025 TX15/1506Z TN08/1521Z TX16/1606Z \n BECMG 1501/1502 3000 BR FEW010 BKN025 \n BECMG 1503/1504 28006KT 6000 NSW SCT030 \n BECMG 1514/1515 06005KT 2000 BR \n TEMPO 1520/1523 0800 FG BKN010 \n BECMG 1601/1602 30006KT 6000 NSW NSC"
"taf	RKSI	2020-11-14 00:09:00	TAF RKSI 142300Z 1500/1606 21006KT 0800 FG BKN010 BKN025 TX15/1506Z TN08/1521Z TX16/1606Z \n BECMG 1501/1502 3000 BR FEW010 BKN025 \n BECMG 1503/1504 28006KT 6000 NSW SCT030 \n BECMG 1514/1515 06005KT 2000 BR \n TEMPO 1520/1523 0800 FG BKN010 \n BECMG 1601/1602 30006KT 6000 NSW NSC"
"taf	RKSI	2020-11-14 06:00:00	TAF RKSI 140500Z 1406/1512 28006KT 6000 NSC TN08/1419Z TX15/1506Z \n BECMG 1411/1412 23005KT 4000 BR \n TEMPO 1415/1420 06005KT 1000 BKN002 \n BECMG 1420/1421 SCT010 BKN025 \n BECMG 1500/1501 15006KT 6000 NSW \n BECMG 1504/1505 26006KT SCT030"
"taf	RKSI	2020-11-14 06:09:00	TAF RKSI 140500Z 1406/1512 28006KT 6000 NSC TN08/1419Z TX15/1506Z \n BECMG 1411/1412 23005KT 4000 BR \n TEMPO 1415/1420 06005KT 1000 BKN002 \n BECMG 1420/1421 SCT010 BKN025 \n BECMG 1500/1501 15006KT 6000 NSW \n BECMG 1504/1505 26006KT SCT030"
"taf	RKSI	2020-11-14 12:00:00	TAF RKSI 141100Z 1412/1518 33005KT 3500 BR NSC TN08/1419Z TX15/1505Z \n TEMPO 1415/1421 06005KT 1000 BKN002 \n BECMG 1421/1422 15005KT SCT010 BKN025 \n BECMG 1500/1501 26006KT 6000 NSW \n BECMG 1504/1505 SCT030 \n BECMG 1510/1511 06005KT 4000 BR SCT010"
"taf	RKSI	2020-11-14 12:06:00	TAF RKSI 141100Z 1412/1518 33005KT 3500 BR NSC TN08/1419Z TX15/1505Z \n TEMPO 1415/1421 06005KT 1000 BKN002 \n BECMG 1421/1422 15005KT SCT010 BKN025 \n BECMG 1500/1501 26006KT 6000 NSW \n BECMG 1504/1505 SCT030 \n BECMG 1510/1511 06005KT 4000 BR SCT010"
"taf	RKSI	2020-11-14 18:00:00	TAF RKSI 141700Z 1418/1524 05005KT 1500 BR FEW010 SCT025 TN08/1421Z TX15/1506Z TN08/1521Z \n BECMG 1421/1422 16005KT 4000 FEW010 BKN025 \n BECMG 1500/1501 21006KT 6000 NSW \n BECMG 1505/1506 28006KT FEW010 SCT030 \n BECMG 1517/1518 06005KT 3000 BR \n TEMPO 1521/1523 1400"
"taf	RKSI	2020-11-14 18:09:00	TAF RKSI 141700Z 1418/1524 05005KT 1500 BR FEW010 SCT025 TN08/1421Z TX15/1506Z TN08/1521Z \n BECMG 1421/1422 16005KT 4000 FEW010 BKN025 \n BECMG 1500/1501 21006KT 6000 NSW \n BECMG 1505/1506 28006KT FEW010 SCT030 \n BECMG 1517/1518 06005KT 3000 BR \n TEMPO 1521/1523 1400"
"taf	RKSI	2020-11-14 21:25:00	TAF \n AMD RKSI 142125Z 1421/1524 05005KT 0800 FG FEW010 SCT025 TN08/1421Z TX15/1506Z TN08/1521Z \n BECMG 1422/1423 16005KT 3000 BR FEW010 BKN025 \n BECMG 1500/1501 21006KT 6000 NSW \n BECMG 1505/1506 28006KT FEW010 SCT030 \n BECMG 1517/1518 06005KT 3000 BR \n TEMPO 1521/1523 1400"
"taf	RKSI	2020-11-14 21:30:00	TAF \n AMD TAF \n AMD RKSI 142125Z 1421/1524 05005KT 0800 FG FEW010 SCT025 TN08/1421Z TX15/1506Z TN08/1521Z \n BECMG 1422/1423 16005KT 3000 BR FEW010 BKN025 \n BECMG 1500/1501 21006KT 6000 NSW \n BECMG 1505/1506 28006KT FEW010 SCT030 \n BECMG 1517/1518 06005KT 3000 BR \n TEMPO 1521/1523 1400"
"taf	RKSI	2020-11-15 00:00:00	TAF RKSI 152300Z 1600/1706 03005KT 4000 BR FEW030 BKN180 TX16/1606Z TN10/1621Z TX17/1703Z \n BECMG 1601/1602 34006KT 6000 NSW \n BECMG 1617/1618 10008KT 4000 BR \n BECMG 1620/1621 14010KT 6000 NSW \n BECMG 1700/1701 BKN025"
"taf	RKSI	2020-11-15 00:06:00	TAF RKSI 152300Z 1600/1706 03005KT 4000 BR FEW030 BKN180 TX16/1606Z TN10/1621Z TX17/1703Z \n BECMG 1601/1602 34006KT 6000 NSW \n BECMG 1617/1618 10008KT 4000 BR \n BECMG 1620/1621 14010KT 6000 NSW \n BECMG 1700/1701 BKN025"
"taf	RKSI	2020-11-15 06:00:00	TAF RKSI 150500Z 1506/1612 28006KT 6000 FEW015 SCT030 TN07/1522Z TX16/1605Z \n BECMG 1510/1511 33005KT 3500 BR NSC \n BECMG 1514/1515 06005KT 2000 SCT010 \n TEMPO 1519/1524 0700 FG BKN002 \n BECMG 1601/1602 15005KT 4000 SCT030 \n BECMG 1605/1606 30006KT 6000 NSW NSC"
"taf	RKSI	2020-11-15 06:09:00	TAF RKSI 150500Z 1506/1612 28006KT 6000 FEW015 SCT030 TN07/1522Z TX16/1605Z \n BECMG 1510/1511 33005KT 3500 BR NSC \n BECMG 1514/1515 06005KT 2000 SCT010 \n TEMPO 1519/1524 0700 FG BKN002 \n BECMG 1601/1602 15005KT 4000 SCT030 \n BECMG 1605/1606 30006KT 6000 NSW NSC"
"taf	RKSI	2020-11-15 12:00:00	TAF RKSI 151100Z 1512/1618 33005KT 3000 BR NSC TN07/1522Z TX16/1606Z \n BECMG 1514/1515 06005KT 1400 SCT010 \n TEMPO 1519/1524 0500 FG BKN001 \n BECMG 1601/1602 03005KT 3000 SCT030 \n BECMG 1605/1606 30006KT 6000 NSW NSC \n BECMG 1611/1612 07006KT 4000 BR"
"taf	RKSI	2020-11-15 12:06:00	TAF RKSI 151100Z 1512/1618 33005KT 3000 BR NSC TN07/1522Z TX16/1606Z \n BECMG 1514/1515 06005KT 1400 SCT010 \n TEMPO 1519/1524 0500 FG BKN001 \n BECMG 1601/1602 03005KT 3000 SCT030 \n BECMG 1605/1606 30006KT 6000 NSW NSC \n BECMG 1611/1612 07006KT 4000 BR"
"taf	RKSI	2020-11-15 18:00:00	TAF RKSI 151700Z 1518/1624 13005KT 2000 BR FEW010 SCT150 TN07/1522Z TX16/1606Z TN10/1621Z \n BECMG 1520/1521 0600 FG BKN001 \n BECMG 1523/1524 03005KT 4000 BR SCT030 \n BECMG 1604/1605 33006KT 6000 NSW \n BECMG 1616/1617 07008KT 4000 BR \n BECMG 1619/1620 13010KT 6000 NSW"
"taf	RKSI	2020-11-15 18:15:00	TAF RKSI 151700Z 1518/1624 13005KT 2000 BR FEW010 SCT150 TN07/1522Z TX16/1606Z TN10/1621Z \n BECMG 1520/1521 0600 FG BKN001 \n BECMG 1523/1524 03005KT 4000 BR SCT030 \n BECMG 1604/1605 33006KT 6000 NSW \n BECMG 1616/1617 07008KT 4000 BR \n BECMG 1619/1620 13010KT 6000 NSW"
"taf	RKSI	2020-11-16 00:25:00	TAF \n AMD RKSI 160025Z 1600/1706 04005KT 1000 BR SCT002 BKN180 TX16/1606Z TN10/1621Z TX17/1703Z \n BECMG 1602/1603 34006KT 6000 NSW \n BECMG 1617/1618 10008KT 4000 BR \n BECMG 1620/1621 14010KT 6000 NSW \n BECMG 1700/1701 BKN025"
"taf	RKSI	2020-11-16 00:27:00	TAF \n AMD TAF \n AMD RKSI 160025Z 1600/1706 04005KT 1000 BR SCT002 BKN180 TX16/1606Z TN10/1621Z TX17/1703Z \n BECMG 1602/1603 34006KT 6000 NSW \n BECMG 1617/1618 10008KT 4000 BR \n BECMG 1620/1621 14010KT 6000 NSW \n BECMG 1700/1701 BKN025"
"taf	RKSI	2020-11-16 06:00:00	TAF RKSI 160500Z 1606/1712 33006KT 6000 NSC TN10/1621Z TX18/1705Z \n BECMG 1610/1611 07006KT \n BECMG 1614/1615 11007KT 3000 BR \n BECMG 1621/1622 15007KT 6000 NSW SCT030 \n BECMG 1703/1704 BKN030 \n TEMPO 1709/1712 26006KT -RA SCT010 BKN025"
"taf	RKSI	2020-11-16 06:06:00	TAF RKSI 160500Z 1606/1712 33006KT 6000 NSC TN10/1621Z TX18/1705Z \n BECMG 1610/1611 07006KT \n BECMG 1614/1615 11007KT 3000 BR \n BECMG 1621/1622 15007KT 6000 NSW SCT030 \n BECMG 1703/1704 BKN030 \n TEMPO 1709/1712 26006KT -RA SCT010 BKN025"
"taf	RKSI	2020-11-16 12:00:00	TAF RKSI 161100Z 1612/1718 08006KT 4000 BR NSC TN10/1621Z TX18/1705Z \n BECMG 1616/1617 11007KT 2500 \n BECMG 1621/1622 15007KT 6000 NSW SCT030 \n BECMG 1702/1703 BKN030 \n BECMG 1713/1714 3500 -RA SCT010 BKN025"
"taf	RKSI	2020-11-16 12:06:00	TAF RKSI 161100Z 1612/1718 08006KT 4000 BR NSC TN10/1621Z TX18/1705Z \n BECMG 1616/1617 11007KT 2500 \n BECMG 1621/1622 15007KT 6000 NSW SCT030 \n BECMG 1702/1703 BKN030 \n BECMG 1713/1714 3500 -RA SCT010 BKN025"
"taf	RKSI	2020-11-16 18:00:00	TAF RKSI 161700Z 1618/1724 10007KT 4000 BR SCT030 TN10/1620Z TX18/1706Z TN13/1721Z \n BECMG 1621/1622 13007KT 6000 NSW \n TEMPO 1702/1704 -RA BKN030 BKN090 \n BECMG 1704/1705 BKN030 \n BECMG 1710/1711 16007KT 4000 -RA SCT010 BKN025 OVC080 \n BECMG 1720/1721 6000 NSW"
"taf	RKSI	2020-11-16 18:06:00	TAF RKSI 161700Z 1618/1724 10007KT 4000 BR SCT030 TN10/1620Z TX18/1706Z TN13/1721Z \n BECMG 1621/1622 13007KT 6000 NSW \n TEMPO 1702/1704 -RA BKN030 BKN090 \n BECMG 1704/1705 BKN030 \n BECMG 1710/1711 16007KT 4000 -RA SCT010 BKN025 OVC080 \n BECMG 1720/1721 6000 NSW"
"taf	RKSI	2020-11-17 00:00:00	TAF RKSI 172300Z 1800/1906 16012KT 6000 BKN025 OVC080 TX20/1806Z TN16/1822Z TX17/1905Z \n BECMG 1804/1805 16015G25KT -RA SCT010 BKN025 OVC070 \n BECMG 1814/1815 19025G38KT 3500 RA \n TEMPO 1818/1823 2500 TSRA SCT015CB BKN025 OVC060 \n BECMG 1823/1824 24015G28KT -RA \n BECMG 1904/1905 28015G25KT 6000 NSW BKN030 OVC090"
"taf	RKSI	2020-11-17 00:06:00	TAF RKSI 172300Z 1800/1906 16012KT 6000 BKN025 OVC080 TX20/1806Z TN16/1822Z TX17/1905Z \n BECMG 1804/1805 16015G25KT -RA SCT010 BKN025 OVC070 \n BECMG 1814/1815 19025G38KT 3500 RA \n TEMPO 1818/1823 2500 TSRA SCT015CB BKN025 OVC060 \n BECMG 1823/1824 24015G28KT -RA \n BECMG 1904/1905 28015G25KT 6000 NSW BKN030 OVC090"
"taf	RKSI	2020-11-17 06:00:00	TAF RKSI 170500Z 1706/1812 18008KT 6000 BKN030 BKN080 TN13/1721Z TX20/1805Z \n BECMG 1711/1712 15010KT 4000 -RA SCT010 BKN025 OVC070 \n BECMG 1720/1721 BR \n BECMG 1723/1724 6000 NSW \n BECMG 1805/1806 -RA \n BECMG 1810/1811 15015G25KT"
"taf	RKSI	2020-11-17 06:09:00	TAF RKSI 170500Z 1706/1812 18008KT 6000 BKN030 BKN080 TN13/1721Z TX20/1805Z \n BECMG 1711/1712 15010KT 4000 -RA SCT010 BKN025 OVC070 \n BECMG 1720/1721 BR \n BECMG 1723/1724 6000 NSW \n BECMG 1805/1806 -RA \n BECMG 1810/1811 15015G25KT"
"taf	RKSI	2020-11-17 09:03:00	TAF \n AMD TAF \n AMD RKSI 170905Z 1709/1812 16010KT 6000 -RA SCT010 BKN025 OVC070 TN13/1721Z TX20/1805Z \n BECMG 1711/1712 4000 \n BECMG 1720/1721 BR \n BECMG 1723/1724 6000 NSW \n BECMG 1805/1806 -RA \n BECMG 1810/1811 15015G25KT"
"taf	RKSI	2020-11-17 09:05:00	TAF \n AMD RKSI 170905Z 1709/1812 16010KT 6000 -RA SCT010 BKN025 OVC070 TN13/1721Z TX20/1805Z \n BECMG 1711/1712 4000 \n BECMG 1720/1721 BR \n BECMG 1723/1724 6000 NSW \n BECMG 1805/1806 -RA \n BECMG 1810/1811 15015G25KT"
"taf	RKSI	2020-11-17 12:00:00	TAF RKSI 171100Z 1712/1818 13007KT 4000 -RA SCT010 BKN025 OVC070 TN13/1721Z TX20/1805Z \n BECMG 1721/1722 16010KT 6000 NSW \n BECMG 1805/1806 -RA \n BECMG 1810/1811 16015G25KT 4000 \n BECMG 1814/1815 19025G35KT"
"taf	RKSI	2020-11-17 12:06:00	TAF RKSI 171100Z 1712/1818 13007KT 4000 -RA SCT010 BKN025 OVC070 TN13/1721Z TX20/1805Z \n BECMG 1721/1722 16010KT 6000 NSW \n BECMG 1805/1806 -RA \n BECMG 1810/1811 16015G25KT 4000 \n BECMG 1814/1815 19025G35KT"
"taf	RKSI	2020-11-17 16:50:00	TAF \n AMD RKSI 171550Z 1716/1818 13007KT 1500 -RA SCT006 BKN025 OVC070 TN13/1721Z TX20/1805Z \n BECMG 1720/1721 16010KT 6000 NSW \n BECMG 1805/1806 -RA \n BECMG 1810/1811 16015G25KT 4000 \n BECMG 1814/1815 19025G35KT"
"taf	RKSI	2020-11-17 16:51:00	TAF \n AMD TAF \n AMD RKSI 171550Z 1716/1818 13007KT 1500 -RA SCT006 BKN025 OVC070 TN13/1721Z TX20/1805Z \n BECMG 1720/1721 16010KT 6000 NSW \n BECMG 1805/1806 -RA \n BECMG 1810/1811 16015G25KT 4000 \n BECMG 1814/1815 19025G35KT"
"taf	RKSI	2020-11-17 18:00:00	TAF RKSI 171700Z 1718/1824 13007KT 2000 -RA SCT010 BKN025 OVC070 TN14/1721Z TX20/1806Z TN16/1822Z \n BECMG 1719/1720 16010KT 4000 BR \n BECMG 1723/1724 6000 NSW \n BECMG 1805/1806 16015G25KT -RA \n BECMG 1814/1815 19025G35KT 3500 RA \n TEMPO 1818/1823 2500 TSRA SCT015CB BKN025 OVC060"
"taf	RKSI	2020-11-17 18:06:00	TAF RKSI 171700Z 1718/1824 13007KT 2000 -RA SCT010 BKN025 OVC070 TN14/1721Z TX20/1806Z TN16/1822Z \n BECMG 1719/1720 16010KT 4000 BR \n BECMG 1723/1724 6000 NSW \n BECMG 1805/1806 16015G25KT -RA \n BECMG 1814/1815 19025G35KT 3500 RA \n TEMPO 1818/1823 2500 TSRA SCT015CB BKN025 OVC060"
"taf	RKSI	2020-11-18 00:00:00	TAF RKSI 182300Z 1900/2006 24020G35KT 2500 -RA SCT005 BKN025 OVC070 TX18/1901Z TN03/1922Z TX06/2005Z \n BECMG 1901/1902 27017G27KT 4000 \n BECMG 1903/1904 32017G27KT 6000 NSW BKN030 \n BECMG 2002/2003 SCT030"
"taf	RKSI	2020-11-18 00:09:00	TAF RKSI 182300Z 1900/2006 24020G35KT 2500 -RA SCT005 BKN025 OVC070 TX18/1901Z TN03/1922Z TX06/2005Z \n BECMG 1901/1902 27017G27KT 4000 \n BECMG 1903/1904 32017G27KT 6000 NSW BKN030 \n BECMG 2002/2003 SCT030"
"taf	RKSI	2020-11-18 06:00:00	TAF RKSI 180500Z 1806/1912 15015G25KT 6000 -RA SCT010 BKN025 OVC070 TN16/1816Z TX17/1901Z \n BECMG 1813/1814 19025G38KT 3500 RA \n TEMPO 1818/1822 2500 TSRA SCT010CB BKN025 OVC060 \n BECMG 1900/1901 24018G28KT -RA \n BECMG 1904/1905 29017G28KT 6000 NSW BKN030"
"taf	RKSI	2020-11-18 06:30:00	TAF RKSI 180500Z 1806/1912 15015G25KT 6000 -RA SCT010 BKN025 OVC070 TN16/1816Z TX17/1901Z \n BECMG 1813/1814 19025G38KT 3500 RA \n TEMPO 1818/1822 2500 TSRA SCT010CB BKN025 OVC060 \n BECMG 1900/1901 24018G28KT -RA \n BECMG 1904/1905 29017G28KT 6000 NSW BKN030"
"taf	RKSI	2020-11-18 09:35:00	TAF \n AMD RKSI 180835Z 1809/1912 15015G25KT 6000 BKN025 OVC070 TN16/1816Z TX17/1901Z \n BECMG 1811/1812 -RA SCT010 BKN025 OVC070 \n BECMG 1813/1814 19025G38KT 3500 RA \n TEMPO 1818/1822 2500 TSRA SCT010CB BKN025 OVC060 \n BECMG 1900/1901 24018G28KT -RA \n BECMG 1904/1905 29017G28KT 6000 NSW BKN030"
"taf	RKSI	2020-11-18 09:39:00	TAF \n AMD TAF \n AMD RKSI 180835Z 1809/1912 15015G25KT 6000 BKN025 OVC070 TN16/1816Z TX17/1901Z \n BECMG 1811/1812 -RA SCT010 BKN025 OVC070 \n BECMG 1813/1814 19025G38KT 3500 RA \n TEMPO 1818/1822 2500 TSRA SCT010CB BKN025 OVC060 \n BECMG 1900/1901 24018G28KT -RA \n BECMG 1904/1905 29017G28KT 6000 NSW BKN030"
"taf	RKSI	2020-11-18 12:00:00	TAF RKSI 181100Z 1812/1918 16015G25KT 6000 -RA BKN030 OVC090 TN16/1816Z TX17/1901Z \n BECMG 1814/1815 19025G38KT 3500 RA SCT010 BKN025 OVC070 \n TEMPO 1818/1822 2500 TSRA SCT010CB BKN025 OVC060 \n BECMG 1823/1824 24018G28KT -RA \n BECMG 1902/1903 29017G28KT 6000 NSW BKN030"
"taf	RKSI	2020-11-18 12:06:00	TAF RKSI 181100Z 1812/1918 16015G25KT 6000 -RA BKN030 OVC090 TN16/1816Z TX17/1901Z \n BECMG 1814/1815 19025G38KT 3500 RA SCT010 BKN025 OVC070 \n TEMPO 1818/1822 2500 TSRA SCT010CB BKN025 OVC060 \n BECMG 1823/1824 24018G28KT -RA \n BECMG 1902/1903 29017G28KT 6000 NSW BKN030"
"taf	RKSI	2020-11-18 18:00:00	TAF RKSI 181700Z 1818/1924 19025G38KT 4000 -RA SCT010 BKN025 OVC070 TN16/1820Z TX17/1901Z TN03/1922Z \n TEMPO 1819/1824 2000 TSRA SCT010CB BKN025 OVC060 \n BECMG 1900/1901 23018G28KT \n BECMG 1902/1903 30017G28KT 6000 NSW BKN030"
"taf	RKSI	2020-11-18 18:06:00	TAF RKSI 181700Z 1818/1924 19025G38KT 4000 -RA SCT010 BKN025 OVC070 TN16/1820Z TX17/1901Z TN03/1922Z \n TEMPO 1819/1824 2000 TSRA SCT010CB BKN025 OVC060 \n BECMG 1900/1901 23018G28KT \n BECMG 1902/1903 30017G28KT 6000 NSW BKN030"
"taf	RKSI	2020-11-19 00:00:00	TAF RKSI 192300Z 2000/2106 32015G25KT 9999 BKN025 TX06/2006Z TN01/2021Z TX11/2105Z \n BECMG 2004/2005 SCT030 \n BECMG 2010/2011 34010KT CAVOK \n BECMG 2013/2014 06007KT \n BECMG 2101/2102 12006KT"
"taf	RKSI	2020-11-19 00:06:00	TAF RKSI 192300Z 2000/2106 32015G25KT 9999 BKN025 TX06/2006Z TN01/2021Z TX11/2105Z \n BECMG 2004/2005 SCT030 \n BECMG 2010/2011 34010KT CAVOK \n BECMG 2013/2014 06007KT \n BECMG 2101/2102 12006KT"
"taf	RKSI	2020-11-19 03:35:00	TAF \n AMD RKSI 190235Z 1903/2006 30020G35KT 4000 -RA SCT005 BKN025 OVC070 TN03/1922Z TX06/2005Z \n BECMG 1904/1905 BR BKN030 \n BECMG 1909/1910 33017G30KT 6000 NSW \n BECMG 2002/2003 SCT030"
"taf	RKSI	2020-11-19 03:45:00	TAF \n AMD TAF \n AMD RKSI 190235Z 1903/2006 30020G35KT 4000 -RA SCT005 BKN025 OVC070 TN03/1922Z TX06/2005Z \n BECMG 1904/1905 BR BKN030 \n BECMG 1909/1910 33017G30KT 6000 NSW \n BECMG 2002/2003 SCT030"
"taf	RKSI	2020-11-19 06:00:00	TAF RKSI 190500Z 1906/2012 32018G30KT 9999 FEW015 BKN030 TN02/1921Z TX06/2006Z \n BECMG 2005/2006 SCT030 \n BECMG 2009/2010 35015KT CAVOK"
"taf	RKSI	2020-11-19 06:06:00	TAF RKSI 190500Z 1906/2012 32018G30KT 9999 FEW015 BKN030 TN02/1921Z TX06/2006Z \n BECMG 2005/2006 SCT030 \n BECMG 2009/2010 35015KT CAVOK"
"taf	RKSI	2020-11-19 12:00:00	TAF RKSI 191100Z 1912/2018 31017G28KT 9999 FEW015 BKN030 TN02/1921Z TX06/2006Z \n BECMG 2004/2005 SCT030 \n BECMG 2010/2011 34013KT CAVOK \n BECMG 2014/2015 06007KT"
"taf	RKSI	2020-11-19 12:09:00	TAF RKSI 191100Z 1912/2018 31017G28KT 9999 FEW015 BKN030 TN02/1921Z TX06/2006Z \n BECMG 2004/2005 SCT030 \n BECMG 2010/2011 34013KT CAVOK \n BECMG 2014/2015 06007KT"
"taf	RKSI	2020-11-19 18:00:00	TAF RKSI 191700Z 1918/2024 31015G25KT 9999 FEW010 BKN025 TN03/1921Z TX06/2006Z TN01/2021Z \n BECMG 2004/2005 SCT030 \n BECMG 2009/2010 34010KT CAVOK \n BECMG 2013/2014 06007KT"
"taf	RKSI	2020-11-19 18:06:00	TAF RKSI 191700Z 1918/2024 31015G25KT 9999 FEW010 BKN025 TN03/1921Z TX06/2006Z TN01/2021Z \n BECMG 2004/2005 SCT030 \n BECMG 2009/2010 34010KT CAVOK \n BECMG 2013/2014 06007KT"
"taf	RKSI	2020-11-20 00:00:00	TAF RKSI 202300Z 2100/2206 07007KT CAVOK TX12/2106Z TN05/2121Z TX09/2205Z \n BECMG 2104/2105 16010KT \n BECMG 2109/2110 24007KT 9999 FEW010 BKN025 OVC070 \n BECMG 2116/2117 32010KT \n TEMPO 2118/2121 4000 -RA \n BECMG 2201/2202 32015G25KT SCT030"
"taf	RKSI	2020-11-20 00:06:00	TAF RKSI 202300Z 2100/2206 07007KT CAVOK TX12/2106Z TN05/2121Z TX09/2205Z \n BECMG 2104/2105 16010KT \n BECMG 2109/2110 24007KT 9999 FEW010 BKN025 OVC070 \n BECMG 2116/2117 32010KT \n TEMPO 2118/2121 4000 -RA \n BECMG 2201/2202 32015G25KT SCT030"
"taf	RKSI	2020-11-20 06:00:00	TAF RKSI 200500Z 2006/2112 33015G25KT 9999 BKN025 TN00/2021Z TX11/2105Z \n BECMG 2007/2008 SCT030 \n BECMG 2011/2012 34010KT CAVOK \n BECMG 2014/2015 07007KT \n BECMG 2105/2106 20010KT \n BECMG 2110/2111 9999 FEW010 BKN025 BKN100"
"taf	RKSI	2020-11-20 06:09:00	TAF RKSI 200500Z 2006/2112 33015G25KT 9999 BKN025 TN00/2021Z TX11/2105Z \n BECMG 2007/2008 SCT030 \n BECMG 2011/2012 34010KT CAVOK \n BECMG 2014/2015 07007KT \n BECMG 2105/2106 20010KT \n BECMG 2110/2111 9999 FEW010 BKN025 BKN100"
"taf	RKSI	2020-11-20 12:00:00	TAF RKSI 201100Z 2012/2118 36010KT 9999 SCT025 TN00/2021Z TX11/2105Z \n BECMG 2014/2015 07008KT CAVOK \n BECMG 2106/2107 18010KT \n BECMG 2108/2109 9999 FEW010 BKN025 BKN100 \n BECMG 2114/2115 24008KT"
"taf	RKSI	2020-11-20 12:09:00	TAF RKSI 201100Z 2012/2118 36010KT 9999 SCT025 TN00/2021Z TX11/2105Z \n BECMG 2014/2015 07008KT CAVOK \n BECMG 2106/2107 18010KT \n BECMG 2108/2109 9999 FEW010 BKN025 BKN100 \n BECMG 2114/2115 24008KT"
"taf	RKSI	2020-11-20 18:00:00	TAF RKSI 201700Z 2018/2124 06007KT CAVOK TN00/2020Z TX12/2106Z TN05/2121Z \n BECMG 2105/2106 16010KT \n BECMG 2110/2111 24007KT 9999 FEW010 BKN025 OVC080 \n BECMG 2118/2119 32010KT 6000 -RA \n BECMG 2121/2122 NSW"
"taf	RKSI	2020-11-20 18:09:00	TAF RKSI 201700Z 2018/2124 06007KT CAVOK TN00/2020Z TX12/2106Z TN05/2121Z \n BECMG 2105/2106 16010KT \n BECMG 2110/2111 24007KT 9999 FEW010 BKN025 OVC080 \n BECMG 2118/2119 32010KT 6000 -RA \n BECMG 2121/2122 NSW"
"taf	RKSI	2020-11-21 00:00:00	TAF RKSI 212300Z 2200/2306 34010KT 9999 FEW010 BKN030 OVC070 TX08/2205Z TNM01/2221Z TX06/2305Z \n BECMG 2203/2204 34017G30KT SCT030 \n BECMG 2222/2223 33010KT CAVOK"
"taf	RKSI	2020-11-21 00:06:00	TAF RKSI 212300Z 2200/2306 34010KT 9999 FEW010 BKN030 OVC070 TX08/2205Z TNM01/2221Z TX06/2305Z \n BECMG 2203/2204 34017G30KT SCT030 \n BECMG 2222/2223 33010KT CAVOK"
"taf	RKSI	2020-11-21 06:00:00	TAF RKSI 210500Z 2106/2212 14010KT CAVOK TN05/2115Z TX09/2205Z \n BECMG 2108/2109 24007KT 9999 FEW010 BKN025 OVC070 \n BECMG 2116/2117 34008KT 6000 \n BECMG 2119/2120 3500 -RA \n BECMG 2122/2123 6000 NSW \n BECMG 2206/2207 33015G25KT CAVOK"
"taf	RKSI	2020-11-21 06:09:00	TAF RKSI 210500Z 2106/2212 14010KT CAVOK TN05/2115Z TX09/2205Z \n BECMG 2108/2109 24007KT 9999 FEW010 BKN025 OVC070 \n BECMG 2116/2117 34008KT 6000 \n BECMG 2119/2120 3500 -RA \n BECMG 2122/2123 6000 NSW \n BECMG 2206/2207 33015G25KT CAVOK"
"taf	RKSI	2020-11-21 12:00:00	TAF RKSI 211100Z 2112/2218 24007KT 9999 FEW010 BKN025 OVC070 TN05/2115Z TX09/2205Z \n TEMPO 2115/2116 34008KT 6000 -RA \n BECMG 2117/2118 34008KT 6000 \n BECMG 2119/2120 3500 -RA \n BECMG 2122/2123 6000 NSW \n BECMG 2203/2204 33015G25KT CAVOK"
"taf	RKSI	2020-11-21 12:06:00	TAF RKSI 211100Z 2112/2218 24007KT 9999 FEW010 BKN025 OVC070 TN05/2115Z TX09/2205Z \n TEMPO 2115/2116 34008KT 6000 -RA \n BECMG 2117/2118 34008KT 6000 \n BECMG 2119/2120 3500 -RA \n BECMG 2122/2123 6000 NSW \n BECMG 2203/2204 33015G25KT CAVOK"
"taf	RKSI	2020-11-21 12:45:00	TAF \n AMD RKSI 211145Z 2112/2218 24007KT 9999 FEW010 BKN025 OVC070 TN05/2115Z TX09/2205Z \n TEMPO 2112/2113 -RA \n TEMPO 2115/2116 34008KT 6000 \n BECMG 2119/2120 3500 -RA \n BECMG 2122/2123 6000 NSW \n BECMG 2203/2204 33015G25KT CAVOK"
"taf	RKSI	2020-11-21 12:48:00	TAF \n AMD TAF \n AMD RKSI 211145Z 2112/2218 24007KT 9999 FEW010 BKN025 OVC070 TN05/2115Z TX09/2205Z \n TEMPO 2112/2113 -RA \n TEMPO 2115/2116 34008KT 6000 \n BECMG 2119/2120 3500 -RA \n BECMG 2122/2123 6000 NSW \n BECMG 2203/2204 33015G25KT CAVOK"
"taf	RKSI	2020-11-21 12:54:00	TAF \n AMD TAF \n AMD RKSI 211155Z 2112/2218 24007KT 9999 FEW010 BKN025 OVC070 TN05/2115Z TX09/2205Z \n TEMPO 2112/2113 -RA \n TEMPO 2115/2116 34008KT 6000 -RA \n BECMG 2119/2120 3500 -RA \n BECMG 2122/2123 6000 NSW \n BECMG 2203/2204 33015G25KT CAVOK"
"taf	RKSI	2020-11-21 12:55:00	TAF \n AMD RKSI 211155Z 2112/2218 24007KT 9999 FEW010 BKN025 OVC070 TN05/2115Z TX09/2205Z \n TEMPO 2112/2113 -RA \n TEMPO 2115/2116 34008KT 6000 -RA \n BECMG 2119/2120 3500 -RA \n BECMG 2122/2123 6000 NSW \n BECMG 2203/2204 33015G25KT CAVOK"
"taf	RKSI	2020-11-21 14:50:00	TAF \n AMD RKSI 211350Z 2114/2218 24007KT 9999 FEW010 BKN025 OVC070 TN05/2115Z TX09/2205Z \n TEMPO 2114/2116 6000 -RA \n BECMG 2119/2120 34008KT 3500 -RA \n BECMG 2122/2123 6000 NSW \n BECMG 2203/2204 33015G25KT CAVOK"
"taf	RKSI	2020-11-21 14:54:00	TAF \n AMD TAF \n AMD RKSI 211350Z 2114/2218 24007KT 9999 FEW010 BKN025 OVC070 TN05/2115Z TX09/2205Z \n TEMPO 2114/2116 6000 -RA \n BECMG 2119/2120 34008KT 3500 -RA \n BECMG 2122/2123 6000 NSW \n BECMG 2203/2204 33015G25KT CAVOK"
"taf	RKSI	2020-11-21 18:00:00	TAF RKSI 211700Z 2118/2224 31010KT 4000 -RA FEW010 BKN025 OVC070 TN07/2120Z TX09/2205Z TNM01/2221Z \n BECMG 2121/2122 6000 NSW \n BECMG 2203/2204 33018G30KT 9999 SCT030 \n BECMG 2220/2221 33013KT CAVOK"
"taf	RKSI	2020-11-21 18:06:00	TAF RKSI 211700Z 2118/2224 31010KT 4000 -RA FEW010 BKN025 OVC070 TN07/2120Z TX09/2205Z TNM01/2221Z \n BECMG 2121/2122 6000 NSW \n BECMG 2203/2204 33018G30KT 9999 SCT030 \n BECMG 2220/2221 33013KT CAVOK"
"taf	RKSI	2020-11-22 00:00:00	TAF RKSI 222300Z 2300/2406 07006KT CAVOK TX06/2306Z TN00/2316Z TX07/2404Z \n BECMG 2301/2302 33008KT \n BECMG 2313/2314 07006KT 9999 FEW030 BKN150 \n BECMG 2403/2404 33007KT FEW030 BKN090"
"taf	RKSI	2020-11-22 00:09:00	TAF RKSI 222300Z 2300/2406 07006KT CAVOK TX06/2306Z TN00/2316Z TX07/2404Z \n BECMG 2301/2302 33008KT \n BECMG 2313/2314 07006KT 9999 FEW030 BKN150 \n BECMG 2403/2404 33007KT FEW030 BKN090"
"taf	RKSI	2020-11-22 06:00:00	TAF RKSI 220500Z 2206/2312 33016G28KT 9999 SCT030 BKN120 TNM02/2222Z TX06/2306Z \n BECMG 2217/2218 34010KT CAVOK"
"taf	RKSI	2020-11-22 06:06:00	TAF RKSI 220500Z 2206/2312 33016G28KT 9999 SCT030 BKN120 TNM02/2222Z TX06/2306Z \n BECMG 2217/2218 34010KT CAVOK"
"taf	RKSI	2020-11-22 12:00:00	TAF RKSI 221100Z 2212/2318 33015G25KT 9999 SCT030 TNM02/2222Z TX06/2306Z \n BECMG 2214/2215 33010KT CAVOK \n BECMG 2315/2316 03006KT 9999 FEW030 BKN150"
"taf	RKSI	2020-11-22 12:09:00	TAF RKSI 221100Z 2212/2318 33015G25KT 9999 SCT030 TNM02/2222Z TX06/2306Z \n BECMG 2214/2215 33010KT CAVOK \n BECMG 2315/2316 03006KT 9999 FEW030 BKN150"
"taf	RKSI	2020-11-22 18:00:00	TAF RKSI 221700Z 2218/2324 33010KT CAVOK TNM02/2222Z TX06/2306Z TN00/2316Z \n BECMG 2313/2314 03006KT 9999 FEW030 BKN150"
"taf	RKSI	2020-11-22 18:06:00	TAF RKSI 221700Z 2218/2324 33010KT CAVOK TNM02/2222Z TX06/2306Z TN00/2316Z \n BECMG 2313/2314 03006KT 9999 FEW030 BKN150"
"taf	RKSI	2020-11-23 00:00:00	TAF RKSI 232300Z 2400/2506 07006KT 9999 SCT030 BKN090 TX07/2405Z TN01/2418Z TX11/2505Z \n BECMG 2403/2404 33006KT FEW030 \n BECMG 2412/2413 07005KT \n BECMG 2504/2505 33006KT BKN030 BKN160"
"taf	RKSI	2020-11-23 00:06:00	TAF TAF RKSI 232300Z 2400/2506 07006KT 9999 SCT030 BKN090 TX07/2405Z TN01/2418Z TX11/2505Z \n BECMG 2403/2404 33006KT FEW030 \n BECMG 2412/2413 07005KT \n BECMG 2504/2505 33006KT BKN030 BKN160"
"taf	RKSI	2020-11-23 06:00:00	TAF RKSI 230500Z 2306/2412 33008KT CAVOK TN00/2322Z TX08/2406Z \n BECMG 2314/2315 07006KT 9999 FEW030 BKN150 \n BECMG 2323/2324 SCT030 BKN090 \n BECMG 2402/2403 34006KT \n BECMG 2408/2409 07005KT FEW030"
"taf	RKSI	2020-11-23 06:09:00	TAF RKSI 230500Z 2306/2412 33008KT CAVOK TN00/2322Z TX08/2406Z \n BECMG 2314/2315 07006KT 9999 FEW030 BKN150 \n BECMG 2323/2324 SCT030 BKN090 \n BECMG 2402/2403 34006KT \n BECMG 2408/2409 07005KT FEW030"
"taf	RKSI	2020-11-23 12:00:00	TAF RKSI 231100Z 2312/2418 01006KT CAVOK TNM01/2322Z TX08/2406Z \n BECMG 2313/2314 07006KT 9999 FEW030 BKN150 \n BECMG 2323/2324 SCT030 BKN090 \n BECMG 2402/2403 33006KT \n BECMG 2408/2409 07005KT FEW030 \n BECMG 2416/2417 BKN030 BKN160"
"taf	RKSI	2020-11-23 12:09:00	TAF RKSI 231100Z 2312/2418 01006KT CAVOK TNM01/2322Z TX08/2406Z \n BECMG 2313/2314 07006KT 9999 FEW030 BKN150 \n BECMG 2323/2324 SCT030 BKN090 \n BECMG 2402/2403 33006KT \n BECMG 2408/2409 07005KT FEW030 \n BECMG 2416/2417 BKN030 BKN160"
"taf	RKSI	2020-11-23 18:00:00	TAF RKSI 231700Z 2318/2424 07006KT 9999 FEW030 BKN150 TNM01/2322Z TX07/2406Z TN01/2417Z \n BECMG 2320/2321 SCT030 BKN090 \n BECMG 2401/2402 33006KT FEW030 \n BECMG 2410/2411 07005KT"
"taf	RKSI	2020-11-23 18:06:00	TAF RKSI 231700Z 2318/2424 07006KT 9999 FEW030 BKN150 TNM01/2322Z TX07/2406Z TN01/2417Z \n BECMG 2320/2321 SCT030 BKN090 \n BECMG 2401/2402 33006KT FEW030 \n BECMG 2410/2411 07005KT"
"taf	RKSI	2020-11-24 00:00:00	TAF RKSI 242300Z 2500/2606 15006KT 9999 SCT030 TX11/2505Z TN03/2522Z TX09/2605Z \n BECMG 2503/2504 32006KT BKN030 \n BECMG 2508/2509 SCT030 \n BECMG 2511/2512 07005KT \n BECMG 2600/2601 33006KT"
"taf	RKSI	2020-11-24 00:09:00	TAF RKSI 242300Z 2500/2606 15006KT 9999 SCT030 TX11/2505Z TN03/2522Z TX09/2605Z \n BECMG 2503/2504 32006KT BKN030 \n BECMG 2508/2509 SCT030 \n BECMG 2511/2512 07005KT \n BECMG 2600/2601 33006KT"
"taf	RKSI	2020-11-24 06:00:00	TAF RKSI 240500Z 2406/2512 34006KT 9999 FEW030 BKN100 TN03/2420Z TX10/2505Z \n BECMG 2407/2408 CAVOK \n BECMG 2415/2416 07006KT 9999 FEW030 BKN160 \n BECMG 2503/2504 32006KT BKN030 \n BECMG 2509/2510 SCT030"
"taf	RKSI	2020-11-24 06:09:00	TAF RKSI 240500Z 2406/2512 34006KT 9999 FEW030 BKN100 TN03/2420Z TX10/2505Z \n BECMG 2407/2408 CAVOK \n BECMG 2415/2416 07006KT 9999 FEW030 BKN160 \n BECMG 2503/2504 32006KT BKN030 \n BECMG 2509/2510 SCT030"
"taf	RKSI	2020-11-24 12:00:00	TAF RKSI 241100Z 2412/2518 34006KT CAVOK TN01/2420Z TX11/2505Z \n BECMG 2415/2416 07005KT 9999 FEW030 BKN160 \n BECMG 2500/2501 BKN030 \n BECMG 2503/2504 32006KT \n BECMG 2507/2508 SCT030 \n BECMG 2516/2517 07005KT"
"taf	RKSI	2020-11-24 12:06:00	TAF RKSI 241100Z 2412/2518 34006KT CAVOK TN01/2420Z TX11/2505Z \n BECMG 2415/2416 07005KT 9999 FEW030 BKN160 \n BECMG 2500/2501 BKN030 \n BECMG 2503/2504 32006KT \n BECMG 2507/2508 SCT030 \n BECMG 2516/2517 07005KT"
"taf	RKSI	2020-11-24 18:00:00	TAF RKSI 241700Z 2418/2524 04005KT 9999 FEW030 BKN160 TN01/2422Z TX11/2505Z TN03/2522Z \n BECMG 2500/2501 24006KT BKN030 \n BECMG 2504/2505 32006KT \n BECMG 2508/2509 SCT030 \n BECMG 2511/2512 07005KT"
"taf	RKSI	2020-11-24 18:06:00	TAF RKSI 241700Z 2418/2524 04005KT 9999 FEW030 BKN160 TN01/2422Z TX11/2505Z TN03/2522Z \n BECMG 2500/2501 24006KT BKN030 \n BECMG 2504/2505 32006KT \n BECMG 2508/2509 SCT030 \n BECMG 2511/2512 07005KT"
"taf	RKSI	2020-11-25 00:00:00	TAF RKSI 252300Z 2600/2706 33006KT CAVOK TX09/2606Z TN02/2621Z TX07/2705Z \n BECMG 2609/2610 07005KT 6000 NSC \n BECMG 2622/2623 34010KT 9999 SCT030 BKN100 \n BECMG 2702/2703 32015G25KT FEW030 SCT160"
"taf	RKSI	2020-11-25 00:06:00	TAF RKSI 252300Z 2600/2706 33006KT CAVOK TX09/2606Z TN02/2621Z TX07/2705Z \n BECMG 2609/2610 07005KT 6000 NSC \n BECMG 2622/2623 34010KT 9999 SCT030 BKN100 \n BECMG 2702/2703 32015G25KT FEW030 SCT160"
"taf	RKSI	2020-11-25 06:00:00	TAF RKSI 250500Z 2506/2612 34006KT 9999 SCT030 BKN160 TN03/2522Z TX09/2605Z \n BECMG 2610/2611 07005KT CAVOK"
"taf	RKSI	2020-11-25 06:06:00	TAF RKSI 250500Z 2506/2612 34006KT 9999 SCT030 BKN160 TN03/2522Z TX09/2605Z \n BECMG 2610/2611 07005KT CAVOK"
"taf	RKSI	2020-11-25 06:20:00	TAF \n AMD RKSI 250620Z 2506/2612 34006KT 9999 SCT030 BKN160 TN03/2522Z TX09/2605Z \n TEMPO 2506/2508 23006KT \n BECMG 2610/2611 07005KT CAVOK"
"taf	RKSI	2020-11-25 06:21:00	TAF \n AMD TAF \n AMD RKSI 250620Z 2506/2612 34006KT 9999 SCT030 BKN160 TN03/2522Z TX09/2605Z \n TEMPO 2506/2508 23006KT \n BECMG 2610/2611 07005KT CAVOK"
"taf	RKSI	2020-11-25 12:00:00	TAF RKSI 251100Z 2512/2618 07005KT 6000 SCT030 BKN160 TN03/2522Z TX09/2605Z \n BECMG 2515/2516 34006KT \n BECMG 2610/2611 07005KT CAVOK \n BECMG 2613/2614 33008KT 6000 NSC \n BECMG 2616/2617 SCT030 BKN100"
"taf	RKSI	2020-11-25 12:06:00	TAF RKSI 251100Z 2512/2618 07005KT 6000 SCT030 BKN160 TN03/2522Z TX09/2605Z \n BECMG 2515/2516 34006KT \n BECMG 2610/2611 07005KT CAVOK \n BECMG 2613/2614 33008KT 6000 NSC \n BECMG 2616/2617 SCT030 BKN100"
"taf	RKSI	2020-11-25 18:00:00	TAF RKSI 251700Z 2518/2624 07005KT 6000 NSC TN02/2521Z TX09/2606Z TN02/2621Z \n BECMG 2602/2603 33006KT CAVOK \n BECMG 2609/2610 07005KT 6000 NSC \n BECMG 2621/2622 34010KT 9999 SCT030 BKN100"
"taf	RKSI	2020-11-25 18:06:00	TAF RKSI 251700Z 2518/2624 07005KT 6000 NSC TN02/2521Z TX09/2606Z TN02/2621Z \n BECMG 2602/2603 33006KT CAVOK \n BECMG 2609/2610 07005KT 6000 NSC \n BECMG 2621/2622 34010KT 9999 SCT030 BKN100"
"taf	RKSI	2020-11-26 00:00:00	TAF RKSI 262300Z 2700/2806 33017G30KT CAVOK TX07/2704Z TNM03/2721Z TX03/2805Z \n BECMG 2721/2722 33013KT"
"taf	RKSI	2020-11-26 00:06:00	TAF RKSI 262300Z 2700/2806 33017G30KT CAVOK TX07/2704Z TNM03/2721Z TX03/2805Z \n BECMG 2721/2722 33013KT"
"taf	RKSI	2020-11-26 06:00:00	TAF RKSI 260500Z 2606/2712 33006KT CAVOK TN02/2621Z TX07/2706Z \n BECMG 2609/2610 07006KT 6000 NSC \n BECMG 2620/2621 34010KT FEW030 BKN100 \n BECMG 2701/2702 32017G30KT CAVOK"
"taf	RKSI	2020-11-26 06:06:00	TAF RKSI 260500Z 2606/2712 33006KT CAVOK TN02/2621Z TX07/2706Z \n BECMG 2609/2610 07006KT 6000 NSC \n BECMG 2620/2621 34010KT FEW030 BKN100 \n BECMG 2701/2702 32017G30KT CAVOK"
"taf	RKSI	2020-11-26 12:00:00	TAF RKSI 261100Z 2612/2718 07006KT 6000 NSC TN02/2621Z TX07/2704Z \n BECMG 2620/2621 34010KT FEW015 BKN100 \n BECMG 2701/2702 32017G30KT CAVOK"
"taf	RKSI	2020-11-26 12:06:00	TAF RKSI 261100Z 2612/2718 07006KT 6000 NSC TN02/2621Z TX07/2704Z \n BECMG 2620/2621 34010KT FEW015 BKN100 \n BECMG 2701/2702 32017G30KT CAVOK"
"taf	RKSI	2020-11-26 18:00:00	TAF RKSI 261700Z 2618/2724 33010KT 9999 SCT030 BKN110 TN03/2621Z TX07/2705Z TNM03/2721Z \n BECMG 2701/2702 33017G30KT CAVOK \n BECMG 2719/2720 33014KT"
"taf	RKSI	2020-11-26 18:06:00	TAF RKSI 261700Z 2618/2724 33010KT 9999 SCT030 BKN110 TN03/2621Z TX07/2705Z TNM03/2721Z \n BECMG 2701/2702 33017G30KT CAVOK \n BECMG 2719/2720 33014KT"
"taf	RKSI	2020-11-27 00:00:00	TAF RKSI 272300Z 2800/2906 32015G25KT 9999 FEW030 TX04/2805Z TNM02/2821Z TX04/2906Z \n BECMG 2810/2811 34007KT \n BECMG 2819/2820 BKN025 \n BECMG 2902/2903 32015G25KT SCT030"
"taf	RKSI	2020-11-27 00:06:00	TAF RKSI 272300Z 2800/2906 32015G25KT 9999 FEW030 TX04/2805Z TNM02/2821Z TX04/2906Z \n BECMG 2810/2811 34007KT \n BECMG 2819/2820 BKN025 \n BECMG 2902/2903 32015G25KT SCT030"
"taf	RKSI	2020-11-27 06:00:00	TAF RKSI 270500Z 2706/2812 32018G33KT 9999 FEW030 TNM02/2721Z TX03/2805Z \n BECMG 2722/2723 32015KT \n BECMG 2800/2801 32015G25KT \n BECMG 2811/2812 33012KT"
"taf	RKSI	2020-11-27 12:00:00	TAF RKSI 271100Z 2712/2818 33015G28KT 9999 FEW030 TNM02/2721Z TX03/2805Z \n BECMG 2810/2811 33011KT"
"taf	RKSI	2020-11-27 12:06:00	TAF RKSI 271100Z 2712/2818 33015G28KT 9999 FEW030 TNM02/2721Z TX03/2805Z \n BECMG 2810/2811 33011KT"
"taf	RKSI	2020-11-27 18:00:00	TAF RKSI 271700Z 2718/2824 33015G25KT 9999 FEW030 TNM03/2721Z TX04/2805Z TNM02/2821Z \n BECMG 2810/2811 34007KT \n BECMG 2819/2820 BKN025"
"taf	RKSI	2020-11-27 18:06:00	TAF RKSI 271700Z 2718/2824 33015G25KT 9999 FEW030 TNM03/2721Z TX04/2805Z TNM02/2821Z \n BECMG 2810/2811 34007KT \n BECMG 2819/2820 BKN025"
"taf	RKSI	2020-11-28 00:00:00	TAF RKSI 282300Z 2900/3006 34008KT 9999 BKN030 TX04/2906Z TNM02/2922Z TX04/3005Z \n BECMG 2901/2902 32015G25KT \n BECMG 2909/2910 34007KT \n BECMG 2912/2913 SCT030 \n BECMG 3000/3001 32015G25KT"
"taf	RKSI	2020-11-28 00:06:00	TAF RKSI 282300Z 2900/3006 34008KT 9999 BKN030 TX04/2906Z TNM02/2922Z TX04/3005Z \n BECMG 2901/2902 32015G25KT \n BECMG 2909/2910 34007KT \n BECMG 2912/2913 SCT030 \n BECMG 3000/3001 32015G25KT"
"taf	RKSI	2020-11-28 06:00:00	TAF RKSI 280500Z 2806/2912 32015G25KT 9999 FEW030 TNM02/2821Z TX04/2906Z \n BECMG 2810/2811 34008KT \n BECMG 2817/2818 BKN025 \n BECMG 2901/2902 32015G25KT \n BECMG 2907/2908 SCT030 \n BECMG 2910/2911 34007KT"
"taf	RKSI	2020-11-28 06:06:00	TAF RKSI 280500Z 2806/2912 32015G25KT 9999 FEW030 TNM02/2821Z TX04/2906Z \n BECMG 2810/2811 34008KT \n BECMG 2817/2818 BKN025 \n BECMG 2901/2902 32015G25KT \n BECMG 2907/2908 SCT030 \n BECMG 2910/2911 34007KT"
"taf	RKSI	2020-11-28 12:00:00	TAF RKSI 281100Z 2812/2918 34008KT 9999 FEW030 TNM02/2821Z TX04/2906Z \n BECMG 2817/2818 BKN030 \n BECMG 2901/2902 32015G25KT \n BECMG 2911/2912 34007KT"
"taf	RKSI	2020-11-28 12:06:00	TAF RKSI 281100Z 2812/2918 34008KT 9999 FEW030 TNM02/2821Z TX04/2906Z \n BECMG 2817/2818 BKN030 \n BECMG 2901/2902 32015G25KT \n BECMG 2911/2912 34007KT"
"taf	RKSI	2020-11-28 18:00:00	TAF RKSI 281700Z 2818/2924 34007KT CAVOK TNM01/2822Z TX04/2906Z TNM01/2922Z \n BECMG 2821/2822 9999 BKN030 \n BECMG 2901/2902 32015G25KT \n BECMG 2909/2910 34007KT \n BECMG 2911/2912 SCT030 \n BECMG 2923/2924 33015G25KT"
"taf	RKSI	2020-11-28 18:06:00	TAF RKSI 281700Z 2818/2924 34007KT CAVOK TNM01/2822Z TX04/2906Z TNM01/2922Z \n BECMG 2821/2822 9999 BKN030 \n BECMG 2901/2902 32015G25KT \n BECMG 2909/2910 34007KT \n BECMG 2911/2912 SCT030 \n BECMG 2923/2924 33015G25KT"
"taf	RKSI	2020-11-29 00:00:00	TAF RKSI 292300Z 3000/0106 32010KT CAVOK TX04/3006Z TNM02/3021Z TX05/0105Z \n BECMG 3011/3012 02006KT \n BECMG 3013/3014 08006KT \n BECMG 0100/0101 33008KT"
"taf	RKSI	2020-11-29 00:06:00	TAF RKSI 292300Z 3000/0106 32010KT CAVOK TX04/3006Z TNM02/3021Z TX05/0105Z \n BECMG 3011/3012 02006KT \n BECMG 3013/3014 08006KT \n BECMG 0100/0101 33008KT"
"taf	RKSI	2020-11-29 02:25:00	TAF \n AMD RKSI 290225Z 2902/3006 34008KT 9999 BKN030 TX04/2906Z TNM02/2922Z TX04/3005Z \n TEMPO 2902/2904 -RASN \n BECMG 2912/2913 07006KT SCT030 \n BECMG 3000/3001 33008KT"
"taf	RKSI	2020-11-29 02:27:00	TAF \n AMD TAF \n AMD RKSI 290225Z 2902/3006 34008KT 9999 BKN030 TX04/2906Z TNM02/2922Z TX04/3005Z \n TEMPO 2902/2904 -RASN \n BECMG 2912/2913 07006KT SCT030 \n BECMG 3000/3001 33008KT"
"taf	RKSI	2020-11-29 04:00:00	TAF \n AMD TAF \n AMD RKSI 290355Z 2904/3006 34008KT 9999 BKN030 TX04/2906Z TNM02/2922Z TX04/3005Z \n TEMPO 2904/2906 -RASN \n BECMG 2912/2913 07006KT SCT030 \n BECMG 3000/3001 33008KT"
"taf	RKSI	2020-11-29 04:55:00	TAF \n AMD RKSI 290355Z 2904/3006 34008KT 9999 BKN030 TX04/2906Z TNM02/2922Z TX04/3005Z \n TEMPO 2904/2906 -RASN \n BECMG 2912/2913 07006KT SCT030 \n BECMG 3000/3001 33008KT"
"taf	RKSI	2020-11-29 06:00:00	TAF RKSI 290500Z 2906/3012 33010KT 9999 BKN030 TNM02/2922Z TX04/3005Z \n BECMG 2907/2908 SCT030 \n BECMG 2912/2913 07006KT \n BECMG 2923/2924 33007KT BKN025 \n BECMG 3005/3006 SCT030"
"taf	RKSI	2020-11-29 06:06:00	TAF RKSI 290500Z 2906/3012 33010KT 9999 BKN030 TNM02/2922Z TX04/3005Z \n BECMG 2907/2908 SCT030 \n BECMG 2912/2913 07006KT \n BECMG 2923/2924 33007KT BKN025 \n BECMG 3005/3006 SCT030"
"taf	RKSI	2020-11-29 12:00:00	TAF RKSI 291100Z 2912/3018 33010KT 9999 SCT030 TNM02/2922Z TX04/3005Z \n BECMG 2913/2914 07006KT \n BECMG 3000/3001 33010KT \n BECMG 3013/3014 07006KT"
"taf	RKSI	2020-11-29 12:06:00	TAF RKSI 291100Z 2912/3018 33010KT 9999 SCT030 TNM02/2922Z TX04/3005Z \n BECMG 2913/2914 07006KT \n BECMG 3000/3001 33010KT \n BECMG 3013/3014 07006KT"
"taf	RKSI	2020-11-29 18:00:00	TAF RKSI 291700Z 2918/3024 05006KT 9999 FEW030 TNM02/2921Z TX04/3006Z TNM02/3021Z \n BECMG 3000/3001 32010KT CAVOK \n BECMG 3011/3012 02006KT \n BECMG 3013/3014 08006KT"
"taf	RKSI	2020-11-29 18:06:00	TAF RKSI 291700Z 2918/3024 05006KT 9999 FEW030 TNM02/2921Z TX04/3006Z TNM02/3021Z \n BECMG 3000/3001 32010KT CAVOK \n BECMG 3011/3012 02006KT \n BECMG 3013/3014 08006KT"
"taf	RKSI	2020-11-30 00:00:00	TAF RKSI 302300Z 0100/0206 07006KT 9999 FEW030 SCT150 TX05/0106Z TN00/0115Z TX04/0206Z \n BECMG 0101/0102 33007KT CAVOK \n BECMG 0117/0118 07006KT 9999 BKN030 BKN090 \n BECMG 0201/0202 33008KT \n BECMG 0203/0204 SCT030"
"taf	RKSI	2020-11-30 00:06:00	TAF RKSI 302300Z 0100/0206 07006KT 9999 FEW030 SCT150 TX05/0106Z TN00/0115Z TX04/0206Z \n BECMG 0101/0102 33007KT CAVOK \n BECMG 0117/0118 07006KT 9999 BKN030 BKN090 \n BECMG 0201/0202 33008KT \n BECMG 0203/0204 SCT030"
"taf	RKSI	2020-11-30 06:00:00	TAF RKSI 300500Z 3006/0112 33010KT CAVOK TNM03/3022Z TX05/0106Z \n BECMG 3012/3013 03006KT 9999 FEW030 SCT120 \n BECMG 3021/3022 09005KT CAVOK \n BECMG 0101/0102 33007KT \n BECMG 0111/0112 07006KT 9999 FEW030 BKN120"
"taf	RKSI	2020-11-30 06:06:00	TAF RKSI 300500Z 3006/0112 33010KT CAVOK TNM03/3022Z TX05/0106Z \n BECMG 3012/3013 03006KT 9999 FEW030 SCT120 \n BECMG 3021/3022 09005KT CAVOK \n BECMG 0101/0102 33007KT \n BECMG 0111/0112 07006KT 9999 FEW030 BKN120"
"taf	RKSI	2020-11-30 12:00:00	TAF RKSI 301100Z 3012/0118 34007KT CAVOK TNM03/3022Z TX05/0106Z \n BECMG 3013/3014 07006KT 9999 FEW030 SCT120 \n BECMG 0101/0102 33007KT CAVOK \n BECMG 0113/0114 07006KT 9999 FEW040 BKN120 \n BECMG 0116/0117 36007KT SCT030 BKN090"
"taf	RKSI	2020-11-30 12:06:00	TAF RKSI 301100Z 3012/0118 34007KT CAVOK TNM03/3022Z TX05/0106Z \n BECMG 3013/3014 07006KT 9999 FEW030 SCT120 \n BECMG 0101/0102 33007KT CAVOK \n BECMG 0113/0114 07006KT 9999 FEW040 BKN120 \n BECMG 0116/0117 36007KT SCT030 BKN090"
"taf	RKSI	2020-11-30 18:00:00	TAF RKSI 301700Z 3018/0124 07006KT 9999 FEW030 SCT150 TNM03/3022Z TX05/0106Z TN00/0115Z \n BECMG 0101/0102 33007KT CAVOK \n BECMG 0117/0118 07006KT 9999 BKN030 BKN090"
"taf	RKSI	2020-11-30 18:06:00	TAF RKSI 301700Z 3018/0124 07006KT 9999 FEW030 SCT150 TNM03/3022Z TX05/0106Z TN00/0115Z \n BECMG 0101/0102 33007KT CAVOK \n BECMG 0117/0118 07006KT 9999 BKN030 BKN090"
"taf	RKSI	2020-12-01 00:00:00	TAF RKSI 012300Z 0200/0306 07006KT 9999 BKN030 BKN090 TX05/0206Z TNM01/0221Z TX04/0306Z \n BECMG 0205/0206 33008KT SCT030 \n BECMG 0215/0216 07006KT \n BECMG 0219/0220 33013KT"
"taf	RKSI	2020-12-01 00:06:00	TAF RKSI 012300Z 0200/0306 07006KT 9999 BKN030 BKN090 TX05/0206Z TNM01/0221Z TX04/0306Z \n BECMG 0205/0206 33008KT SCT030 \n BECMG 0215/0216 07006KT \n BECMG 0219/0220 33013KT"
"taf	RKSI	2020-12-01 06:00:00	TAF RKSI 010500Z 0106/0212 34007KT 9999 FEW030 SCT150 TNM01/0122Z TX05/0206Z \n BECMG 0111/0112 07006KT \n BECMG 0116/0117 35008KT BKN030 BKN090 \n BECMG 0204/0205 SCT030"
"taf	RKSI	2020-12-01 06:06:00	TAF RKSI 010500Z 0106/0212 34007KT 9999 FEW030 SCT150 TNM01/0122Z TX05/0206Z \n BECMG 0111/0112 07006KT \n BECMG 0116/0117 35008KT BKN030 BKN090 \n BECMG 0204/0205 SCT030"
"taf	RKSI	2020-12-01 12:00:00	TAF RKSI 011100Z 0112/0218 36006KT 9999 FEW030 BKN130 TNM01/0122Z TX05/0206Z \n BECMG 0113/0114 07006KT \n BECMG 0116/0117 35008KT BKN030 BKN090 \n BECMG 0205/0206 SCT030"
"taf	RKSI	2020-12-01 12:06:00	TAF RKSI 011100Z 0112/0218 36006KT 9999 FEW030 BKN130 TNM01/0122Z TX05/0206Z \n BECMG 0113/0114 07006KT \n BECMG 0116/0117 35008KT BKN030 BKN090 \n BECMG 0205/0206 SCT030"
"taf	RKSI	2020-12-01 18:00:00	TAF RKSI 011700Z 0118/0224 07006KT 9999 BKN030 BKN090 TN02/0118Z TX05/0206Z TNM01/0221Z \n BECMG 0204/0205 33008KT SCT030 \n BECMG 0217/0218 07006KT"
"taf	RKSI	2020-12-01 18:06:00	TAF RKSI 011700Z 0118/0224 07006KT 9999 BKN030 BKN090 TN02/0118Z TX05/0206Z TNM01/0221Z \n BECMG 0204/0205 33008KT SCT030 \n BECMG 0217/0218 07006KT"
"taf	RKSI	2020-12-02 00:00:00	TAF RKSI 022300Z 0300/0406 34010KT CAVOK TX04/0306Z TNM03/0322Z TX05/0406Z \n BECMG 0301/0302 32015G25KT \n BECMG 0308/0309 33008KT \n BECMG 0317/0318 07005KT 9999 FEW030 BKN180 \n BECMG 0400/0401 32007KT \n BECMG 0404/0405 BKN030"
"taf	RKSI	2020-12-02 00:06:00	TAF RKSI 022300Z 0300/0406 34010KT CAVOK TX04/0306Z TNM03/0322Z TX05/0406Z \n BECMG 0301/0302 32015G25KT \n BECMG 0308/0309 33008KT \n BECMG 0317/0318 07005KT 9999 FEW030 BKN180 \n BECMG 0400/0401 32007KT \n BECMG 0404/0405 BKN030"
"taf	RKSI	2020-12-02 06:00:00	TAF RKSI 020500Z 0206/0312 34008KT 9999 SCT030 TNM01/0221Z TX04/0306Z \n BECMG 0300/0301 32015G25KT \n BECMG 0308/0309 33008KT"
"taf	RKSI	2020-12-02 06:06:00	TAF RKSI 020500Z 0206/0312 34008KT 9999 SCT030 TNM01/0221Z TX04/0306Z \n BECMG 0300/0301 32015G25KT \n BECMG 0308/0309 33008KT"
"taf	RKSI	2020-12-02 12:00:00	TAF RKSI 021100Z 0212/0318 34008KT 9999 SCT030 TNM01/0221Z TX04/0306Z \n BECMG 0215/0216 BKN030 \n BECMG 0220/0221 SCT030 \n BECMG 0300/0301 32015G25KT \n BECMG 0308/0309 33010KT \n BECMG 0313/0314 03006KT"
"taf	RKSI	2020-12-02 12:06:00	TAF RKSI 021100Z 0212/0318 34008KT 9999 SCT030 TNM01/0221Z TX04/0306Z \n BECMG 0215/0216 BKN030 \n BECMG 0220/0221 SCT030 \n BECMG 0300/0301 32015G25KT \n BECMG 0308/0309 33010KT \n BECMG 0313/0314 03006KT"
"taf	RKSI	2020-12-02 18:00:00	TAF RKSI 021700Z 0218/0324 33009KT 9999 BKN030 BKN100 TNM01/0222Z TX04/0306Z TNM03/0322Z \n BECMG 0221/0222 SCT030 \n BECMG 0300/0301 32015G25KT CAVOK \n BECMG 0308/0309 33010KT \n BECMG 0317/0318 06006KT 9999 FEW030 SCT180"
"taf	RKSI	2020-12-02 18:06:00	TAF RKSI 021700Z 0218/0324 33009KT 9999 BKN030 BKN100 TNM01/0222Z TX04/0306Z TNM03/0322Z \n BECMG 0221/0222 SCT030 \n BECMG 0300/0301 32015G25KT CAVOK \n BECMG 0308/0309 33010KT \n BECMG 0317/0318 06006KT 9999 FEW030 SCT180"
"taf	RKSI	2020-12-03 00:00:00	TAF RKSI 032300Z 0400/0506 33007KT CAVOK TX05/0406Z TNM01/0418Z TX06/0505Z \n BECMG 0409/0410 24005KT 9999 BKN030 \n BECMG 0412/0413 05006KT \n BECMG 0500/0501 12005KT"
"taf	RKSI	2020-12-03 00:06:00	TAF RKSI 032300Z 0400/0506 33007KT CAVOK TX05/0406Z TNM01/0418Z TX06/0505Z \n BECMG 0409/0410 24005KT 9999 BKN030 \n BECMG 0412/0413 05006KT \n BECMG 0500/0501 12005KT"
"taf	RKSI	2020-12-03 06:00:00	TAF RKSI 030500Z 0306/0412 32015G25KT CAVOK TNM03/0322Z TX05/0406Z \n BECMG 0310/0311 33007KT 9999 FEW030 BKN180 \n BECMG 0408/0409 07006KT BKN030"
"taf	RKSI	2020-12-03 06:06:00	TAF RKSI 030500Z 0306/0412 32015G25KT CAVOK TNM03/0322Z TX05/0406Z \n BECMG 0310/0311 33007KT 9999 FEW030 BKN180 \n BECMG 0408/0409 07006KT BKN030"
"taf	RKSI	2020-12-03 12:00:00	TAF RKSI 031100Z 0312/0418 32015G25KT CAVOK TNM03/0322Z TX05/0406Z \n BECMG 0313/0314 33007KT \n BECMG 0409/0410 07006KT 9999 BKN030"
"taf	RKSI	2020-12-03 12:06:00	TAF RKSI 031100Z 0312/0418 32015G25KT CAVOK TNM03/0322Z TX05/0406Z \n BECMG 0313/0314 33007KT \n BECMG 0409/0410 07006KT 9999 BKN030"
"taf	RKSI	2020-12-03 18:00:00	TAF RKSI 031700Z 0318/0424 07005KT CAVOK TNM03/0322Z TX05/0406Z TNM02/0418Z \n BECMG 0323/0324 33007KT \n BECMG 0406/0407 9999 BKN030 \n BECMG 0409/0410 07006KT"
"taf	RKSI	2020-12-03 18:06:00	TAF RKSI 031700Z 0318/0424 07005KT CAVOK TNM03/0322Z TX05/0406Z TNM02/0418Z \n BECMG 0323/0324 33007KT \n BECMG 0406/0407 9999 BKN030 \n BECMG 0409/0410 07006KT"
"taf	RKSI	2020-12-04 06:00:00	TAF RKSI 040500Z 0406/0512 33007KT 9999 SCT030 TNM01/0419Z TX06/0506Z \n BECMG 0412/0413 24005KT BKN030 \n BECMG 0416/0417 06006KT \n TEMPO 0417/0420 -SN \n BECMG 0501/0502 14006KT SCT030 \n BECMG 0506/0507 34007KT BKN030"
"taf	RKSI	2020-12-04 06:06:00	TAF RKSI 040500Z 0406/0512 33007KT 9999 SCT030 TNM01/0419Z TX06/0506Z \n BECMG 0412/0413 24005KT BKN030 \n BECMG 0416/0417 06006KT \n TEMPO 0417/0420 -SN \n BECMG 0501/0502 14006KT SCT030 \n BECMG 0506/0507 34007KT BKN030"
"taf	RKSI	2020-12-04 12:00:00	TAF RKSI 041100Z 0412/0518 06006KT 9999 SCT030 TNM01/0419Z TX06/0506Z \n BECMG 0413/0414 BKN030 \n TEMPO 0416/0418 -SN \n BECMG 0501/0502 13006KT SCT030 \n BECMG 0506/0507 34006KT BKN030 \n BECMG 0510/0511 07005KT SCT030"
"taf	RKSI	2020-12-04 12:06:00	TAF RKSI 041100Z 0412/0518 06006KT 9999 SCT030 TNM01/0419Z TX06/0506Z \n BECMG 0413/0414 BKN030 \n TEMPO 0416/0418 -SN \n BECMG 0501/0502 13006KT SCT030 \n BECMG 0506/0507 34006KT BKN030 \n BECMG 0510/0511 07005KT SCT030"
"taf	RKSI	2020-12-04 18:00:00	TAF RKSI 041700Z 0418/0524 14006KT 9999 BKN040 TNM01/0419Z TX06/0506Z TN02/0521Z \n TEMPO 0418/0422 -SN \n BECMG 0505/0506 32006KT \n BECMG 0515/0516 14006KT \n BECMG 0522/0523 SCT030"
"taf	RKSI	2020-12-04 18:06:00	TAF RKSI 041700Z 0418/0524 14006KT 9999 BKN040 TNM01/0419Z TX06/0506Z TN02/0521Z \n TEMPO 0418/0422 -SN \n BECMG 0505/0506 32006KT \n BECMG 0515/0516 14006KT \n BECMG 0522/0523 SCT030"
"taf	RKSI	2020-12-05 06:00:00	TAF RKSI 050500Z 0506/0612 32006KT 9999 SCT040 BKN200 TN02/0521Z TX08/0606Z \n BECMG 0507/0508 SCT030 BKN070 \n BECMG 0517/0518 14005KT 6000 \n BECMG 0601/0602 28008KT 9999 SCT040"
"taf	RKSI	2020-12-05 06:06:00	TAF RKSI 050500Z 0506/0612 32006KT 9999 SCT040 BKN200 TN02/0521Z TX08/0606Z \n BECMG 0507/0508 SCT030 BKN070 \n BECMG 0517/0518 14005KT 6000 \n BECMG 0601/0602 28008KT 9999 SCT040"
"taf	RKSI	2020-12-05 12:00:00	TAF RKSI 051100Z 0512/0618 06005KT 9999 BKN040 TN02/0521Z TX08/0606Z \n BECMG 0517/0518 14005KT 6000 \n BECMG 0601/0602 28008KT 9999 SCT030 \n BECMG 0615/0616 BKN030 BKN100"
"taf	RKSI	2020-12-05 12:06:00	TAF RKSI 051100Z 0512/0618 06005KT 9999 BKN040 TN02/0521Z TX08/0606Z \n BECMG 0517/0518 14005KT 6000 \n BECMG 0601/0602 28008KT 9999 SCT030 \n BECMG 0615/0616 BKN030 BKN100"
"taf	RKSI	2020-12-05 15:48:00	TAF \n AMD TAF \n AMD RKSI 051450Z 0515/0618 14005KT 6000 BKN040 TN02/0521Z TX08/0606Z \n TEMPO 0516/0518 -RA \n BECMG 0601/0602 28008KT 9999 SCT030 \n BECMG 0615/0616 BKN030 BKN100"
"taf	RKSI	2020-12-05 15:50:00	TAF \n AMD RKSI 051450Z 0515/0618 14005KT 6000 BKN040 TN02/0521Z TX08/0606Z \n TEMPO 0516/0518 -RA \n BECMG 0601/0602 28008KT 9999 SCT030 \n BECMG 0615/0616 BKN030 BKN100"
"taf	RKSI	2020-12-05 18:00:00	TAF RKSI 051700Z 0518/0624 06005KT 6000 BKN040 TN02/0521Z TX08/0606Z TN04/0622Z \n BECMG 0522/0523 13005KT \n BECMG 0602/0603 28008KT 9999 SCT030 \n BECMG 0616/0617 33009KT 4000 BR BKN030 BKN080 \n BECMG 0622/0623 6000 NSW"
"taf	RKSI	2020-12-05 18:06:00	TAF RKSI 051700Z 0518/0624 06005KT 6000 BKN040 TN02/0521Z TX08/0606Z TN04/0622Z \n BECMG 0522/0523 13005KT \n BECMG 0602/0603 28008KT 9999 SCT030 \n BECMG 0616/0617 33009KT 4000 BR BKN030 BKN080 \n BECMG 0622/0623 6000 NSW"
"taf	RKSI	2020-12-06 06:00:00	TAF RKSI 060500Z 0606/0712 28007KT 9999 SCT030 TN04/0622Z TX06/0708Z \n BECMG 0618/0619 33009KT 4000 BR BKN030 BKN080 \n BECMG 0622/0623 6000 NSW \n BECMG 0701/0702 32015G25KT 9999 SCT030 BKN150 \n BECMG 0703/0704 BKN025 BKN080 \n BECMG 0708/0709 SCT030"
"taf	RKSI	2020-12-06 06:06:00	TAF RKSI 060500Z 0606/0712 28007KT 9999 SCT030 TN04/0622Z TX06/0708Z \n BECMG 0618/0619 33009KT 4000 BR BKN030 BKN080 \n BECMG 0622/0623 6000 NSW \n BECMG 0701/0702 32015G25KT 9999 SCT030 BKN150 \n BECMG 0703/0704 BKN025 BKN080 \n BECMG 0708/0709 SCT030"
"taf	RKSI	2020-12-06 12:00:00	TAF RKSI 061100Z 0612/0718 28005KT 9999 SCT030 TN04/0615Z TX05/0708Z \n BECMG 0615/0616 33009KT 3000 BR BKN030 BKN080 \n BECMG 0622/0623 8000 NSW \n BECMG 0704/0705 32015G25KT \n BECMG 0707/0708 SCT030 BKN150 \n BECMG 0716/0717 33010KT"
"taf	RKSI	2020-12-06 12:06:00	TAF RKSI 061100Z 0612/0718 28005KT 9999 SCT030 TN04/0615Z TX05/0708Z \n BECMG 0615/0616 33009KT 3000 BR BKN030 BKN080 \n BECMG 0622/0623 8000 NSW \n BECMG 0704/0705 32015G25KT \n BECMG 0707/0708 SCT030 BKN150 \n BECMG 0716/0717 33010KT"
"taf	RKSI	2020-12-06 18:00:00	TAF RKSI 061700Z 0618/0724 34008KT 4000 BR SCT030 BKN070 TN04/0620Z TX05/0703Z TNM03/0721Z \n BECMG 0623/0624 6000 NSW \n BECMG 0702/0703 32015G25KT 9999 SCT030 BKN150 \n BECMG 0713/0714 SCT030 BKN070 \n BECMG 0717/0718 33010KT SCT030"
"taf	RKSI	2020-12-06 18:06:00	TAF RKSI 061700Z 0618/0724 34008KT 4000 BR SCT030 BKN070 TN04/0620Z TX05/0703Z TNM03/0721Z \n BECMG 0623/0624 6000 NSW \n BECMG 0702/0703 32015G25KT 9999 SCT030 BKN150 \n BECMG 0713/0714 SCT030 BKN070 \n BECMG 0717/0718 33010KT SCT030"
"taf	RKSI	2020-12-07 06:00:00	TAF RKSI 070500Z 0706/0812 33012KT 9999 SCT030 BKN150 TNM03/0716Z TX03/0805Z \n BECMG 0720/0721 07007KT \n BECMG 0800/0801 33007KT"
"taf	RKSI	2020-12-07 06:06:00	TAF RKSI 070500Z 0706/0812 33012KT 9999 SCT030 BKN150 TNM03/0716Z TX03/0805Z \n BECMG 0720/0721 07007KT \n BECMG 0800/0801 33007KT"
"taf	RKSI	2020-12-07 12:00:00	TAF RKSI 071100Z 0712/0818 33010KT 9999 SCT030 BKN150 TNM03/0716Z TX03/0805Z \n BECMG 0720/0721 07008KT \n BECMG 0800/0801 33007KT CAVOK \n BECMG 0815/0816 07006KT"
"taf	RKSI	2020-12-07 12:06:00	TAF RKSI 071100Z 0712/0818 33010KT 9999 SCT030 BKN150 TNM03/0716Z TX03/0805Z \n BECMG 0720/0721 07008KT \n BECMG 0800/0801 33007KT CAVOK \n BECMG 0815/0816 07006KT"
"taf	RKSI	2020-12-07 18:00:00	TAF RKSI 071700Z 0718/0824 36008KT CAVOK TNM02/0722Z TX03/0806Z TNM02/0822Z \n BECMG 0722/0723 07008KT \n BECMG 0800/0801 33008KT \n BECMG 0814/0815 07006KT \n BECMG 0823/0824 13010KT"
"taf	RKSI	2020-12-07 18:06:00	TAF RKSI 071700Z 0718/0824 36008KT CAVOK TNM02/0722Z TX03/0806Z TNM02/0822Z \n BECMG 0722/0723 07008KT \n BECMG 0800/0801 33008KT \n BECMG 0814/0815 07006KT \n BECMG 0823/0824 13010KT"
"taf	RKSI	2020-12-08 06:00:00	TAF RKSI 080500Z 0806/0912 33008KT CAVOK TNM02/0822Z TX06/0906Z \n BECMG 0814/0815 07006KT \n BECMG 0821/0822 25005KT \n BECMG 0900/0901 16008KT 9999 SCT030 \n BECMG 0908/0909 BKN030 OVC090"
"taf	RKSI	2020-12-08 06:06:00	TAF RKSI 080500Z 0806/0912 33008KT CAVOK TNM02/0822Z TX06/0906Z \n BECMG 0814/0815 07006KT \n BECMG 0821/0822 25005KT \n BECMG 0900/0901 16008KT 9999 SCT030 \n BECMG 0908/0909 BKN030 OVC090"
"taf	RKSI	2020-12-08 12:00:00	TAF RKSI 081100Z 0812/0918 06006KT CAVOK TNM02/0821Z TX06/0906Z \n BECMG 0900/0901 16008KT 9999 SCT030 \n BECMG 0908/0909 BKN030 BKN090 \n BECMG 0912/0913 26006KT 6000 -RA SCT010 BKN025 OVC080 \n TEMPO 0916/0918 4000 -RASN"
"taf	RKSI	2020-12-08 12:06:00	TAF RKSI 081100Z 0812/0918 06006KT CAVOK TNM02/0821Z TX06/0906Z \n BECMG 0900/0901 16008KT 9999 SCT030 \n BECMG 0908/0909 BKN030 BKN090 \n BECMG 0912/0913 26006KT 6000 -RA SCT010 BKN025 OVC080 \n TEMPO 0916/0918 4000 -RASN"
"taf	RKSI	2020-12-08 18:00:00	TAF RKSI 081700Z 0818/0924 06005KT CAVOK TNM02/0821Z TX06/0906Z TN03/0923Z \n BECMG 0900/0901 21008KT 9999 SCT030 \n BECMG 0912/0913 BKN030 BKN090 \n BECMG 0916/0917 25006KT 6000 -RA SCT010 BKN025 OVC080 \n BECMG 0922/0923 34008KT 4000 BR"
"taf	RKSI	2020-12-08 18:06:00	TAF RKSI 081700Z 0818/0924 06005KT CAVOK TNM02/0821Z TX06/0906Z TN03/0923Z \n BECMG 0900/0901 21008KT 9999 SCT030 \n BECMG 0912/0913 BKN030 BKN090 \n BECMG 0916/0917 25006KT 6000 -RA SCT010 BKN025 OVC080 \n BECMG 0922/0923 34008KT 4000 BR"
"taf	RKSI	2020-12-09 06:00:00	TAF RKSI 090500Z 0906/1012 16007KT 9999 SCT030 BKN130 TN03/0922Z TX08/1005Z \n BECMG 0910/0911 BKN030 OVC090 \n BECMG 0917/0918 6000 -RA SCT010 BKN025 OVC080 \n BECMG 0923/0924 24006KT NSW \n BECMG 1005/1006 31007KT 9999 SCT030"
"taf	RKSI	2020-12-09 06:06:00	TAF RKSI 090500Z 0906/1012 16007KT 9999 SCT030 BKN130 TN03/0922Z TX08/1005Z \n BECMG 0910/0911 BKN030 OVC090 \n BECMG 0917/0918 6000 -RA SCT010 BKN025 OVC080 \n BECMG 0923/0924 24006KT NSW \n BECMG 1005/1006 31007KT 9999 SCT030"
"taf	RKSI	2020-12-09 12:00:00	TAF RKSI 091100Z 0912/1018 16007KT 9999 BKN030 OVC090 TN03/0922Z TX08/1006Z \n BECMG 0917/0918 6000 -RA SCT010 BKN025 OVC080 \n BECMG 0923/0924 24006KT NSW \n BECMG 1005/1006 31007KT 9999 SCT030 \n BECMG 1012/1013 07005KT 6000 \n BECMG 1016/1017 4000 BR"
"taf	RKSI	2020-12-09 12:06:00	TAF RKSI 091100Z 0912/1018 16007KT 9999 BKN030 OVC090 TN03/0922Z TX08/1006Z \n BECMG 0917/0918 6000 -RA SCT010 BKN025 OVC080 \n BECMG 0923/0924 24006KT NSW \n BECMG 1005/1006 31007KT 9999 SCT030 \n BECMG 1012/1013 07005KT 6000 \n BECMG 1016/1017 4000 BR"
"taf	RKSI	2020-12-09 15:54:00	TAF \n AMD TAF \n AMD RKSI 091455Z 0915/1018 16007KT 9999 BKN030 OVC090 TN03/0922Z TX08/1006Z \n BECMG 0916/0917 6000 -RA SCT010 BKN025 OVC080 \n BECMG 0923/0924 24006KT NSW \n BECMG 1005/1006 31007KT 9999 SCT030 \n BECMG 1012/1013 07005KT 6000 \n BECMG 1016/1017 4000 BR"
"taf	RKSI	2020-12-09 15:55:00	TAF \n AMD RKSI 091455Z 0915/1018 16007KT 9999 BKN030 OVC090 TN03/0922Z TX08/1006Z \n BECMG 0916/0917 6000 -RA SCT010 BKN025 OVC080 \n BECMG 0923/0924 24006KT NSW \n BECMG 1005/1006 31007KT 9999 SCT030 \n BECMG 1012/1013 07005KT 6000 \n BECMG 1016/1017 4000 BR"
"taf	RKSI	2020-12-09 18:00:00	TAF RKSI 091700Z 0918/1024 16007KT 6000 -RA SCT010 BKN025 OVC080 TN03/0922Z TX08/1006Z TN03/1018Z \n BECMG 0920/0921 4000 \n BECMG 0923/0924 24006KT 6000 NSW \n BECMG 1003/1004 31006KT \n BECMG 1013/1014 07005KT 3000 BR SCT030 \n BECMG 1022/1023 23006KT 6000 NSW"
"taf	RKSI	2020-12-09 18:06:00	TAF RKSI 091700Z 0918/1024 16007KT 6000 -RA SCT010 BKN025 OVC080 TN03/0922Z TX08/1006Z TN03/1018Z \n BECMG 0920/0921 4000 \n BECMG 0923/0924 24006KT 6000 NSW \n BECMG 1003/1004 31006KT \n BECMG 1013/1014 07005KT 3000 BR SCT030 \n BECMG 1022/1023 23006KT 6000 NSW"
"taf	RKSI	2020-12-09 22:35:00	TAF \n AMD RKSI 092135Z 0922/1024 16007KT 6000 SCT010 BKN025 OVC080 TN03/0922Z TX08/1006Z TN03/1018Z \n BECMG 1003/1004 31006KT \n BECMG 1013/1014 07005KT 3000 BR SCT030 \n BECMG 1022/1023 23006KT 6000 NSW"
"taf	RKSI	2020-12-09 22:39:00	TAF \n AMD TAF \n AMD RKSI 092135Z 0922/1024 16007KT 6000 SCT010 BKN025 OVC080 TN03/0922Z TX08/1006Z TN03/1018Z \n BECMG 1003/1004 31006KT \n BECMG 1013/1014 07005KT 3000 BR SCT030 \n BECMG 1022/1023 23006KT 6000 NSW"
"taf	RKSI	2020-12-10 06:00:00	TAF RKSI 100500Z 1006/1112 30006KT 6000 SCT030 TN03/1020Z TX09/1105Z \n BECMG 1010/1011 33006KT 3000 BR \n BECMG 1017/1018 06005KT 1200 BKN010 \n BECMG 1022/1023 13005KT 4000 BKN030 BKN150 \n BECMG 1100/1101 29006KT 6000 NSW SCT030"
"taf	RKSI	2020-12-10 06:06:00	TAF RKSI 100500Z 1006/1112 30006KT 6000 SCT030 TN03/1020Z TX09/1105Z \n BECMG 1010/1011 33006KT 3000 BR \n BECMG 1017/1018 06005KT 1200 BKN010 \n BECMG 1022/1023 13005KT 4000 BKN030 BKN150 \n BECMG 1100/1101 29006KT 6000 NSW SCT030"
"taf	RKSI	2020-12-10 12:00:00	TAF RKSI 101100Z 1012/1118 33006KT 2500 BR SCT030 TN03/1020Z TX09/1105Z \n BECMG 1017/1018 05005KT 1200 BKN010 \n BECMG 1022/1023 13005KT 3000 BKN030 BKN150 \n BECMG 1101/1102 29006KT 6000 NSW SCT030 \n TEMPO 1105/1110 BKN030 \n BECMG 1112/1113 35010KT"
"taf	RKSI	2020-12-10 12:06:00	TAF RKSI 101100Z 1012/1118 33006KT 2500 BR SCT030 TN03/1020Z TX09/1105Z \n BECMG 1017/1018 05005KT 1200 BKN010 \n BECMG 1022/1023 13005KT 3000 BKN030 BKN150 \n BECMG 1101/1102 29006KT 6000 NSW SCT030 \n TEMPO 1105/1110 BKN030 \n BECMG 1112/1113 35010KT"
"taf	RKSI	2020-12-10 15:20:00	TAF \n AMD RKSI 101520Z 1015/1118 05005KT 1200 BR FEW010 SCT200 TN03/1020Z TX09/1105Z \n TEMPO 1017/1020 0700 FG BKN010 \n BECMG 1022/1023 13005KT 3000 BKN030 BKN150 \n BECMG 1101/1102 29006KT 6000 NSW SCT030 \n TEMPO 1105/1110 BKN030 \n BECMG 1112/1113 35010KT"
"taf	RKSI	2020-12-10 15:27:00	TAF \n AMD TAF \n AMD RKSI 101520Z 1015/1118 05005KT 1200 BR FEW010 SCT200 TN03/1020Z TX09/1105Z \n TEMPO 1017/1020 0700 FG BKN010 \n BECMG 1022/1023 13005KT 3000 BKN030 BKN150 \n BECMG 1101/1102 29006KT 6000 NSW SCT030 \n TEMPO 1105/1110 BKN030 \n BECMG 1112/1113 35010KT"
"taf	RKSI	2020-12-10 18:00:00	TAF RKSI 101700Z 1018/1124 06005KT 1000 BR SCT030 BKN180 TN02/1021Z TX09/1106Z TN00/1122Z \n TEMPO 1018/1022 0700 FG BKN010 \n BECMG 1022/1023 12005KT 3000 BKN030 BKN120 \n BECMG 1101/1102 28007KT 6000 NSW SCT030 \n BECMG 1112/1113 34010KT BKN030 BKN160 \n BECMG 1118/1119 SCT030"
"taf	RKSI	2020-12-10 18:06:00	TAF RKSI 101700Z 1018/1124 06005KT 1000 BR SCT030 BKN180 TN02/1021Z TX09/1106Z TN00/1122Z \n TEMPO 1018/1022 0700 FG BKN010 \n BECMG 1022/1023 12005KT 3000 BKN030 BKN120 \n BECMG 1101/1102 28007KT 6000 NSW SCT030 \n BECMG 1112/1113 34010KT BKN030 BKN160 \n BECMG 1118/1119 SCT030"
"taf	RKSI	2020-12-11 06:00:00	TAF RKSI 110500Z 1106/1212 28008KT 9999 SCT030 TN00/1122Z TX05/1205Z \n BECMG 1115/1116 34010KT CAVOK"
"taf	RKSI	2020-12-11 06:06:00	TAF RKSI 110500Z 1106/1212 28008KT 9999 SCT030 TN00/1122Z TX05/1205Z \n BECMG 1115/1116 34010KT CAVOK"
"taf	RKSI	2020-12-11 07:45:00	TAF \n AMD TAF \n AMD RKSI 110645Z 1107/1212 28008KT 6000 SCT030 TN00/1122Z TX05/1205Z \n BECMG 1115/1116 34010KT CAVOK"
"taf	RKSI	2020-12-11 12:00:00	TAF RKSI 111100Z 1112/1218 34006KT 4000 BR SCT030 TN00/1122Z TX06/1205Z \n BECMG 1117/1118 6000 NSW \n BECMG 1211/1212 07006KT"
"taf	RKSI	2020-12-11 12:06:00	TAF RKSI 111100Z 1112/1218 34006KT 4000 BR SCT030 TN00/1122Z TX06/1205Z \n BECMG 1117/1118 6000 NSW \n BECMG 1211/1212 07006KT"
"taf	RKSI	2020-12-11 18:00:00	TAF RKSI 111700Z 1118/1224 33010KT 8000 NSC TN00/1122Z TX06/1206Z TN01/1220Z \n BECMG 1211/1212 06006KT BKN025 OVC100 \n BECMG 1219/1220 09006KT 4000 -SNRA SCT010 BKN025 OVC070 \n TEMPO 1222/1224 12007KT 2000 -SN"
"taf	RKSI	2020-12-11 18:06:00	TAF RKSI 111700Z 1118/1224 33010KT 8000 NSC TN00/1122Z TX06/1206Z TN01/1220Z \n BECMG 1211/1212 06006KT BKN025 OVC100 \n BECMG 1219/1220 09006KT 4000 -SNRA SCT010 BKN025 OVC070 \n TEMPO 1222/1224 12007KT 2000 -SN"
"taf	RKSI	2020-12-12 06:00:00	TAF RKSI 120500Z 1206/1312 32008KT CAVOK TN00/1220Z TX03/1304Z \n BECMG 1212/1213 24007KT 6000 BKN025 OVC100 \n BECMG 1214/1215 06006KT \n BECMG 1218/1219 09007KT 4000 -SNRA SCT010 BKN020 OVC100 \n BECMG 1223/1224 2000 -SN \n BECMG 1305/1306 34020G35KT CAVOK"
"taf	RKSI	2020-12-12 06:06:00	TAF RKSI 120500Z 1206/1312 32008KT CAVOK TN00/1220Z TX03/1304Z \n BECMG 1212/1213 24007KT 6000 BKN025 OVC100 \n BECMG 1214/1215 06006KT \n BECMG 1218/1219 09007KT 4000 -SNRA SCT010 BKN020 OVC100 \n BECMG 1223/1224 2000 -SN \n BECMG 1305/1306 34020G35KT CAVOK"
"taf	RKSI	2020-12-12 12:00:00	TAF RKSI 121100Z 1212/1318 07006KT 9999 BKN025 OVC100 TN00/1220Z TX03/1304Z \n BECMG 1218/1219 4000 -SNRA SCT010 BKN025 OVC070 \n BECMG 1223/1224 2000 -SN \n BECMG 1304/1305 34020G35KT 7000 NSW SCT030"
"taf	RKSI	2020-12-12 12:06:00	TAF RKSI 121100Z 1212/1318 07006KT 9999 BKN025 OVC100 TN00/1220Z TX03/1304Z \n BECMG 1218/1219 4000 -SNRA SCT010 BKN025 OVC070 \n BECMG 1223/1224 2000 -SN \n BECMG 1304/1305 34020G35KT 7000 NSW SCT030"
"taf	RKSI	2020-12-12 18:00:00	TAF RKSI 121700Z 1218/1324 05006KT 6000 -SNRA SCT010 BKN025 OVC070 TN01/1220Z TX04/1303Z TNM08/1322Z \n BECMG 1219/1220 4000 \n BECMG 1222/1223 15010KT 2000 -SN \n BECMG 1303/1304 34018G35KT 7000 NSW NSC"
"taf	RKSI	2020-12-12 18:09:00	TAF RKSI 121700Z 1218/1324 05006KT 6000 -SNRA SCT010 BKN025 OVC070 TN01/1220Z TX04/1303Z TNM08/1322Z \n BECMG 1219/1220 4000 \n BECMG 1222/1223 15010KT 2000 -SN \n BECMG 1303/1304 34018G35KT 7000 NSW NSC"
"taf	RKSI	2020-12-12 22:29:00	TAF \n AMD RKSI 122229Z 1222/1324 15012KT 2000 -SN SCT010 BKN025 OVC070 TN01/1223Z TX04/1303Z TNM08/1322Z \n TEMPO 1222/1224 -TSSN SCT010 FEW015CB BKN025 OVC070 \n BECMG 1303/1304 34018G35KT 7000 NSW NSC"
"taf	RKSI	2020-12-12 22:33:00	TAF \n AMD TAF \n AMD RKSI 122229Z 1222/1324 15012KT 2000 -SN SCT010 BKN025 OVC070 TN01/1223Z TX04/1303Z TNM08/1322Z \n TEMPO 1222/1224 -TSSN SCT010 FEW015CB BKN025 OVC070 \n BECMG 1303/1304 34018G35KT 7000 NSW NSC"
"taf	RKSI	2020-12-13 06:00:00	TAF RKSI 130500Z 1306/1412 34018G35KT CAVOK TNM08/1322Z TXM03/1406Z \n BECMG 1400/1401 34015G25KT 9999 SCT040 \n BECMG 1407/1408 BKN030 \n BECMG 1411/1412 SCT040"
"taf	RKSI	2020-12-13 06:06:00	TAF RKSI 130500Z 1306/1412 34018G35KT CAVOK TNM08/1322Z TXM03/1406Z \n BECMG 1400/1401 34015G25KT 9999 SCT040 \n BECMG 1407/1408 BKN030 \n BECMG 1411/1412 SCT040"
"taf	RKSI	2020-12-13 12:00:00	TAF RKSI 131100Z 1312/1418 33018G35KT 9999 SCT040 TNM08/1323Z TXM03/1406Z \n BECMG 1400/1401 33015G25KT \n BECMG 1407/1408 BKN030 \n BECMG 1411/1412 SCT040 \n BECMG 1413/1415 33013KT"
"taf	RKSI	2020-12-13 12:06:00	TAF RKSI 131100Z 1312/1418 33018G35KT 9999 SCT040 TNM08/1323Z TXM03/1406Z \n BECMG 1400/1401 33015G25KT \n BECMG 1407/1408 BKN030 \n BECMG 1411/1412 SCT040 \n BECMG 1413/1415 33013KT"
"taf	RKSI	2020-12-13 18:00:00	TAF RKSI 131700Z 1318/1424 33015G25KT 9999 SCT040 TNM08/1323Z TXM03/1406Z TNM09/1421Z \n BECMG 1407/1408 BKN030 \n BECMG 1410/1411 SCT040 \n BECMG 1414/1415 33013KT"
"taf	RKSI	2020-12-13 18:06:00	TAF RKSI 131700Z 1318/1424 33015G25KT 9999 SCT040 TNM08/1323Z TXM03/1406Z TNM09/1421Z \n BECMG 1407/1408 BKN030 \n BECMG 1410/1411 SCT040 \n BECMG 1414/1415 33013KT"
"taf	RKSI	2020-12-14 06:00:00	TAF RKSI 140500Z 1406/1512 33015G25KT 9999 SCT040 TNM09/1422Z TXM03/1505Z \n BECMG 1420/1421 34010KT \n BECMG 1500/1501 33015G25KT \n BECMG 1507/1508 34010KT"
"taf	RKSI	2020-12-14 06:06:00	TAF RKSI 140500Z 1406/1512 33015G25KT 9999 SCT040 TNM09/1422Z TXM03/1505Z \n BECMG 1420/1421 34010KT \n BECMG 1500/1501 33015G25KT \n BECMG 1507/1508 34010KT"
"taf	RKSI	2020-12-14 12:00:00	TAF RKSI 141100Z 1412/1518 34015G25KT 9999 SCT040 TNM09/1422Z TXM03/1505Z \n BECMG 1500/1501 33013KT \n BECMG 1509/1510 34015G25KT"
"taf	RKSI	2020-12-14 12:06:00	TAF RKSI 141100Z 1412/1518 34015G25KT 9999 SCT040 TNM09/1422Z TXM03/1505Z \n BECMG 1500/1501 33013KT \n BECMG 1509/1510 34015G25KT"
"taf	RKSI	2020-12-14 18:00:00	TAF RKSI 141700Z 1418/1524 34015G25KT 9999 SCT040 TNM09/1422Z TXM03/1505Z TNM09/1522Z \n BECMG 1500/1501 33013KT \n BECMG 1509/1510 34015G25KT"
"taf	RKSI	2020-12-14 18:06:00	TAF RKSI 141700Z 1418/1524 34015G25KT 9999 SCT040 TNM09/1422Z TXM03/1505Z TNM09/1522Z \n BECMG 1500/1501 33013KT \n BECMG 1509/1510 34015G25KT"
"taf	RKSI	2020-12-15 06:00:00	TAF RKSI 150500Z 1506/1612 34013KT 9999 SCT040 TNM09/1522Z TXM03/1605Z \n BECMG 1520/1521 33015G25KT \n BECMG 1610/1611 34013KT"
"taf	RKSI	2020-12-15 06:06:00	TAF RKSI 150500Z 1506/1612 34013KT 9999 SCT040 TNM09/1522Z TXM03/1605Z \n BECMG 1520/1521 33015G25KT \n BECMG 1610/1611 34013KT"
"taf	RKSI	2020-12-15 12:00:00	TAF RKSI 151100Z 1512/1618 34013KT 9999 SCT040 TNM09/1522Z TXM03/1605Z \n BECMG 1520/1521 33015G25KT \n BECMG 1610/1611 34010KT"
"taf	RKSI	2020-12-15 12:06:00	TAF RKSI 151100Z 1512/1618 34013KT 9999 SCT040 TNM09/1522Z TXM03/1605Z \n BECMG 1520/1521 33015G25KT \n BECMG 1610/1611 34010KT"
"taf	RKSI	2020-12-15 18:00:00	TAF RKSI 151700Z 1518/1624 36010KT 9999 SCT040 TNM09/1522Z TXM03/1605Z TNM08/1621Z \n BECMG 1600/1601 33015G25KT \n BECMG 1609/1610 34010KT \n BECMG 1614/1615 04007KT"
"taf	RKSI	2020-12-15 18:06:00	TAF RKSI 151700Z 1518/1624 36010KT 9999 SCT040 TNM09/1522Z TXM03/1605Z TNM08/1621Z \n BECMG 1600/1601 33015G25KT \n BECMG 1609/1610 34010KT \n BECMG 1614/1615 04007KT"
"taf	RKSI	2020-12-16 12:00:00	TAF RKSI 161100Z 1612/1718 34010KT CAVOK TNM08/1622Z TX00/1706Z \n BECMG 1621/1622 05006KT 9999 SCT030 \n BECMG 1704/1705 17006KT BKN030 \n BECMG 1712/1713 06005KT 4000 -SN SCT010 BKN025 \n BECMG 1715/1716 2000 \n TEMPO 1716/1718 29006KT -SNRA"
"taf	RKSI	2020-12-16 12:06:00	TAF RKSI 161100Z 1612/1718 34010KT CAVOK TNM08/1622Z TX00/1706Z \n BECMG 1621/1622 05006KT 9999 SCT030 \n BECMG 1704/1705 17006KT BKN030 \n BECMG 1712/1713 06005KT 4000 -SN SCT010 BKN025 \n BECMG 1715/1716 2000 \n TEMPO 1716/1718 29006KT -SNRA"
"taf	RKSI	2020-12-16 18:00:00	TAF RKSI 161700Z 1618/1724 05006KT CAVOK TNM09/1622Z TX00/1706Z TNM02/1722Z \n BECMG 1704/1705 18007KT 9999 BKN030 \n BECMG 1712/1713 26010KT 4000 -SN SCT010 BKN025 \n BECMG 1715/1716 29008KT 2000 -SNRA \n BECMG 1719/1720 33010KT 6000 NSW \n BECMG 1721/1722 34015G25KT 9999 SCT030"
"taf	RKSI	2020-12-16 18:06:00	TAF RKSI 161700Z 1618/1724 05006KT CAVOK TNM09/1622Z TX00/1706Z TNM02/1722Z \n BECMG 1704/1705 18007KT 9999 BKN030 \n BECMG 1712/1713 26010KT 4000 -SN SCT010 BKN025 \n BECMG 1715/1716 29008KT 2000 -SNRA \n BECMG 1719/1720 33010KT 6000 NSW \n BECMG 1721/1722 34015G25KT 9999 SCT030"
"taf	RKSI	2020-12-17 12:00:00	TAF RKSI 171100Z 1712/1818 17007KT 4000 -SN SCT010 BKN025 TNM01/1722Z TX01/1806Z \n BECMG 1715/1716 26007KT 1200 \n BECMG 1719/1720 03006KT 4000 BR \n BECMG 1800/1801 34010KT 9999 NSW SCT030 \n BECMG 1803/1804 33015G25KT"
"taf	RKSI	2020-12-17 12:06:00	TAF RKSI 171100Z 1712/1818 17007KT 4000 -SN SCT010 BKN025 TNM01/1722Z TX01/1806Z \n BECMG 1715/1716 26007KT 1200 \n BECMG 1719/1720 03006KT 4000 BR \n BECMG 1800/1801 34010KT 9999 NSW SCT030 \n BECMG 1803/1804 33015G25KT"
"taf	RKSI	2020-12-17 18:00:00	TAF RKSI 171700Z 1718/1824 13010KT 6000 -SN SCT010 BKN025 TNM01/1722Z TX01/1803Z TNM09/1822Z \n BECMG 1720/1721 26010KT 2500 BR \n BECMG 1722/1723 30010KT 4000 \n BECMG 1800/1801 34012KT 6000 NSW SCT030 \n BECMG 1803/1804 33017G30KT CAVOK \n BECMG 1820/1821 34012KT"
"taf	RKSI	2020-12-17 18:06:00	TAF RKSI 171700Z 1718/1824 13010KT 6000 -SN SCT010 BKN025 TNM01/1722Z TX01/1803Z TNM09/1822Z \n BECMG 1720/1721 26010KT 2500 BR \n BECMG 1722/1723 30010KT 4000 \n BECMG 1800/1801 34012KT 6000 NSW SCT030 \n BECMG 1803/1804 33017G30KT CAVOK \n BECMG 1820/1821 34012KT"
"taf	RKSI	2020-12-17 21:54:00	TAF \n AMD TAF \n AMD RKSI 172055Z 1721/1824 13010KT 6000 -SN SCT010 BKN025 TNM01/1722Z TX01/1803Z TNM09/1822Z \n BECMG 1722/1723 30010KT 4000 BR \n BECMG 1800/1801 34012KT 6000 NSW SCT030 \n BECMG 1803/1804 33017G30KT CAVOK \n BECMG 1820/1821 34012KT"
"taf	RKSI	2020-12-17 21:55:00	TAF \n AMD RKSI 172055Z 1721/1824 13010KT 6000 -SN SCT010 BKN025 TNM01/1722Z TX01/1803Z TNM09/1822Z \n BECMG 1722/1723 30010KT 4000 BR \n BECMG 1800/1801 34012KT 6000 NSW SCT030 \n BECMG 1803/1804 33017G30KT CAVOK \n BECMG 1820/1821 34012KT"
"taf	RKSI	2020-12-18 12:00:00	TAF RKSI 181100Z 1812/1918 33015G25KT CAVOK TNM09/1822Z TXM02/1905Z \n BECMG 1901/1902 33012KT \n BECMG 1908/1909 03007KT 9999 BKN030 \n BECMG 1913/1914 SCT030"
"taf	RKSI	2020-12-18 12:06:00	TAF RKSI 181100Z 1812/1918 33015G25KT CAVOK TNM09/1822Z TXM02/1905Z \n BECMG 1901/1902 33012KT \n BECMG 1908/1909 03007KT 9999 BKN030 \n BECMG 1913/1914 SCT030"
"taf	RKSI	2020-12-18 18:00:00	TAF RKSI 181700Z 1818/1924 34010KT CAVOK TNM09/1822Z TXM02/1905Z TNM07/1922Z \n BECMG 1902/1903 33015G25KT \n BECMG 1905/1906 35008KT 9999 SCT030 \n BECMG 1908/1909 BKN030 \n BECMG 1913/1914 07006KT SCT030"
"taf	RKSI	2020-12-18 18:06:00	TAF RKSI 181700Z 1818/1924 34010KT CAVOK TNM09/1822Z TXM02/1905Z TNM07/1922Z \n BECMG 1902/1903 33015G25KT \n BECMG 1905/1906 35008KT 9999 SCT030 \n BECMG 1908/1909 BKN030 \n BECMG 1913/1914 07006KT SCT030"
"taf	RKSI	2020-12-19 12:00:00	TAF RKSI 191100Z 1912/2018 04006KT 9999 BKN040 TNM07/1922Z TX01/2005Z \n BECMG 1914/1915 SCT040 \n BECMG 2002/2003 33010KT \n BECMG 2012/2013 04006KT"
"taf	RKSI	2020-12-19 12:06:00	TAF RKSI 191100Z 1912/2018 04006KT 9999 BKN040 TNM07/1922Z TX01/2005Z \n BECMG 1914/1915 SCT040 \n BECMG 2002/2003 33010KT \n BECMG 2012/2013 04006KT"
"taf	RKSI	2020-12-19 18:00:00	TAF RKSI 191700Z 1918/2024 07005KT 9999 SCT030 TNM07/1922Z TX01/2006Z TNM05/2022Z \n BECMG 2001/2002 33008KT CAVOK \n BECMG 2012/2013 07006KT 9999 SCT030 \n TEMPO 2022/2024 BKN030"
"taf	RKSI	2020-12-19 18:06:00	TAF RKSI 191700Z 1918/2024 07005KT 9999 SCT030 TNM07/1922Z TX01/2006Z TNM05/2022Z \n BECMG 2001/2002 33008KT CAVOK \n BECMG 2012/2013 07006KT 9999 SCT030 \n TEMPO 2022/2024 BKN030"
"taf	RKSI	2020-12-20 12:00:00	TAF RKSI 201100Z 2012/2118 24005KT CAVOK TNM05/2022Z TX03/2105Z \n BECMG 2014/2015 05005KT 9999 SCT030 \n TEMPO 2020/2023 BKN040 \n BECMG 2103/2104 17008KT \n BECMG 2106/2107 BKN030"
"taf	RKSI	2020-12-20 12:06:00	TAF RKSI 201100Z 2012/2118 24005KT CAVOK TNM05/2022Z TX03/2105Z \n BECMG 2014/2015 05005KT 9999 SCT030 \n TEMPO 2020/2023 BKN040 \n BECMG 2103/2104 17008KT \n BECMG 2106/2107 BKN030"
"taf	RKSI	2020-12-20 18:00:00	TAF RKSI 201700Z 2018/2124 06005KT 9999 SCT030 TNM06/2022Z TX03/2105Z TN00/2121Z \n TEMPO 2020/2022 BKN030 \n BECMG 2106/2107 16007KT BKN030 \n BECMG 2120/2121 4000 BR SCT030 \n BECMG 2123/2124 6000 NSW"
"taf	RKSI	2020-12-20 18:06:00	TAF RKSI 201700Z 2018/2124 06005KT 9999 SCT030 TNM06/2022Z TX03/2105Z TN00/2121Z \n TEMPO 2020/2022 BKN030 \n BECMG 2106/2107 16007KT BKN030 \n BECMG 2120/2121 4000 BR SCT030 \n BECMG 2123/2124 6000 NSW"
"taf	RKSI	2020-12-21 12:00:00	TAF RKSI 211100Z 2112/2218 16006KT 9999 SCT040 TN00/2121Z TX07/2206Z \n BECMG 2114/2115 BKN040 \n TEMPO 2117/2121 28007KT 3000 -RASN SCT010 BKN030 \n BECMG 2122/2123 27008KT 4000 BR SCT030 \n BECMG 2200/2201 7000 NSW \n BECMG 2212/2213 21007KT"
"taf	RKSI	2020-12-21 12:06:00	TAF RKSI 211100Z 2112/2218 16006KT 9999 SCT040 TN00/2121Z TX07/2206Z \n BECMG 2114/2115 BKN040 \n TEMPO 2117/2121 28007KT 3000 -RASN SCT010 BKN030 \n BECMG 2122/2123 27008KT 4000 BR SCT030 \n BECMG 2200/2201 7000 NSW \n BECMG 2212/2213 21007KT"
"taf	RKSI	2020-12-21 18:00:00	TAF RKSI 211700Z 2118/2224 16007KT 3000 BR BKN030 TN00/2121Z TX07/2206Z TN03/2221Z \n TEMPO 2118/2121 -RASN SCT010 BKN030 \n BECMG 2200/2201 6000 NSW SCT030 \n BECMG 2202/2203 27007KT \n BECMG 2213/2214 17006KT \n TEMPO 2220/2222 4000 BR"
"taf	RKSI	2020-12-21 18:06:00	TAF RKSI 211700Z 2118/2224 16007KT 3000 BR BKN030 TN00/2121Z TX07/2206Z TN03/2221Z \n TEMPO 2118/2121 -RASN SCT010 BKN030 \n BECMG 2200/2201 6000 NSW SCT030 \n BECMG 2202/2203 27007KT \n BECMG 2213/2214 17006KT \n TEMPO 2220/2222 4000 BR"
"taf	RKSI	2020-12-22 00:00:00	TAF RKSI 222300Z 2300/2406 17010KT 4000 BR BKN040 BKN180 TX09/2306Z TNM01/2322Z TX02/2405Z \n BECMG 2301/2302 21012KT 6000 NSW \n TEMPO 2313/2316 28010KT 4000 -RA SCT010 BKN030 \n BECMG 2317/2318 33010KT SCT030 \n BECMG 2402/2403 31015G25KT CAVOK"
"taf	RKSI	2020-12-22 00:06:00	TAF RKSI 222300Z 2300/2406 17010KT 4000 BR BKN040 BKN180 TX09/2306Z TNM01/2322Z TX02/2405Z \n BECMG 2301/2302 21012KT 6000 NSW \n TEMPO 2313/2316 28010KT 4000 -RA SCT010 BKN030 \n BECMG 2317/2318 33010KT SCT030 \n BECMG 2402/2403 31015G25KT CAVOK"
"taf	RKSI	2020-12-22 12:00:00	TAF RKSI 221100Z 2212/2318 25006KT 5000 BR NSC TN01/2220Z TX09/2306Z \n BECMG 2221/2222 16007KT 2500 SCT030 \n BECMG 2300/2301 4000 BKN030 \n BECMG 2303/2304 20012G22KT 6000 NSW \n BECMG 2312/2313 27010KT 4000 -RA \n BECMG 2316/2317 30010KT 6000 NSW SCT030"
"taf	RKSI	2020-12-22 12:06:00	TAF RKSI 221100Z 2212/2318 25006KT 5000 BR NSC TN01/2220Z TX09/2306Z \n BECMG 2221/2222 16007KT 2500 SCT030 \n BECMG 2300/2301 4000 BKN030 \n BECMG 2303/2304 20012G22KT 6000 NSW \n BECMG 2312/2313 27010KT 4000 -RA \n BECMG 2316/2317 30010KT 6000 NSW SCT030"
"taf	RKSI	2020-12-22 18:00:00	TAF RKSI 221700Z 2218/2324 13006KT 4000 BR NSC TNM00/2220Z TX09/2306Z TNM01/2322Z \n BECMG 2221/2222 2500 SCT030 \n BECMG 2300/2301 18008KT 4000 \n BECMG 2302/2303 21012G22KT 6000 NSW BKN030 BKN150 \n BECMG 2312/2313 28010KT 4000 -RA SCT010 BKN030 OVC100 \n BECMG 2315/2316 33010KT 6000 NSW SCT030"
"taf	RKSI	2020-12-22 18:06:00	TAF RKSI 221700Z 2218/2324 13006KT 4000 BR NSC TNM00/2220Z TX09/2306Z TNM01/2322Z \n BECMG 2221/2222 2500 SCT030 \n BECMG 2300/2301 18008KT 4000 \n BECMG 2302/2303 21012G22KT 6000 NSW BKN030 BKN150 \n BECMG 2312/2313 28010KT 4000 -RA SCT010 BKN030 OVC100 \n BECMG 2315/2316 33010KT 6000 NSW SCT030"
"taf	RKSI	2020-12-23 00:00:00	TAF RKSI 232300Z 2400/2506 32010KT CAVOK TX03/2405Z TNM05/2422Z TX03/2505Z \n BECMG 2402/2403 32015G25KT \n BECMG 2411/2412 34010KT 9999 SCT030 \n BECMG 2422/2423 05006KT CAVOK \n BECMG 2502/2503 31012KT"
"taf	RKSI	2020-12-23 00:06:00	TAF RKSI 232300Z 2400/2506 32010KT CAVOK TX03/2405Z TNM05/2422Z TX03/2505Z \n BECMG 2402/2403 32015G25KT \n BECMG 2411/2412 34010KT 9999 SCT030 \n BECMG 2422/2423 05006KT CAVOK \n BECMG 2502/2503 31012KT"
"taf	RKSI	2020-12-23 06:00:00	TAF RKSI 230500Z 2306/2412 23011KT 6000 BKN040 BKN180 TNM01/2321Z TX03/2405Z \n TEMPO 2313/2316 28010KT 4000 -RA SCT010 BKN030 \n BECMG 2317/2318 34010KT SCT030 \n BECMG 2402/2403 32015G25KT CAVOK"
"taf	RKSI	2020-12-23 06:06:00	TAF RKSI 230500Z 2306/2412 23011KT 6000 BKN040 BKN180 TNM01/2321Z TX03/2405Z \n TEMPO 2313/2316 28010KT 4000 -RA SCT010 BKN030 \n BECMG 2317/2318 34010KT SCT030 \n BECMG 2402/2403 32015G25KT CAVOK"
"taf	RKSI	2020-12-23 12:00:00	TAF RKSI 231100Z 2312/2418 23010KT 3000 BR SCT030 TNM01/2321Z TX03/2405Z \n TEMPO 2314/2316 26010KT -RA SCT010 BKN030 \n BECMG 2317/2318 34010KT 6000 NSW \n BECMG 2402/2403 32015G25KT 9999 \n BECMG 2411/2412 34010KT"
"taf	RKSI	2020-12-23 12:06:00	TAF RKSI 231100Z 2312/2418 23010KT 3000 BR SCT030 TNM01/2321Z TX03/2405Z \n TEMPO 2314/2316 26010KT -RA SCT010 BKN030 \n BECMG 2317/2318 34010KT 6000 NSW \n BECMG 2402/2403 32015G25KT 9999 \n BECMG 2411/2412 34010KT"
"taf	RKSI	2020-12-23 18:00:00	TAF RKSI 231700Z 2318/2424 34010KT 4000 BR SCT030 TNM01/2321Z TX03/2405Z TNM05/2422Z \n BECMG 2321/2322 6000 NSW \n BECMG 2402/2403 32015G25KT 9999 \n BECMG 2412/2413 34010KT"
"taf	RKSI	2020-12-23 18:06:00	TAF RKSI 231700Z 2318/2424 34010KT 4000 BR SCT030 TNM01/2321Z TX03/2405Z TNM05/2422Z \n BECMG 2321/2322 6000 NSW \n BECMG 2402/2403 32015G25KT 9999 \n BECMG 2412/2413 34010KT"
"taf	RKSI	2020-12-24 00:00:00	TAF RKSI 242300Z 2500/2606 07007KT 9999 SCT030 TX03/2505Z TN01/2522Z TX07/2605Z \n BECMG 2501/2502 33008KT \n BECMG 2513/2514 24008KT \n BECMG 2516/2517 BKN025 \n BECMG 2519/2520 SCT030 \n BECMG 2523/2524 33007KT"
"taf	RKSI	2020-12-24 00:06:00	TAF RKSI 242300Z 2500/2606 07007KT 9999 SCT030 TX03/2505Z TN01/2522Z TX07/2605Z \n BECMG 2501/2502 33008KT \n BECMG 2513/2514 24008KT \n BECMG 2516/2517 BKN025 \n BECMG 2519/2520 SCT030 \n BECMG 2523/2524 33007KT"
"taf	RKSI	2020-12-24 06:00:00	TAF RKSI 240500Z 2406/2512 32015G25KT CAVOK TNM05/2422Z TX03/2505Z \n BECMG 2409/2410 34010KT 9999 SCT030 \n BECMG 2422/2423 06006KT CAVOK \n BECMG 2501/2502 32010KT \n BECMG 2503/2504 31015G25KT \n BECMG 2507/2508 32008KT"
"taf	RKSI	2020-12-24 06:06:00	TAF RKSI 240500Z 2406/2512 32015G25KT CAVOK TNM05/2422Z TX03/2505Z \n BECMG 2409/2410 34010KT 9999 SCT030 \n BECMG 2422/2423 06006KT CAVOK \n BECMG 2501/2502 32010KT \n BECMG 2503/2504 31015G25KT \n BECMG 2507/2508 32008KT"
"taf	RKSI	2020-12-24 12:00:00	TAF RKSI 241100Z 2412/2518 34008KT 9999 SCT030 TNM05/2422Z TX03/2505Z \n BECMG 2420/2421 07006KT \n BECMG 2501/2502 32008KT CAVOK \n BECMG 2503/2504 31015G25KT \n BECMG 2507/2508 33007KT \n BECMG 2515/2516 07006KT 9999 BKN030"
"taf	RKSI	2020-12-24 12:06:00	TAF RKSI 241100Z 2412/2518 34008KT 9999 SCT030 TNM05/2422Z TX03/2505Z \n BECMG 2420/2421 07006KT \n BECMG 2501/2502 32008KT CAVOK \n BECMG 2503/2504 31015G25KT \n BECMG 2507/2508 33007KT \n BECMG 2515/2516 07006KT 9999 BKN030"
"taf	RKSI	2020-12-24 18:00:00	TAF RKSI 241700Z 2418/2524 07007KT 9999 SCT030 TNM05/2422Z TX03/2505Z TN01/2522Z \n BECMG 2500/2501 33008KT \n BECMG 2503/2504 33015G25KT \n BECMG 2511/2512 24008KT \n BECMG 2520/2521 33007KT"
"taf	RKSI	2020-12-24 18:06:00	TAF RKSI 241700Z 2418/2524 07007KT 9999 SCT030 TNM05/2422Z TX03/2505Z TN01/2522Z \n BECMG 2500/2501 33008KT \n BECMG 2503/2504 33015G25KT \n BECMG 2511/2512 24008KT \n BECMG 2520/2521 33007KT"
"taf	RKSI	2020-12-25 00:00:00	TAF RKSI 252300Z 2600/2706 33005KT CAVOK TX07/2606Z TN04/2614Z TX09/2705Z \n BECMG 2611/2612 13005KT 6000 SCT025 BKN120 \n BECMG 2616/2617 3500 BR \n BECMG 2619/2620 BKN025 BKN100 \n BECMG 2622/2623 16006KT 6000 NSW SCT030 BKN130 \n BECMG 2704/2705 BKN030 BKN130"
"taf	RKSI	2020-12-25 00:06:00	TAF RKSI 252300Z 2600/2706 33005KT CAVOK TX07/2606Z TN04/2614Z TX09/2705Z \n BECMG 2611/2612 13005KT 6000 SCT025 BKN120 \n BECMG 2616/2617 3500 BR \n BECMG 2619/2620 BKN025 BKN100 \n BECMG 2622/2623 16006KT 6000 NSW SCT030 BKN130 \n BECMG 2704/2705 BKN030 BKN130"
"taf	RKSI	2020-12-25 06:00:00	TAF RKSI 250500Z 2506/2612 31010KT CAVOK TN01/2522Z TX07/2606Z \n BECMG 2512/2513 25007KT 9999 SCT030 \n BECMG 2516/2517 BKN030 \n BECMG 2519/2520 07005KT SCT030 \n BECMG 2601/2602 32006KT CAVOK \n BECMG 2610/2611 07006KT 9999 FEW030 BKN180"
"taf	RKSI	2020-12-25 06:06:00	TAF RKSI 250500Z 2506/2612 31010KT CAVOK TN01/2522Z TX07/2606Z \n BECMG 2512/2513 25007KT 9999 SCT030 \n BECMG 2516/2517 BKN030 \n BECMG 2519/2520 07005KT SCT030 \n BECMG 2601/2602 32006KT CAVOK \n BECMG 2610/2611 07006KT 9999 FEW030 BKN180"
"taf	RKSI	2020-12-25 12:00:00	TAF RKSI 251100Z 2512/2618 06005KT CAVOK TN01/2522Z TX07/2606Z \n BECMG 2515/2516 24006KT 9999 SCT030 \n BECMG 2600/2601 32006KT CAVOK \n BECMG 2610/2611 14006KT 9999 FEW030 BKN180 \n BECMG 2616/2617 SCT025 BKN100"
"taf	RKSI	2020-12-25 12:06:00	TAF RKSI 251100Z 2512/2618 06005KT CAVOK TN01/2522Z TX07/2606Z \n BECMG 2515/2516 24006KT 9999 SCT030 \n BECMG 2600/2601 32006KT CAVOK \n BECMG 2610/2611 14006KT 9999 FEW030 BKN180 \n BECMG 2616/2617 SCT025 BKN100"
"taf	RKSI	2020-12-25 18:00:00	TAF RKSI 251700Z 2518/2624 24007KT 9999 SCT030 TN03/2519Z TX07/2606Z TN04/2614Z \n BECMG 2602/2603 33005KT CAVOK \n BECMG 2612/2613 14005KT 6000 SCT025 BKN120 \n BECMG 2616/2617 3500 BR \n BECMG 2622/2623 17006KT 6000 NSW"
"taf	RKSI	2020-12-25 18:06:00	TAF RKSI 251700Z 2518/2624 24007KT 9999 SCT030 TN03/2519Z TX07/2606Z TN04/2614Z \n BECMG 2602/2603 33005KT CAVOK \n BECMG 2612/2613 14005KT 6000 SCT025 BKN120 \n BECMG 2616/2617 3500 BR \n BECMG 2622/2623 17006KT 6000 NSW"
"taf	RKSI	2020-12-26 00:00:00	TAF RKSI 262300Z 2700/2806 16007KT 6000 NSC TX09/2706Z TN02/2722Z TX07/2805Z \n BECMG 2704/2705 BKN030 BKN120 \n TEMPO 2713/2716 3000 -RA SCT010 BKN025 OVC080 \n BECMG 2717/2718 36006KT 0400 FG BKN001 \n BECMG 2800/2801 2000 BR BKN010 \n BECMG 2803/2804 32006KT 6000 NSW SCT030"
"taf	RKSI	2020-12-26 00:06:00	TAF RKSI 262300Z 2700/2806 16007KT 6000 NSC TX09/2706Z TN02/2722Z TX07/2805Z \n BECMG 2704/2705 BKN030 BKN120 \n TEMPO 2713/2716 3000 -RA SCT010 BKN025 OVC080 \n BECMG 2717/2718 36006KT 0400 FG BKN001 \n BECMG 2800/2801 2000 BR BKN010 \n BECMG 2803/2804 32006KT 6000 NSW SCT030"
"taf	RKSI	2020-12-26 06:00:00	TAF RKSI 260500Z 2606/2712 32006KT 7000 SCT030 TN04/2616Z TX09/2705Z \n BECMG 2611/2612 13006KT \n BECMG 2617/2618 3500 BR BKN030 BKN120 \n BECMG 2622/2623 16008KT 6000 NSW SCT030 \n BECMG 2704/2705 BKN030 BKN130"
"taf	RKSI	2020-12-26 06:06:00	TAF RKSI 260500Z 2606/2712 32006KT 7000 SCT030 TN04/2616Z TX09/2705Z \n BECMG 2611/2612 13006KT \n BECMG 2617/2618 3500 BR BKN030 BKN120 \n BECMG 2622/2623 16008KT 6000 NSW SCT030 \n BECMG 2704/2705 BKN030 BKN130"
"taf	RKSI	2020-12-26 12:00:00	TAF RKSI 261100Z 2612/2718 16007KT 6000 FEW030 BKN180 TN03/2616Z TX09/2706Z \n BECMG 2616/2617 3500 BR BKN030 BKN120 \n BECMG 2622/2623 6000 NSW SCT030 \n BECMG 2704/2705 BKN030 BKN130 \n TEMPO 2713/2716 4000 -RA SCT010 BKN025 OVC070 \n BECMG 2716/2717 30006KT 2000 BR SCT010 BKN025"
"taf	RKSI	2020-12-26 12:06:00	TAF RKSI 261100Z 2612/2718 16007KT 6000 FEW030 BKN180 TN03/2616Z TX09/2706Z \n BECMG 2616/2617 3500 BR BKN030 BKN120 \n BECMG 2622/2623 6000 NSW SCT030 \n BECMG 2704/2705 BKN030 BKN130 \n TEMPO 2713/2716 4000 -RA SCT010 BKN025 OVC070 \n BECMG 2716/2717 30006KT 2000 BR SCT010 BKN025"
"taf	RKSI	2020-12-26 18:00:00	TAF RKSI 261700Z 2618/2724 16007KT 3000 BR BKN040 BKN120 TN02/2618Z TX09/2706Z TN02/2722Z \n BECMG 2622/2623 6000 NSW SCT030 \n BECMG 2704/2705 BKN030 BKN120 \n TEMPO 2713/2716 4000 -RA SCT010 BKN025 BKN080 \n BECMG 2716/2717 30006KT 2000 BR SCT010 BKN025 \n BECMG 2718/2719 36007KT 1200 BKN005"
"taf	RKSI	2020-12-26 18:09:00	TAF RKSI 261700Z 2618/2724 16007KT 3000 BR BKN040 BKN120 TN02/2618Z TX09/2706Z TN02/2722Z \n BECMG 2622/2623 6000 NSW SCT030 \n BECMG 2704/2705 BKN030 BKN120 \n TEMPO 2713/2716 4000 -RA SCT010 BKN025 BKN080 \n BECMG 2716/2717 30006KT 2000 BR SCT010 BKN025 \n BECMG 2718/2719 36007KT 1200 BKN005"
"taf	RKSI	2020-12-27 00:00:00	TAF RKSI 272300Z 2800/2906 16006KT 0800 FG SCT005 BKN015 TX07/2805Z TN00/2821Z TX02/2902Z \n BECMG 2801/2802 3000 BR SCT010 \n BECMG 2803/2804 30006KT 6000 NSW NSC \n BECMG 2812/2813 06005KT 3000 BR FEW030 BKN120 \n BECMG 2822/2823 35010KT 6000 NSW BKN025 OVC100 \n TEMPO 2903/2906 35015G25KT 4000 -SN SCT010 BKN025 OVC070"
"taf	RKSI	2020-12-27 00:06:00	TAF RKSI 272300Z 2800/2906 16006KT 0800 FG SCT005 BKN015 TX07/2805Z TN00/2821Z TX02/2902Z \n BECMG 2801/2802 3000 BR SCT010 \n BECMG 2803/2804 30006KT 6000 NSW NSC \n BECMG 2812/2813 06005KT 3000 BR FEW030 BKN120 \n BECMG 2822/2823 35010KT 6000 NSW BKN025 OVC100 \n TEMPO 2903/2906 35015G25KT 4000 -SN SCT010 BKN025 OVC070"
"taf	RKSI	2020-12-27 00:50:00	TAF \n AMD RKSI 272350Z 2800/2906 16006KT 0400 FG SCT005 BKN015 TX07/2805Z TN00/2821Z TX02/2902Z \n BECMG 2801/2802 2500 BR SCT010 \n BECMG 2803/2804 30006KT 6000 NSW NSC \n BECMG 2812/2813 06005KT 3000 BR FEW030 BKN120 \n BECMG 2822/2823 35010KT 6000 NSW BKN025 OVC100 \n TEMPO 2903/2906 35015G25KT 4000 -SN SCT010 BKN025 OVC070"
"taf	RKSI	2020-12-27 00:51:00	TAF \n AMD TAF \n AMD RKSI 272350Z 2800/2906 16006KT 0400 FG SCT005 BKN015 TX07/2805Z TN00/2821Z TX02/2902Z \n BECMG 2801/2802 2500 BR SCT010 \n BECMG 2803/2804 30006KT 6000 NSW NSC \n BECMG 2812/2813 06005KT 3000 BR FEW030 BKN120 \n BECMG 2822/2823 35010KT 6000 NSW BKN025 OVC100 \n TEMPO 2903/2906 35015G25KT 4000 -SN SCT010 BKN025 OVC070"
"taf	RKSI	2020-12-27 06:00:00	TAF RKSI 270500Z 2706/2812 16007KT 6000 BKN030 BKN120 TN02/2722Z TX07/2805Z \n TEMPO 2713/2716 3000 -RA SCT010 BKN025 OVC080 \n BECMG 2716/2717 35006KT 0400 FG BKN001 \n BECMG 2800/2801 2000 BR BKN010 \n BECMG 2803/2804 32006KT 6000 NSW SCT030"
"taf	RKSI	2020-12-27 06:06:00	TAF RKSI 270500Z 2706/2812 16007KT 6000 BKN030 BKN120 TN02/2722Z TX07/2805Z \n TEMPO 2713/2716 3000 -RA SCT010 BKN025 OVC080 \n BECMG 2716/2717 35006KT 0400 FG BKN001 \n BECMG 2800/2801 2000 BR BKN010 \n BECMG 2803/2804 32006KT 6000 NSW SCT030"
"taf	RKSI	2020-12-27 08:05:00	TAF \n AMD RKSI 270805Z 2708/2812 16007KT 6000 BKN030 BKN120 TN02/2722Z TX07/2805Z \n TEMPO 2709/2716 3000 -RA SCT010 BKN025 OVC080 \n BECMG 2716/2717 35006KT 0400 FG BKN001 \n BECMG 2800/2801 2000 BR BKN010 \n BECMG 2803/2804 32006KT 6000 NSW SCT030"
"taf	RKSI	2020-12-27 08:06:00	TAF \n AMD TAF \n AMD RKSI 270805Z 2708/2812 16007KT 6000 BKN030 BKN120 TN02/2722Z TX07/2805Z \n TEMPO 2709/2716 3000 -RA SCT010 BKN025 OVC080 \n BECMG 2716/2717 35006KT 0400 FG BKN001 \n BECMG 2800/2801 2000 BR BKN010 \n BECMG 2803/2804 32006KT 6000 NSW SCT030"
"taf	RKSI	2020-12-27 12:00:00	TAF \n AMD RKSI 271125Z 2712/2818 16007KT 6000 SCT010 BKN025 OVC070 TN02/2722Z TX07/2805Z \n TEMPO 2712/2716 32005KT 3000 -RA \n BECMG 2716/2717 35006KT 0400 FG BKN001 \n BECMG 2800/2801 2000 BR BKN010 \n BECMG 2803/2804 32006KT 6000 NSW SCT030 \n BECMG 2812/2813 4000 BR"
"taf	RKSI	2020-12-27 12:06:00	TAF RKSI 271100Z 2712/2818 16007KT 6000 SCT010 BKN025 OVC070 TN02/2722Z TX07/2805Z \n TEMPO 2712/2716 3000 -RA \n BECMG 2716/2717 35006KT 0400 FG BKN001 \n BECMG 2800/2801 2000 BR BKN010 \n BECMG 2803/2804 32006KT 6000 NSW SCT030 \n BECMG 2812/2813 4000 BR"
"taf	RKSI	2020-12-27 12:25:00	TAF \n AMD RKSI 271125Z 2712/2818 16007KT 6000 SCT010 BKN025 OVC070 TN02/2722Z TX07/2805Z \n TEMPO 2712/2716 32005KT 3000 -RA \n BECMG 2716/2717 35006KT 0400 FG BKN001 \n BECMG 2800/2801 2000 BR BKN010 \n BECMG 2803/2804 32006KT 6000 NSW SCT030 \n BECMG 2812/2813 4000 BR"
"taf	RKSI	2020-12-27 12:27:00	TAF \n AMD TAF \n AMD RKSI 271125Z 2712/2818 16007KT 6000 SCT010 BKN025 OVC070 TN02/2722Z TX07/2805Z \n TEMPO 2712/2716 32005KT 3000 -RA \n BECMG 2716/2717 35006KT 0400 FG BKN001 \n BECMG 2800/2801 2000 BR BKN010 \n BECMG 2803/2804 32006KT 6000 NSW SCT030 \n BECMG 2812/2813 4000 BR"
"taf	RKSI	2020-12-27 18:00:00	TAF RKSI 271700Z 2718/2824 16007KT 3000 BR SCT008 BKN025 OVC070 TN03/2722Z TX07/2805Z TN00/2822Z \n BECMG 2719/2720 35006KT 0400 FG BKN001 \n BECMG 2800/2801 16007KT 2500 BR BKN010 \n BECMG 2803/2804 31006KT 6000 NSW SCT030 \n BECMG 2812/2813 07005KT 4000 BR NSC \n BECMG 2822/2823 35007KT 6000 NSW SCT030 BKN120"
"taf	RKSI	2020-12-27 18:06:00	TAF RKSI 271700Z 2718/2824 16007KT 3000 BR SCT008 BKN025 OVC070 TN03/2722Z TX07/2805Z TN00/2822Z \n BECMG 2719/2720 35006KT 0400 FG BKN001 \n BECMG 2800/2801 16007KT 2500 BR BKN010 \n BECMG 2803/2804 31006KT 6000 NSW SCT030 \n BECMG 2812/2813 07005KT 4000 BR NSC \n BECMG 2822/2823 35007KT 6000 NSW SCT030 BKN120"
"taf	RKSI	2020-12-27 20:45:00	TAF \n AMD RKSI 271945Z 2720/2824 35006KT 2500 BR SCT006 BKN015 TN03/2722Z TX07/2805Z TN00/2822Z \n TEMPO 2720/2723 0500 FG BKN003 \n BECMG 2800/2801 4000 \n BECMG 2803/2804 31006KT 6000 NSW SCT030 \n BECMG 2812/2813 07005KT 4000 BR NSC \n BECMG 2822/2823 35007KT 6000 NSW SCT030 BKN120"
"taf	RKSI	2020-12-27 20:48:00	TAF \n AMD TAF \n AMD RKSI 271945Z 2720/2824 35006KT 2500 BR SCT006 BKN015 TN03/2722Z TX07/2805Z TN00/2822Z \n TEMPO 2720/2723 0500 FG BKN003 \n BECMG 2800/2801 4000 \n BECMG 2803/2804 31006KT 6000 NSW SCT030 \n BECMG 2812/2813 07005KT 4000 BR NSC \n BECMG 2822/2823 35007KT 6000 NSW SCT030 BKN120"
"taf	RKSI	2020-12-28 00:00:00	TAF RKSI 282300Z 2900/3006 33012KT 6000 BKN030 BKN100 TX02/2902Z TNM10/2922Z TXM07/3005Z \n BECMG 2901/2902 33015G25KT \n TEMPO 2902/2906 4000 -SN SCT010 BKN025 OVC070 \n BECMG 2908/2909 SCT030 \n BECMG 2912/2913 33020G35KT 9999"
"taf	RKSI	2020-12-28 00:06:00	TAF RKSI 282300Z 2900/3006 33012KT 6000 BKN030 BKN100 TX02/2902Z TNM10/2922Z TXM07/3005Z \n BECMG 2901/2902 33015G25KT \n TEMPO 2902/2906 4000 -SN SCT010 BKN025 OVC070 \n BECMG 2908/2909 SCT030 \n BECMG 2912/2913 33020G35KT 9999"
"taf	RKSI	2020-12-28 06:00:00	TAF RKSI 280500Z 2806/2912 14005KT 6000 FEW030 BKN150 TN00/2821Z TX02/2902Z \n BECMG 2812/2813 03005KT 2000 BR \n BECMG 2815/2816 0400 FG BKN001 \n BECMG 2822/2823 34013KT 2500 BR BKN025 OVC100 \n TEMPO 2903/2906 34015G25KT -SN SCT010 BKN025 OVC070 \n BECMG 2907/2908 7000 NSW SCT025 BKN120"
"taf	RKSI	2020-12-28 06:06:00	TAF RKSI 280500Z 2806/2912 14005KT 6000 FEW030 BKN150 TN00/2821Z TX02/2902Z \n BECMG 2812/2813 03005KT 2000 BR \n BECMG 2815/2816 0400 FG BKN001 \n BECMG 2822/2823 34013KT 2500 BR BKN025 OVC100 \n TEMPO 2903/2906 34015G25KT -SN SCT010 BKN025 OVC070 \n BECMG 2907/2908 7000 NSW SCT025 BKN120"
"taf	RKSI	2020-12-28 08:10:00	TAF \n AMD RKSI 280810Z 2808/2912 14005KT 4000 BR FEW030 BKN150 TN00/2821Z TX02/2902Z \n BECMG 2812/2813 03005KT 2000 \n BECMG 2815/2816 0400 FG BKN001 \n BECMG 2822/2823 34013KT 2500 BR BKN025 OVC100 \n TEMPO 2903/2906 34015G25KT -SN SCT010 BKN025 OVC070 \n BECMG 2907/2908 34015G25KT 7000 NSW SCT025 BKN120"
"taf	RKSI	2020-12-28 08:12:00	TAF \n AMD TAF \n AMD RKSI 280810Z 2808/2912 14005KT 4000 BR FEW030 BKN150 TN00/2821Z TX02/2902Z \n BECMG 2812/2813 03005KT 2000 \n BECMG 2815/2816 0400 FG BKN001 \n BECMG 2822/2823 34013KT 2500 BR BKN025 OVC100 \n TEMPO 2903/2906 34015G25KT -SN SCT010 BKN025 OVC070 \n BECMG 2907/2908 34015G25KT 7000 NSW SCT025 BKN120"
"taf	RKSI	2020-12-28 12:00:00	TAF RKSI 281100Z 2812/2918 14005KT 3000 BR FEW030 BKN150 TN00/2821Z TX02/2902Z \n BECMG 2815/2816 02005KT 0400 FG BKN001 \n BECMG 2822/2823 34013KT 2500 BR BKN025 OVC100 \n TEMPO 2903/2907 34015G25KT -SN \n BECMG 2908/2909 34015G25KT CAVOK"
"taf	RKSI	2020-12-28 12:06:00	TAF RKSI 281100Z 2812/2918 14005KT 3000 BR FEW030 BKN150 TN00/2821Z TX02/2902Z \n BECMG 2815/2816 02005KT 0400 FG BKN001 \n BECMG 2822/2823 34013KT 2500 BR BKN025 OVC100 \n TEMPO 2903/2907 34015G25KT -SN \n BECMG 2908/2909 34015G25KT CAVOK"
"taf	RKSI	2020-12-28 18:00:00	TAF RKSI 281700Z 2818/2924 33008KT 4000 BR FEW030 BKN150 TN01/2821Z TX02/2902Z TNM10/2922Z \n TEMPO 2818/2821 0400 FG BKN002 \n BECMG 2822/2823 33015G25KT 6000 NSW BKN030 BKN100 \n TEMPO 2903/2906 4000 -SN SCT010 BKN025 OVC070 \n BECMG 2908/2909 CAVOK \n BECMG 2914/2915 33020G35KT"
"taf	RKSI	2020-12-28 18:06:00	TAF RKSI 281700Z 2818/2924 33008KT 4000 BR FEW030 BKN150 TN01/2821Z TX02/2902Z TNM10/2922Z \n TEMPO 2818/2821 0400 FG BKN002 \n BECMG 2822/2823 33015G25KT 6000 NSW BKN030 BKN100 \n TEMPO 2903/2906 4000 -SN SCT010 BKN025 OVC070 \n BECMG 2908/2909 CAVOK \n BECMG 2914/2915 33020G35KT"
"taf	RKSI	2020-12-29 00:00:00	TAF RKSI 292300Z 3000/3106 33021G35KT 9999 SCT030 TXM08/3005Z TNM11/3021Z TXM03/3105Z \n BECMG 3016/3017 33015G25KT \n BECMG 3021/3022 33012KT \n BECMG 3102/3103 32015G25KT BKN030"
"taf	RKSI	2020-12-29 00:06:00	TAF RKSI 292300Z 3000/3106 33021G35KT 9999 SCT030 TXM08/3005Z TNM11/3021Z TXM03/3105Z \n BECMG 3016/3017 33015G25KT \n BECMG 3021/3022 33012KT \n BECMG 3102/3103 32015G25KT BKN030"
"taf	RKSI	2020-12-29 06:00:00	TAF RKSI 290500Z 2906/3012 33012KT 3000 -SN SCT010 BKN025 OVC070 TNM11/2922Z TXM08/3005Z \n BECMG 2907/2908 33017G27KT 6000 NSW BKN040 BKN080 \n BECMG 2909/2910 SCT030 \n BECMG 2912/2913 33020G37KT 9999"
"taf	RKSI	2020-12-29 06:06:00	TAF RKSI 290500Z 2906/3012 33012KT 3000 -SN SCT010 BKN025 OVC070 TNM11/2922Z TXM08/3005Z \n BECMG 2907/2908 33017G27KT 6000 NSW BKN040 BKN080 \n BECMG 2909/2910 SCT030 \n BECMG 2912/2913 33020G37KT 9999"
"taf	RKSI	2020-12-29 12:00:00	TAF RKSI 291100Z 2912/3018 33022G37KT 9999 SCT030 TNM11/2922Z TXM08/3005Z"
"taf	RKSI	2020-12-29 12:06:00	TAF RKSI 291100Z 2912/3018 33022G37KT 9999 SCT030 TNM11/2922Z TXM08/3005Z"
"taf	RKSI	2020-12-29 18:00:00	TAF RKSI 291700Z 2918/3024 33021G37KT 9999 SCT030 TNM11/2922Z TXM08/3005Z TNM12/3021Z \n BECMG 3017/3018 33015G25KT \n BECMG 3021/3022 33012KT"
"taf	RKSI	2020-12-29 18:06:00	TAF RKSI 291700Z 2918/3024 33021G37KT 9999 SCT030 TNM11/2922Z TXM08/3005Z TNM12/3021Z \n BECMG 3017/3018 33015G25KT \n BECMG 3021/3022 33012KT"
"taf	RKSI	2020-12-30 00:00:00	TAF RKSI 302300Z 3100/0106 35010KT 9999 BKN030 TXM03/3105Z TNM09/3122Z TXM01/0105Z \n BECMG 3107/3108 33015G25KT SCT030 \n BECMG 3113/3114 34008KT \n BECMG 3118/3119 07007KT \n BECMG 0102/0103 35006KT"
"taf	RKSI	2020-12-30 00:06:00	TAF RKSI 302300Z 3100/0106 35010KT 9999 BKN030 TXM03/3105Z TNM09/3122Z TXM01/0105Z \n BECMG 3107/3108 33015G25KT SCT030 \n BECMG 3113/3114 34008KT \n BECMG 3118/3119 07007KT \n BECMG 0102/0103 35006KT"
"taf	RKSI	2020-12-30 06:00:00	TAF \n AMD RKSI 300510Z 3006/3112 33017G30KT 9999 SCT030 TNM11/3021Z TXM03/3105Z \n BECMG 3017/3018 33013KT \n BECMG 3103/3104 32015G25KT BKN030 \n BECMG 3106/3107 SCT030 \n BECMG 3110/3111 33012KT"
"taf	RKSI	2020-12-30 06:06:00	TAF RKSI 300500Z 3006/3112 33017G35KT 9999 SCT030 TNM11/3021Z TXM03/3105Z \n BECMG 3013/3014 33015G25KT \n BECMG 3021/3022 33012KT \n BECMG 3103/3104 32015G25KT BKN030 \n BECMG 3106/3107 SCT030 \n BECMG 3110/3111 33012KT"
"taf	RKSI	2020-12-30 06:10:00	TAF \n AMD RKSI 300510Z 3006/3112 33017G30KT 9999 SCT030 TNM11/3021Z TXM03/3105Z \n BECMG 3017/3018 33013KT \n BECMG 3103/3104 32015G25KT BKN030 \n BECMG 3106/3107 SCT030 \n BECMG 3110/3111 33012KT"
"taf	RKSI	2020-12-30 06:12:00	TAF \n AMD TAF \n AMD RKSI 300510Z 3006/3112 33017G30KT 9999 SCT030 TNM11/3021Z TXM03/3105Z \n BECMG 3017/3018 33013KT \n BECMG 3103/3104 32015G25KT BKN030 \n BECMG 3106/3107 SCT030 \n BECMG 3110/3111 33012KT"
"taf	RKSI	2020-12-30 12:00:00	TAF RKSI 301100Z 3012/3118 34017G30KT 9999 SCT030 TNM11/3021Z TXM03/3105Z \n BECMG 3018/3019 33012KT \n BECMG 3100/3101 BKN030 \n BECMG 3103/3104 33015G25KT \n BECMG 3107/3108 SCT030 \n BECMG 3116/3117 07007KT"
"taf	RKSI	2020-12-30 12:06:00	TAF RKSI 301100Z 3012/3118 34017G30KT 9999 SCT030 TNM11/3021Z TXM03/3105Z \n BECMG 3018/3019 33012KT \n BECMG 3100/3101 BKN030 \n BECMG 3103/3104 33015G25KT \n BECMG 3107/3108 SCT030 \n BECMG 3116/3117 07007KT"
"taf	RKSI	2020-12-30 18:00:00	TAF RKSI 301700Z 3018/3124 34010KT CAVOK TNM11/3021Z TXM03/3105Z TNM09/3122Z \n BECMG 3100/3101 9999 BKN030 \n BECMG 3107/3108 33015G25KT SCT030 \n BECMG 3114/3115 34012KT \n BECMG 3117/3118 06007KT"
"taf	RKSI	2020-12-30 18:06:00	TAF RKSI 301700Z 3018/3124 34010KT CAVOK TNM11/3021Z TXM03/3105Z TNM09/3122Z \n BECMG 3100/3101 9999 BKN030 \n BECMG 3107/3108 33015G25KT SCT030 \n BECMG 3114/3115 34012KT \n BECMG 3117/3118 06007KT"
"taf	RKSI	2020-12-31 00:00:00	TAF RKSI 312300Z 0100/0206 17007KT 9999 SCT040 TX00/0105Z TNM08/0122Z TXM02/0205Z \n TEMPO 0100/0101 -SN BKN040 \n BECMG 0104/0105 33007KT \n BECMG 0110/0111 BKN030 \n BECMG 0116/0117 35015G25KT SCT030 \n BECMG 0120/0121 33012KT"
"taf	RKSI	2020-12-31 00:06:00	TAF RKSI 312300Z 0100/0206 17007KT 9999 SCT040 TX00/0105Z TNM08/0122Z TXM02/0205Z \n TEMPO 0100/0101 -SN BKN040 \n BECMG 0104/0105 33007KT \n BECMG 0110/0111 BKN030 \n BECMG 0116/0117 35015G25KT SCT030 \n BECMG 0120/0121 33012KT"
"taf	RKSI	2020-12-31 06:00:00	TAF \n AMD RKSI 310510Z 3106/0112 28006KT 9999 -SN BKN030 TNM09/3122Z TX00/0105Z \n BECMG 3107/3108 34012KT NSW SCT030 \n BECMG 3116/3117 07006KT BKN030 \n BECMG 3119/3120 35005KT SCT030 \n BECMG 0110/0111 07005KT"
"taf	RKSI	2020-12-31 06:06:00	TAF RKSI 310500Z 3106/0112 28006KT 9999 BKN030 TNM09/3122Z TX00/0105Z \n BECMG 3107/3108 34012KT SCT030 \n BECMG 3116/3117 07006KT BKN030 \n BECMG 3119/3120 35005KT SCT030 \n BECMG 0110/0111 07005KT"
"taf	RKSI	2020-12-31 06:10:00	TAF \n AMD RKSI 310510Z 3106/0112 28006KT 9999 -SN BKN030 TNM09/3122Z TX00/0105Z \n BECMG 3107/3108 34012KT NSW SCT030 \n BECMG 3116/3117 07006KT BKN030 \n BECMG 3119/3120 35005KT SCT030 \n BECMG 0110/0111 07005KT"
"taf	RKSI	2020-12-31 06:12:00	TAF \n AMD TAF \n AMD RKSI 310510Z 3106/0112 28006KT 9999 -SN BKN030 TNM09/3122Z TX00/0105Z \n BECMG 3107/3108 34012KT NSW SCT030 \n BECMG 3116/3117 07006KT BKN030 \n BECMG 3119/3120 35005KT SCT030 \n BECMG 0110/0111 07005KT"
"taf	RKSI	2020-12-31 12:00:00	TAF RKSI 311100Z 3112/0118 31008KT 9999 SCT030 TNM09/3122Z TX00/0105Z \n BECMG 3116/3117 34006KT -SN BKN030 \n BECMG 3119/3120 07005KT NSW SCT030 \n BECMG 0104/0105 33007KT \n BECMG 0110/0111 BKN030 \n BECMG 0115/0116 SCT030"
"taf	RKSI	2020-12-31 12:06:00	TAF RKSI 311100Z 3112/0118 31008KT 9999 SCT030 TNM09/3122Z TX00/0105Z \n BECMG 3116/3117 34006KT -SN BKN030 \n BECMG 3119/3120 07005KT NSW SCT030 \n BECMG 0104/0105 33007KT \n BECMG 0110/0111 BKN030 \n BECMG 0115/0116 SCT030"
"taf	RKSI	2020-12-31 18:00:00	TAF RKSI 311700Z 3118/0124 07006KT 9999 SCT030 TNM09/3122Z TX00/0105Z TNM08/0122Z \n BECMG 0104/0105 34007KT \n BECMG 0110/0111 BKN030 \n BECMG 0115/0116 36015G25KT SCT030 \n BECMG 0121/0122 35010KT"
"taf	RKSI	2020-12-31 18:06:00	TAF RKSI 311700Z 3118/0124 07006KT 9999 SCT030 TNM09/3122Z TX00/0105Z TNM08/0122Z \n BECMG 0104/0105 34007KT \n BECMG 0110/0111 BKN030 \n BECMG 0115/0116 36015G25KT SCT030 \n BECMG 0121/0122 35010KT"
"taf	RKSI	2020-12-31 21:50:00	TAF \n AMD RKSI 312050Z 3121/0124 07006KT 9999 SCT030 TNM09/3122Z TX00/0105Z TNM08/0122Z \n TEMPO 3121/3122 -SN BKN030 \n BECMG 0104/0105 34007KT \n BECMG 0110/0111 BKN030 \n BECMG 0115/0116 36015G25KT SCT030 \n BECMG 0121/0122 35010KT"
"taf	RKSI	2020-12-31 21:51:00	TAF \n AMD TAF \n AMD RKSI 312050Z 3121/0124 07006KT 9999 SCT030 TNM09/3122Z TX00/0105Z TNM08/0122Z \n TEMPO 3121/3122 -SN BKN030 \n BECMG 0104/0105 34007KT \n BECMG 0110/0111 BKN030 \n BECMG 0115/0116 36015G25KT SCT030 \n BECMG 0121/0122 35010KT"
"taf	RKSI	2021-01-01 00:00:00	TAF RKSI 012300Z 0200/0306 33007KT CAVOK TXM02/0206Z TNM09/0222Z TXM02/0305Z \n BECMG 0207/0208 34015G25KT \n BECMG 0213/0214 09007KT 9999 SCT030 \n BECMG 0301/0302 32007KT"
"taf	RKSI	2021-01-01 00:06:00	TAF RKSI 012300Z 0200/0306 33007KT CAVOK TXM02/0206Z TNM09/0222Z TXM02/0305Z \n BECMG 0207/0208 34015G25KT \n BECMG 0213/0214 09007KT 9999 SCT030 \n BECMG 0301/0302 32007KT"
"taf	RKSI	2021-01-01 01:47:00	TAF \n AMD RKSI 010047Z 0101/0206 17007KT 4000 -SN SCT015 BKN025 TX00/0105Z TNM08/0122Z TXM02/0205Z \n BECMG 0102/0103 6000 NSW SCT030 \n BECMG 0104/0105 33007KT \n BECMG 0110/0111 BKN030 \n BECMG 0116/0117 35015G25KT SCT030 \n BECMG 0120/0121 33012KT"
"taf	RKSI	2021-01-01 01:51:00	TAF \n AMD TAF \n AMD RKSI 010047Z 0101/0206 17007KT 4000 -SN SCT015 BKN025 TX00/0105Z TNM08/0122Z TXM02/0205Z \n BECMG 0102/0103 6000 NSW SCT030 \n BECMG 0104/0105 33007KT \n BECMG 0110/0111 BKN030 \n BECMG 0116/0117 35015G25KT SCT030 \n BECMG 0120/0121 33012KT"
"taf	RKSI	2021-01-01 06:00:00	TAF RKSI 010500Z 0106/0212 36006KT 9999 SCT030 TNM08/0122Z TXM02/0206Z \n BECMG 0108/0109 07005KT BKN030 \n BECMG 0112/0113 36010KT \n BECMG 0117/0118 35015G25KT SCT030 \n BECMG 0121/0122 33012KT CAVOK \n BECMG 0208/0209 34015G25KT"
"taf	RKSI	2021-01-01 06:06:00	TAF RKSI 010500Z 0106/0212 36006KT 9999 SCT030 TNM08/0122Z TXM02/0206Z \n BECMG 0108/0109 07005KT BKN030 \n BECMG 0112/0113 36010KT \n BECMG 0117/0118 35015G25KT SCT030 \n BECMG 0121/0122 33012KT CAVOK \n BECMG 0208/0209 34015G25KT"
"taf	RKSI	2021-01-01 12:00:00	TAF RKSI 011100Z 0112/0218 35010KT 9999 BKN040 TNM08/0123Z TXM02/0206Z \n TEMPO 0112/0113 -SN \n BECMG 0117/0118 35015G25KT SCT040 \n BECMG 0121/0122 33012KT CAVOK \n BECMG 0208/0209 34015G25KT \n BECMG 0216/0217 34012KT 9999 SCT030"
"taf	RKSI	2021-01-01 12:06:00	TAF RKSI 011100Z 0112/0218 35010KT 9999 BKN040 TNM08/0123Z TXM02/0206Z \n TEMPO 0112/0113 -SN \n BECMG 0117/0118 35015G25KT SCT040 \n BECMG 0121/0122 33012KT CAVOK \n BECMG 0208/0209 34015G25KT \n BECMG 0216/0217 34012KT 9999 SCT030"
"taf	RKSI	2021-01-01 18:00:00	TAF RKSI 011700Z 0118/0224 33010KT CAVOK TNM08/0123Z TXM02/0206Z TNM09/0222Z \n BECMG 0207/0208 34015G25KT \n BECMG 0216/0217 34007KT 9999 SCT030"
"taf	RKSI	2021-01-01 18:06:00	TAF RKSI 011700Z 0118/0224 33010KT CAVOK TNM08/0123Z TXM02/0206Z TNM09/0222Z \n BECMG 0207/0208 34015G25KT \n BECMG 0216/0217 34007KT 9999 SCT030"
"taf	RKSI	2021-01-02 00:00:00	TAF RKSI 022300Z 0300/0406 34007KT 9999 SCT030 TXM02/0306Z TNM07/0322Z TX00/0405Z \n BECMG 0311/0312 10005KT \n BECMG 0403/0404 BKN030 BKN100"
"taf	RKSI	2021-01-02 00:06:00	TAF RKSI 022300Z 0300/0406 34007KT 9999 SCT030 TXM02/0306Z TNM07/0322Z TX00/0405Z \n BECMG 0311/0312 10005KT \n BECMG 0403/0404 BKN030 BKN100"
"taf	RKSI	2021-01-02 06:00:00	TAF RKSI 020500Z 0206/0312 32015G25KT CAVOK TNM08/0222Z TXM02/0306Z \n BECMG 0213/0214 34007KT \n BECMG 0218/0219 07006KT 9999 SCT030 BKN160 \n BECMG 0300/0301 32010KT \n TEMPO 0305/0307 32015G25KT"
"taf	RKSI	2021-01-02 06:06:00	TAF RKSI 020500Z 0206/0312 32015G25KT CAVOK TNM08/0222Z TXM02/0306Z \n BECMG 0213/0214 34007KT \n BECMG 0218/0219 07006KT 9999 SCT030 BKN160 \n BECMG 0300/0301 32010KT \n TEMPO 0305/0307 32015G25KT"
"taf	RKSI	2021-01-02 12:00:00	TAF RKSI 021100Z 0212/0318 33008KT CAVOK TNM08/0222Z TXM02/0306Z \n BECMG 0218/0219 07006KT 9999 SCT030 BKN160 \n BECMG 0300/0301 32010KT \n TEMPO 0305/0306 32015G25KT \n BECMG 0312/0313 06005KT"
"taf	RKSI	2021-01-02 12:06:00	TAF RKSI 021100Z 0212/0318 33008KT CAVOK TNM08/0222Z TXM02/0306Z \n BECMG 0218/0219 07006KT 9999 SCT030 BKN160 \n BECMG 0300/0301 32010KT \n TEMPO 0305/0306 32015G25KT \n BECMG 0312/0313 06005KT"
"taf	RKSI	2021-01-02 18:00:00	TAF RKSI 021700Z 0218/0324 34007KT 9999 SCT030 TNM08/0222Z TXM02/0306Z TNM07/0322Z \n BECMG 0315/0316 07005KT"
"taf	RKSI	2021-01-02 18:06:00	TAF RKSI 021700Z 0218/0324 34007KT 9999 SCT030 TNM08/0222Z TXM02/0306Z TNM07/0322Z \n BECMG 0315/0316 07005KT"
